Origin Time       2016/04/16 01:25:00
Lat.              32.753
Long.             130.762
Depth. (km)       12
Mag.              7.3
Station Code      OKY007
Station Lat.      34.7807
Station Long.     133.6121
Station Height(m) 60
Record Time       2016/04/16 01:26:48
Sampling Freq(Hz) 100Hz
Duration Time(s)  62
Dir.              N-S
Scale Factor      7845(gal)/8223790
Max. Acc. (gal)   2.988
Last Correction   2016/04/16 01:26:48
Memo.             
[...]
   -1861    -1867    -1884    -1919    -1930    -1911    -1900    -1857 
   -1750    -1684    -1634    -1530    -1464    -1451    -1428    -1410 
   -1409    -1425    -1439    -1408    -1367    -1337    -1306    -1264 
   -1250    -1300    -1337    -1354    -1428    -1476    -1440    -1435 
   -1455    -1421    -1382    -1370    -1409    -1528    -1622    -1609 
   -1599    -1660    -1680    -1634    -1625    -1621    -1601    -1582 
   -1534    -1513    -1478    -1399    -1408    -1479    -1494    -1499 
   -1582    -1663    -1644    -1622    -1642    -1618    -1580    -1583 
   -1610    -1624    -1605    -1629    -1680    -1668    -1688    -1773 
   -1802    -1795    -1831    -1852    -1829    -1798    -1738    -1701 
   -1722    -1713    -1688    -1761    -1842    -1818    -1784    -1804 
   -1772    -1648    -1559    -1518    -1485    -1507    -1528    -1509 
   -1561    -1637    -1628    -1624    -1668    -1651    -1561    -1480 
   -1416    -1362    -1347    -1362    -1366    -1416    -1553    -1663 
   -1699    -1755    -1817    -1850    -1848    -1777    -1719    -1674 
   -1574    -1528    -1526    -1459    -1431    -1528    -1622    -1603 
   -1618    -1717    -1715    -1649    -1669    -1701    -1671    -1667 
   -1711    -1753    -1818    -1872    -1857    -1852    -1863    -1783 
   -1701    -1702    -1679    -1647    -1680    -1723    -1781    -1845 
   -1880    -1918    -1915    -1869    -1842    -1826    -1810    -1786 
   -1781    -1818    -1813    -1794    -1854    -1883    -1823    -1804 
   -1799    -1715    -1632    -1595    -1556    -1528    -1534    -1535 
   -1517    -1513    -1506    -1479    -1489    -1495    -1425    -1404 
   -1449    -1405    -1347    -1425    -1570    -1651    -1703    -1822 
   -1907    -1871    -1838    -1846    -1814    -1772    -1787    -1790 
   -1734    -1726    -1759    -1717    -1658    -1621    -1566    -1489 
   -1375    -1305    -1300    -1230    -1148    -1189    -1275    -1336 
   -1398    -1460    -1517    -1553    -1543    -1507    -1483    -1463 
   -1405    -1358    -1435    -1544    -1534    -1532    -1603    -1587 
   -1521    -1497    -1435    -1386    -1395    -1413    -1466    -1517 
   -1560    -1663    -1687    -1630    -1657    -1642    -1530    -1487 
   -1489    -1462    -1441    -1471    -1528    -1545    -1547    -1582 
   -1590    -1572    -1598    -1632    -1614    -1613    -1679    -1729 
   -1722    -1692    -1657    -1632    -1605    -1578    -1553    -1524 
   -1530    -1517    -1491    -1548    -1548    -1452    -1436    -1483 
   -1490    -1455    -1424    -1431    -1418    -1334    -1289    -1323 
   -1325    -1308    -1327    -1301    -1263    -1300    -1289    -1270 
   -1340    -1354    -1354    -1444    -1490    -1489    -1490    -1487 
   -1559    -1621    -1609    -1651    -1726    -1752    -1771    -1807 
   -1852    -1880    -1867    -1844    -1830    -1838    -1852    -1833 
   -1819    -1804    -1714    -1624    -1647    -1626    -1518    -1576 
   -1718    -1733    -1826    -1989    -1973    -1923    -1968    -1927 
   -1810    -1759    -1717    -1663    -1701    -1786    -1854    -1949 
   -2073    -2154    -2169    -2204    -2299    -2344    -2311    -2327 
   -2386    -2388    -2407    -2488    -2543    -2605    -2717    -2806 
   -2844    -2829    -2789    -2745    -2648    -2517    -2409    -2319 
   -2276    -2246    -2146    -2041    -1989    -1898    -1802    -1765 
   -1705    -1684    -1761    -1809    -1799    -1788    -1787    -1764 
   -1669    -1594    -1599    -1613    -1614    -1630    -1660    -1679 
   -1671    -1677    -1710    -1721    -1722    -1777    -1859    -1890 
   -1888    -1902    -1902    -1876    -1891    -1944    -1975    -2043 
   -2157    -2205    -2200    -2234    -2265    -2241    -2214    -2180 
   -2189    -2311    -2392    -2370    -2430    -2525    -2481    -2397 
   -2343    -2255    -2143    -2011    -1948    -1989    -1993    -1984 
   -2047    -2126    -2203    -2254    -2292    -2309    -2259    -2222 
   -2204    -2128    -2076    -2084    -2098    -2098    -2116    -2188 
   -2257    -2290    -2315    -2299    -2269    -2255    -2207    -2138 
   -2096    -2066    -2076    -2119    -2130    -2120    -2142    -2181 
   -2177    -2158    -2212    -2284    -2224    -2114    -2088    -2006 
   -1795    -1680    -1672    -1568    -1482    -1572    -1687    -1734 
   -1784    -1861    -1965    -2012    -1964    -1929    -1856    -1660 
   -1495    -1414    -1301    -1221    -1248    -1289    -1337    -1429 
   -1483    -1485    -1517    -1533    -1491    -1471    -1448    -1378 
   -1366    -1381    -1273    -1152    -1143    -1098     -984     -939 
    -916     -838     -808     -810     -728     -619     -544     -475 
    -373     -263     -191     -126      -52      -25      -29       -9 
     -17      -62      -10       97       89       63      156      218 
     205      229      217      149      116       45      -95     -209 
    -241     -228     -194     -112      -13       44       93      109 
      29      -47      -68      -98     -152     -189     -186     -186 
    -182     -162     -184     -229     -225     -236     -317     -410 
    -502     -594     -623     -623     -658     -639     -564     -576 
    -619     -576     -564     -630     -675     -711     -774     -837 
    -885     -888     -851     -826     -788     -672     -532     -503 
    -542     -522     -519     -629     -737     -777     -797     -847 
    -899     -895     -889     -899     -893     -936     -985     -961 
    -949     -992    -1013    -1016    -1036    -1053    -1062    -1094 
   -1124    -1084    -1050    -1142    -1256    -1278    -1304    -1341 
   -1328    -1341    -1332    -1202    -1096    -1088    -1053    -1011 
   -1047    -1107    -1193    -1328    -1448    -1549    -1671    -1792 
   -1846    -1836    -1852    -1910    -1949    -1954    -1903    -1892 
   -1979    -1984    -1954    -2100    -2253    -2263    -2315    -2461 
   -2563    -2574    -2569    -2596    -2592    -2538    -2500    -2482 
   -2461    -2423    -2384    -2359    -2328    -2273    -2189    -2107 
   -2043    -1972    -1927    -1979    -2106    -2205    -2255    -2361 
   -2497    -2555    -2614    -2732    -2853    -3005    -3183    -3369 
   -3561    -3717    -3877    -4050    -4182    -4271    -4342    -4418 
   -4484    -4482    -4445    -4448    -4464    -4441    -4421    -4488 
   -4587    -4611    -4629    -4684    -4660    -4576    -4504    -4414 
   -4302    -4197    -4125    -4086    -4021    -3963    -3965    -3954 
   -3919    -3902    -3861    -3807    -3735    -3628    -3541    -3424 
   -3271    -3157    -3060    -2970    -2884    -2802    -2832    -2876 
   -2805    -2792    -2863    -2841    -2814    -2843    -2844    -2863 
   -2964    -3090    -3175    -3257    -3396    -3492    -3476    -3446 
   -3434    -3391    -3353    -3355    -3377    -3391    -3366    -3321 
   -3315    -3338    -3326    -3272    -3250    -3262    -3231    -3208 
   -3221    -3172    -3106    -3107    -3090    -3030    -2997    -2960 
   -2894    -2822    -2743    -2681    -2669    -2687    -2658    -2612 
   -2636    -2687    -2721    -2767    -2791    -2771    -2758    -2710 
   -2577    -2451    -2349    -2189    -2045    -1962    -1854    -1752 
   -1686    -1593    -1514    -1475    -1431    -1401    -1363    -1312 
   -1293    -1267    -1202    -1139    -1096    -1053    -1000     -961 
    -915     -853     -823     -789     -696     -596     -531     -508 
    -498     -453     -457     -525     -550     -550     -594     -652 
    -692     -718     -741     -772     -769     -724     -730     -778 
    -769     -757     -812     -843     -789     -706     -614     -499 
    -363     -249     -193     -159     -112      -76      -29       91 
     234      319      471      719      880      922      943      931 
     810      587      344      125      -65     -240     -395     -499 
    -556     -581     -622     -730     -880    -1044    -1243    -1471 
   -1688    -1856    -1956    -1993    -1964    -1863    -1753    -1660 
   -1571    -1528    -1540    -1601    -1671    -1699    -1711    -1676 
   -1551    -1401    -1200     -935     -697     -510     -391     -351 
    -405     -584     -791    -1003    -1237    -1358    -1332    -1297 
   -1251    -1100     -938     -886     -881     -942    -1128    -1285 
   -1385    -1563    -1742    -1795    -1798    -1865    -1898    -1829 
   -1833    -1885    -1857    -1857    -1904    -1944    -1960    -1961 
   -1996    -1987    -1852    -1672    -1520    -1405    -1286    -1148 
   -1093    -1125    -1154    -1201    -1264    -1312    -1372    -1431 
   -1451    -1452    -1464    -1494    -1535    -1554    -1534    -1518 
   -1561    -1615    -1610    -1598    -1644    -1707    -1742    -1771 
   -1818    -1857    -1881    -1926    -1989    -2025    -2033    -2088 
   -2114    -2020    -1966    -2001    -1966    -1898    -1918    -1949 
   -1904    -1850    -1837    -1777    -1669    -1614    -1580    -1483 
   -1404    -1410    -1393    -1302    -1230    -1170    -1143    -1181 
   -1175    -1154    -1212    -1258    -1227    -1212    -1248    -1290 
   -1324    -1329    -1327    -1323    -1263    -1212    -1202    -1162 
   -1150    -1196    -1263    -1371    -1486    -1583    -1690    -1813 
   -1935    -2025    -2087    -2138    -2161    -2199    -2299    -2404 
   -2485    -2593    -2713    -2803    -2905    -3003    -3009    -2976 
   -3011    -3032    -2974    -2924    -2910    -2889    -2868    -2872 
   -2874    -2870    -2859    -2849    -2824    -2745    -2646    -2544 
   -2425    -2328    -2324    -2407    -2465    -2575    -2852    -3087 
   -3208    -3391    -3555    -3572    -3549    -3549    -3532    -3526 
   -3527    -3546    -3650    -3769    -3823    -3880    -3954    -3979 
   -3950    -3871    -3765    -3682    -3613    -3539    -3511    -3539 
   -3601    -3672    -3704    -3719    -3732    -3716    -3677    -3630 
   -3526    -3387    -3287    -3179    -3024    -2884    -2787    -2733 
   -2729    -2710    -2658    -2666    -2712    -2675    -2587    -2517 
   -2446    -2353    -2259    -2180    -2087    -2008    -1995    -1977 
   -1956    -1979    -1998    -2045    -2118    -2134    -2170    -2263 
   -2307    -2295    -2343    -2440    -2469    -2500    -2602    -2643 
   -2632    -2687    -2709    -2664    -2678    -2737    -2758    -2759 
   -2770    -2778    -2740    -2654    -2587    -2527    -2430    -2374 
   -2392    -2390    -2357    -2335    -2303    -2257    -2203    -2100 
   -1996    -1930    -1790    -1595    -1474    -1340    -1125     -980 
    -889     -730     -595     -529     -457     -425     -383     -279 
    -237     -216     -112      -10       51      131      175      118 
     105      157       99       20       31       -1      -41      -13 
     -37     -106      -99      -87     -153     -280     -442     -606 
    -734     -843     -961     -990     -901     -841     -791     -685 
    -626     -589     -542     -540     -522     -477     -487     -517 
    -544     -591     -646     -679     -661     -657     -677     -625 
    -571     -610     -615     -602     -702     -780     -773     -831 
    -896     -916     -993    -1124    -1293    -1513    -1738    -1938 
   -2130    -2296    -2427    -2536    -2587    -2602    -2636    -2643 
   -2608    -2567    -2482    -2354    -2241    -2146    -2049    -1948 
   -1863    -1799    -1752    -1729    -1733    -1755    -1813    -1902 
   -1999    -2092    -2182    -2297    -2420    -2509    -2575    -2646 
   -2685    -2678    -2655    -2633    -2644    -2678    -2693    -2712 
   -2748    -2791    -2843    -2895    -2944    -3009    -3065    -3063 
   -3018    -2932    -2802    -2716    -2674    -2644    -2690    -2802 
   -2932    -3078    -3172    -3164    -3100    -3007    -2876    -2687 
   -2478    -2343    -2259    -2118    -2015    -1965    -1773    -1560 
   -1491    -1379    -1206    -1174    -1205    -1170    -1156    -1201 
   -1235    -1232    -1213    -1193    -1166    -1135    -1120    -1075 
    -994     -978    -1013    -1005    -1021    -1150    -1316    -1439 
   -1522    -1594    -1665    -1717    -1702    -1649    -1624    -1628 
   -1651    -1682    -1701    -1713    -1690    -1615    -1553    -1495 
   -1393    -1298    -1248    -1209    -1178    -1178    -1198    -1228 
   -1266    -1290    -1333    -1389    -1382    -1381    -1414    -1344 
   -1232    -1210    -1163    -1028     -919     -832     -723     -615 
    -535     -517     -508     -472     -488     -562     -616     -656 
    -715     -781     -808     -785     -757     -697     -568     -438 
    -342     -233     -122      -27       47       58       18       13 
      35       23      -47     -125     -136     -180     -298     -351 
    -369     -451     -464     -396     -414     -422     -344     -351 
    -394     -369     -403     -486     -510     -544     -600     -591 
    -544     -553     -579     -561     -515     -468     -472     -491 
    -423     -348     -348     -352     -305     -212     -157     -136 
     -56       23       60      109      148      148      128      114 
     155      222      261      301      383      457      468      464 
     506      557      591      629      685      738      766      776 
     773      734      672      691      772      805      823      869 
     935      980      972      980     1036     1112     1170     1205 
    1277     1368     1394     1375     1363     1359     1355     1377 
    1444     1480     1470     1493     1505     1493     1513     1516 
    1478     1402     1285     1167     1055      931      815      726 
     669      625      545      434      346      237       51     -117 
    -244     -386     -542     -712     -884    -1065    -1228    -1312 
   -1401    -1514    -1534    -1498    -1486    -1472    -1422    -1374 
   -1389    -1394    -1323    -1291    -1274    -1139    -1008     -942 
    -801     -650     -583     -531     -479     -423     -379     -378 
    -337     -252     -209     -136      -35        9       49       74 
      58       62       45       -5      -21      -27      -47      -72 
    -116     -137     -133     -182     -234     -206     -184     -194 
    -141      -58       37      162      252      325      432      545 
     657      764      846      905      943      939      877      791 
     715      657      595      529      496      500      467      402 
     353      266      163       81      -10      -89     -102     -108 
    -157     -211     -263     -357     -479     -616     -777     -892 
    -907     -877     -841     -776     -695     -634     -634     -676 
    -720     -811     -920     -967     -974     -980     -950     -864 
    -795     -761     -730     -718     -708     -719     -805     -907 
    -994    -1088    -1147    -1156    -1116    -1020     -903     -795 
    -715     -687     -731     -854     -978    -1071    -1177    -1237 
   -1216    -1156    -1081     -980     -874     -841     -858     -853 
    -882     -999    -1117    -1158    -1143    -1131    -1062     -900 
    -791     -749     -660     -603     -669     -754     -766     -739 
    -715     -676     -566     -436     -361     -302     -214     -136 
    -116     -143     -151     -180     -306     -398     -387     -386 
    -370     -241      -86      -27       -1       21      -41     -157 
    -280     -430     -540     -626     -747     -846     -934    -1030 
   -1111    -1221    -1386    -1568    -1717    -1852    -2034    -2209 
   -2319    -2403    -2471    -2535    -2562    -2521    -2482    -2463 
   -2382    -2276    -2196    -2104    -2045    -1988    -1878    -1798 
   -1719    -1611    -1530    -1404    -1282    -1259    -1174    -1038 
    -976     -888     -751     -685     -723     -803     -864     -997 
   -1185    -1244    -1250    -1368    -1480    -1509    -1603    -1806 
   -1998    -2169    -2390    -2601    -2712    -2763    -2821    -2872 
   -2905    -2960    -3052    -3168    -3277    -3373    -3481    -3549 
   -3546    -3555    -3597    -3627    -3636    -3657    -3716    -3773 
   -3796    -3831    -3912    -3983    -3991    -3977    -3948    -3828 
   -3653    -3503    -3376    -3267    -3186    -3167    -3218    -3271 
   -3310    -3362    -3364    -3307    -3248    -3171    -3107    -3045 
   -2940    -2882    -2884    -2857    -2860    -2940    -2994    -2964 
   -2921    -2889    -2803    -2663    -2531    -2454    -2458    -2501 
   -2544    -2629    -2725    -2772    -2775    -2709    -2592    -2482 
   -2340    -2188    -2098    -2018    -1965    -1981    -2001    -2027 
   -2045    -2033    -2027    -1999    -1937    -1896    -1857    -1796 
   -1784    -1849    -1903    -1937    -2031    -2130    -2181    -2231 
   -2262    -2269    -2263    -2209    -2151    -2141    -2181    -2276 
   -2388    -2492    -2601    -2713    -2779    -2776    -2755    -2705 
   -2565    -2398    -2282    -2170    -2073    -2062    -2133    -2272 
   -2434    -2546    -2627    -2702    -2721    -2650    -2551    -2473 
   -2393    -2347    -2370    -2447    -2562    -2701    -2841    -2983 
   -3149    -3277    -3350    -3423    -3459    -3473    -3541    -3634 
   -3731    -3851    -3989    -4125    -4251    -4341    -4348    -4251 
   -4135    -4012    -3807    -3601    -3476    -3391    -3369    -3439 
   -3535    -3622    -3747    -3834    -3751    -3603    -3500    -3334 
   -3103    -2986    -2967    -2936    -2949    -3024    -3090    -3137 
   -3179    -3173    -3129    -3134    -3169    -3167    -3190    -3253 
   -3325    -3446    -3562    -3618    -3674    -3719    -3705    -3663 
   -3612    -3563    -3504    -3422    -3354    -3312    -3292    -3299 
   -3306    -3298    -3262    -3191    -3114    -3037    -2920    -2771 
   -2687    -2641    -2539    -2508    -2577    -2551    -2501    -2574 
   -2606    -2551    -2589    -2667    -2660    -2648    -2656    -2663 
   -2708    -2737    -2720    -2732    -2766    -2755    -2728    -2737 
   -2755    -2776    -2828    -2852    -2856    -2930    -3032    -3080 
   -3094    -3099    -3107    -3082    -2976    -2884    -2851    -2802 
   -2756    -2776    -2857    -2957    -3048    -3152    -3269    -3334 
   -3361    -3411    -3411    -3315    -3232    -3188    -3079    -2948 
   -2876    -2822    -2817    -2876    -2909    -2953    -3048    -3105 
   -3121    -3160    -3198    -3180    -3152    -3134    -3086    -3037 
   -3022    -2986    -2971    -2995    -2995    -2991    -3015    -3030 
   -3029    -3040    -3079    -3115    -3082    -3033    -3051    -3033 
   -2957    -2918    -2921    -2928    -2932    -2925    -2918    -2949 
   -3005    -3034    -3083    -3202    -3330    -3447    -3604    -3728 
   -3763    -3781    -3781    -3757    -3747    -3750    -3761    -3798 
   -3848    -3877    -3901    -3951    -3996    -3996    -3978    -3964 
   -3905    -3796    -3678    -3543    -3422    -3330    -3234    -3161 
   -3114    -3095    -3133    -3148    -3106    -3086    -3064    -2972 
   -2859    -2789    -2744    -2714    -2686    -2631    -2601    -2600 
   -2574    -2555    -2525    -2475    -2501    -2573    -2584    -2571 
   -2594    -2643    -2674    -2677    -2673    -2679    -2669    -2627 
   -2562    -2484    -2405    -2334    -2282    -2242    -2182    -2157 
   -2218    -2269    -2272    -2308    -2358    -2357    -2312    -2228 
