Origin Time       2016/04/16 01:25:00
Lat.              32.753
Long.             130.762
Depth. (km)       12
Mag.              7.3
Station Code      OKY015
Station Lat.      35.2793
Station Long.     133.9256
Station Height(m) 475
Record Time       2016/04/16 01:26:23
Sampling Freq(Hz) 100Hz
Duration Time(s)  103
Dir.              N-S
Scale Factor      7845(gal)/8223790
Max. Acc. (gal)   2.577
Last Correction   2016/04/16 01:26:23
Memo.             
[...]
   -2586    -2608    -2623    -2639    -2666    -2678    -2655    -2604 
   -2533    -2473    -2463    -2494    -2524    -2575    -2660    -2718 
   -2702    -2640    -2587    -2589    -2624    -2625    -2605    -2592 
   -2567    -2529    -2494    -2484    -2525    -2592    -2631    -2651 
   -2651    -2623    -2594    -2583    -2589    -2614    -2656    -2690 
   -2698    -2673    -2627    -2589    -2590    -2631    -2677    -2681 
   -2610    -2489    -2381    -2311    -2273    -2286    -2335    -2378 
   -2409    -2405    -2357    -2353    -2424    -2492    -2524    -2548 
   -2555    -2546    -2536    -2519    -2489    -2485    -2523    -2546 
   -2529    -2497    -2444    -2362    -2305    -2322    -2386    -2454 
   -2482    -2444    -2342    -2239    -2228    -2301    -2369    -2401 
   -2377    -2274    -2178    -2151    -2146    -2165    -2230    -2258 
   -2200    -2119    -2058    -2026    -2058    -2142    -2239    -2362 
   -2488    -2577    -2652    -2721    -2763    -2795    -2808    -2764 
   -2709    -2674    -2636    -2606    -2571    -2505    -2454    -2440 
   -2419    -2419    -2477    -2528    -2563    -2620    -2656    -2683 
   -2721    -2718    -2686    -2666    -2620    -2575    -2578    -2569 
   -2556    -2583    -2586    -2559    -2560    -2565    -2567    -2581 
   -2565    -2524    -2489    -2450    -2417    -2413    -2411    -2421 
   -2469    -2506    -2523    -2579    -2648    -2668    -2677    -2679 
   -2647    -2617    -2613    -2586    -2528    -2465    -2386    -2293 
   -2232    -2196    -2130    -2025    -1917    -1833    -1810    -1836 
   -1854    -1876    -1934    -2014    -2141    -2316    -2461    -2589 
   -2748    -2891    -2984    -3055    -3061    -2986    -2899    -2829 
   -2759    -2675    -2552    -2423    -2365    -2344    -2308    -2299 
   -2309    -2301    -2326    -2396    -2459    -2533    -2625    -2686 
   -2732    -2814    -2929    -3056    -3133    -3094    -2999    -2943 
   -2893    -2809    -2706    -2546    -2354    -2227    -2154    -2081 
   -2053    -2064    -2037    -2034    -2106    -2212    -2340    -2447 
   -2477    -2519    -2631    -2732    -2798    -2833    -2792    -2718 
   -2694    -2704    -2693    -2643    -2542    -2409    -2317    -2293 
   -2290    -2280    -2285    -2297    -2326    -2411    -2511    -2592 
   -2677    -2744    -2811    -2911    -2970    -2970    -2959    -2893 
   -2789    -2732    -2668    -2577    -2554    -2582    -2589    -2590 
   -2563    -2509    -2529    -2593    -2606    -2623    -2663    -2659 
   -2633    -2617    -2589    -2594    -2598    -2500    -2380    -2330 
   -2307    -2331    -2380    -2309    -2173    -2110    -2097    -2130 
   -2250    -2317    -2245    -2151    -2079    -2015    -2043    -2111 
   -2087    -2034    -2030    -2008    -1993    -2066    -2209    -2351 
   -2403    -2336    -2282    -2335    -2457    -2593    -2664    -2609 
   -2513    -2467    -2454    -2461    -2486    -2442    -2284    -2100 
   -1975    -1933    -2001    -2150    -2261    -2274    -2232    -2199 
   -2235    -2365    -2515    -2602    -2590    -2498    -2389    -2347 
   -2404    -2473    -2461    -2398    -2328    -2272    -2315    -2431 
   -2492    -2490    -2481    -2474    -2497    -2570    -2656    -2712 
   -2745    -2798    -2882    -3017    -3190    -3294    -3281    -3204 
   -3099    -2998    -2903    -2787    -2693    -2658    -2609    -2492 
   -2346    -2238    -2209    -2261    -2358    -2452    -2500    -2478 
   -2420    -2376    -2357    -2390    -2493    -2597    -2636    -2643 
   -2652    -2659    -2644    -2610    -2559    -2492    -2413    -2327 
   -2231    -2161    -2101    -2011    -1965    -2026    -2092    -2088 
   -2062    -2041    -2038    -2130    -2296    -2417    -2469    -2478 
   -2457    -2479    -2593    -2694    -2691    -2635    -2606    -2616 
   -2582    -2446    -2285    -2193    -2135    -2091    -2092    -2115 
   -2095    -2026    -1952    -1917    -1960    -2087    -2276    -2471 
   -2569    -2539    -2500    -2548    -2667    -2818    -2951    -3009 
   -3001    -2986    -2974    -2940    -2920    -2932    -2907    -2794 
   -2625    -2485    -2417    -2400    -2428    -2519    -2614    -2658 
   -2660    -2629    -2593    -2605    -2664    -2724    -2766    -2787 
   -2744    -2586    -2377    -2274    -2315    -2363    -2344    -2269 
   -2128    -1960    -1852    -1817    -1804    -1819    -1859    -1892 
   -1938    -2023    -2104    -2168    -2228    -2280    -2328    -2377 
   -2411    -2430    -2442    -2435    -2423    -2423    -2390    -2295 
   -2187    -2093    -2026    -2043    -2142    -2201    -2204    -2238 
   -2309    -2393    -2461    -2469    -2486    -2590    -2701    -2762 
   -2774    -2679    -2493    -2350    -2297    -2312    -2355    -2313 
   -2176    -2095    -2110    -2157    -2219    -2257    -2243    -2230 
   -2295    -2466    -2662    -2747    -2693    -2584    -2513    -2500 
   -2467    -2385    -2303    -2261    -2249    -2215    -2142    -2077 
   -2061    -2070    -2084    -2139    -2219    -2232    -2193    -2196 
   -2253    -2338    -2388    -2336    -2285    -2288    -2231    -2135 
   -2098    -2049    -1942    -1848    -1779    -1761    -1845    -1954 
   -2001    -2045    -2176    -2389    -2621    -2794    -2879    -2941 
   -3014    -3075    -3159    -3231    -3156    -2997    -2915    -2896 
   -2902    -2905    -2781    -2539    -2319    -2162    -2114    -2199 
   -2241    -2133    -2012    -1938    -1899    -2014    -2254    -2378 
   -2377    -2386    -2386    -2398    -2466    -2494    -2496    -2569 
   -2617    -2559    -2498    -2479    -2465    -2463    -2474    -2511 
   -2601    -2643    -2577    -2527    -2550    -2596    -2678    -2797 
   -2913    -2998    -3019    -2986    -2960    -2948    -2925    -2925 
   -2953    -2924    -2781    -2578    -2376    -2203    -2141    -2191 
   -2230    -2204    -2130    -2007    -1930    -2007    -2177    -2338 
   -2450    -2461    -2377    -2300    -2330    -2448    -2606    -2743 
   -2789    -2755    -2732    -2740    -2781    -2855    -2895    -2871 
   -2844    -2836    -2853    -2917    -2998    -3100    -3256    -3404 
   -3491    -3539    -3569    -3582    -3612    -3649    -3624    -3518 
   -3387    -3264    -3169    -3125    -3078    -3006    -2964    -2975 
   -3025    -3090    -3106    -3052    -2994    -2986    -3029    -3123 
   -3232    -3289    -3284    -3267    -3287    -3349    -3381    -3355 
   -3311    -3262    -3221    -3223    -3258    -3276    -3284    -3315 
   -3343    -3361    -3407    -3496    -3584    -3620    -3601    -3591 
   -3601    -3566    -3491    -3422    -3342    -3253    -3198    -3177 
   -3173    -3204    -3269    -3306    -3273    -3217    -3190    -3194 
   -3198    -3215    -3271    -3352    -3412    -3424    -3411    -3423 
   -3464    -3500    -3543    -3580    -3581    -3570    -3554    -3511 
   -3484    -3491    -3489    -3480    -3478    -3440    -3358    -3284 
   -3219    -3161    -3154    -3149    -3090    -3003    -2890    -2755 
   -2677    -2668    -2691    -2772    -2876    -2915    -2917    -2951 
   -3018    -3105    -3196    -3258    -3275    -3260    -3188    -3059 
   -2947    -2879    -2817    -2763    -2710    -2631    -2559    -2519 
   -2486    -2490    -2548    -2596    -2613    -2606    -2533    -2438 
   -2415    -2440    -2450    -2436    -2365    -2211    -2041    -1902 
   -1792    -1733    -1713    -1655    -1541    -1431    -1341    -1266 
   -1250    -1298    -1351    -1391    -1425    -1422    -1401    -1399 
   -1398    -1395    -1426    -1455    -1435    -1404    -1366    -1317 
   -1298    -1301    -1300    -1339    -1439    -1559    -1680    -1806 
   -1927    -2050    -2181    -2293    -2377    -2461    -2532    -2554 
   -2539    -2493    -2434    -2408    -2407    -2393    -2377    -2340 
   -2267    -2212    -2188    -2168    -2178    -2196    -2154    -2110 
   -2111    -2097    -2068    -2061    -2031    -1971    -1925    -1865 
   -1776    -1699    -1618    -1499    -1387    -1317    -1259    -1216 
   -1179    -1104    -1026    -1024    -1078    -1144    -1220    -1256 
   -1270    -1359    -1517    -1672    -1821    -1941    -2034    -2169 
   -2312    -2382    -2436    -2506    -2538    -2559    -2594    -2573 
   -2524    -2502    -2455    -2389    -2385    -2412    -2430    -2489 
   -2594    -2691    -2808    -2938    -3033    -3127    -3244    -3303 
   -3308    -3304    -3267    -3215    -3164    -3071    -2953    -2835 
   -2669    -2470    -2301    -2153    -2011    -1911    -1822    -1718 
   -1669    -1692    -1717    -1753    -1838    -1917    -1965    -2034 
   -2107    -2144    -2187    -2201    -2170    -2162    -2138    -2031 
   -1926    -1861    -1795    -1759    -1763    -1736    -1703    -1737 
   -1767    -1764    -1829    -1946    -2025    -2089    -2146    -2180 
   -2236    -2293    -2322    -2365    -2376    -2316    -2269    -2212 
   -2102    -2034    -1975    -1822    -1667    -1560    -1451    -1405 
   -1420    -1375    -1308    -1297    -1286    -1278    -1348    -1436 
   -1494    -1566    -1610    -1606    -1661    -1771    -1826    -1859 
   -1881    -1846    -1841    -1906    -1887    -1777    -1698    -1665 
   -1718    -1876    -2004    -2047    -2065    -2061    -2083    -2200 
   -2336    -2428    -2525    -2598    -2604    -2664    -2862    -3090 
   -3262    -3399    -3501    -3597    -3744    -3923    -4086    -4220 
   -4293    -4279    -4253    -4278    -4345    -4410    -4384    -4236 
   -4062    -3929    -3808    -3707    -3570    -3284    -2929    -2668 
   -2515    -2475    -2548    -2587    -2535    -2461    -2385    -2376 
   -2546    -2803    -2998    -3123    -3173    -3173    -3230    -3335 
   -3414    -3469    -3492    -3472    -3487    -3541    -3549    -3526 
   -3515    -3501    -3511    -3541    -3535    -3547    -3615    -3645 
   -3642    -3692    -3747    -3804    -3906    -3970    -3960    -3969 
   -3982    -3951    -3936    -3973    -4005    -3991    -3935    -3823 
   -3674    -3547    -3439    -3353    -3306    -3242    -3138    -3025 
   -2887    -2727    -2606    -2533    -2475    -2451    -2477    -2498 
   -2475    -2458    -2492    -2583    -2717    -2860    -2990    -3118 
   -3231    -3323    -3411    -3472    -3469    -3423    -3368    -3334 
   -3339    -3331    -3261    -3221    -3287    -3361    -3333    -3215 
   -3106    -3090    -3114    -3111    -3134    -3154    -3078    -2976 
   -2890    -2751    -2660    -2713    -2772    -2759    -2728    -2666 
   -2593    -2567    -2583    -2660    -2801    -2944    -3103    -3291 
   -3453    -3622    -3823    -4000    -4159    -4315    -4391    -4380 
   -4382    -4410    -4422    -4438    -4456    -4441    -4414    -4384 
   -4324    -4283    -4299    -4293    -4248    -4200    -4097    -3929 
   -3774    -3636    -3515    -3442    -3360    -3188    -2992    -2863 
   -2797    -2802    -2882    -2986    -3090    -3188    -3250    -3287 
   -3333    -3391    -3473    -3573    -3643    -3677    -3673    -3591 
   -3458    -3341    -3234    -3113    -2971    -2790    -2573    -2365 
   -2170    -1948    -1711    -1517    -1345    -1181    -1055     -963 
    -895     -876     -888     -892     -897     -918     -931     -951 
   -1065    -1260    -1422    -1512    -1560    -1568    -1579    -1651 
   -1726    -1750    -1775    -1804    -1826    -1880    -1944    -1975 
   -1988    -2006    -2073    -2241    -2465    -2673    -2843    -2951 
   -2992    -3041    -3105    -3121    -3100    -3094    -3056    -2947 
   -2802    -2602    -2346    -2102    -1887    -1695    -1572    -1476 
   -1387    -1374    -1394    -1356    -1308    -1347    -1476    -1696 
   -1949    -2100    -2126    -2142    -2168    -2191    -2245    -2297 
   -2276    -2192    -2081    -1993    -1993    -2030    -1993    -1919 
   -1871    -1840    -1867    -1972    -2062    -2111    -2165    -2215 
   -2315    -2512    -2713    -2844    -2949    -3024    -3090    -3211 
   -3331    -3380    -3396    -3366    -3265    -3163    -3068    -2964 
   -2879    -2782    -2644    -2524    -2404    -2228    -2064    -1984 
   -1973    -2006    -2056    -2095    -2166    -2289    -2380    -2416 
   -2444    -2444    -2442    -2519    -2601    -2573    -2442    -2267 
   -2102    -2023    -1998    -1898    -1699    -1474    -1269    -1162 
   -1179    -1194    -1125    -1035     -951     -897     -938    -1026 
   -1094    -1182    -1259    -1263    -1269    -1320    -1370    -1431 
   -1518    -1563    -1541    -1494    -1463    -1463    -1499    -1559 
   -1618    -1660    -1691    -1742    -1846    -1977    -2081    -2126 
   -2126    -2107    -2098    -2119    -2130    -2096    -2061    -2046 
   -2020    -1989    -1973    -1937    -1883    -1876    -1934    -2011 
   -2076    -2118    -2135    -2149    -2191    -2273    -2354    -2417 
   -2474    -2502    -2493    -2457    -2378    -2285    -2212    -2143 
   -2064    -1984    -1903    -1826    -1787    -1800    -1833    -1872 
   -1923    -1975    -2019    -2083    -2178    -2276    -2373    -2490 
   -2598    -2671    -2748    -2826    -2863    -2859    -2824    -2754 
   -2664    -2571    -2461    -2344    -2241    -2138    -2037    -1952 
   -1858    -1760    -1674    -1587    -1513    -1464    -1410    -1343 
   -1279    -1209    -1154    -1135    -1112    -1096    -1097    -1073 
   -1039    -1012     -938     -842     -751     -639     -523     -430 
    -341     -261     -184     -103      -28       47      133      195 
     228      253      257      234      197      133       37      -59 
    -156     -268     -380     -498     -639     -784     -923    -1060 
   -1177    -1270    -1378    -1489    -1572    -1640    -1692    -1705 
   -1683    -1645    -1579    -1494    -1417    -1344    -1266    -1200 
   -1143    -1100    -1081    -1093    -1135    -1193    -1248    -1313 
   -1383    -1431    -1470    -1506    -1513    -1491    -1467    -1445 
   -1420    -1409    -1428    -1457    -1495    -1556    -1621    -1679 
   -1750    -1830    -1904    -1992    -2079    -2138    -2169    -2170 
   -2123    -2046    -1968    -1868    -1752    -1653    -1557    -1452 
   -1374    -1323    -1304    -1351    -1437    -1524    -1637    -1771 
   -1891    -2023    -2155    -2249    -2331    -2405    -2425    -2428 
   -2442    -2393    -2295    -2193    -2042    -1850    -1694    -1543 
   -1386    -1277    -1200    -1144    -1155    -1212    -1279    -1382 
   -1487    -1557    -1629    -1677    -1649    -1579    -1483    -1324 
   -1129     -939     -741     -549     -390     -259     -143      -67 
     -41      -51     -102     -194     -299     -421     -575     -734 
    -886    -1058    -1223    -1364    -1502    -1632    -1732    -1815 
   -1894    -1930    -1911    -1863    -1787    -1668    -1541    -1435 
   -1327    -1221    -1140    -1081    -1053    -1080    -1146    -1247 
   -1391    -1545    -1677    -1792    -1888    -1956    -2014    -2074 
   -2104    -2095    -2061    -1998    -1902    -1813    -1740    -1657 
   -1590    -1556    -1526    -1495    -1475    -1453    -1436    -1436 
   -1453    -1491    -1549    -1632    -1749    -1875    -2003    -2149 
   -2304    -2461    -2602    -2694    -2740    -2744    -2695    -2610 
   -2492    -2338    -2177    -2011    -1819    -1632    -1475    -1343 
   -1250    -1215    -1216    -1246    -1308    -1387    -1470    -1559 
   -1667    -1795    -1926    -2061    -2192    -2286    -2367    -2455 
   -2520    -2565    -2613    -2625    -2601    -2565    -2498    -2408 
   -2338    -2273    -2200    -2162    -2147    -2126    -2130    -2143 
   -2138    -2153    -2182    -2187    -2193    -2207    -2189    -2172 
   -2174    -2174    -2188    -2205    -2185    -2151    -2126    -2079 
   -2023    -1975    -1900    -1811    -1736    -1640    -1522    -1431 
   -1362    -1286    -1243    -1240    -1246    -1264    -1314    -1374 
   -1443    -1530    -1628    -1729    -1842    -1952    -2042    -2130 
   -2238    -2331    -2394    -2459    -2520    -2559    -2584    -2587 
   -2559    -2532    -2519    -2506    -2515    -2544    -2577    -2623 
   -2683    -2747    -2802    -2844    -2882    -2921    -2948    -2970 
   -2997    -3001    -2980    -2956    -2907    -2833    -2759    -2681 
   -2597    -2519    -2427    -2316    -2204    -2111    -2064    -2041 
   -2034    -2061    -2107    -2154    -2230    -2350    -2469    -2575 
   -2681    -2766    -2817    -2849    -2867    -2874    -2874    -2863 
   -2830    -2778    -2712    -2636    -2543    -2442    -2349    -2255 
   -2160    -2087    -2037    -2003    -1996    -2011    -2060    -2163 
   -2286    -2396    -2486    -2539    -2554    -2573    -2612    -2631 
   -2620    -2623    -2616    -2563    -2524    -2519    -2509    -2519 
   -2550    -2550    -2519    -2475    -2403    -2309    -2232    -2172 
   -2119    -2069    -2015    -1973    -1965    -2008    -2096    -2215 
   -2366    -2505    -2625    -2767    -2915    -3053    -3213    -3377 
   -3520    -3658    -3757    -3790    -3797    -3781    -3724    -3657 
   -3586    -3514    -3462    -3435    -3430    -3462    -3532    -3623 
   -3732    -3844    -3951    -4059    -4139    -4186    -4212    -4186 
   -4117    -4048    -3963    -3867    -3796    -3726    -3634    -3555 
   -3489    -3423    -3400    -3422    -3437    -3456    -3510    -3578 
   -3663    -3774    -3866    -3932    -4001    -4025    -3973    -3894 
   -3793    -3646    -3489    -3330    -3154    -2999    -2872    -2747 
   -2656    -2612    -2579    -2602    -2682    -2755    -2855    -2978 
   -3037    -3090    -3194    -3254    -3284    -3335    -3321    -3249 
   -3237    -3229    -3177    -3179    -3191    -3138    -3119    -3150 
   -3137    -3136    -3184    -3190    -3180    -3204    -3200    -3188 
   -3213    -3219    -3232    -3280    -3292    -3284    -3310    -3303 
   -3272    -3267    -3250    -3231    -3256    -3283    -3304    -3348 
   -3381    -3393    -3423    -3458    -3480    -3514    -3565    -3593 
   -3608    -3650    -3701    -3740    -3794    -3861    -3929    -4000 
   -4055    -4102    -4136    -4120    -4069    -4010    -3906    -3774 
   -3662    -3559    -3461    -3402    -3358    -3303    -3258    -3226 
   -3180    -3163    -3183    -3208    -3241    -3295    -3341    -3348 
   -3338    -3345    -3373    -3426    -3492    -3551    -3592    -3595 
   -3537    -3429    -3302    -3180    -3086    -3017    -2965    -2930 
   -2907    -2882    -2863    -2856    -2866    -2913    -2995    -3084 
   -3168    -3254    -3331    -3385    -3431    -3465    -3480    -3489 
   -3499    -3495    -3472    -3435    -3372    -3281    -3206    -3144 
   -3083    -3049    -3032    -3018    -3057    -3136    -3190    -3260 
   -3357    -3422    -3497    -3600    -3655    -3707    -3790    -3820 
   -3804    -3786    -3723    -3653    -3627    -3605    -3613    -3658 
   -3669    -3678    -3711    -3701    -3682    -3712    -3742    -3774 
   -3854    -3915    -3920    -3929    -3936    -3905    -3880    -3877 
   -3838    -3780    -3744    -3699    -3639    -3612    -3592    -3549 
   -3526    -3522    -3514    -3534    -3576    -3597    -3631    -3685 
   -3712    -3723    -3743    -3762    -3782    -3801    -3805    -3800 
   -3778    -3746    -3730    -3721    -3715    -3727    -3738    -3738 
   -3750    -3773    -3790    -3808    -3816    -3807    -3797    -3775 
