Origin Time       2016/04/16 01:25:00
Lat.              32.753
Long.             130.762
Depth. (km)       12
Mag.              7.3
Station Code      OKY001
Station Lat.      35.1945
Station Long.     133.7314
Station Height(m) 334
Record Time       2016/04/16 01:26:57
Sampling Freq(Hz) 100Hz
Duration Time(s)  65
Dir.              N-S
Scale Factor      7845(gal)/8223790
Max. Acc. (gal)   2.079
Last Correction   2016/04/16 01:26:59
Memo.             
[...]
   -4634    -4580    -4560    -4583    -4515    -4455    -4446    -4357 
   -4283    -4289    -4258    -4263    -4338    -4360    -4375    -4409 
   -4392    -4341    -4306    -4276    -4233    -4241    -4284    -4318 
   -4393    -4438    -4442    -4468    -4422    -4374    -4375    -4309 
   -4297    -4355    -4329    -4341    -4392    -4355    -4336    -4353 
   -4309    -4295    -4336    -4329    -4345    -4428    -4442    -4436 
   -4496    -4510    -4492    -4548    -4581    -4537    -4535    -4560 
   -4500    -4471    -4494    -4455    -4431    -4455    -4445    -4429 
   -4455    -4487    -4480    -4498    -4544    -4529    -4502    -4492 
   -4471    -4452    -4430    -4450    -4467    -4455    -4490    -4509 
   -4519    -4560    -4546    -4571    -4625    -4599    -4602    -4633 
   -4604    -4568    -4568    -4557    -4522    -4523    -4527    -4504 
   -4506    -4504    -4502    -4509    -4490    -4490    -4498    -4475 
   -4477    -4496    -4482    -4463    -4450    -4419    -4369    -4360 
   -4364    -4348    -4376    -4369    -4324    -4322    -4256    -4178 
   -4164    -4098    -4063    -4110    -4101    -4113    -4190    -4233 
   -4293    -4365    -4392    -4430    -4467    -4457    -4453    -4471 
   -4475    -4446    -4468    -4522    -4502    -4523    -4595    -4583 
   -4612    -4688    -4676    -4714    -4757    -4704    -4719    -4738 
   -4695    -4710    -4734    -4704    -4703    -4730    -4710    -4695 
   -4716    -4702    -4653    -4638    -4635    -4584    -4558    -4552 
   -4495    -4484    -4491    -4460    -4475    -4482    -4467    -4477 
   -4449    -4403    -4395    -4371    -4321    -4341    -4401    -4401 
   -4450    -4549    -4556    -4568    -4627    -4642    -4650    -4695 
   -4712    -4691    -4731    -4746    -4704    -4750    -4746    -4673 
   -4683    -4642    -4568    -4581    -4567    -4523    -4548    -4563 
   -4531    -4549    -4545    -4487    -4507    -4496    -4440    -4484 
   -4502    -4495    -4546    -4558    -4550    -4549    -4509    -4472 
   -4449    -4411    -4380    -4371    -4395    -4405    -4396    -4444 
   -4471    -4449    -4475    -4498    -4491    -4495    -4496    -4480 
   -4464    -4460    -4433    -4411    -4417    -4406    -4403    -4449 
   -4486    -4507    -4564    -4588    -4573    -4590    -4572    -4525 
   -4507    -4488    -4464    -4452    -4449    -4455    -4450    -4452 
   -4479    -4487    -4484    -4522    -4517    -4467    -4442    -4379 
   -4311    -4279    -4215    -4197    -4210    -4189    -4228    -4305 
   -4340    -4402    -4502    -4540    -4540    -4546    -4492    -4431 
   -4407    -4349    -4327    -4351    -4324    -4298    -4336    -4348 
   -4329    -4374    -4406    -4413    -4456    -4468    -4483    -4502 
   -4477    -4482    -4506    -4502    -4535    -4599    -4612    -4635 
   -4671    -4646    -4635    -4612    -4553    -4546    -4509    -4441 
   -4444    -4430    -4393    -4393    -4403    -4411    -4406    -4418 
   -4441    -4426    -4459    -4500    -4475    -4499    -4527    -4492 
   -4517    -4534    -4518    -4554    -4568    -4567    -4575    -4552 
   -4526    -4502    -4477    -4445    -4428    -4428    -4396    -4379 
   -4383    -4347    -4303    -4303    -4287    -4232    -4255    -4295 
   -4248    -4270    -4329    -4291    -4284    -4318    -4294    -4284 
   -4320    -4330    -4320    -4352    -4363    -4326    -4338    -4340 
   -4314    -4345    -4365    -4363    -4392    -4410    -4396    -4411 
   -4445    -4448    -4499    -4583    -4619    -4687    -4754    -4752 
   -4723    -4671    -4603    -4522    -4444    -4398    -4352    -4333 
   -4303    -4240    -4225    -4190    -4114    -4091    -4060    -4000 
   -3971    -3973    -3936    -3892    -3920    -3919    -3879    -3939 
   -3982    -3944    -3958    -3971    -3904    -3869    -3912    -3919 
   -3943    -4043    -4072    -4083    -4152    -4159    -4159    -4225 
   -4279    -4325    -4413    -4506    -4550    -4625    -4704    -4712 
   -4748    -4789    -4754    -4737    -4734    -4696    -4680    -4665 
   -4625    -4627    -4617    -4583    -4588    -4548    -4502    -4490 
   -4415    -4356    -4299    -4199    -4143    -4077    -4024    -4027 
   -3993    -3993    -4032    -4031    -4050    -4085    -4104    -4133 
   -4168    -4186    -4209    -4263    -4330    -4376    -4429    -4513 
   -4560    -4575    -4614    -4626    -4618    -4627    -4604    -4556 
   -4530    -4514    -4464    -4457    -4495    -4484    -4460    -4467 
   -4457    -4405    -4368    -4348    -4283    -4248    -4207    -4121 
   -4125    -4113    -4048    -4069    -4079    -4032    -4027    -4045 
   -4021    -3993    -4001    -3981    -3947    -3964    -3965    -3958 
   -4010    -4047    -4068    -4133    -4178    -4218    -4288    -4310 
   -4337    -4406    -4395    -4399    -4477    -4461    -4437    -4484 
   -4467    -4411    -4390    -4365    -4317    -4256    -4200    -4156 
   -4064    -3951    -3886    -3780    -3673    -3626    -3532    -3473 
   -3458    -3396    -3384    -3400    -3406    -3454    -3501    -3554 
   -3618    -3653    -3696    -3738    -3761    -3769    -3786    -3790 
   -3797    -3834    -3847    -3869    -3910    -3901    -3893    -3878 
   -3838    -3846    -3848    -3848    -3889    -3909    -3946    -4002 
   -4012    -4048    -4094    -4094    -4102    -4095    -4083    -4077 
   -4035    -4033    -4043    -4013    -4059    -4087    -4058    -4128 
   -4187    -4175    -4252    -4332    -4330    -4379    -4459    -4464 
   -4491    -4588    -4646    -4672    -4762    -4834    -4857    -4926 
   -4942    -4918    -4981    -4963    -4892    -4945    -4946    -4869 
   -4922    -4963    -4907    -4928    -4954    -4903    -4887    -4891 
   -4862    -4855    -4877    -4877    -4860    -4854    -4835    -4797 
   -4774    -4738    -4723    -4737    -4714    -4750    -4842    -4868 
   -4950    -5090    -5123    -5151    -5223    -5198    -5163    -5179 
   -5151    -5159    -5193    -5192    -5252    -5294    -5294    -5343 
   -5377    -5371    -5362    -5377    -5366    -5313    -5327    -5325 
   -5285    -5320    -5341    -5331    -5360    -5368    -5350    -5352 
   -5339    -5305    -5282    -5243    -5204    -5208    -5181    -5169 
   -5247    -5277    -5282    -5377    -5445    -5460    -5521    -5548 
   -5539    -5570    -5568    -5543    -5563    -5555    -5529    -5564 
   -5598    -5590    -5634    -5710    -5679    -5643    -5676    -5605 
   -5525    -5539    -5463    -5390    -5389    -5312    -5282    -5323 
   -5297    -5320    -5405    -5410    -5417    -5490    -5514    -5513 
   -5579    -5607    -5590    -5644    -5644    -5594    -5641    -5647 
   -5613    -5664    -5675    -5680    -5737    -5727    -5733    -5778 
   -5760    -5740    -5751    -5709    -5623    -5589    -5551    -5436 
   -5370    -5360    -5286    -5238    -5270    -5254    -5221    -5235 
   -5212    -5164    -5123    -5057    -4997    -4959    -4916    -4884 
   -4861    -4816    -4800    -4801    -4774    -4780    -4795    -4785 
   -4795    -4781    -4752    -4735    -4683    -4618    -4584    -4511 
   -4434    -4407    -4355    -4341    -4359    -4315    -4309    -4303 
   -4243    -4223    -4218    -4180    -4152    -4167    -4163    -4106 
   -4088    -4055    -3982    -3932    -3854    -3796    -3754    -3653 
   -3599    -3592    -3555    -3534    -3582    -3634    -3650    -3730 
   -3825    -3847    -3925    -4005    -3974    -3996    -4024    -3932 
   -3893    -3889    -3796    -3754    -3751    -3701    -3712    -3728 
   -3704    -3746    -3800    -3796    -3819    -3885    -3889    -3866 
   -3916    -3901    -3848    -3899    -3893    -3858    -3924    -3915 
   -3892    -3958    -3925    -3869    -3882    -3805    -3724    -3705 
   -3612    -3532    -3519    -3450    -3385    -3372    -3321    -3269 
   -3265    -3225    -3198    -3213    -3168    -3146    -3180    -3165 
   -3179    -3234    -3256    -3299    -3342    -3319    -3319    -3319 
   -3245    -3230    -3280    -3283    -3321    -3430    -3497    -3511 
   -3582    -3663    -3653    -3699    -3759    -3708    -3726    -3750 
   -3674    -3684    -3699    -3619    -3627    -3669    -3638    -3673 
   -3731    -3703    -3716    -3732    -3673    -3678    -3703    -3684 
   -3742    -3827    -3861    -3931    -4000    -4000    -4010    -4010 
   -3958    -3932    -3915    -3880    -3904    -3929    -3932    -3982 
   -4027    -4036    -4059    -4077    -4091    -4091    -4082    -4099 
   -4117    -4159    -4218    -4248    -4321    -4372    -4347    -4355 
   -4382    -4338    -4321    -4356    -4332    -4340    -4386    -4336 
   -4313    -4313    -4233    -4187    -4174    -4170    -4178    -4200 
   -4287    -4367    -4426    -4533    -4635    -4702    -4757    -4828 
   -4868    -4865    -4931    -4989    -4977    -5032    -5101    -5100 
   -5125    -5154    -5139    -5117    -5081    -5034    -4959    -4876 
   -4799    -4706    -4618    -4509    -4411    -4375    -4314    -4271 
   -4306    -4313    -4289    -4315    -4340    -4329    -4360    -4388 
   -4379    -4411    -4410    -4364    -4357    -4320    -4225    -4178 
   -4156    -4086    -4059    -4112    -4129    -4162    -4258    -4299 
   -4314    -4372    -4364    -4307    -4313    -4307    -4245    -4233 
   -4270    -4256    -4266    -4326    -4355    -4398    -4486    -4522 
   -4552    -4623    -4634    -4623    -4661    -4649    -4618    -4657 
   -4648    -4612    -4650    -4642    -4621    -4660    -4653    -4642 
   -4673    -4661    -4634    -4654    -4662    -4638    -4679    -4742 
   -4748    -4831    -4951    -4982    -5047    -5135    -5159    -5196 
   -5225    -5235    -5243    -5228    -5243    -5250    -5235    -5292 
   -5329    -5327    -5377    -5379    -5339    -5350    -5341    -5321 
   -5344    -5368    -5391    -5441    -5467    -5463    -5486    -5474 
   -5406    -5370    -5341    -5277    -5229    -5209    -5164    -5108 
   -5071    -5036    -5007    -4973    -4973    -5011    -5016    -5051 
   -5108    -5112    -5144    -5188    -5201    -5252    -5316    -5391 
   -5486    -5552    -5648    -5736    -5751    -5782    -5802    -5773 
   -5745    -5710    -5680    -5633    -5575    -5559    -5518    -5487 
   -5519    -5509    -5494    -5532    -5517    -5471    -5448    -5401 
   -5332    -5283    -5254    -5221    -5212    -5212    -5206    -5250 
   -5278    -5279    -5333    -5347    -5324    -5350    -5325    -5297 
   -5333    -5336    -5347    -5389    -5409    -5451    -5490    -5508 
   -5560    -5601    -5623    -5674    -5721    -5759    -5796    -5821 
   -5827    -5827    -5822    -5806    -5783    -5752    -5726    -5692 
   -5638    -5598    -5576    -5549    -5539    -5555    -5557    -5547 
   -5549    -5519    -5467    -5458    -5432    -5387    -5404    -5393 
   -5364    -5404    -5412    -5397    -5440    -5448    -5416    -5389 
   -5332    -5246    -5158    -5062    -4973    -4874    -4801    -4752 
   -4664    -4629    -4630    -4587    -4576    -4575    -4531    -4491 
   -4463    -4409    -4347    -4336    -4303    -4241    -4256    -4241 
   -4199    -4252    -4251    -4215    -4274    -4258    -4191    -4205 
   -4182    -4140    -4166    -4174    -4175    -4215    -4256    -4282 
   -4318    -4383    -4442    -4486    -4558    -4642    -4704    -4768 
   -4801    -4799    -4803    -4756    -4679    -4630    -4540    -4450 
   -4406    -4349    -4314    -4294    -4271    -4271    -4256    -4255 
   -4252    -4220    -4220    -4212    -4185    -4191    -4159    -4131 
   -4126    -4068    -4033    -4021    -3931    -3861    -3816    -3713 
   -3634    -3613    -3589    -3546    -3526    -3546    -3508    -3465 
   -3489    -3450    -3426    -3477    -3466    -3497    -3595    -3638 
   -3730    -3858    -3927    -4028    -4122    -4143    -4170    -4178 
   -4149    -4118    -4066    -4032    -4003    -3971    -3989    -4005 
   -4043    -4126    -4155    -4171    -4203    -4159    -4116    -4105 
   -4032    -4012    -4055    -4047    -4099    -4207    -4245    -4317 
   -4391    -4371    -4380    -4382    -4289    -4232    -4180    -4068 
   -3982    -3927    -3856    -3794    -3785    -3781    -3717    -3681 
   -3639    -3535    -3462    -3400    -3331    -3294    -3262    -3256 
   -3280    -3295    -3327    -3384    -3414    -3446    -3503    -3532 
   -3585    -3658    -3692    -3765    -3855    -3885    -3931    -3991 
   -3984    -3971    -4013    -4028    -4016    -4086    -4143    -4162 
   -4256    -4315    -4341    -4396    -4372    -4326    -4313    -4256 
   -4171    -4125    -4101    -4025    -3978    -3990    -3947    -3932 
   -3994    -3983    -3994    -4083    -4069    -4031    -4054    -4000 
   -3919    -3910    -3892    -3834    -3819    -3815    -3776    -3762 
   -3730    -3673    -3645    -3573    -3504    -3472    -3395    -3342 
   -3325    -3279    -3237    -3194    -3169    -3138    -3071    -3052 
   -3019    -2944    -2928    -2909    -2886    -2898    -2876    -2874 
   -2880    -2841    -2847    -2841    -2782    -2776    -2740    -2646 
   -2629    -2592    -2513    -2508    -2489    -2463    -2467    -2439 
   -2428    -2407    -2343    -2315    -2293    -2251    -2235    -2226 
   -2222    -2238    -2235    -2247    -2281    -2284    -2290    -2319 
   -2334    -2351    -2390    -2411    -2440    -2502    -2535    -2578 
   -2646    -2673    -2705    -2735    -2695    -2663    -2640    -2554 
   -2500    -2485    -2442    -2440    -2452    -2440    -2430    -2407 
   -2373    -2334    -2296    -2265    -2246    -2226    -2204    -2230 
   -2253    -2245    -2296    -2367    -2389    -2425    -2498    -2512 
   -2482    -2492    -2490    -2440    -2411    -2419    -2417    -2427 
   -2490    -2542    -2571    -2635    -2659    -2636    -2681    -2705 
   -2681    -2744    -2789    -2763    -2791    -2792    -2752    -2732 
   -2681    -2647    -2614    -2570    -2587    -2592    -2616    -2706 
   -2748    -2814    -2909    -2929    -2967    -3022    -3013    -3017 
   -3060    -3084    -3106    -3165    -3240    -3283    -3334    -3407 
   -3450    -3480    -3543    -3620    -3670    -3723    -3769    -3774 
   -3773    -3740    -3712    -3716    -3684    -3663    -3674    -3647 
   -3601    -3569    -3522    -3437    -3366    -3303    -3200    -3122 
   -3071    -2999    -2959    -2961    -2945    -2934    -2972    -3010 
   -3040    -3105    -3173    -3219    -3268    -3325    -3334    -3329 
   -3338    -3272    -3203    -3200    -3149    -3137    -3213    -3222 
   -3244    -3327    -3364    -3388    -3388    -3369    -3376    -3326 
   -3249    -3213    -3138    -3034    -2956    -2886    -2799    -2728 
   -2721    -2708    -2704    -2785    -2843    -2876    -2957    -3010 
   -3038    -3078    -3111    -3144    -3206    -3280    -3321    -3395 
   -3495    -3519    -3568    -3662    -3667    -3673    -3707    -3692 
   -3693    -3699    -3680    -3693    -3705    -3711    -3742    -3757 
   -3792    -3844    -3852    -3896    -3956    -3971    -4029    -4088 
   -4117    -4153    -4176    -4202    -4205    -4209    -4233    -4207 
   -4203    -4220    -4170    -4170    -4197    -4189    -4233    -4284 
   -4320    -4390    -4450    -4488    -4514    -4541    -4538    -4504 
   -4490    -4450    -4399    -4405    -4410    -4407    -4463    -4537 
   -4580    -4646    -4719    -4725    -4727    -4727    -4654    -4590 
   -4546    -4449    -4359    -4320    -4255    -4186    -4185    -4156 
   -4105    -4116    -4107    -4088    -4112    -4132    -4162    -4203 
   -4260    -4310    -4341    -4390    -4410    -4411    -4423    -4419 
   -4429    -4438    -4431    -4469    -4506    -4514    -4579    -4637 
   -4654    -4743    -4810    -4828    -4918    -4966    -4963    -5027 
   -5054    -5044    -5098    -5135    -5150    -5215    -5255    -5250 
   -5279    -5312    -5277    -5248    -5279    -5254    -5194    -5221 
   -5231    -5212    -5243    -5239    -5250    -5308    -5290    -5296 
   -5346    -5314    -5267    -5260    -5223    -5155    -5120    -5121 
   -5077    -5027    -5049    -5039    -5027    -5107    -5140    -5136 
   -5223    -5243    -5184    -5227    -5232    -5155    -5190    -5212 
   -5169    -5209    -5231    -5201    -5212    -5212    -5216    -5212 
   -5193    -5213    -5181    -5151    -5167    -5104    -5086    -5131 
   -5116    -5161    -5254    -5298    -5363    -5443    -5472    -5468 
   -5479    -5439    -5325    -5258    -5186    -5067    -5027    -5030 
   -5003    -5023    -5088    -5136    -5200    -5275    -5331    -5389 
   -5437    -5459    -5489    -5522    -5513    -5506    -5525    -5509 
   -5505    -5528    -5519    -5519    -5539    -5552    -5562    -5574 
   -5593    -5583    -5576    -5582    -5525    -5472    -5433    -5327 
   -5250    -5198    -5101    -5070    -5076    -5022    -5026    -5065 
   -5046    -5057    -5100    -5107    -5111    -5140    -5159    -5162 
   -5177    -5192    -5204    -5227    -5233    -5235    -5250    -5235 
   -5219    -5212    -5175    -5169    -5181    -5173    -5188    -5204 
   -5221    -5243    -5248    -5282    -5309    -5317    -5359    -5390 
   -5408    -5448    -5464    -5481    -5535    -5564    -5582    -5659 
   -5714    -5737    -5800    -5838    -5860    -5896    -5904    -5929 
   -5954    -5942    -5958    -5967    -5937    -5957    -5981    -5980 
   -6038    -6077    -6057    -6066    -6038    -5956    -5906    -5842 
   -5744    -5675    -5623    -5574    -5540    -5517    -5524    -5547 
   -5566    -5609    -5656    -5711    -5771    -5791    -5792    -5792 
   -5765    -5741    -5734    -5740    -5744    -5756    -5786    -5782 
   -5756    -5749    -5717    -5682    -5645    -5585    -5549    -5514 
   -5455    -5416    -5391    -5337    -5279    -5240    -5177    -5093 
   -5022    -4953    -4876    -4834    -4830    -4797    -4801    -4873 
   -4881    -4912    -5003    -4997    -4978    -5001    -4968    -4918 
   -4893    -4861    -4849    -4868    -4873    -4891    -4914    -4916 
   -4946    -4949    -4926    -4962    -4972    -4954    -4984    -5011 
   -5004    -5013    -5049    -5012    -4972    -4978    -4891    -4823 
   -4826    -4758    -4723    -4747    -4735    -4735    -4762    -4766 
   -4750    -4753    -4754    -4699    -4649    -4646    -4592    -4525 
   -4548    -4552    -4529    -4558    -4558    -4540    -4525    -4479 
   -4480    -4477    -4457    -4498    -4523    -4565    -4641    -4685 
   -4762    -4807    -4808    -4873    -4918    -4934    -5000    -5076 
   -5105    -5134    -5179    -5190    -5169    -5173    -5173    -5142 
   -5152    -5179    -5139    -5135    -5159    -5103    -5093    -5136 
   -5112    -5144    -5219    -5223    -5263    -5333    -5329    -5321 
   -5379    -5394    -5373    -5458    -5522    -5517    -5597    -5644 
   -5610    -5620    -5623    -5582    -5564    -5555    -5526    -5501 
   -5478    -5454    -5420    -5405    -5417    -5390    -5370    -5379 
   -5374    -5377    -5358    -5341    -5362    -5325    -5300    -5332 
   -5317    -5292    -5321    -5335    -5320    -5351    -5394    -5393 
   -5421    -5468    -5467    -5472    -5468    -5422    -5395    -5355 
   -5317    -5320    -5300    -5300    -5321    -5332    -5346    -5347 
   -5373    -5387    -5364    -5374    -5346    -5286    -5254    -5181 
   -5127    -5116    -5065    -5051    -5081    -5058    -5051    -5074 
