Origin Time       2016/04/16 01:25:00
Lat.              32.753
Long.             130.762
Depth. (km)       12
Mag.              7.3
Station Code      OKY001
Station Lat.      35.1945
Station Long.     133.7314
Station Height(m) 334
Record Time       2016/04/16 01:26:57
Sampling Freq(Hz) 100Hz
Duration Time(s)  65
Dir.              E-W
Scale Factor      7845(gal)/8223790
Max. Acc. (gal)   1.800
Last Correction   2016/04/16 01:26:59
Memo.             
[...]
    -577     -606     -654     -623     -679     -766     -762     -805 
    -892     -943     -981    -1030    -1081    -1073    -1065    -1093 
   -1048     -994     -969     -890     -816     -766     -704     -683 
    -668     -643     -673     -658     -631     -675     -662     -639 
    -648     -610     -566     -526     -506     -472     -414     -448 
    -483     -472     -518     -542     -496     -445     -410     -346 
    -259     -259     -284     -288     -367     -469     -538     -599 
    -668     -708     -691     -692     -689     -660     -668     -696 
    -710     -733     -787     -797     -778     -811     -787     -723 
    -745     -746     -711     -708     -710     -683     -603     -573 
    -595     -553     -538     -566     -557     -557     -575     -573 
    -579     -592     -583     -579     -571     -519     -487     -467 
    -441     -461     -484     -519     -600     -653     -739     -845 
    -869     -903     -939     -919     -880     -828     -793     -751 
    -691     -681     -693     -660     -681     -737     -702     -685 
    -702     -658     -610     -600     -611     -587     -564     -607 
    -618     -591     -627     -656     -626     -639     -650     -614 
    -629     -672     -692     -728     -785     -838     -864     -870 
    -903     -913     -862     -876     -936     -928     -947    -1019 
   -1015     -972     -980     -950     -869     -843     -835     -791 
    -773     -789     -796     -810     -816     -816     -842     -814 
    -760     -731     -676     -637     -596     -564     -561     -525 
    -526     -557     -550     -598     -666     -685     -715     -770 
    -769     -741     -743     -676     -584     -576     -544     -483 
    -521     -565     -561     -591     -600     -556     -488     -433 
    -383     -294     -248     -246     -210     -237     -305     -322 
    -390     -472     -468     -477     -480     -434     -405     -341 
    -299     -299     -255     -268     -334     -368     -449     -531 
    -584     -660     -664     -643     -691     -657     -626     -700 
    -715     -754     -815     -827     -872     -851     -795     -762 
    -660     -572     -526     -463     -430     -421     -419     -433 
    -461     -487     -502     -522     -522     -496     -468     -437 
    -409     -383     -367     -403     -471     -495     -553     -638 
    -652     -684     -749     -741     -712     -741     -761     -711 
    -723     -773     -754     -785     -849     -834     -820     -815 
    -785     -724     -673     -669     -612     -565     -615     -608 
    -572     -610     -589     -521     -504     -468     -423     -398 
    -388     -419     -441     -471     -511     -523     -573     -606 
    -592     -650     -666     -598     -619     -604     -519     -540 
    -540     -525     -568     -579     -611     -638     -631     -688 
    -730     -715     -743     -757     -689     -652     -627     -579 
    -579     -562     -557     -606     -599     -625     -680     -661 
    -658     -653     -625     -614     -606     -643     -708     -767 
    -843     -916     -961     -973     -973     -939     -874     -823 
    -774     -733     -737     -758     -746     -722     -715     -672 
    -598     -588     -584     -553     -579     -594     -584     -599 
    -589     -583     -594     -603     -602     -581     -589     -577 
    -525     -508     -457     -387     -359     -311     -292     -322 
    -319     -338     -392     -425     -444     -464     -493     -476 
    -406     -402     -413     -349     -344     -434     -441     -453 
    -576     -604     -579     -637     -656     -637     -680     -746 
    -756     -772     -850     -862     -845     -882     -862     -801 
    -760     -722     -693     -653     -633     -627     -627     -658 
    -668     -696     -733     -706     -712     -722     -675     -631 
    -589     -565     -526     -488     -504     -503     -477     -492 
    -531     -546     -561     -612     -637     -639     -658     -656 
    -650     -649     -627     -638     -650     -637     -664     -683 
    -669     -658     -630     -612     -577     -550     -552     -511 
    -472     -456     -438     -438     -417     -418     -471     -473 
    -481     -548     -576     -592     -645     -696     -739     -750 
    -767     -827     -807     -778     -830     -827     -816     -859 
    -876     -888     -889     -864     -866     -819     -756     -758 
    -695     -615     -585     -540     -503     -454     -459     -499 
    -459     -430     -437     -361     -303     -318     -268     -236 
    -278     -292     -325     -361     -379     -396     -365     -369 
    -395     -355     -338     -361     -367     -359     -348     -356 
    -336     -310     -329     -346     -364     -380     -421     -477 
    -526     -588     -625     -658     -668     -635     -629     -571 
    -490     -463     -448     -446     -449     -495     -558     -549 
    -550     -560     -513     -475     -461     -450     -440     -436 
    -441     -459     -493     -499     -518     -553     -515     -476 
    -432     -333     -297     -274     -203     -224     -257     -234 
    -298     -344     -337     -390     -406     -402     -427     -419 
    -396     -396     -410     -425     -468     -530     -566     -583 
    -602     -612     -587     -579     -598     -585     -596     -654 
    -702     -715     -766     -815     -778     -756     -746     -687 
    -643     -635     -623     -625     -637     -648     -675     -656 
    -589     -565     -496     -395     -386     -352     -317     -367 
    -392     -423     -473     -481     -463     -422     -379     -344 
    -314     -305     -315     -318     -315     -363     -380     -363 
    -407     -429     -391     -367     -359     -337     -313     -309 
    -297     -311     -333     -330     -375     -395     -373     -394 
    -405     -363     -344     -379     -386     -400     -450     -488 
    -537     -562     -575     -619     -608     -592     -625     -589 
    -585     -621     -587     -608     -642     -600     -621     -646 
    -619     -633     -637     -637     -637     -585     -584     -600 
    -585     -611     -637     -646     -623     -602     -607     -560 
    -519     -542     -537     -498     -517     -540     -480     -463 
    -483     -442     -444     -472     -460     -473     -502     -515 
    -495     -487     -495     -445     -442     -503     -525     -576 
    -657     -723     -780     -820     -869     -901     -909     -913 
    -936     -986     -994    -1023    -1111    -1156    -1182    -1225 
   -1250    -1224    -1179    -1148    -1080    -1009     -958     -874 
    -831     -799     -746     -754     -737     -669     -623     -565 
    -473     -399     -400     -388     -363     -454     -526     -515 
    -577     -648     -631     -621     -650     -670     -673     -720 
    -778     -816     -881     -928     -973    -1021    -1016    -1000 
    -974     -936     -890     -876     -918     -922     -936     -990 
    -967     -903     -842     -769     -680     -604     -565     -540 
    -533     -556     -572     -565     -540     -503     -461     -429 
    -370     -322     -314     -265     -259     -299     -271     -292 
    -325     -286     -297     -295     -261     -291     -306     -313 
    -361     -418     -483     -552     -622     -692     -722     -728 
    -749     -712     -677     -722     -735     -731     -795     -849 
    -838     -841     -877     -853     -804     -799     -789     -769 
    -728     -702     -696     -683     -652     -606     -619     -598 
    -532     -566     -592     -579     -594     -627     -676     -669 
    -697     -777     -791     -814     -877     -919     -954    -1004 
   -1053    -1094    -1107    -1107    -1109    -1084    -1059    -1065 
   -1036    -1009    -1035    -1030    -1004    -1009    -1008     -985 
    -953     -965     -962     -913     -935     -928     -850     -838 
    -846     -824     -857     -908     -901     -929     -961     -931 
    -945     -946     -938     -969     -962    -1016    -1084    -1071 
   -1142    -1213    -1223    -1300    -1370    -1387    -1410    -1431 
   -1436    -1425    -1417    -1420    -1428    -1408    -1402    -1425 
   -1402    -1414    -1440    -1379    -1366    -1387    -1337    -1331 
   -1351    -1321    -1312    -1316    -1305    -1273    -1198    -1140 
   -1053     -929     -884     -815     -731     -762     -764     -731 
    -788     -808     -767     -760     -747     -702     -639     -621 
    -634     -610     -596     -633     -633     -600     -576     -557 
    -553     -506     -468     -506     -486     -438     -483     -496 
    -429     -390     -373     -301     -209     -182     -176     -116 
    -102     -131      -65      -16      -14       64      140      190 
     279      342      383      415      402      379      322      249 
     207      153       99       65       55       54       27       28 
      65       58       22       58       70       29       44       37 
      21       20        2       70      108      101      195      232 
     203      238      257      238      236      278      303      299 
     375      486      535      581      657      677      631      599 
     556      490      432      383      368      359      344      383 
     449      476      495      525      504      434      356      286 
     203       90       16      -20      -98     -141     -137     -167 
    -172     -149     -135      -95      -72      -49      -10       -5 
       5       28       54      112      139      164      225      245 
     268      318      330      348      367      355      360      388 
     403      417      461      510      526      579      645      646 
     672      707      727      766      787      842      877      831 
     846      838      715      650      618      487      376      313 
     207      109       43       -8      -86     -172     -217     -275 
    -372     -449     -508     -588     -662     -730     -792     -815 
    -847     -864     -851     -876     -876     -854     -864     -843 
    -818     -830     -804     -760     -774     -749     -700     -734 
    -730     -715     -738     -719     -720     -677     -589     -561 
    -499     -409     -344     -314     -305     -283     -305     -346 
    -369     -395     -414     -433     -419     -418     -456     -477 
    -550     -662     -737     -838     -955    -1009    -1026    -1024 
    -999     -945     -868     -831     -823     -780     -767     -812 
    -838     -872     -931     -993    -1055    -1073    -1115    -1179 
   -1158    -1155    -1189    -1181    -1193    -1216    -1244    -1285 
   -1302    -1336    -1367    -1371    -1393    -1394    -1390    -1424 
   -1408    -1398    -1416    -1348    -1308    -1289    -1201    -1152 
   -1104    -1024     -997     -957     -886     -885     -874     -797 
    -801     -824     -757     -741     -762     -738     -728     -746 
    -773     -792     -797     -834     -877     -868     -880     -959 
    -985    -1009    -1081    -1088    -1129    -1197    -1206    -1266 
   -1301    -1275    -1285    -1279    -1250    -1230    -1224    -1240 
   -1251    -1266    -1305    -1314    -1291    -1304    -1305    -1291 
   -1331    -1345    -1336    -1362    -1328    -1281    -1277    -1223 
   -1165    -1169    -1167    -1166    -1200    -1225    -1262    -1296 
   -1282    -1294    -1313    -1250    -1165    -1070     -916     -785 
    -670     -513     -446     -417     -338     -344     -365     -342 
    -359     -369     -369     -388     -395     -369     -364     -365 
    -318     -272     -241     -225     -178     -109     -147     -144 
     -78     -144     -182     -155     -205     -233     -207     -197 
    -229     -256     -243     -253     -266     -229     -193     -197 
    -210     -198     -199     -240     -229     -197     -237     -255 
    -244     -272     -306     -365     -411     -477     -603     -675 
    -726     -805     -872     -934    -1012    -1098    -1163    -1219 
   -1237    -1242    -1250    -1200    -1151    -1119    -1051    -1009 
    -990     -976     -965     -965     -992     -974     -946     -981 
    -972     -896     -868     -847     -769     -702     -688     -670 
    -652     -664     -665     -661     -661     -622     -584     -573 
    -537     -502     -503     -479     -421     -382     -353     -306 
    -259     -229     -243     -292     -341     -419     -492     -529 
    -579     -603     -614     -638     -662     -722     -750     -774 
    -868     -895     -893     -950     -936     -870     -831     -770 
    -668     -600     -604     -584     -587     -677     -706     -697 
    -715     -645     -544     -471     -359     -279     -229     -186 
    -230     -278     -298     -378     -440     -468     -506     -514 
    -493     -459     -376     -318     -275     -171     -137     -151 
    -109     -135     -202     -218     -230     -246     -233     -175 
    -143     -129     -101      -81      -68      -65      -32       58 
      78       99      216      252      265      351      386      419 
     473      518      561      561      584      621      596      631 
     693      684      718      772      773      788      816      847 
     874      911      987     1034     1048     1092     1105     1077 
    1073     1097     1102     1115     1175     1217     1224     1236 
    1237     1220     1182     1147     1144     1115     1081     1128 
    1144     1136     1190     1194     1161     1148     1094     1047 
    1009      928      870      822      731      680      653      600 
     607      623      594      616      631      579      544      499 
     407      305      203      106      -10     -129     -228     -341 
    -456     -558     -658     -747     -838     -892     -905     -927 
    -934     -924     -874     -791     -728     -619     -461     -396 
    -336     -216     -224     -257     -221     -255     -279     -253 
    -228     -172     -133     -114      -93      -78      -87     -116 
    -124     -129     -137     -108      -85      -82      -83     -120 
    -168     -243     -344     -398     -483     -599     -635     -697 
    -778     -788     -828     -869     -857     -884     -900     -884 
    -935     -957     -916     -938     -916     -845     -847     -847 
    -864     -919     -974    -1063    -1129    -1188    -1267    -1275 
   -1277    -1286    -1252    -1228    -1201    -1193    -1201    -1170 
   -1192    -1219    -1166    -1156    -1147    -1063    -1007     -958 
    -889     -838     -785     -772     -749     -687     -679     -626 
    -556     -569     -544     -531     -579     -604     -648     -685 
    -685     -708     -704     -689     -704     -687     -687     -714 
    -711     -760     -789     -784     -866     -908     -946    -1089 
   -1181    -1264    -1385    -1460    -1563    -1632    -1648    -1737 
   -1807    -1815    -1878    -1912    -1903    -1930    -1907    -1884 
   -1908    -1859    -1819    -1814    -1745    -1684    -1634    -1566 
   -1522    -1433    -1347    -1328    -1209    -1088    -1065     -950 
    -843     -827     -770     -710     -683     -666     -648     -639 
    -672     -707     -751     -807     -849     -888     -928     -942 
    -932     -938     -929     -924     -950     -957     -965     -989 
    -981     -977     -972     -957     -959     -936     -913     -893 
    -877     -907     -903     -912     -946     -939     -926     -890 
    -847     -776     -683     -656     -649     -700     -843     -951 
   -1088    -1310    -1448    -1521    -1621    -1634    -1580    -1563 
   -1575    -1566    -1532    -1563    -1591    -1561    -1588    -1614 
   -1561    -1506    -1460    -1378    -1267    -1194    -1165    -1148 
   -1142    -1161    -1248    -1314    -1341    -1474    -1578    -1566 
   -1606    -1642    -1611    -1595    -1583    -1587    -1593    -1606 
   -1699    -1781    -1849    -1971    -2057    -2107    -2153    -2144 
   -2143    -2165    -2153    -2181    -2236    -2253    -2317    -2370 
   -2376    -2400    -2366    -2313    -2267    -2160    -2093    -2058 
   -1992    -2014    -2088    -2130    -2222    -2299    -2342    -2401 
   -2401    -2385    -2393    -2354    -2328    -2334    -2297    -2269 
   -2272    -2235    -2195    -2187    -2157    -2134    -2133    -2111 
   -2101    -2119    -2091    -2064    -2050    -1999    -1985    -1962 
   -1907    -1921    -1906    -1841    -1823    -1818    -1781    -1753 
   -1784    -1819    -1821    -1849    -1908    -1930    -1896    -1907 
   -1907    -1818    -1776    -1764    -1684    -1634    -1632    -1597 
   -1597    -1656    -1679    -1706    -1786    -1838    -1850    -1890 
   -1922    -1907    -1911    -1922    -1907    -1881    -1846    -1821 
   -1746    -1660    -1621    -1509    -1428    -1435    -1354    -1321 
   -1348    -1285    -1275    -1308    -1297    -1341    -1413    -1480 
   -1567    -1632    -1711    -1763    -1763    -1809    -1826    -1788 
   -1798    -1803    -1769    -1755    -1753    -1741    -1755    -1773 
   -1784    -1817    -1809    -1790    -1777    -1698    -1614    -1522 
   -1431    -1368    -1304    -1282    -1264    -1242    -1254    -1229 
   -1198    -1201    -1177    -1155    -1188    -1213    -1232    -1300 
   -1366    -1412    -1487    -1567    -1614    -1655    -1713    -1744 
   -1775    -1861    -1925    -1979    -2066    -2118    -2149    -2200 
   -2251    -2309    -2340    -2386    -2450    -2427    -2438    -2500 
   -2450    -2407    -2408    -2331    -2270    -2238    -2208    -2204 
   -2172    -2182    -2204    -2173    -2191    -2203    -2192    -2230 
   -2267    -2297    -2340    -2378    -2380    -2373    -2382    -2332 
   -2270    -2259    -2196    -2120    -2088    -2042    -2004    -1977 
   -1948    -1917    -1881    -1877    -1861    -1817    -1811    -1786 
   -1722    -1725    -1745    -1718    -1755    -1788    -1761    -1772 
   -1744    -1705    -1677    -1613    -1597    -1559    -1501    -1518 
   -1497    -1479    -1507    -1505    -1537    -1571    -1590    -1653 
   -1683    -1692    -1701    -1688    -1674    -1614    -1553    -1493 
   -1386    -1333    -1321    -1294    -1304    -1332    -1343    -1345 
   -1340    -1300    -1242    -1171    -1062     -973     -889     -777 
    -700     -635     -572     -532     -525     -521     -463     -421 
    -380     -275     -218     -211     -184     -193     -256     -315 
    -333     -402     -479     -467     -450     -444     -409     -341 
    -270     -229     -178     -121     -103     -108     -118     -148 
    -174     -202     -243     -238     -256     -297     -268     -278 
    -311     -280     -276     -289     -272     -245     -211     -211 
    -202     -167     -209     -251     -225     -263     -314     -305 
    -342     -369     -367     -402     -403     -430     -495     -518 
    -569     -625     -641     -650     -638     -631     -591     -525 
    -521     -498     -492     -588     -629     -649     -746     -773 
    -766     -814     -816     -784     -787     -756     -688     -634 
    -579     -517     -432     -379     -369     -309     -288     -329 
