Origin Time       2016/04/16 01:25:00
Lat.              32.753
Long.             130.762
Depth. (km)       12
Mag.              7.3
Station Code      OKY011
Station Lat.      34.6540
Station Long.     133.9067
Station Height(m) 2
Record Time       2016/04/16 01:26:50
Sampling Freq(Hz) 100Hz
Duration Time(s)  65
Dir.              E-W
Scale Factor      7845(gal)/8223790
Max. Acc. (gal)   3.709
Last Correction   2016/04/16 01:26:51
Memo.             
[...]
     581      664      757      869      992     1117     1251     1389 
    1507     1606     1706     1798     1872     1948     2033     2115 
    2182     2231     2259     2245     2178     2074     1945     1800 
    1661     1539     1452     1399     1364     1362     1393     1412 
    1410     1395     1360     1325     1302     1282     1267     1248 
    1232     1247     1282     1329     1397     1478     1557     1637 
    1715     1794     1852     1880     1884     1867     1838     1819 
    1806     1794     1786     1783     1800     1829     1854     1888 
    1925     1941     1933     1887     1798     1683     1561     1463 
    1395     1333     1279     1239     1204     1174     1143     1105 
    1067     1039     1039     1078     1138     1220     1329     1459 
    1601     1752     1888     2003     2104     2181     2239     2285 
    2312     2331     2351     2346     2323     2286     2222     2139 
    2050     1964     1891     1822     1755     1692     1617     1525 
    1428     1323     1202     1065      926      807      711      639 
     595      564      542      540      533      506      472      456 
     463      487      522      565      614      661      707      743 
     764      764      758      756      756      756      770      793 
     814      837      855      864      877      896      908      915 
     899      853      793      720      633      540      460      414 
     403      434      513      623      761      919     1080     1236 
    1391     1547     1694     1826     1948     2050     2114     2118 
    2064     1962     1826     1680     1545     1431     1329     1235 
    1139     1036      922      800      688      600      521      445 
     403      395      423      510      648      815     1007     1206 
    1387     1532     1638     1721     1786     1822     1842     1858 
    1873     1883     1885     1872     1826     1740     1629     1518 
    1414     1316     1213     1089      947      799      661      560 
     487      429      400      405      441      517      631      784 
     959     1140     1310     1460     1591     1703     1787     1844 
    1888     1922     1946     1969     1993     2027     2053     2062 
    2076     2093     2098     2111     2138     2172     2195     2199 
    2201     2199     2181     2163     2151     2139     2133     2141 
    2162     2189     2204     2200     2176     2126     2064     1984 
    1883     1784     1703     1642     1605     1586     1580     1599 
    1638     1692     1761     1830     1902     1975     2023     2046 
    2049     2015     1945     1850     1741     1632     1543     1482 
    1440     1402     1381     1377     1371     1351     1310     1244 
    1155     1046      920      770      614      486      405      373 
     383      423      491      583      693      814      916      993 
    1059     1111     1146     1159     1152     1150     1152     1155 
    1163     1167     1150     1111     1039      938      818      684 
     550      429      324      243      182      135      103       79 
      59       51       62       95      156      236      337      456 
     577      692      804      911     1020     1138     1274     1439 
    1610     1768     1921     2056     2173     2285     2384     2455 
    2509     2535     2516     2455     2359     2208     2011     1795 
    1579     1379     1213     1097     1035     1013     1016     1020 
    1020     1028     1038     1043     1062     1120     1223     1352 
    1501     1663     1826     1977     2097     2187     2259     2319 
    2357     2385     2397     2381     2344     2300     2245     2163 
    2047     1911     1768     1629     1520     1439     1367     1297 
    1210     1101      965      812      675      562      468      405 
     383      391      429      504      614      757      929     1121 
    1317     1501     1658     1777     1846     1865     1838     1786 
    1721     1658     1613     1582     1566     1582     1620     1665 
    1732     1806     1858     1888     1885     1831     1726     1574 
    1394     1229     1092      989      936      928      957     1032 
    1138     1264     1405     1535     1656     1755     1823     1869 
    1885     1867     1841     1810     1779     1776     1798     1842 
    1907     1961     1992     1988     1938     1858     1746     1599 
    1449     1306     1166     1036      916      812      743      715 
     734      787      837      872      888      872      835      810 
     797      800      823      861      927     1026     1140     1264 
    1375     1452     1493     1501     1483     1457     1424     1377 
    1318     1263     1216     1171     1132     1104     1073     1024 
     973      928      886      864      862      864      882      896 
     890      872      835      801      793      812      868      959 
    1069     1198     1331     1428     1495     1549     1584     1613 
    1641     1655     1652     1636     1606     1588     1580     1563 
    1547     1548     1561     1574     1579     1583     1586     1567 
    1526     1472     1398     1306     1213     1112     1007      934 
     909      920      947      993     1050     1093     1119     1132 
    1121     1107     1116     1156     1228     1317     1404     1480 
    1537     1575     1613     1645     1676     1714     1763     1823 
    1878     1911     1939     1968     1981     1975     1954     1917 
    1859     1792     1721     1629     1537     1480     1448     1433 
    1440     1460     1476     1480     1472     1468     1459     1444 
    1451     1479     1513     1553     1584     1593     1583     1571 
    1560     1551     1537     1532     1548     1578     1609     1648 
    1679     1686     1672     1628     1545     1445     1331     1217 
    1128     1053     1004      985      965      942      929      927 
     927      929      932      939      959     1003     1078     1169 
    1258     1344     1422     1491     1556     1620     1694     1779 
    1856     1917     1944     1922     1863     1781     1698     1625 
    1570     1528     1491     1431     1351     1256     1135      999 
     886      816      793      822      884      967     1046     1107 
    1169     1228     1277     1323     1368     1421     1487     1556 
    1617     1668     1691     1683     1657     1611     1540     1444 
    1337     1240     1159     1096     1039      984      929      880 
     822      765      731      715      726      758      804      862 
     932      996     1046     1085     1102     1093     1078     1073 
    1067     1042     1008      981      949      919      919      927 
     934      969     1039     1129     1240     1374     1518     1656 
    1779     1888     1975     2045     2107     2153     2176     2191 
    2203     2218     2241     2269     2309     2361     2421     2501 
    2594     2688     2758     2785     2779     2733     2631     2485 
    2303     2107     1925     1763     1625     1491     1348     1221 
    1107     1000      931      913      934      985     1050     1117 
    1185     1233     1271     1310     1331     1344     1372     1412 
    1475     1570     1683     1807     1938     2072     2208     2328 
    2421     2481     2501     2482     2430     2350     2254     2138 
    2003     1857     1709     1574     1472     1405     1348     1286 
    1225     1169     1102     1028      953      864      778      704 
     649      621      611      607      608      596      562      531 
     502      473      464      471      487      506      521      526 
     546      591      672      788      932     1089     1236     1374 
    1501     1611     1715     1815     1911     2011     2096     2155 
    2199     2219     2211     2184     2124     2019     1885     1745 
    1605     1452     1286     1124      949      754      595      476 
     372      303      263      241      244      256      270      289 
     306      326      368      414      471      538      596      654 
     724      799      877      947      987      997      972      923 
     890      890      929     1016     1132     1242     1329     1397 
    1459     1514     1560     1613     1679     1757     1845     1923 
    1989     2050     2091     2095     2083     2043     1960     1864 
    1765     1649     1526     1398     1248     1097      981      905 
     855      823      805      810      854      935     1038     1151 
    1263     1379     1517     1653     1783     1919     2043     2144 
    2241     2326     2403     2473     2544     2639     2751     2871 
    3003     3136     3260     3358     3388     3333     3213     3034 
    2803     2548     2288     2042     1819     1597     1371     1159 
     962      780      629      522      457      418      409      433 
     487      565      646      707      754      800      853      934 
    1046     1174     1317     1467     1622     1777     1914     2033 
    2135     2218     2288     2349     2390     2388     2334     2247 
    2130     1972     1784     1572     1341     1117      907      708 
     526      365      237      139       54       -5      -41      -60 
     -41        9       82      189      302      411      533      653 
     761      886     1019     1159     1321     1486     1660     1852 
    2037     2204     2342     2425     2442     2398     2301     2165 
    2004     1848     1706     1574     1453     1334     1196     1048 
     903      754      595      430      274      149       58       -1 
     -27      -35      -39      -45      -75     -112     -137     -149 
    -129      -70       -9       47      103      137      156      170 
     180      210      252      298      356      410      457      521 
     573      591      579      538      475      405      336      280 
     248      248      292      368      459      544      615      691 
     776      857      938     1011     1058     1093     1111     1105 
    1090     1065     1036     1017     1000     1000     1038     1080 
    1124     1183     1243     1302     1370     1444     1522     1588 
    1625     1637     1629     1605     1590     1594     1606     1620 
    1637     1657     1683     1717     1768     1838     1911     1985 
    2061     2111     2143     2172     2189     2199     2200     2170 
    2118     2049     1941     1803     1658     1517     1394     1308 
    1244     1190     1154     1143     1158     1181     1205     1221 
    1220     1202     1173     1135     1100     1073     1059     1067 
    1088     1117     1161     1200     1236     1286     1351     1440 
    1567     1714     1857     1979     2053     2081     2069     2011 
    1917     1811     1721     1679     1699     1755     1818     1873 
    1911     1930     1925     1877     1810     1746     1692     1667 
    1679     1733     1822     1926     2041     2184     2338     2501 
    2712     2970     3248     3530     3792     4010     4182     4303 
    4384     4425     4440     4453     4471     4498     4540     4585 
    4627     4656     4642     4571     4440     4255     4032     3790 
    3534     3256     2960     2658     2362     2095     1883     1742 
    1648     1588     1582     1610     1647     1687     1711     1706 
    1671     1602     1503     1386     1252     1112      996      942 
     967     1053     1183     1333     1468     1572     1645     1684 
    1701     1711     1707     1680     1632     1560     1472     1375 
    1274     1174     1065      962      890      837      799      778 
     761      733      692      639      588      525      445      380 
     336      307      318      380      481      615      785      985 
    1185     1379     1571     1755     1926     2083     2236     2390 
    2540     2685     2806     2894     2963     3013     3030     3007 
    2949     2880     2810     2737     2679     2659     2681     2731 
    2799     2895     2988     3038     3059     3071     3067     3048 
    3019     2974     2909     2830     2729     2609     2485     2347 
    2195     2031     1850     1671     1501     1329     1161      985 
     792      595      388      166      -51     -237     -394     -519 
    -606     -666     -711     -754     -804     -855     -893     -901 
    -874     -822     -743     -635     -518     -405     -295     -205 
    -155     -144     -155     -166     -175     -190     -205     -220 
    -237     -261     -272     -248     -180      -64       97      279 
     469      660      850     1048     1240     1408     1563     1711 
    1863     2033     2199     2344     2458     2533     2567     2555 
    2505     2435     2351     2258     2138     1985     1807     1595 
    1340     1071      795      499      206      -52     -283     -473 
    -623     -760     -895    -1039    -1209    -1389    -1579    -1761 
   -1903    -2003    -2058    -2047    -1975    -1871    -1745    -1593 
   -1414    -1230    -1039     -827     -594     -356     -118      101 
     286      440      564      658      723      756      767      774 
     776      769      756      724      693      691      710      715 
     706      684      668      684      727      776      847      940 
    1047     1171     1317     1475     1642     1825     2027     2254 
    2506     2775     3055     3348     3655     3981     4314     4619 
    4877     5082     5205     5242     5219     5139     4992     4793 
    4581     4382     4217     4105     4017     3928     3828     3707 
    3562     3415     3276     3145     3029     2929     2826     2720 
    2624     2536     2454     2376     2313     2303     2351     2448 
    2589     2748     2893     3029     3146     3234     3300     3329 
    3298     3207     3080     2947     2816     2678     2538     2407 
    2308     2249     2214     2184     2143     2083     2010     1941 
    1888     1864     1868     1906     1971     2030     2092     2168 
    2236     2296     2359     2408     2421     2400     2347     2285 
    2228     2160     2088     2030     1952     1837     1695     1535 
    1377     1206     1012      805      598      415      283      180 
      83      -25     -149     -271     -383     -504     -623     -734 
    -831     -881     -869     -808     -706     -579     -446     -310 
    -167       -4      178      376      611      886     1181     1491 
    1800     2097     2392     2651     2855     3003     3096     3138 
    3141     3130     3125     3083     2980     2818     2592     2308 
    1971     1579     1170      787      445      160      -75     -280 
    -461     -649     -858    -1058    -1240    -1401    -1513    -1564 
   -1554    -1472    -1320    -1092     -795     -456     -102      265 
     653     1063     1480     1885     2288     2698     3083     3406 
    3651     3802     3836     3778     3662     3500     3316     3141 
    2983     2836     2663     2440     2187     1890     1539     1161 
     776      391       36     -246     -437     -530     -522     -405 
    -205       40      338      692     1081     1482     1857     2201 
    2521     2805     3049     3271     3443     3557     3642     3699 
    3692     3618     3491     3311     3094     2849     2587     2326 
    2057     1763     1445     1120      819      552      305      101 
     -49     -151     -197     -217     -221     -187     -131      -60 
      54      194      307      382      448      526      599      672 
     800      961     1120     1274     1413     1554     1692     1787 
    1850     1912     1952     1949     1915     1850     1736     1557 
    1352     1144      922      697      493      317      170       54 
     -22      -60      -67      -36       27      114      229      390 
     604      882     1227     1599     1965     2340     2710     3010 
    3232     3407     3557     3712     3866     3990     4083     4153 
    4205     4236     4218     4125     3989     3866     3753     3613 
    3443     3237     2997     2736     2423     2033     1606     1185 
     778      396       75     -170     -325     -369     -334     -263 
    -152       18      240      483      723      953     1185     1428 
    1667     1883     2079     2280     2506     2740     2957     3145 
    3275     3364     3446     3504     3520     3507     3469     3406 
    3307     3172     3017     2862     2720     2587     2484     2407 
    2346     2326     2336     2322     2274     2205     2111     2006 
    1904     1826     1795     1818     1885     1987     2111     2263 
    2459     2677     2894     3113     3302     3427     3478     3453 
    3368     3237     3052     2798     2486     2153     1821     1493 
    1183      920      737      621      526      468      450      449 
     484      557      611      608      565      504      419      319 
     218       99      -28     -129     -225     -352     -488     -596 
    -666     -723     -793     -889     -993    -1078    -1148    -1227 
   -1314    -1410    -1532    -1652    -1705    -1699    -1665    -1588 
   -1493    -1417    -1337    -1236    -1148    -1084    -1019     -938 
    -822     -668     -487     -288      -91      102      307      521 
     702      797      824      834      808      730      639      565 
     479      379      307      265      248      291      409      585 
     792      980     1167     1398     1642     1881     2106     2272 
    2362     2370     2289     2137     1948     1733     1505     1293 
    1109      936      767      611      469      328      152      -44 
    -229     -425     -614     -750     -857     -949     -986     -972 
    -876     -687     -471     -261      -37      217      503      812 
    1133     1431     1657     1837     1995     2130     2253     2351 
    2416     2459     2484     2493     2501     2532     2578     2598 
    2590     2583     2573     2546     2488     2415     2315     2176 
    2060     1962     1813     1629     1441     1256     1102      935 
     704      442      174      -82     -324     -568     -773     -919 
   -1039    -1081     -996     -811     -545     -224      103      410 
     696      963     1196     1359     1452     1514     1545     1541 
    1524     1468     1374     1286     1194     1102     1051     1020 
    1007     1031     1051     1057     1063     1057     1026      980 
     901      805      737      693      673      670      673      728 
     872     1050     1209     1343     1436     1501     1556     1561 
    1512     1439     1374     1340     1310     1237     1146     1078 
    1032     1004      984      959      942      926      892      838 
     720      492      216      -13     -218     -486     -795    -1053 
   -1246    -1377    -1452    -1514    -1579    -1615    -1625    -1620 
   -1595    -1568    -1517    -1382    -1208    -1059     -896     -699 
    -504     -342     -216     -125      -81      -25      101      232 
     318      398      421      344      238      114      -40     -203 
    -406     -642     -841     -978    -1009     -919     -799     -711 
    -619     -518     -427     -346     -297     -263     -201     -153 
    -198     -310     -395     -425     -422     -395     -379     -379 
