Origin Time       2016/04/16 01:25:00
Lat.              32.753
Long.             130.762
Depth. (km)       12
Mag.              7.3
Station Code      OKY003
Station Lat.      35.1737
Station Long.     134.3386
Station Height(m) 323
Record Time       2016/04/16 01:27:11
Sampling Freq(Hz) 100Hz
Duration Time(s)  60
Dir.              N-S
Scale Factor      7845(gal)/8223790
Max. Acc. (gal)   2.051
Last Correction   2016/04/16 01:27:12
Memo.             
[...]
     440      471      508      548      575      595      608      612 
     619      634      652      670      693      712      730      743 
     749      751      745      730      719      710      702      706 
     707      708      715      718      702      679      653      629 
     611      603      606      615      623      621      607      594 
     588      594      610      638      660      669      669      658 
     646      648      654      669      693      715      730      741 
     749      746      743      743      745      743      741      739 
     733      723      715      710      704      708      724      745 
     765      783      797      815      831      845      862      880 
     892      903      915      918      919      915      896      877 
     868      862      864      872      877      874      857      837 
     818      796      776      758      738      715      693      677 
     666      646      612      573      533      496      464      446 
     441      445      453      463      475      486      498      515 
     532      552      572      595      615      626      629      630 
     629      626      622      614      594      565      531      498 
     463      436      415      396      386      382      388      403 
     421      448      486      519      556      595      629      653 
     673      688      693      700      708      714      719      722 
     715      702      693      688      683      684      688      688 
     691      695      697      704      712      712      708      702 
     693      689      689      693      706      718      727      735 
     741      741      737      727      715      708      702      695 
     684      670      658      654      660      668      669      670 
     669      664      657      653      648      645      645      649 
     654      654      648      638      623      603      584      569 
     558      558      557      544      530      513      490      471 
     464      469      481      506      537      560      576      589 
     596      600      599      596      603      616      631      641 
     641      638      642      641      635      641      650      656 
     656      648      638      639      652      670      692      706 
     712      712      700      687      683      683      689      707 
     718      720      715      708      699      693      693      697 
     704      707      712      720      728      731      737      745 
     751      753      749      746      747      753      764      780 
     799      823      845      858      868      881      896      908 
     916      924      931      929      920      903      880      862 
     843      824      812      807      808      810      811      814 
     810      801      792      783      776      773      767      758 
     745      726      702      679      654      637      630      631 
     634      641      653      660      664      670      679      688 
     702      715      726      730      723      702      672      645 
     625      611      607      604      608      614      611      612 
     625      635      648      666      680      691      700      702 
     702      707      707      700      692      685      680      676 
     675      680      689      693      696      700      711      733 
     760      788      812      824      834      843      841      831 
     830      822      797      770      746      723      706      691 
     676      665      652      637      623      616      612      607 
     595      571      544      521      499      486      484      490 
     495      496      503      519      537      561      589      610 
     623      631      637      648      661      672      685      699 
     708      712      712      711      714      718      723      731 
     745      753      758      764      764      754      738      720 
     707      699      692      689      689      688      685      677 
     660      638      622      604      585      575      565      553 
     548      545      537      526      523      517      514      518 
     522      525      532      544      557      579      602      623 
     634      626      607      579      542      510      495      490 
     491      506      532      562      596      634      669      697 
     724      747      765      783      795      801      807      797 
     774      756      745      733      726      726      727      724 
     719      714      712      715      715      715      722      726 
     723      719      722      727      723      715      706      693 
     677      661      645      631      623      618      616      622 
     631      649      672      696      724      757      787      808 
     822      823      815      811      797      778      769      758 
     743      733      723      707      688      676      668      658 
     658      661      664      670      675      670      664      652 
     635      615      600      596      598      607      619      627 
     639      649      654      668      681      692      711      727 
     737      747      756      751      743      737      730      731 
     741      760      776      784      788      785      774      758 
     743      735      731      738      753      765      776      788 
     793      792      789      778      764      758      761      767 
     773      772      761      737      708      677      643      618 
     604      596      599      610      622      633      638      635 
     629      615      599      583      568      549      535      526 
     515      506      502      490      480      477      476      477 
     480      484      488      491      503      521      537      552 
     565      572      576      579      581      588      604      622 
     637      658      680      699      720      743      766      795 
     818      834      853      872      882      895      905      918 
     940      966      984     1000     1020     1036     1047     1048 
    1048     1048     1044     1043     1048     1053     1057     1063 
    1063     1053     1038     1020     1004      996      985      976 
     977      974      958      939      920      896      868      842 
     824      810      796      791      784      764      745      730 
     711      697      691      685      687      693      700      702 
     695      676      648      612      583      566      553      549 
     549      542      530      522      521      526      544      566 
     587      607      623      637      653      672      692      710 
     724      739      758      774      795      820      843      859 
     864      855      842      828      814      805      799      788 
     774      758      745      733      724      727      730      734 
     745      758      774      796      816      831      838      837 
     826      807      791      780      765      754      756      758 
     758      764      774      781      784      780      762      741 
     724      711      702      696      691      684      673      662 
     653      641      630      625      615      604      599      600 
     608      621      629      626      616      596      571      553 
     548      544      544      557      577      588      591      596 
     596      594      599      614      635      660      681      697 
     714      731      751      773      795      812      826      831 
     837      849      857      862      872      877      876      868 
     855      834      810      785      762      747      737      726 
     719      706      681      653      621      589      565      544 
     522      503      486      461      436      417      402      395 
     403      411      414      421      425      421      417      415 
     411      413      419      432      448      454      459      460 
     461      475      487      496      519      542      548      548 
     546      533      517      498      472      444      411      382 
     363      348      336      337      346      351      356      367 
     378      390      399      403      407      410      409      413 
     413      409      407      403      399      396      394      391 
     387      376      360      344      329      318      314      314 
     315      315      311      306      305      302      295      292 
     291      297      309      325      344      369      394      411 
     425      448      471      491      522      548      562      579 
     594      608      631      661      697      738      773      800 
     818      830      838      850      861      872      880      889 
     901      911      913      908      893      876      858      842 
     822      796      765      726      687      653      629      608 
     598      591      583      573      565      564      573      587 
     599      612      625      627      627      631      638      653 
     672      683      689      699      708      711      712      722 
     730      726      715      706      691      677      670      661 
     654      648      626      587      544      496      459      429 
     403      392      392      386      387      395      402      418 
     442      471      506      544      571      587      585      571 
     557      546      544      557      577      595      606      603 
     592      585      581      579      577      566      550      535 
     518      496      483      477      473      467      456      449 
     442      434      437      442      440      446      460      460 
     461      459      433      403      378      344      315      303 
     301      302      310      326      342      357      383      409 
     425      448      467      477      486      496      506      517 
     523      521      510      496      481      464      456      450 
     437      425      422      419      422      429      441      456 
     469      484      500      519      542      573      606      625 
     635      646      653      660      675      692      715      741 
     762      772      770      761      751      746      739      730 
     726      724      720      718      726      734      734      731 
     731      726      715      708      702      693      685      673 
     660      641      606      562      523      496      477      463 
     454      444      425      394      353      311      268      233 
     202      162      122       86       56       35        9      -17 
     -37      -64      -94     -114     -129     -139     -140     -143 
    -144     -144     -148     -140     -116      -87      -56      -27 
      -4       17       45       79      116      153      182      194 
     195      190      178      176      190      207      214      220 
     221      218      224      243      263      283      302      321 
     336      348      370      407      442      481      521      552 
     572      585      594      599      612      634      666      704 
     741      778      816      853      892      927      953      976 
    1000     1026     1047     1067     1086     1100     1112     1125 
    1138     1150     1156     1163     1163     1155     1152     1158 
    1156     1152     1159     1170     1179     1190     1192     1179 
    1156     1127     1093     1059     1031     1009      999      997 
     996      997      999     1000     1013     1036     1062     1098 
    1139     1170     1197     1225     1251     1274     1297     1333 
    1366     1385     1408     1431     1440     1439     1440     1435 
    1421     1414     1408     1393     1385     1379     1362     1337 
    1308     1278     1248     1228     1221     1223     1225     1224 
    1213     1193     1175     1156     1135     1113     1098     1092 
    1089     1086     1090     1100     1105     1112     1124     1138 
    1159     1193     1225     1248     1262     1271     1278     1285 
    1294     1300     1305     1312     1310     1304     1300     1301 
    1300     1296     1290     1286     1279     1270     1267     1274 
    1281     1286     1286     1271     1251     1240     1232     1228 
    1228     1227     1227     1236     1247     1256     1267     1279 
    1285     1289     1298     1302     1294     1294     1304     1301 
    1294     1300     1304     1297     1289     1277     1252     1223 
    1188     1151     1117     1080     1039     1000      954      903 
     853      804      765      733      696      656      621      588 
     556      526      510      500      498      495      491      495 
     502      508      523      533      532      540      553      556 
     553      557      562      566      572      579      594      621 
     652      689      723      741      747      741      724      696 
     668      643      618      583      548      508      460      414 
     372      329      291      263      252      261      292      332 
     363      382      387      372      344      317      302      289 
     271      246      209      149       83       22      -36      -90 
    -147     -218     -301     -383     -471     -565     -665     -764 
    -862     -969    -1073    -1162    -1236    -1301    -1347    -1381 
   -1412    -1436    -1448    -1459    -1464    -1466    -1466    -1460 
   -1448    -1431    -1405    -1368    -1327    -1285    -1251    -1228 
   -1210    -1196    -1170    -1123    -1067    -1009     -946     -888 
    -841     -807     -791     -783     -774     -774     -781     -785 
    -780     -765     -751     -754     -769     -785     -800     -814 
    -823     -827     -827     -822     -808     -791     -773     -749 
    -715     -688     -669     -652     -630     -600     -571     -542 
    -515     -492     -472     -453     -444     -441     -437     -438 
    -450     -467     -491     -521     -548     -573     -589     -594 
    -599     -604     -598     -587     -584     -569     -544     -531 
    -511     -481     -469     -464     -450     -433     -418     -406 
    -386     -351     -305     -252     -195     -133      -72      -18 
      27       67      108      155      216      283      342      398 
     457      513      557      600      661      737      814      892 
     967     1038     1105     1170     1235     1297     1351     1397 
    1439     1468     1479     1480     1478     1467     1444     1418 
    1391     1368     1343     1321     1304     1291     1282     1275 
    1266     1254     1243     1237     1233     1227     1225     1230 
    1235     1235     1233     1232     1230     1240     1258     1278 
    1308     1347     1383     1422     1459     1480     1490     1498 
    1499     1502     1514     1528     1556     1594     1620     1622 
    1613     1583     1537     1483     1425     1362     1304     1256 
    1213     1169     1125     1090     1062     1035     1011      989 
     967      959      970     1000     1046     1089     1119     1140 
    1155     1163     1177     1208     1248     1289     1320     1343 
    1362     1374     1383     1404     1433     1453     1466     1482 
    1502     1520     1537     1549     1552     1547     1539     1528 
    1509     1485     1471     1464     1462     1470     1474     1470 
    1460     1449     1443     1435     1424     1431     1448     1456 
    1462     1474     1479     1472     1466     1466     1462     1452 
    1449     1449     1433     1409     1390     1368     1340     1310 
    1281     1255     1221     1181     1161     1150     1129     1111 
    1104     1100     1086     1065     1053     1051     1036     1009 
     986      958      901      831      776      728      680      631 
     594      564      530      492      459      422      379      348 
     336      329      322      322      333      340      336      334 
     340      344      356      373      376      368      359      338 
     306      275      249      225      197      166      133      101 
      68       43       20      -14      -62      -98     -121     -135 
    -126     -103      -79      -51      -22        8       63      141 
     224      310      402      487      566      653      754      858 
     955     1039     1111     1177     1230     1275     1317     1351 
    1368     1379     1389     1386     1355     1306     1260     1216 
    1162     1098     1046     1003      957      913      890      876 
     868      881      912      939      945      928      920      928 
     938      955      981      996     1004     1007      984      943 
     922      924      929      919      899      880      851      828 
     837      858      873      881      876      853      835      843 
     885      936      973      993     1011     1032     1053     1077 
    1117     1166     1212     1252     1281     1312     1364     1424 
    1475     1517     1552     1578     1601     1628     1657     1682 
    1695     1709     1723     1732     1729     1733     1757     1796 
    1844     1899     1958     2022     2085     2138     2184     2230 
    2270     2300     2324     2338     2340     2331     2323     2313 
    2300     2290     2280     2262     2250     2232     2204     2180 
    2160     2135     2111     2092     2070     2050     2031     2011 
    1991     1968     1937     1899     1863     1826     1788     1746 
    1709     1680     1661     1645     1632     1632     1637     1644 
    1655     1669     1683     1702     1729     1759     1794     1836 
    1880     1933     1992     2047     2097     2147     2196     2246 
    2301     2355     2401     2434     2455     2466     2467     2469 
    2470     2471     2477     2478     2467     2458     2451     2442 
    2438     2438     2439     2444     2442     2421     2384     2335 
    2266     2185     2107     2041     1977     1912     1857     1811 
    1767     1715     1667     1621     1579     1545     1513     1482 
    1464     1449     1431     1412     1401     1399     1405     1410 
    1424     1440     1441     1440     1451     1463     1478     1506 
    1544     1583     1617     1644     1661     1657     1640     1620 
    1598     1578     1563     1557     1564     1579     1591     1602 
    1614     1622     1622     1614     1603     1595     1593     1588 
    1580     1574     1559     1535     1507     1468     1418     1364 
    1305     1246     1183     1117     1053      997      947      903 
     874      862      862      869      882      896      903      905 
     901      899      893      877      859      843      824      793 
     756      724      691      648      610      577      533      479 
     422      370      321      265      220      186      151      116 
      85       54       28       22       29       41       63       98 
     144      203      263      314      361      417      461      493 
     526      550      558      562      568      571      564      544 
     526      510      493      487      487      480      469      463 
     449      425      405      395      390      387      391      392 
