Origin Time       2016/04/16 01:25:00
Lat.              32.753
Long.             130.762
Depth. (km)       12
Mag.              7.3
Station Code      OKY010
Station Lat.      34.7454
Station Long.     134.1884
Station Height(m) 2
Record Time       2016/04/16 01:26:57
Sampling Freq(Hz) 100Hz
Duration Time(s)  65
Dir.              E-W
Scale Factor      7845(gal)/8223790
Max. Acc. (gal)   2.219
Last Correction   2016/04/16 01:26:57
Memo.             
[...]
   -2930    -2926    -2902    -2882    -2898    -2917    -2911    -2913 
   -2917    -2893    -2856    -2811    -2759    -2721    -2681    -2640 
   -2667    -2745    -2805    -2824    -2848    -2896    -2895    -2849 
   -2829    -2798    -2754    -2758    -2789    -2805    -2821    -2868 
   -2929    -2972    -3045    -3148    -3200    -3211    -3238    -3257 
   -3229    -3196    -3192    -3186    -3141    -3067    -2998    -2967 
   -2951    -2949    -3018    -3107    -3130    -3117    -3106    -3080 
   -3037    -2994    -2963    -2943    -2905    -2821    -2770    -2844 
   -2974    -3040    -3071    -3136    -3199    -3249    -3310    -3338 
   -3306    -3273    -3276    -3298    -3338    -3358    -3284    -3188 
   -3213    -3315    -3339    -3288    -3273    -3336    -3416    -3439 
   -3407    -3362    -3288    -3198    -3200    -3326    -3403    -3312 
   -3154    -3078    -3150    -3310    -3403    -3369    -3273    -3180 
   -3134    -3102    -3028    -2961    -2947    -2955    -2971    -2972 
   -2932    -2882    -2872    -2914    -2959    -2974    -2948    -2879 
   -2851    -2915    -2963    -2920    -2843    -2778    -2694    -2624 
   -2671    -2809    -2894    -2872    -2820    -2806    -2837    -2895 
   -2994    -3127    -3241    -3308    -3348    -3393    -3462    -3543 
   -3595    -3613    -3645    -3665    -3661    -3726    -3854    -3901 
   -3827    -3716    -3642    -3626    -3608    -3519    -3414    -3350 
   -3291    -3219    -3184    -3198    -3199    -3176    -3163    -3167 
   -3210    -3264    -3249    -3225    -3295    -3388    -3396    -3315 
   -3192    -3084    -3029    -3011    -2999    -2971    -2963    -3014 
   -3082    -3121    -3132    -3094    -3022    -2982    -2960    -2938 
   -2941    -2940    -2895    -2872    -2896    -2903    -2879    -2835 
   -2751    -2686    -2718    -2813    -2891    -2907    -2843    -2751 
   -2716    -2740    -2762    -2752    -2755    -2759    -2744    -2733 
   -2740    -2763    -2785    -2762    -2700    -2659    -2677    -2733 
   -2774    -2790    -2836    -2905    -2947    -2971    -2994    -3006 
   -2986    -2926    -2856    -2818    -2840    -2882    -2879    -2837 
   -2814    -2844    -2886    -2871    -2830    -2810    -2814    -2857 
   -2890    -2878    -2856    -2824    -2779    -2781    -2844    -2913 
   -2943    -2949    -2957    -2979    -2972    -2910    -2830    -2776 
   -2758    -2755    -2755    -2763    -2759    -2718    -2668    -2639 
   -2640    -2648    -2631    -2636    -2714    -2809    -2844    -2852 
   -2909    -2988    -3036    -3051    -3056    -3079    -3115    -3138 
   -3148    -3153    -3153    -3144    -3105    -3041    -3006    -2984 
   -2920    -2840    -2771    -2729    -2733    -2747    -2745    -2764 
   -2785    -2774    -2763    -2789    -2849    -2909    -2956    -3014 
   -3083    -3153    -3198    -3180    -3126    -3084    -3042    -2979 
   -2940    -2918    -2878    -2849    -2826    -2789    -2766    -2745 
   -2733    -2758    -2802    -2844    -2874    -2891    -2901    -2886 
   -2872    -2895    -2956    -3042    -3121    -3175    -3200    -3213 
   -3254    -3322    -3372    -3391    -3404    -3427    -3431    -3403 
   -3355    -3310    -3275    -3241    -3202    -3149    -3099    -3082 
   -3090    -3090    -3087    -3096    -3086    -3059    -3065    -3117 
   -3180    -3221    -3221    -3213    -3217    -3223    -3245    -3256 
   -3231    -3207    -3192    -3161    -3154    -3160    -3136    -3114 
   -3118    -3134    -3145    -3132    -3126    -3154    -3194    -3229 
   -3249    -3275    -3325    -3372    -3410    -3440    -3445    -3410 
   -3360    -3315    -3292    -3268    -3194    -3092    -3002    -2917 
   -2848    -2818    -2839    -2891    -2936    -2959    -2982    -3032 
   -3090    -3146    -3219    -3299    -3385    -3454    -3473    -3476 
   -3496    -3514    -3497    -3447    -3383    -3291    -3188    -3095 
   -3002    -2914    -2839    -2791    -2792    -2814    -2848    -2909 
   -2979    -3025    -3076    -3169    -3269    -3353    -3419    -3478 
   -3559    -3636    -3677    -3715    -3732    -3708    -3686    -3692 
   -3712    -3736    -3738    -3719    -3697    -3647    -3573    -3518 
   -3458    -3388    -3365    -3372    -3365    -3368    -3412    -3459 
   -3465    -3464    -3459    -3437    -3419    -3407    -3388    -3360 
   -3323    -3283    -3234    -3183    -3130    -3076    -3033    -3015 
   -3037    -3071    -3092    -3100    -3087    -3071    -3060    -3032 
   -2997    -2955    -2925    -2924    -2926    -2944    -3003    -3078 
   -3134    -3175    -3207    -3213    -3184    -3144    -3119    -3107 
   -3073    -3040    -3056    -3082    -3078    -3046    -2986    -2938 
   -2948    -3024    -3130    -3208    -3252    -3264    -3234    -3204 
   -3213    -3244    -3275    -3310    -3335    -3329    -3298    -3241 
   -3200    -3186    -3132    -3036    -2930    -2818    -2725    -2669 
   -2656    -2669    -2673    -2646    -2579    -2509    -2477    -2490 
   -2565    -2678    -2759    -2758    -2663    -2546    -2484    -2469 
   -2466    -2455    -2446    -2438    -2419    -2412    -2415    -2409 
   -2374    -2312    -2255    -2199    -2153    -2130    -2097    -2072 
   -2037    -1982    -1964    -1964    -1960    -1944    -1918    -1915 
   -1911    -1904    -1902    -1867    -1826    -1802    -1798    -1826 
   -1884    -1972    -2045    -2088    -2166    -2227    -2263    -2317 
   -2350    -2382    -2424    -2450    -2457    -2430    -2404    -2380 
   -2340    -2312    -2299    -2286    -2250    -2224    -2245    -2249 
   -2282    -2338    -2312    -2234    -2124    -2004    -1948    -1921 
   -1895    -1869    -1841    -1833    -1815    -1768    -1722    -1686 
   -1676    -1669    -1690    -1769    -1869    -1992    -2107    -2209 
   -2334    -2435    -2519    -2597    -2635    -2675    -2733    -2794 
   -2835    -2821    -2785    -2721    -2644    -2612    -2601    -2584 
   -2554    -2540    -2554    -2532    -2501    -2488    -2467    -2470 
   -2490    -2555    -2698    -2882    -3088    -3280    -3429    -3532 
   -3603    -3688    -3755    -3766    -3761    -3740    -3723    -3686 
   -3619    -3586    -3568    -3544    -3557    -3593    -3665    -3732 
   -3754    -3747    -3697    -3655    -3631    -3577    -3541    -3527 
   -3524    -3528    -3528    -3593    -3696    -3762    -3786    -3750 
   -3681    -3599    -3503    -3434    -3369    -3300    -3252    -3225 
   -3252    -3333    -3465    -3592    -3639    -3666    -3689    -3701 
   -3755    -3809    -3856    -3878    -3811    -3732    -3672    -3624 
   -3643    -3704    -3771    -3812    -3828    -3851    -3840    -3808 
   -3776    -3735    -3704    -3689    -3693    -3711    -3731    -3766 
   -3792    -3807    -3828    -3838    -3879    -3958    -4003    -4014 
   -3991    -3931    -3840    -3738    -3661    -3596    -3526    -3465 
   -3429    -3410    -3362    -3284    -3211    -3134    -3053    -2986 
   -2952    -2960    -2979    -2983    -2979    -2990    -3025    -3048 
   -3071    -3109    -3134    -3149    -3145    -3123    -3109    -3071 
   -3015    -2970    -2926    -2894    -2876    -2890    -2949    -3034 
   -3123    -3187    -3232    -3283    -3302    -3310    -3326    -3329 
   -3338    -3345    -3334    -3327    -3312    -3307    -3323    -3317 
   -3299    -3287    -3273    -3231    -3171    -3138    -3103    -3063 
   -3048    -3041    -3040    -3026    -3010    -3021    -3021    -3029 
   -3067    -3100    -3130    -3160    -3175    -3183    -3194    -3217 
   -3241    -3252    -3253    -3232    -3175    -3100    -3051    -3002 
   -2940    -2911    -2887    -2844    -2849    -2879    -2922    -3005 
   -3078    -3111    -3129    -3160    -3187    -3144    -3068    -3006 
   -2901    -2798    -2745    -2675    -2604    -2578    -2581    -2596 
   -2639    -2705    -2752    -2775    -2806    -2822    -2814    -2795 
   -2785    -2803    -2818    -2841    -2880    -2878    -2848    -2813 
   -2783    -2774    -2771    -2797    -2847    -2895    -2949    -2980 
   -2978    -2959    -2930    -2902    -2859    -2817    -2782    -2727 
   -2675    -2644    -2658    -2721    -2772    -2821    -2906    -2999 
   -3082    -3132    -3150    -3157    -3167    -3213    -3256    -3265 
   -3242    -3186    -3146    -3125    -3098    -3105    -3129    -3159 
   -3173    -3118    -3032    -2938    -2837    -2751    -2685    -2673 
   -2691    -2650    -2579    -2535    -2506    -2496    -2528    -2608 
   -2691    -2772    -2867    -2930    -2980    -3044    -3076    -3084 
   -3090    -3109    -3136    -3136    -3133    -3115    -3064    -2999 
   -2896    -2762    -2619    -2473    -2367    -2308    -2273    -2263 
   -2262    -2282    -2323    -2363    -2421    -2519    -2659    -2803 
   -2905    -2964    -2998    -3032    -3059    -3075    -3118    -3159 
   -3168    -3192    -3240    -3289    -3306    -3267    -3213    -3171 
   -3134    -3107    -3061    -2984    -2915    -2878    -2849    -2820 
   -2798    -2772    -2737    -2721    -2712    -2662    -2583    -2535 
   -2504    -2452    -2412    -2413    -2436    -2484    -2565    -2675 
   -2799    -2909    -2994    -3087    -3180    -3252    -3311    -3345 
   -3338    -3331    -3354    -3392    -3419    -3434    -3469    -3491 
   -3439    -3333    -3208    -3071    -2928    -2785    -2636    -2497 
   -2362    -2224    -2120    -2072    -2049    -2060    -2102    -2126 
   -2139    -2174    -2222    -2281    -2344    -2390    -2430    -2451 
   -2447    -2438    -2415    -2362    -2307    -2274    -2215    -2119 
   -2038    -1964    -1888    -1836    -1798    -1761    -1729    -1711 
   -1717    -1753    -1838    -1927    -1996    -2104    -2230    -2313 
   -2376    -2432    -2489    -2529    -2562    -2609    -2646    -2660 
   -2671    -2659    -2639    -2655    -2659    -2597    -2515    -2447 
   -2381    -2323    -2284    -2249    -2220    -2236    -2292    -2323 
   -2343    -2381    -2393    -2389    -2419    -2444    -2448    -2477 
   -2509    -2520    -2527    -2535    -2536    -2512    -2455    -2411 
   -2398    -2409    -2439    -2473    -2506    -2554    -2629    -2721 
   -2791    -2844    -2907    -2974    -3048    -3141    -3240    -3353 
   -3466    -3559    -3639    -3697    -3724    -3735    -3734    -3712 
   -3680    -3650    -3620    -3557    -3440    -3292    -3127    -2956 
   -2779    -2628    -2521    -2442    -2394    -2376    -2376    -2403 
   -2452    -2525    -2633    -2759    -2878    -2965    -3015    -3029 
   -2998    -2947    -2890    -2824    -2768    -2739    -2721    -2702 
   -2662    -2604    -2539    -2458    -2376    -2300    -2231    -2181 
   -2162    -2189    -2250    -2332    -2444    -2558    -2656    -2767 
   -2876    -2945    -2984    -3034    -3098    -3154    -3199    -3227 
   -3240    -3252    -3265    -3279    -3315    -3369    -3415    -3453 
   -3478    -3503    -3542    -3565    -3558    -3577    -3662    -3767 
   -3850    -3940    -4035    -4097    -4153    -4225    -4266    -4271 
   -4271    -4266    -4220    -4172    -4149    -4114    -4072    -4039 
   -4006    -3986    -3994    -4013    -4035    -4050    -4035    -4016 
   -4021    -4016    -3977    -3919    -3866    -3802    -3730    -3688 
   -3680    -3663    -3615    -3568    -3542    -3534    -3551    -3591 
   -3634    -3670    -3696    -3728    -3797    -3889    -3983    -4068 
   -4110    -4116    -4120    -4107    -4052    -3981    -3944    -3904 
   -3794    -3684    -3628    -3576    -3499    -3443    -3420    -3380 
   -3315    -3260    -3237    -3248    -3265    -3281    -3300    -3323 
   -3358    -3420    -3511    -3612    -3699    -3775    -3821    -3832 
   -3844    -3861    -3858    -3821    -3766    -3713    -3659    -3592 
   -3520    -3461    -3411    -3334    -3223    -3114    -2998    -2874 
   -2762    -2656    -2562    -2515    -2519    -2556    -2597    -2647 
   -2728    -2811    -2898    -3015    -3159    -3321    -3459    -3543 
   -3569    -3522    -3411    -3279    -3152    -3052    -2980    -2925 
   -2875    -2818    -2768    -2720    -2646    -2565    -2498    -2425 
   -2354    -2289    -2249    -2254    -2288    -2309    -2311    -2331 
   -2403    -2478    -2539    -2621    -2721    -2816    -2896    -2964 
   -3030    -3073    -3090    -3092    -3090    -3118    -3179    -3242 
   -3312    -3383    -3430    -3465    -3496    -3530    -3596    -3681 
   -3757    -3798    -3821    -3866    -3915    -3932    -3936    -3950 
   -3954    -3951    -3971    -3993    -4023    -4087    -4129    -4136 
   -4170    -4215    -4261    -4324    -4348    -4336    -4329    -4286 
   -4200    -4125    -4058    -3971    -3861    -3744    -3634    -3511 
   -3403    -3323    -3234    -3168    -3175    -3206    -3241    -3321 
   -3407    -3466    -3524    -3570    -3582    -3581    -3546    -3466 
   -3369    -3264    -3145    -3034    -2949    -2884    -2832    -2781 
   -2732    -2683    -2650    -2631    -2605    -2592    -2596    -2589 
   -2593    -2631    -2697    -2791    -2894    -2999    -3113    -3208 
   -3284    -3362    -3449    -3516    -3543    -3572    -3618    -3630 
   -3595    -3542    -3510    -3495    -3469    -3466    -3511    -3576 
   -3650    -3723    -3788    -3847    -3865    -3848    -3851    -3883 
   -3925    -3974    -4020    -4047    -4044    -4036    -4033    -4028 
   -4044    -4085    -4136    -4199    -4255    -4313    -4376    -4415 
   -4453    -4517    -4592    -4684    -4810    -4962    -5119    -5251 
   -5333    -5359    -5360    -5364    -5374    -5367    -5335    -5296 
   -5239    -5148    -5047    -4954    -4851    -4745    -4657    -4576 
   -4487    -4406    -4360    -4342    -4291    -4207    -4166    -4158 
   -4136    -4136    -4197    -4280    -4326    -4317    -4284    -4260 
   -4228    -4186    -4171    -4176    -4159    -4109    -4047    -3977 
   -3912    -3842    -3748    -3655    -3568    -3469    -3379    -3306 
   -3262    -3237    -3168    -3075    -3011    -2965    -2937    -2964 
   -3030    -3105    -3171    -3221    -3241    -3242    -3254    -3283 
   -3289    -3271    -3269    -3283    -3271    -3241    -3210    -3177 
   -3142    -3088    -3025    -2999    -3013    -3041    -3092    -3153 
   -3210    -3271    -3314    -3333    -3350    -3361    -3381    -3412 
   -3437    -3465    -3474    -3439    -3411    -3419    -3426    -3440 
   -3504    -3578    -3609    -3658    -3757    -3847    -3916    -3971 
   -4021    -4095    -4162    -4210    -4266    -4315    -4347    -4360 
   -4372    -4391    -4401    -4415    -4442    -4441    -4386    -4286 
   -4149    -3993    -3819    -3634    -3447    -3280    -3145    -3009 
   -2890    -2825    -2792    -2785    -2817    -2876    -2940    -2979 
   -3011    -3064    -3088    -3076    -3065    -3048    -3006    -2951 
   -2909    -2882    -2844    -2816    -2805    -2785    -2751    -2698 
   -2644    -2608    -2577    -2552    -2524    -2461    -2388    -2322 
   -2263    -2246    -2265    -2300    -2351    -2405    -2425    -2419 
   -2419    -2411    -2396    -2411    -2457    -2539    -2647    -2739 
   -2826    -2914    -2980    -3046    -3117    -3176    -3229    -3279 
   -3331    -3369    -3376    -3354    -3306    -3256    -3204    -3144 
   -3119    -3141    -3169    -3206    -3258    -3314    -3339    -3327 
   -3312    -3307    -3298    -3276    -3245    -3210    -3173    -3142 
   -3137    -3145    -3154    -3179    -3208    -3221    -3223    -3229 
   -3229    -3203    -3161    -3127    -3100    -3067    -3034    -3024 
   -3022    -3010    -2990    -2959    -2925    -2896    -2863    -2849 
   -2856    -2851    -2833    -2806    -2766    -2733    -2714    -2709 
   -2725    -2756    -2799    -2868    -2949    -3032    -3109    -3176 
   -3244    -3304    -3358    -3433    -3522    -3600    -3667    -3709 
   -3703    -3667    -3608    -3530    -3497    -3530    -3577    -3623 
   -3662    -3677    -3681    -3680    -3678    -3672    -3649    -3631 
   -3592    -3492    -3392    -3348    -3319    -3258    -3196    -3192 
   -3213    -3208    -3188    -3192    -3213    -3207    -3150    -3067 
   -2991    -2952    -2945    -2945    -2952    -2961    -2951    -2943 
   -2956    -2972    -3001    -3029    -3021    -2980    -2932    -2887 
   -2836    -2772    -2727    -2702    -2697    -2729    -2774    -2811 
   -2836    -2814    -2747    -2662    -2567    -2481    -2413    -2362 
   -2349    -2385    -2439    -2465    -2474    -2505    -2544    -2577 
   -2624    -2683    -2721    -2736    -2755    -2770    -2749    -2698 
   -2640    -2574    -2515    -2501    -2524    -2551    -2565    -2554 
   -2532    -2531    -2539    -2532    -2504    -2455    -2389    -2334 
   -2300    -2274    -2250    -2263    -2309    -2334    -2331    -2307 
   -2251    -2184    -2128    -2095    -2100    -2124    -2154    -2199 
   -2253    -2309    -2362    -2405    -2436    -2454    -2470    -2501 
   -2548    -2609    -2683    -2751    -2799    -2825    -2809    -2743 
   -2658    -2587    -2533    -2501    -2482    -2463    -2457    -2455 
   -2436    -2398    -2361    -2336    -2334    -2338    -2340    -2317 
   -2270    -2215    -2163    -2106    -2034    -1954    -1903    -1910 
   -1946    -1975    -2000    -2027    -2038    -2045    -2069    -2091 
   -2116    -2166    -2212    -2231    -2254    -2304    -2350    -2370 
   -2384    -2408    -2459    -2538    -2619    -2698    -2774    -2835 
   -2868    -2887    -2886    -2847    -2785    -2717    -2655    -2617 
   -2596    -2586    -2602    -2631    -2658    -2691    -2747    -2833 
   -2917    -2961    -2991    -3026    -3026    -2986    -2940    -2901 
   -2867    -2833    -2798    -2776    -2792    -2832    -2871    -2911 
   -2933    -2905    -2833    -2728    -2592    -2451    -2311    -2161 
   -2023    -1914    -1811    -1707    -1613    -1541    -1494    -1453 
   -1401    -1348    -1314    -1287    -1255    -1202    -1156    -1139 
   -1115    -1065    -1031    -1019    -1016    -1030    -1089    -1188 
   -1302    -1431    -1574    -1717    -1848    -1956    -2050    -2137 
   -2215    -2288    -2344    -2396    -2457    -2525    -2606    -2690 
   -2752    -2790    -2801    -2775    -2743    -2717    -2678    -2610 
   -2520    -2427    -2340    -2274    -2246    -2238    -2247    -2284 
   -2311    -2303    -2288    -2285    -2270    -2234    -2201    -2170 
   -2119    -2057    -1989    -1910    -1829    -1759    -1719    -1710 
   -1719    -1746    -1800    -1872    -1926    -1966    -2010    -2053 
   -2116    -2208    -2315    -2442    -2563    -2646    -2704    -2751 
   -2795    -2843    -2898    -2970    -3029    -3051    -3053    -3033 
   -2986    -2952    -2944    -2949    -2978    -3030    -3087    -3122 
   -3133    -3138    -3160    -3196    -3230    -3258    -3289    -3312 
   -3310    -3267    -3200    -3141    -3098    -3069    -3045    -3017 
   -2991    -2957    -2895    -2814    -2731    -2660    -2610    -2589 
   -2590    -2605    -2643    -2704    -2764    -2813    -2856    -2902 
   -2957    -3017    -3087    -3156    -3208    -3242    -3250    -3238 
   -3213    -3157    -3075    -2982    -2889    -2802    -2720    -2627 
   -2532    -2450    -2384    -2323    -2258    -2184    -2116    -2089 
   -2097    -2111    -2150    -2226    -2276    -2288    -2305    -2342 
   -2398    -2471    -2532    -2550    -2523    -2470    -2428    -2417 
