Origin Time       2016/04/16 01:25:00
Lat.              32.753
Long.             130.762
Depth. (km)       12
Mag.              7.3
Station Code      OKY004
Station Lat.      34.9579
Station Long.     133.5018
Station Height(m) 168
Record Time       2016/04/16 01:26:47
Sampling Freq(Hz) 100Hz
Duration Time(s)  69
Dir.              E-W
Scale Factor      7845(gal)/8223790
Max. Acc. (gal)   2.386
Last Correction   2016/04/16 01:26:48
Memo.             
[...]
  -10540   -10567   -10578   -10558   -10503   -10409   -10318   -10257 
  -10233   -10237   -10251   -10258   -10255   -10257   -10273   -10311 
  -10362   -10405   -10430   -10438   -10435   -10428   -10427   -10435 
  -10447   -10453   -10440   -10397   -10329   -10254   -10174   -10099 
  -10037    -9992    -9956    -9913    -9861    -9815    -9799    -9836 
   -9923   -10042   -10170   -10278   -10338   -10349   -10319   -10269 
  -10223   -10193   -10185   -10187   -10168   -10108   -10017    -9915 
   -9837    -9796    -9796    -9834    -9892    -9941    -9957    -9950 
   -9942    -9931    -9918    -9907    -9900    -9891    -9895    -9913 
   -9941    -9976   -10014   -10046   -10071   -10092   -10104   -10095 
  -10064   -10010    -9936    -9867    -9832    -9850    -9922   -10029 
  -10138   -10216   -10247   -10233   -10200   -10183   -10201   -10268 
  -10361   -10455   -10525   -10554   -10542   -10503   -10451   -10409 
  -10372   -10324   -10261   -10200   -10156   -10138   -10147   -10162 
  -10160   -10131   -10077   -10010    -9956    -9940    -9972   -10041 
  -10118   -10184   -10224   -10230   -10218   -10222   -10250   -10299 
  -10362   -10419   -10444   -10444   -10419   -10382   -10353   -10336 
  -10328   -10320   -10308   -10292   -10278   -10281   -10301   -10320 
  -10319   -10285   -10218   -10134   -10054    -9989    -9948    -9942 
   -9979   -10054   -10153   -10254   -10331   -10370   -10372   -10343 
  -10304   -10276   -10269   -10291   -10341   -10416   -10507   -10594 
  -10669   -10722   -10747   -10736   -10698   -10635   -10557   -10485 
  -10431   -10399   -10392   -10403   -10412   -10411   -10388   -10343 
  -10295   -10263   -10263   -10305   -10374   -10440   -10477   -10484 
  -10477   -10476   -10486   -10503   -10509   -10493   -10454   -10408 
  -10366   -10327   -10280   -10218   -10145   -10075   -10008    -9954 
   -9922    -9900    -9899    -9929    -9979   -10054   -10146   -10233 
  -10303   -10354   -10376   -10372   -10369   -10384   -10413   -10442 
  -10451   -10430   -10385   -10357   -10380   -10451   -10554   -10655 
  -10719   -10735   -10710   -10656   -10590   -10523   -10458   -10400 
  -10361   -10343   -10359   -10419   -10504   -10590   -10644   -10646 
  -10588   -10485   -10372   -10285   -10251   -10262   -10287   -10311 
  -10331   -10354   -10393   -10457   -10534   -10611   -10670   -10694 
  -10692   -10667   -10621   -10566   -10509   -10440   -10372   -10323 
  -10282   -10261   -10272   -10300   -10341   -10386   -10412   -10409 
  -10385   -10346   -10308   -10278   -10262   -10242   -10201   -10152 
  -10119   -10115   -10147   -10212   -10281   -10323   -10316   -10251 
  -10160   -10080   -10034   -10029   -10061   -10119   -10181   -10230 
  -10266   -10288   -10296   -10292   -10270   -10227   -10164   -10088 
  -10021    -9981    -9995   -10054   -10141   -10230   -10288   -10303 
  -10287   -10250   -10214   -10206   -10216   -10226   -10220   -10191 
  -10137   -10084   -10061   -10087   -10158   -10260   -10362   -10442 
  -10485   -10503   -10507   -10501   -10501   -10508   -10503   -10480 
  -10455   -10436   -10440   -10473   -10524   -10575   -10606   -10606 
  -10580   -10534   -10477   -10431   -10397   -10384   -10386   -10396 
  -10400   -10397   -10392   -10384   -10374   -10361   -10324   -10272 
  -10214   -10147   -10073   -10000    -9931    -9873    -9836    -9829 
   -9847    -9884    -9931    -9981   -10021   -10042   -10042   -10011 
   -9964    -9913    -9873    -9853    -9857    -9877    -9904    -9934 
   -9973   -10017   -10053   -10080   -10095   -10103   -10107   -10114 
  -10135   -10166   -10189   -10193   -10176   -10139   -10095   -10064 
  -10058   -10095   -10173   -10266   -10353   -10426   -10480   -10504 
  -10496   -10457   -10390   -10309   -10233   -10174   -10125   -10075 
  -10026    -9983    -9952    -9946    -9972   -10022   -10088   -10158 
  -10224   -10276   -10318   -10354   -10372   -10384   -10395   -10403 
  -10419   -10453   -10503   -10567   -10633   -10683   -10706   -10687 
  -10632   -10565   -10503   -10457   -10438   -10438   -10449   -10461 
  -10469   -10476   -10496   -10532   -10575   -10617   -10646   -10658 
  -10646   -10611   -10555   -10489   -10422   -10362   -10318   -10295 
  -10299   -10332   -10395   -10480   -10573   -10669   -10759   -10841 
  -10916   -10975   -11025   -11061   -11078   -11072   -11048   -11020 
  -11016   -11052   -11121   -11207   -11288   -11330   -11330   -11310 
  -11288   -11269   -11257   -11250   -11250   -11257   -11271   -11283 
  -11283   -11275   -11267   -11263   -11273   -11294   -11294   -11261 
  -11192   -11098   -10998   -10922   -10885   -10883   -10912   -10962 
  -11010   -11043   -11065   -11088   -11118   -11161   -11214   -11263 
  -11296   -11313   -11323   -11346   -11383   -11422   -11468   -11514 
  -11545   -11561   -11570   -11574   -11572   -11561   -11538   -11503 
  -11466   -11426   -11384   -11341   -11284   -11206   -11114   -11005 
  -10883   -10764   -10662   -10585   -10543   -10534   -10536   -10534 
  -10528   -10536   -10565   -10632   -10748   -10889   -11018   -11119 
  -11178   -11187   -11167   -11140   -11114   -11107   -11118   -11119 
  -11102   -11068   -11013   -10941   -10863   -10777   -10698   -10642 
  -10600   -10569   -10542   -10496   -10420   -10322   -10201   -10079 
   -9976    -9891    -9819    -9764    -9724    -9694    -9684    -9684 
   -9684    -9684    -9682    -9672    -9647    -9605    -9547    -9462 
   -9350    -9231    -9124    -9038    -8985    -8968    -8985    -9031 
   -9092    -9157    -9201    -9212    -9197    -9155    -9084    -9003 
   -8924    -8857    -8814    -8795    -8802    -8824    -8846    -8858 
   -8872    -8899    -8947    -9022    -9116    -9216    -9300    -9363 
   -9408    -9431    -9439    -9431    -9405    -9369    -9333    -9309 
   -9309    -9333    -9374    -9410    -9424    -9401    -9350    -9290 
   -9240    -9217    -9231    -9274    -9331    -9383    -9440    -9513 
   -9599    -9702    -9802    -9879    -9930    -9972   -10022   -10091 
  -10170   -10237   -10266   -10250   -10201   -10138   -10088   -10065 
  -10065   -10083   -10099   -10088   -10044    -9965    -9869    -9771 
   -9679    -9602    -9541    -9490    -9445    -9406    -9378    -9360 
   -9352    -9335    -9300    -9246    -9167    -9070    -8969    -8872 
   -8781    -8719    -8699    -8726    -8799    -8896    -9000    -9082 
   -9127    -9127    -9093    -9045    -9013    -9020    -9076    -9165 
   -9252    -9329    -9402    -9468    -9544    -9644    -9761    -9887 
  -10008   -10091   -10112   -10083   -10019    -9934    -9844    -9767 
   -9699    -9624    -9541    -9463    -9401    -9369    -9377    -9417 
   -9479    -9544    -9601    -9649    -9682    -9707    -9730    -9749 
   -9764    -9764    -9745    -9713    -9664    -9607    -9559    -9525 
   -9509    -9505    -9506    -9518    -9533    -9545    -9578    -9632 
   -9691    -9761    -9842    -9919    -9994   -10069   -10147   -10237 
  -10336   -10447   -10562   -10675   -10785   -10890   -11001   -11111 
  -11209   -11286   -11323   -11313   -11271   -11214   -11160   -11128 
  -11114   -11128   -11159   -11187   -11213   -11246   -11283   -11321 
  -11360   -11392   -11414   -11427   -11443   -11476   -11535   -11616 
  -11704   -11790   -11869   -11923   -11951   -11969   -11979   -11992 
  -12016   -12048   -12079   -12101   -12097   -12044   -11936   -11792 
  -11618   -11427   -11241   -11071   -10932   -10841   -10787   -10748 
  -10716   -10673   -10605   -10514   -10415   -10332   -10282   -10265 
  -10276   -10296   -10304   -10292   -10281   -10293   -10326   -10384 
  -10458   -10513   -10536   -10536   -10521   -10504   -10508   -10543 
  -10606   -10689   -10787   -10887   -10982   -11071   -11151   -11218 
  -11272   -11308   -11315   -11280   -11213   -11124   -11029   -10947 
  -10878   -10817   -10746   -10651   -10539   -10420   -10305   -10215 
  -10147   -10096   -10050    -9992    -9909    -9791    -9655    -9522 
   -9424    -9387    -9433    -9553    -9721    -9890   -10018   -10073 
  -10052    -9976    -9871    -9779    -9741    -9752    -9790    -9846 
   -9896    -9910    -9895    -9865    -9830    -9787    -9741    -9697 
   -9652    -9610    -9582    -9571    -9570    -9574    -9576    -9568 
   -9547    -9513    -9475    -9437    -9405    -9374    -9344    -9324 
   -9316    -9319    -9335    -9367    -9416    -9481    -9559    -9648 
   -9733    -9786    -9794    -9741    -9620    -9452    -9274    -9108 
   -8968    -8866    -8811    -8793    -8811    -8861    -8945    -9070 
   -9236    -9423    -9609    -9779    -9913   -10003   -10049   -10075 
  -10093   -10104   -10112   -10114   -10106   -10093   -10099   -10142 
  -10228   -10354   -10500   -10635   -10731   -10768   -10735   -10652 
  -10557   -10480   -10443   -10442   -10462   -10496   -10534   -10575 
  -10628   -10689   -10750   -10786   -10781   -10717   -10590   -10426 
  -10246   -10071    -9934    -9860    -9849    -9900    -9989   -10081 
  -10146   -10157   -10107   -10031    -9973    -9954    -9987   -10069 
  -10183   -10296   -10395   -10471   -10534   -10592   -10650   -10709 
  -10751   -10751   -10697   -10596   -10469   -10336   -10207   -10084 
   -9976    -9890    -9842    -9846    -9903   -10002   -10125   -10257 
  -10370   -10450   -10489   -10485   -10440   -10372   -10305   -10258 
  -10235   -10239   -10265   -10309   -10369   -10434   -10492   -10554 
  -10632   -10728   -10839   -10944   -11013   -11029   -10999   -10937 
  -10854   -10759   -10646   -10516   -10366   -10210   -10054    -9913 
   -9810    -9752    -9742    -9790    -9877    -9984   -10092   -10197 
  -10288   -10353   -10390   -10411   -10416   -10405   -10388   -10378 
  -10372   -10357   -10327   -10274   -10195   -10098    -9992    -9892 
   -9810    -9753    -9720    -9702    -9697    -9705    -9725    -9738 
   -9741    -9713    -9640    -9535    -9425    -9335    -9294    -9312 
   -9383    -9483    -9596    -9705    -9799    -9876    -9934    -9975 
   -9994    -9996    -9989    -9968    -9919    -9847    -9771    -9713 
   -9691    -9710    -9759    -9810    -9830    -9804    -9742    -9647 
   -9535    -9437    -9367    -9324    -9300    -9283    -9281    -9310 
   -9396    -9549    -9753    -9981   -10196   -10357   -10438   -10442 
  -10392   -10319   -10251   -10215   -10216   -10242   -10266   -10276 
  -10276   -10299   -10377   -10520   -10716   -10926   -11110   -11223 
  -11245   -11191   -11097   -10993   -10895   -10795   -10685   -10571 
  -10480   -10438   -10466   -10554   -10658   -10727   -10732   -10651 
  -10503   -10327   -10168   -10064   -10038   -10083   -10174   -10289 
  -10403   -10498   -10571   -10635   -10689   -10725   -10739   -10736 
  -10712   -10663   -10590   -10498   -10400   -10305   -10223   -10160 
  -10119   -10092   -10061   -10015    -9945    -9847    -9733    -9606 
   -9472    -9337    -9215    -9116    -9067    -9084    -9167    -9316 
   -9502    -9687    -9836    -9922    -9944    -9915    -9872    -9842 
   -9825    -9814    -9817    -9837    -9887    -9976   -10098   -10238 
  -10370   -10470   -10534   -10561   -10557   -10532   -10500   -10480 
  -10489   -10534   -10592   -10652   -10706   -10744   -10778   -10818 
  -10858   -10893   -10933   -10975   -11005   -11010   -10990   -10948 
  -10906   -10894   -10935   -11032   -11164   -11292   -11396   -11462 
  -11487   -11495   -11507   -11533   -11573   -11612   -11626   -11597 
  -11523   -11403   -11263   -11129   -11002   -10895   -10820   -10759 
  -10706   -10663   -10627   -10596   -10566   -10534   -10494   -10447 
  -10393   -10335   -10281   -10242   -10234   -10262   -10323   -10407 
  -10492   -10562   -10616   -10666   -10724   -10801   -10903   -11029 
  -11165   -11290   -11389   -11450   -11460   -11431   -11394   -11367 
  -11344   -11317   -11273   -11187   -11048   -10876   -10696   -10544 
  -10454   -10427   -10466   -10552   -10643   -10700   -10705   -10665 
  -10602   -10546   -10521   -10540   -10601   -10697   -10816   -10940 
  -11041   -11099   -11115   -11090   -11032   -10960   -10890   -10832 
  -10801   -10800   -10827   -10879   -10962   -11071   -11192   -11311 
  -11410   -11481   -11519   -11524   -11495   -11430   -11348   -11252 
  -11145   -11036   -10926   -10818   -10731   -10674   -10660   -10708 
  -10806   -10928   -11038   -11114   -11164   -11204   -11254   -11330 
  -11433   -11553   -11673   -11767   -11823   -11843   -11831   -11778 
  -11706   -11642   -11599   -11576   -11553   -11506   -11416   -11280 
  -11103   -10913   -10750   -10635   -10582   -10605   -10689   -10795 
  -10897   -10995   -11090   -11187   -11299   -11412   -11507   -11564 
  -11564   -11526   -11487   -11465   -11477   -11524   -11580   -11627 
  -11661   -11688   -11736   -11821   -11951   -12132   -12332   -12498 
  -12613   -12671   -12660   -12596   -12505   -12396   -12268   -12121 
  -11961   -11804   -11676   -11608   -11614   -11670   -11754   -11840 
  -11914   -11986   -12059   -12132   -12216   -12295   -12363   -12410 
  -12420   -12399   -12372   -12337   -12309   -12297   -12286   -12271 
  -12253   -12247   -12262   -12286   -12307   -12316   -12293   -12247 
  -12198   -12158   -12140   -12151   -12195   -12266   -12313   -12317 
  -12271   -12167   -12029   -11893   -11785   -11736   -11754   -11815 
  -11888   -11940   -11961   -11963   -11989   -12075   -12228   -12424 
  -12630   -12796   -12883   -12879   -12784   -12613   -12402   -12182 
  -11969   -11769   -11581   -11418   -11310   -11265   -11294   -11402 
  -11547   -11681   -11788   -11862   -11902   -11932   -11974   -12036 
  -12124   -12221   -12289   -12299   -12266   -12218   -12186   -12187 
  -12231   -12294   -12339   -12351   -12320   -12249   -12181   -12131 
  -12101   -12094   -12096   -12085   -12063   -12037   -12031   -12059 
  -12122   -12220   -12326   -12405   -12436   -12422   -12363   -12267 
  -12150   -12019   -11881   -11757   -11659   -11599   -11583   -11619 
  -11688   -11762   -11832   -11875   -11867   -11809   -11722   -11632 
  -11562   -11523   -11526   -11562   -11600   -11626   -11653   -11680 
  -11713   -11751   -11772   -11757   -11701   -11605   -11493   -11373 
  -11242   -11098   -10936   -10766   -10600   -10458   -10368   -10347 
  -10401   -10512   -10648   -10783   -10881   -10914   -10883   -10797 
  -10686   -10588   -10519   -10473   -10447   -10434   -10432   -10453 
  -10493   -10542   -10592   -10633   -10651   -10640   -10612   -10593 
  -10609   -10675   -10786   -10917   -11024   -11070   -11045   -10963 
  -10858   -10759   -10675   -10597   -10521   -10447   -10378   -10318 
  -10268   -10230   -10207   -10191   -10177   -10168   -10156   -10130 
  -10096   -10061   -10025    -9999    -9989    -9987    -9984    -9969 
   -9927    -9852    -9756    -9661    -9586    -9543    -9528    -9513 
   -9475    -9406    -9315    -9225    -9177    -9194    -9286    -9444 
   -9637    -9844   -10044   -10226   -10388   -10511   -10574   -10562 
  -10465   -10291   -10081    -9891    -9769    -9740    -9798    -9913 
  -10042   -10153   -10220   -10237   -10214   -10181   -10161   -10166 
  -10201   -10258   -10332   -10427   -10539   -10667   -10788   -10886 
  -10939   -10930   -10871   -10800   -10740   -10709   -10712   -10733 
  -10750   -10741   -10702   -10636   -10552   -10478   -10440   -10455 
  -10521   -10612   -10687   -10712   -10658   -10527   -10347   -10160 
   -9995    -9864    -9775    -9717    -9680    -9667    -9691    -9757 
   -9852    -9960   -10058   -10119   -10129   -10110   -10088   -10085 
  -10115   -10172   -10241   -10299   -10336   -10346   -10320   -10285 
  -10272   -10289   -10328   -10361   -10355   -10291   -10176   -10033 
   -9895    -9780    -9701    -9656    -9634    -9618    -9610    -9607 
   -9605    -9607    -9632    -9661    -9680    -9690    -9699    -9705 
   -9705    -9684    -9629    -9535    -9408    -9266    -9131    -9024 
   -8958    -8938    -8955    -8989    -9031    -9078    -9126    -9169 
   -9204    -9223    -9225    -9207    -9162    -9113    -9074    -9051 
   -9051    -9061    -9055    -9020    -8950    -8865    -8814    -8827 
   -8908    -9038    -9193    -9351    -9490    -9596    -9668    -9705 
   -9699    -9647    -9560    -9470    -9396    -9340    -9298    -9271 
   -9259    -9266    -9297    -9340    -9378    -9414    -9459    -9510 
   -9572    -9641    -9709    -9771    -9826    -9876    -9921    -9967 
  -10004   -10027   -10037   -10030   -10017   -10002    -9984    -9958 
   -9925    -9886    -9837    -9771    -9691    -9599    -9510    -9440 
   -9397    -9381    -9394    -9440    -9501    -9556    -9602    -9624 
   -9628    -9641    -9676    -9732    -9798    -9860    -9906    -9923 
   -9911    -9884    -9853    -9836    -9847    -9898    -9973   -10061 
  -10138   -10183   -10193   -10184   -10160   -10129   -10095   -10055 
  -10014    -9975    -9941    -9907    -9865    -9809    -9737    -9655 
   -9580    -9535    -9520    -9537    -9580    -9621    -9629    -9601 
   -9530    -9454    -9425    -9456    -9549    -9683    -9804    -9869 
   -9847    -9733    -9559    -9370    -9200    -9071    -8999    -8966 
   -8955    -8968    -8999    -9046    -9097    -9131    -9130    -9094 
   -9038    -8988    -8968    -8981    -9032    -9109    -9180    -9219 
   -9223    -9197    -9150    -9099    -9053    -9011    -8988    -8988 
   -9000    -9024    -9058    -9086    -9094    -9078    -9042    -9000 
   -8972    -8970    -9009    -9078    -9151    -9215    -9255    -9262 
   -9244    -9216    -9180    -9142    -9100    -9057    -9013    -8974 
   -8935    -8887    -8827    -8754    -8681    -8629    -8611    -8635 
   -8696    -8787    -8899    -9009    -9093    -9146    -9169    -9173 
   -9178    -9205    -9252    -9309    -9364    -9396    -9383    -9325 
   -9232    -9121    -9019    -8939    -8903    -8911    -8943    -8985 
   -9019    -9030    -9016    -8980    -8923    -8858    -8787    -8725 
   -8683    -8668    -8688    -8739    -8815    -8903    -8980    -9038 
   -9078    -9092    -9090    -9081    -9058    -9018    -8964    -8904 
   -8856    -8829    -8841    -8901    -8986    -9070    -9144    -9189 
   -9200    -9198    -9202    -9223    -9274    -9351    -9433    -9499 
   -9526    -9502    -9437    -9352    -9266    -9197    -9169    -9177 
   -9207    -9246    -9283    -9319    -9343    -9346    -9333    -9317 
   -9300    -9286    -9286    -9292    -9297    -9305    -9317    -9333 
   -9351    -9352    -9337    -9316    -9293    -9282    -9289    -9315 
   -9343    -9363    -9366    -9363    -9366    -9373    -9379    -9374 
   -9347    -9301    -9234    -9150    -9065    -8995    -8955    -8955 
   -8988    -9045    -9101    -9143    -9175    -9202    -9221    -9231 
   -9232    -9227    -9212    -9184    -9159    -9150    -9159    -9200 
   -9265    -9343    -9431    -9528    -9625    -9718    -9813    -9909 
   -9988   -10041   -10068   -10065   -10034    -9977    -9899    -9813 
   -9733    -9674    -9640    -9628    -9639    -9674    -9734    -9822 
   -9937   -10060   -10176   -10270   -10323   -10322   -10277   -10212 
  -10147   -10106   -10096   -10103   -10111   -10093   -10034    -9952 
   -9875    -9830    -9823    -9859    -9926    -9994   -10057   -10125 
