Origin Time       2016/04/16 01:25:00
Lat.              32.753
Long.             130.762
Depth. (km)       12
Mag.              7.3
Station Code      OKY007
Station Lat.      34.7807
Station Long.     133.6121
Station Height(m) 60
Record Time       2016/04/16 01:26:48
Sampling Freq(Hz) 100Hz
Duration Time(s)  62
Dir.              E-W
Scale Factor      7845(gal)/8223790
Max. Acc. (gal)   2.237
Last Correction   2016/04/16 01:26:48
Memo.             
[...]
    5255     5240     5287     5283     5246     5251     5262     5235 
    5206     5215     5296     5356     5320     5319     5386     5390 
    5313     5259     5255     5202     5119     5105     5101     5040 
    5012     5027     4999     4993     5089     5143     5146     5266 
    5452     5539     5584     5651     5640     5540     5398     5244 
    5144     5085     5047     5093     5174     5220     5286     5364 
    5368     5355     5337     5212     5060     5001     4949     4907 
    4956     5008     4978     4968     5008     4985     4909     4904 
    4923     4834     4735     4745     4748     4739     4827     4946 
    4989     5013     5081     5115     5088     5074     5062     5004 
    4938     4958     5053     5076     5038     5062     5082     5020 
    4965     4955     4905     4835     4864     4911     4877     4923 
    5039     5027     5031     5128     5071     4907     4872     4904 
    4878     4866     4932     5027     5093     5148     5246     5343 
    5385     5385     5359     5287     5190     5135     5119     5103 
    5097     5078     5000     4938     4930     4870     4783     4797 
    4876     4928     4988     5069     5139     5142     5023     4891 
    4827     4753     4722     4792     4823     4769     4779     4889 
    4947     4903     4930     5051     5073     5046     5123     5194 
    5154     5121     5169     5182     5151     5216     5267     5192 
    5146     5150     5093     5043     5039     5051     5077     5101 
    5109     5123     5120     5082     5097     5154     5154     5140 
    5157     5175     5169     5147     5171     5216     5233     5254 
    5246     5193     5150     5135     5142     5162     5148     5108 
    5113     5142     5136     5148     5260     5400     5437     5458 
    5526     5525     5479     5505     5499     5406     5375     5429 
    5439     5395     5352     5339     5354     5381     5483     5613 
    5629     5633     5688     5686     5678     5686     5622     5583 
    5571     5437     5300     5252     5171     5076     5046     5055 
    5100     5208     5310     5308     5273     5310     5316     5239 
    5239     5298     5270     5206     5167     5105     5073     5093 
    5107     5127     5162     5163     5161     5150     5107     5081 
    5081     5040     4947     4861     4804     4754     4679     4598 
    4565     4560     4567     4653     4822     4939     4976     5039 
    5119     5166     5228     5287     5256     5190     5178     5120 
    5003     4969     4947     4882     4865     4850     4826     4865 
    4928     4981     5035     5070     5074     5050     5057     5073 
    5000     4922     4923     4908     4843     4814     4810     4750 
    4719     4742     4734     4764     4851     4877     4872     4903 
    4941     4974     5013     5051     5090     5111     5076     4969 
    4857     4827     4824     4820     4869     4904     4916     5012 
    5138     5192     5193     5175     5128     5092     5125     5108 
    5009     5013     5066     5027     5022     5103     5120     5111 
    5171     5220     5217     5235     5268     5248     5201     5177 
    5189     5240     5265     5260     5300     5335     5310     5286 
    5296     5302     5316     5359     5351     5302     5324     5375 
    5364     5362     5421     5491     5555     5632     5688     5742 
    5798     5776     5715     5689     5579     5406     5314     5246 
    5167     5151     5204     5308     5393     5410     5402     5359 
    5290     5262     5278     5294     5314     5371     5431     5431 
    5421     5445     5427     5310     5206     5184     5119     4999 
    4978     4976     4897     4908     4992     4985     4976     5058 
    5080     5023     5019     5017     4976     4945     4926     4916 
    4931     4981     5031     5108     5239     5273     5208     5181 
    5136     5081     5088     5073     5016     5016     5030     4954 
    4914     4976     4992     4968     4961     4963     5001     5007 
    4959     4976     5001     4936     4860     4800     4722     4718 
    4806     4841     4830     4884     4969     4999     5019     5097 
    5111     4993     4905     4873     4807     4789     4833     4847 
    4892     4973     5007     5069     5208     5293     5250     5166 
    5112     5053     4999     4951     4908     4946     4994     4962 
    4994     5089     5096     5108     5174     5186     5178     5173 
    5131     5128     5188     5188     5130     5140     5166     5104 
    5077     5105     5057     5020     5074     5058     4999     5043 
    5103     5088     5060     5086     5131     5135     5140     5174 
    5152     5109     5127     5144     5125     5104     5130     5231 
    5328     5408     5497     5540     5585     5628     5532     5405 
    5325     5173     5026     4984     4965     4963     5023     5071 
    5117     5212     5266     5268     5278     5221     5077     4982 
    4923     4841     4851     4934     4911     4892     4974     4985 
    4949     5046     5140     5103     5093     5140     5100     5074 
    5164     5212     5177     5166     5155     5123     5128     5146 
    5090     5001     4954     4882     4793     4765     4750     4753 
    4808     4885     4966     5013     5051     5125     5174     5189 
    5202     5231     5271     5235     5164     5181     5202     5173 
    5179     5238     5268     5268     5285     5278     5224     5162 
    5100     5011     4911     4855     4852     4838     4777     4761 
    4774     4699     4645     4710     4745     4738     4768     4770 
    4761     4783     4776     4737     4735     4745     4715     4723 
    4780     4822     4870     4895     4930     5023     5063     5080 
    5154     5181     5146     5107     5051     5030     5081     5090 
    5005     4966     5004     4999     4959     4923     4884     4874 
    4851     4801     4818     4876     4880     4864     4865     4841 
    4839     4916     5005     5027     4984     4965     5012     5017 
    4977     4980     5011     5043     5090     5152     5240     5358 
    5427     5400     5375     5409     5402     5316     5262     5242 
    5148     5096     5171     5238     5260     5317     5398     5448 
    5455     5462     5454     5379     5314     5314     5335     5371 
    5431     5475     5503     5518     5491     5413     5320     5221 
    5116     5049     5036     5040     5101     5227     5309     5344 
    5414     5479     5486     5486     5495     5499     5555     5684 
    5800     5846     5896     5973     5991     5983     5995     5907 
    5757     5699     5656     5541     5443     5383     5323     5289 
    5296     5319     5337     5359     5405     5409     5324     5267 
    5271     5238     5194     5200     5216     5197     5159     5194 
    5260     5246     5233     5255     5204     5161     5221     5271 
    5304     5386     5422     5394     5373     5331     5270     5208 
    5123     5055     5047     5065     5080     5108     5181     5273 
    5312     5323     5341     5356     5383     5383     5356     5358 
    5358     5371     5385     5336     5312     5356     5367     5354 
    5363     5373     5371     5364     5347     5323     5319     5333 
    5341     5319     5287     5327     5377     5352     5351     5406 
    5402     5363     5401     5448     5418     5421     5478     5459 
    5436     5516     5574     5544     5535     5562     5539     5478 
    5441     5406     5337     5267     5262     5282     5235     5179 
    5161     5107     5011     4959     4946     4864     4783     4797 
    4792     4780     4845     4884     4912     5005     5058     5024 
    5012     5053     5012     4951     5032     5092     5007     4946 
    4923     4828     4758     4781     4822     4889     5009     5135 
    5227     5267     5281     5286     5279     5282     5271     5224 
    5175     5120     5077     5080     5100     5152     5221     5242 
    5267     5332     5395     5422     5420     5433     5402     5341 
    5379     5476     5535     5556     5555     5552     5605     5626 
    5535     5455     5385     5235     5088     4994     4951     4945 
    4945     4972     5027     5050     5070     5138     5125     5001 
    4945     4966     4946     4923     4931     4909     4897     4946 
    5031     5125     5220     5304     5395     5506     5572     5533 
    5459     5406     5387     5432     5470     5466     5474     5467 
    5437     5416     5373     5292     5200     5111     5074     5090 
    5113     5127     5108     5073     5051     5036     5046     5035 
    5024     5077     5090     5084     5194     5266     5193     5197 
    5271     5223     5178     5240     5282     5302     5364     5418 
    5445     5495     5544     5536     5503     5512     5536     5517 
    5489     5509     5547     5580     5621     5644     5626     5566 
    5491     5402     5275     5196     5196     5198     5233     5282 
    5260     5244     5256     5192     5123     5135     5124     5103 
    5194     5289     5306     5352     5395     5339     5248     5215 
    5206     5166     5146     5142     5134     5143     5135     5127 
    5123     5081     5057     5050     5027     5049     5112     5173 
    5205     5193     5186     5177     5134     5125     5179     5259 
    5298     5305     5377     5439     5410     5386     5389     5389 
    5404     5398     5397     5448     5483     5490     5497     5468 
    5427     5386     5329     5287     5262     5220     5193     5211 
    5251     5329     5441     5525     5566     5575     5509     5390 
    5281     5146     4997     4908     4909     4963     4989     5036 
    5143     5213     5256     5308     5332     5377     5455     5486 
    5460     5459     5521     5560     5522     5516     5563     5543 
    5472     5456     5435     5355     5320     5324     5255     5169 
    5130     5070     4992     4932     4896     4872     4858     4860 
    4922     5038     5092     5119     5205     5201     5073     4985 
    4901     4785     4727     4684     4629     4646     4675     4669 
    4720     4757     4685     4648     4676     4662     4668     4708 
    4723     4780     4904     4976     5004     5115     5244     5266 
    5255     5260     5224     5135     5032     4943     4828     4684 
    4595     4561     4488     4415     4444     4483     4475     4540 
    4635     4641     4661     4703     4662     4599     4583     4535 
    4430     4371     4369     4357     4376     4460     4540     4575 
    4598     4618     4571     4477     4407     4330     4240     4199 
    4236     4293     4326     4355     4367     4395     4440     4405 
    4349     4355     4345     4333     4375     4406     4413     4438 
    4445     4441     4482     4526     4529     4527     4510     4437 
    4367     4355     4347     4330     4355     4421     4490     4529 
    4537     4544     4563     4575     4531     4490     4521     4541 
    4549     4633     4710     4753     4858     4966     5007     5020 
    5017     5000     4966     4926     4930     4974     5027     5112 
    5188     5240     5324     5387     5371     5306     5220     5140 
    5074     4989     4923     4903     4904     4942     4973     4968 
    4959     4916     4870     4915     4938     4880     4877     4926 
    4930     4920     4941     5001     5065     5085     5120     5202 
    5292     5339     5305     5232     5131     4930     4707     4564 
    4436     4338     4336     4352     4391     4514     4633     4654 
    4625     4604     4572     4535     4542     4617     4743     4866 
    4974     5101     5200     5235     5202     5086     4976     4911 
    4854     4864     4985     5159     5375     5667     5948     6115 
    6239     6328     6327     6316     6350     6328     6264     6276 
    6311     6281     6280     6381     6501     6575     6651     6729 
    6744     6731     6750     6728     6625     6566     6552     6512 
    6535     6617     6670     6736     6798     6820     6855     6870 
    6828     6791     6771     6736     6696     6659     6646     6686 
    6733     6739     6764     6820     6825     6790     6791     6790 
    6756     6768     6772     6693     6675     6744     6735     6677 
    6673     6619     6448     6327     6330     6312     6262     6309 
    6411     6453     6467     6507     6528     6502     6470     6427 
    6307     6123     5964     5803     5613     5463     5355     5225 
    5108     5065     5096     5169     5229     5278     5387     5521 
    5564     5551     5576     5613     5605     5589     5609     5656 
    5738     5861     5968     6065     6169     6261     6340     6378 
    6399     6478     6558     6543     6520     6542     6531     6496 
    6480     6463     6431     6382     6323     6278     6212     6085 
    5972     5880     5751     5629     5564     5497     5391     5309 
    5265     5169     5090     5120     5140     5107     5131     5184 
    5158     5082     5030     5015     4989     4962     4970     4999 
    5032     5065     5096     5131     5147     5130     5071     4974 
    4880     4814     4731     4594     4445     4348     4260     4156 
    4117     4133     4145     4147     4120     4068     4045     4031 
    3959     3842     3713     3565     3406     3237     3082     2998 
    2933     2837     2799     2855     2928     2988     3109     3329 
    3561     3774     3998     4238     4480     4653     4747     4850 
    4946     4965     4927     4891     4884     4876     4876     4934 
    4997     5035     5082     5127     5140     5116     5093     5101 
    5063     4986     4915     4796     4664     4608     4572     4526 
    4507     4483     4453     4411     4365     4351     4334     4326 
    4349     4407     4494     4573     4671     4801     4899     4941 
    4968     5027     5060     4999     4958     4988     4989     4999 
    5057     5084     5104     5185     5256     5258     5273     5324 
    5283     5174     5120     5159     5244     5354     5474     5556 
    5617     5659     5664     5643     5582     5532     5530     5532 
    5549     5589     5626     5702     5788     5829     5844     5861 
    5864     5836     5796     5765     5726     5680     5623     5525 
    5404     5302     5204     5135     5127     5131     5161     5224 
    5252     5273     5308     5271     5152     5063     5016     4930 
    4828     4799     4826     4884     4997     5125     5211     5267 
    5331     5390     5394     5362     5377     5439     5478     5549 
    5629     5636     5691     5809     5854     5849     5809     5746 
    5714     5663     5594     5575     5564     5505     5459     5447 
    5412     5377     5362     5373     5448     5571     5663     5702 
    5727     5756     5733     5664     5628     5647     5660     5634 
    5621     5645     5688     5769     5868     5917     5964     6060 
    6133     6143     6162     6205     6212     6183     6178     6181 
    6148     6151     6207     6210     6133     6091     6154     6242 
    6245     6185     6141     6091     6012     5946     5910     5853 
    5778     5773     5810     5849     6019     6257     6421     6606 
    6828     6972     7042     7088     7122     7144     7137     7115 
    7106     7076     7038     7037     7006     6853     6619     6411 
    6214     6016     5886     5786     5682     5623     5590     5551 
    5532     5524     5483     5417     5343     5278     5224     5151 
    5086     5071     5077     5070     5057     5046     5044     5067 
    5101     5100     5053     4993     4974     4993     5012     5043 
    5107     5186     5273     5360     5425     5490     5564     5585 
    5571     5590     5589     5536     5470     5406     5390     5364 
    5302     5317     5341     5319     5397     5509     5524     5589 
    5732     5778     5773     5825     5860     5859     5888     5942 
    5983     6033     6138     6261     6323     6338     6356     6345 
    6247     6157     6123     6069     6022     6008     5964     5875 
    5752     5633     5533     5398     5267     5197     5130     5057 
    5071     5155     5197     5232     5298     5335     5377     5437 
    5428     5364     5305     5239     5181     5119     5005     4884 
    4799     4684     4554     4502     4459     4349     4256     4197 
    4116     4060     4059     4017     3886     3784     3782     3767 
    3727     3723     3705     3650     3566     3443     3326     3229 
    3114     3007     2957     2925     2910     2967     3061     3179 
    3402     3653     3807     3967     4156     4205     4120     4048 
    3984     3875     3819     3854     3850     3825     3890     3960 
    3958     4036     4200     4252     4301     4511     4708     4823 
    4973     5146     5282     5397     5547     5674     5679     5655 
    5664     5625     5571     5557     5509     5408     5317     5256 
    5190     5098     5016     4965     4932     4912     4923     4980 
    5065     5162     5240     5297     5312     5256     5196     5179 
    5169     5155     5174     5229     5281     5310     5377     5463 
    5494     5536     5633     5687     5711     5795     5860     5815 
    5729     5649     5541     5443     5417     5422     5462     5568 
    5698     5845     5988     6092     6216     6339     6424     6554 
    6697     6724     6701     6739     6774     6763     6790     6836 
    6824     6804     6818     6782     6677     6615     6571     6448 
    6339     6316     6265     6196     6193     6176     6115     6069 
    6018     5938     5823     5640     5398     5169     5013     4888 
    4753     4658     4600     4552     4556     4587     4629     4708 
    4764     4780     4819     4852     4833     4770     4676     4576 
    4504     4442     4378     4357     4386     4410     4433     4455 
    4511     4631     4725     4799     4885     4893     4823     4710 
    4529     4284     4017     3802     3634     3489     3422     3418 
    3443     3492     3532     3558     3595     3613     3608     3619 
    3631     3607     3589     3551     3481     3451     3431     3422 
    3478     3526     3514     3481     3424     3334     3248     3161 
    3052     2934     2830     2805     2915     3037     3115     3260 
    3418     3505     3557     3555     3457     3334     3272     3204 
    3130     3186     3316     3429     3615     3870     4050     4162 
    4268     4318     4317     4324     4289     4212     4149     4113 
    4101     4082     4062     4106     4187     4199     4132     4072 
    4054     4040     4041     4066     4094     4136     4186     4205 
    4202     4217     4220     4197     4222     4274     4276     4275 
    4278     4230     4159     4099     4060     4052     4055     4066 
    4105     4128     4133     4218     4333     4402     4464     4487 
    4457     4440     4437     4444     4446     4442     4464     4529 
    4639     4760     4820     4834     4862     4892     4900     4912 
    4895     4839     4796     4738     4662     4657     4673     4638 
    4572     4480     4414     4376     4302     4255     4261     4280 
