Origin Time       2016/04/16 01:25:00
Lat.              32.753
Long.             130.762
Depth. (km)       12
Mag.              7.3
Station Code      OKY005
Station Lat.      35.0098
Station Long.     133.7317
Station Height(m) 134
Record Time       2016/04/16 01:26:52
Sampling Freq(Hz) 100Hz
Duration Time(s)  65
Dir.              N-S
Scale Factor      7845(gal)/8223790
Max. Acc. (gal)   4.068
Last Correction   2016/04/16 01:26:52
Memo.             
[...]
   -2157    -2121    -2057    -1982    -1915    -1873    -1848    -1844 
   -1891    -1973    -2053    -2126    -2185    -2222    -2211    -2151 
   -2072    -1980    -1896    -1837    -1803    -1811    -1845    -1868 
   -1867    -1840    -1815    -1777    -1713    -1683    -1696    -1718 
   -1775    -1868    -1964    -2053    -2123    -2154    -2155    -2130 
   -2081    -2038    -2008    -1987    -1973    -1972    -1977    -1987 
   -1995    -1992    -2004    -2022    -2008    -1982    -1949    -1890 
   -1830    -1771    -1688    -1621    -1570    -1505    -1455    -1435 
   -1417    -1412    -1422    -1437    -1456    -1474    -1478    -1497 
   -1540    -1588    -1644    -1709    -1776    -1833    -1878    -1912 
   -1933    -1926    -1900    -1869    -1836    -1815    -1803    -1780 
   -1771    -1792    -1823    -1875    -1958    -2069    -2196    -2319 
   -2431    -2536    -2617    -2660    -2654    -2592    -2484    -2330 
   -2134    -1918    -1709    -1518    -1351    -1233    -1198    -1229 
   -1289    -1381    -1521    -1694    -1864    -2019    -2157    -2274 
   -2370    -2435    -2477    -2525    -2577    -2600    -2598    -2578 
   -2524    -2458    -2386    -2293    -2214    -2144    -2058    -2004 
   -1989    -1989    -2022    -2056    -2083    -2126    -2150    -2154 
   -2160    -2130    -2089    -2041    -1964    -1883    -1819    -1769 
   -1741    -1755    -1825    -1902    -1980    -2092    -2200    -2262 
   -2274    -2220    -2097    -1927    -1719    -1495    -1308    -1196 
   -1144    -1175    -1323    -1556    -1829    -2102    -2330    -2473 
   -2513    -2447    -2290    -2087    -1875    -1668    -1509    -1444 
   -1468    -1571    -1729    -1919    -2139    -2346    -2470    -2512 
   -2482    -2388    -2250    -2079    -1898    -1744    -1621    -1543 
   -1537    -1613    -1763    -1946    -2130    -2317    -2470    -2555 
   -2590    -2578    -2513    -2412    -2296    -2173    -2065    -1987 
   -1946    -1935    -1925    -1903    -1885    -1881    -1900    -1945 
   -2000    -2069    -2139    -2184    -2207    -2200    -2151    -2095 
   -2029    -1946    -1876    -1811    -1755    -1755    -1791    -1858 
   -1969    -2079    -2160    -2220    -2267    -2286    -2274    -2259 
   -2243    -2227    -2235    -2261    -2289    -2316    -2313    -2270 
   -2199    -2104    -2006    -1935    -1895    -1892    -1942    -2023 
   -2111    -2207    -2288    -2332    -2351    -2330    -2241    -2123 
   -2020    -1941    -1914    -1964    -2069    -2222    -2403    -2563 
   -2685    -2752    -2749    -2673    -2525    -2328    -2106    -1883 
   -1695    -1568    -1512    -1524    -1576    -1651    -1750    -1864 
   -1993    -2130    -2258    -2378    -2467    -2508    -2523    -2528 
   -2511    -2477    -2436    -2376    -2308    -2259    -2243    -2273 
   -2359    -2481    -2604    -2729    -2852    -2924    -2925    -2852 
   -2688    -2461    -2191    -1895    -1637    -1445    -1316    -1255 
   -1269    -1341    -1466    -1609    -1755    -1922    -2079    -2187 
   -2263    -2299    -2285    -2249    -2185    -2102    -2045    -2027 
   -2030    -2061    -2130    -2195    -2199    -2153    -2088    -2004 
   -1908    -1826    -1791    -1815    -1899    -2025    -2174    -2340 
   -2501    -2598    -2602    -2543    -2438    -2282    -2110    -1971 
   -1876    -1813    -1769    -1749    -1761    -1796    -1841    -1883 
   -1925    -1962    -1969    -1935    -1869    -1780    -1687    -1591 
   -1512    -1485    -1497    -1535    -1613    -1714    -1821    -1906 
   -1956    -2000    -2033    -2031    -2016    -1988    -1935    -1885 
   -1850    -1829    -1845    -1899    -1971    -2061    -2176    -2289 
   -2385    -2475    -2567    -2648    -2727    -2785    -2795    -2792 
   -2776    -2716    -2620    -2484    -2295    -2073    -1831    -1590 
   -1386    -1228    -1131    -1135    -1221    -1360    -1549    -1761 
   -1973    -2168    -2305    -2374    -2365    -2278    -2138    -1946 
   -1721    -1490    -1267    -1100    -1015    -1020    -1117    -1286 
   -1499    -1729    -1939    -2126    -2280    -2381    -2439    -2448 
   -2398    -2319    -2238    -2151    -2079    -2031    -2003    -2000 
   -2015    -2033    -2066    -2111    -2155    -2204    -2245    -2278 
   -2332    -2407    -2490    -2582    -2650    -2669    -2658    -2590 
   -2446    -2249    -2027    -1788    -1543    -1329    -1185    -1116 
   -1127    -1224    -1379    -1582    -1810    -2019    -2215    -2409 
   -2558    -2632    -2633    -2570    -2454    -2300    -2130    -1964 
   -1818    -1703    -1618    -1556    -1533    -1583    -1671    -1764 
   -1898    -2038    -2139    -2228    -2296    -2322    -2332    -2304 
   -2215    -2095    -1946    -1760    -1568    -1412    -1308    -1269 
   -1285    -1351    -1482    -1652    -1822    -1991    -2146    -2281 
   -2393    -2458    -2481    -2467    -2408    -2304    -2177    -2034 
   -1887    -1763    -1664    -1591    -1549    -1528    -1506    -1490 
   -1501    -1501    -1474    -1453    -1439    -1418    -1393    -1343 
   -1270    -1197    -1116    -1039    -1007     -996     -996    -1019 
   -1042    -1063    -1085    -1065    -1017     -984     -947     -911 
    -897     -919     -980    -1055    -1143    -1232    -1304    -1356 
   -1362    -1316    -1263    -1216    -1152    -1084    -1035    -1017 
   -1003     -963     -935     -923     -903     -890     -882     -868 
    -866     -857     -835     -835     -849     -869     -903     -942 
    -993    -1039    -1059    -1073    -1088    -1090    -1088    -1081 
   -1070    -1055    -1026     -985     -945     -901     -857     -811 
    -769     -741     -728     -720     -727     -741     -743     -726 
    -700     -676     -680     -724     -816     -963    -1161    -1387 
   -1620    -1845    -2061    -2241    -2361    -2431    -2461    -2446 
   -2388    -2319    -2251    -2188    -2142    -2107    -2076    -2050 
   -2019    -1979    -1941    -1904    -1887    -1907    -1960    -2074 
   -2253    -2450    -2646    -2826    -2953    -3006    -3013    -2979 
   -2876    -2737    -2589    -2407    -2220    -2070    -1919    -1784 
   -1713    -1688    -1737    -1907    -2178    -2524    -2907    -3280 
   -3608    -3839    -3936    -3913    -3765    -3511    -3211    -2895 
   -2623    -2470    -2435    -2494    -2643    -2832    -3005    -3126 
   -3164    -3100    -2960    -2763    -2521    -2280    -2087    -1968 
   -1930    -1988    -2151    -2403    -2698    -3014    -3339    -3649 
   -3923    -4135    -4260    -4289    -4218    -4059    -3847    -3619 
   -3403    -3215    -3082    -3029    -3044    -3107    -3215    -3341 
   -3483    -3638    -3788    -3942    -4102    -4260    -4390    -4475 
   -4534    -4553    -4510    -4438    -4367    -4310    -4268    -4247 
   -4247    -4255    -4251    -4214    -4135    -4033    -3905    -3736 
   -3557    -3387    -3221    -3069    -2933    -2825    -2767    -2748 
   -2754    -2778    -2817    -2872    -2934    -3009    -3109    -3235 
   -3381    -3515    -3624    -3719    -3785    -3790    -3740    -3653 
   -3537    -3384    -3222    -3113    -3069    -3073    -3123    -3218 
   -3317    -3388    -3426    -3419    -3361    -3269    -3153    -3006 
   -2878    -2810    -2781    -2783    -2844    -2944    -3033    -3099 
   -3129    -3105    -3044    -2953    -2836    -2740    -2685    -2652 
   -2663    -2721    -2806    -2901    -2976    -3014    -3018    -2978 
   -2891    -2770    -2621    -2474    -2316    -2135    -1980    -1852 
   -1740    -1677    -1661    -1686    -1769    -1885    -2020    -2182 
   -2351    -2501    -2613    -2681    -2708    -2695    -2646    -2556 
   -2439    -2301    -2137    -1945    -1728    -1482    -1212     -932 
    -669     -442     -275     -187     -172     -234     -372     -560 
    -785    -1026    -1255    -1457    -1628    -1771    -1869    -1898 
   -1868    -1777    -1618    -1410    -1183     -950     -722     -526 
    -392     -324     -330     -422     -577     -772     -982    -1173 
   -1327    -1416    -1420    -1351    -1196     -957     -680     -382 
     -70      197      372      459      437      301       89     -167 
    -437     -673     -853     -973    -1016     -984     -901     -789 
    -656     -503     -361     -253     -162      -85      -44      -27 
      -5       25       74      135      195      233      246      241 
     198      129       51      -58     -194     -337     -479     -608 
    -735     -864     -978    -1067    -1104    -1065     -951     -760 
    -491     -195       78      310      475      535      475      314 
      71     -229     -542     -842    -1105    -1282    -1382    -1431 
   -1424    -1366    -1296    -1232    -1183    -1165    -1193    -1266 
   -1383    -1535    -1694    -1848    -1998    -2111    -2173    -2192 
   -2184    -2163    -2130    -2085    -2043    -2001    -1948    -1891 
   -1852    -1838    -1856    -1892    -1956    -2058    -2155    -2228 
   -2307    -2380    -2424    -2448    -2421    -2336    -2245    -2130 
   -1991    -1896    -1863    -1878    -1946    -2081    -2301    -2578 
   -2870    -3148    -3395    -3600    -3744    -3824    -3856    -3842 
   -3775    -3667    -3519    -3342    -3164    -2975    -2782    -2636 
   -2533    -2469    -2477    -2579    -2766    -2999    -3222    -3406 
   -3514    -3507    -3375    -3132    -2797    -2411    -2015    -1649 
   -1347    -1143    -1046    -1026    -1081    -1197    -1325    -1457 
   -1594    -1714    -1829    -1953    -2084    -2251    -2463    -2682 
   -2886    -3049    -3153    -3191    -3156    -3059    -2910    -2735 
   -2555    -2385    -2247    -2158    -2107    -2093    -2093    -2097 
   -2115    -2130    -2141    -2165    -2222    -2295    -2400    -2556 
   -2728    -2899    -3065    -3202    -3308    -3372    -3376    -3338 
   -3267    -3168    -3065    -2979    -2898    -2826    -2782    -2740 
   -2690    -2640    -2579    -2505    -2442    -2378    -2316    -2274 
   -2257    -2255    -2269    -2309    -2389    -2496    -2604    -2691 
   -2740    -2744    -2691    -2592    -2471    -2355    -2269    -2231 
   -2242    -2313    -2454    -2620    -2782    -2933    -3045    -3098 
   -3094    -3040    -2956    -2856    -2740    -2641    -2589    -2592 
   -2662    -2816    -3040    -3311    -3589    -3846    -4077    -4266 
   -4403    -4499    -4550    -4552    -4515    -4449    -4341    -4214 
   -4093    -3958    -3823    -3724    -3647    -3568    -3500    -3443 
   -3376    -3312    -3244    -3138    -3033    -2955    -2898    -2901 
   -2991    -3156    -3375    -3605    -3812    -3973    -4068    -4062 
   -3950    -3788    -3605    -3407    -3225    -3076    -2986    -2957 
   -2953    -2965    -2997    -2999    -2949    -2863    -2737    -2579 
   -2401    -2199    -1989    -1809    -1658    -1543    -1485    -1490 
   -1553    -1667    -1811    -1980    -2163    -2343    -2494    -2612 
   -2695    -2718    -2667    -2565    -2436    -2288    -2128    -1975 
   -1864    -1807    -1786    -1798    -1849    -1922    -1984    -2006 
   -1975    -1898    -1763    -1551    -1308    -1085     -874     -712 
    -658     -714     -882    -1161    -1505    -1887    -2292    -2671 
   -2967    -3180    -3330    -3381    -3315    -3175    -2978    -2735 
   -2493    -2263    -2064    -1948    -1900    -1872    -1875    -1911 
   -1946    -1971    -1965    -1922    -1852    -1750    -1614    -1489 
   -1405    -1360    -1341    -1352    -1381    -1405    -1428    -1431 
   -1416    -1399    -1371    -1327    -1294    -1269    -1239    -1215 
   -1183    -1133    -1071    -1004     -920     -838     -781     -754 
    -764     -819     -912    -1044    -1212    -1385    -1532    -1630 
   -1665    -1632    -1520    -1358    -1171     -957     -760     -619 
    -529     -506     -575     -706     -882    -1094    -1323    -1547 
   -1771    -1993    -2201    -2392    -2562    -2697    -2795    -2863 
   -2905    -2930    -2926    -2896    -2843    -2758    -2660    -2573 
   -2497    -2447    -2416    -2403    -2393    -2359    -2303    -2219 
   -2085    -1910    -1726    -1561    -1445    -1398    -1422    -1539 
   -1753    -2022    -2328    -2648    -2930    -3156    -3287    -3288 
   -3191    -3029    -2820    -2610    -2442    -2340    -2311    -2342 
   -2409    -2482    -2538    -2538    -2450    -2280    -2049    -1769 
   -1468    -1190     -969     -834     -784     -808     -926    -1125 
   -1364    -1630    -1927    -2232    -2527    -2798    -3014    -3160 
   -3238    -3223    -3114    -2949    -2752    -2532    -2304    -2104 
   -1953    -1840    -1757    -1701    -1663    -1638    -1611    -1575 
   -1552    -1551    -1547    -1521    -1493    -1464    -1410    -1340 
   -1300    -1296    -1313    -1367    -1482    -1657    -1865    -2070 
   -2255    -2404    -2505    -2528    -2455    -2328    -2180    -2000 
   -1811    -1652    -1525    -1441    -1405    -1405    -1468    -1617 
   -1810    -2008    -2215    -2405    -2544    -2623    -2650    -2639 
   -2605    -2546    -2458    -2376    -2336    -2308    -2280    -2259 
   -2219    -2126    -1993    -1859    -1740    -1632    -1539    -1455 
   -1375    -1287    -1165     -980     -741     -467     -172      122 
     388      589      724      820      868      895      927      955 
     994     1051     1105     1150     1192     1219     1223     1213 
    1197     1159     1112     1078     1062     1081     1143     1230 
    1348     1502     1675     1852     2027     2180     2286     2317 
    2282     2189     2034     1845     1652     1463     1297     1154 
    1017      893      774      650      529      398      263      144 
      40      -28      -44      -18       51      172      318      467 
     614      741      820      832      780      673      515      333 
     159       -5     -151     -246     -288     -297     -268     -206 
    -143     -116     -144     -224     -359     -560     -791    -1019 
   -1235    -1405    -1516    -1564    -1545    -1467    -1348    -1192 
    -993     -773     -566     -379     -220      -97        8       81 
     110      124      117       82       55       41       31       21 
      -8      -79     -205     -383     -599     -835    -1067    -1291 
   -1487    -1606    -1634    -1588    -1468    -1302    -1128     -957 
    -816     -741     -707     -700     -741     -807     -858     -884 
    -857     -778     -661     -484     -282     -105       40      147 
     210      230      197      133       49      -63     -178     -272 
    -333     -359     -370     -390     -405     -425     -481     -579 
    -708     -866    -1044    -1223    -1367    -1447    -1448    -1378 
   -1262    -1113     -961     -843     -758     -704     -692     -710 
    -743     -772     -760     -719     -673     -621     -575     -565 
    -607     -688     -791     -895     -976    -1011     -982     -890 
    -741     -564     -390     -218      -67       17       45       44 
      -5      -85     -144     -189     -206     -189     -183     -187 
    -190     -212     -265     -334     -402     -453     -495     -508 
    -483     -421     -315     -197     -112      -82     -129     -286 
    -532     -831    -1178    -1541    -1861    -2107    -2258    -2290 
   -2205    -2030    -1802    -1553    -1336    -1183    -1102    -1100 
   -1167    -1282    -1433    -1603    -1781    -1949    -2102    -2235 
   -2327    -2390    -2434    -2438    -2419    -2389    -2336    -2274 
   -2219    -2170    -2147    -2155    -2165    -2196    -2261    -2328 
   -2416    -2528    -2627    -2709    -2768    -2759    -2688    -2587 
   -2454    -2304    -2189    -2126    -2107    -2160    -2273    -2427 
   -2635    -2859    -3049    -3210    -3321    -3360    -3345    -3281 
   -3169    -3044    -2937    -2872    -2849    -2860    -2905    -2957 
   -2980    -2964    -2911    -2821    -2698    -2560    -2416    -2266 
   -2120    -1998    -1914    -1865    -1854    -1871    -1881    -1877 
   -1865    -1826    -1765    -1702    -1649    -1626    -1629    -1661 
   -1718    -1781    -1848    -1912    -1975    -2029    -2041    -2018 
   -1969    -1906    -1868    -1872    -1907    -1977    -2089    -2247 
   -2431    -2619    -2822    -3025    -3176    -3264    -3295    -3268 
   -3198    -3084    -2940    -2798    -2669    -2558    -2508    -2540 
   -2631    -2763    -2925    -3087    -3238    -3350    -3412    -3449 
   -3449    -3388    -3265    -3079    -2860    -2639    -2425    -2246 
   -2137    -2120    -2200    -2366    -2616    -2921    -3213    -3457 
   -3650    -3774    -3820    -3788    -3689    -3580    -3480    -3381 
   -3304    -3272    -3288    -3343    -3411    -3468    -3508    -3514 
   -3434    -3268    -3056    -2814    -2540    -2278    -2073    -1956 
   -1953    -2068    -2267    -2523    -2790    -3029    -3213    -3316 
   -3329    -3262    -3137    -2990    -2859    -2767    -2721    -2717 
   -2732    -2747    -2749    -2747    -2740    -2721    -2677    -2590 
   -2465    -2312    -2121    -1911    -1719    -1566    -1467    -1418 
   -1402    -1441    -1539    -1660    -1799    -1953    -2096    -2196 
   -2249    -2261    -2259    -2272    -2322    -2420    -2578    -2781 
   -3003    -3242    -3472    -3673    -3846    -3975    -4055    -4079 
   -4035    -3940    -3786    -3572    -3346    -3130    -2940    -2813 
   -2759    -2786    -2876    -2971    -3040    -3069    -3049    -2998 
   -2934    -2862    -2794    -2751    -2733    -2733    -2752    -2790 
   -2816    -2806    -2756    -2658    -2536    -2407    -2257    -2114 
   -1995    -1885    -1803    -1784    -1826    -1922    -2069    -2258 
   -2474    -2695    -2906    -3090    -3218    -3292    -3315    -3273 
   -3180    -3082    -2976    -2872    -2816    -2810    -2830    -2874 
   -2899    -2884    -2868    -2829    -2756    -2697    -2628    -2528 
   -2442    -2380    -2340    -2363    -2424    -2494    -2579    -2647 
   -2673    -2664    -2628    -2593    -2570    -2558    -2581    -2668 
   -2818    -2999    -3184    -3360    -3480    -3519    -3480    -3368 
   -3210    -3019    -2799    -2602    -2475    -2397    -2366    -2405 
   -2502    -2663    -2863    -3053    -3225    -3369    -3464    -3511 
   -3530    -3530    -3508    -3458    -3391    -3338    -3299    -3256 
   -3200    -3132    -3053    -2980    -2913    -2868    -2863    -2894 
   -2953    -3021    -3086    -3163    -3227    -3258    -3299    -3336 
   -3327    -3302    -3289    -3294    -3316    -3348    -3377    -3415 
   -3438    -3430    -3414    -3407    -3410    -3435    -3477    -3526 
   -3603    -3690    -3751    -3794    -3819    -3805    -3754    -3677 
   -3596    -3535    -3495    -3477    -3492    -3537    -3600    -3662 
   -3699    -3707    -3690    -3626    -3507    -3372    -3227    -3071 
   -2941    -2860    -2833    -2862    -2924    -3007    -3105    -3176 
   -3226    -3262    -3271    -3260    -3252    -3238    -3219    -3207 
   -3199    -3190    -3190    -3198    -3196    -3179    -3145    -3105 
   -3056    -2999    -2948    -2902    -2862    -2851    -2896    -2998 
   -3145    -3341    -3551    -3761    -3975    -4164    -4313    -4434 
   -4511    -4531    -4498    -4401    -4248    -4059    -3854    -3634 
   -3423    -3235    -3056    -2899    -2797    -2735    -2709    -2736 
