Origin Time       2016/04/16 01:25:00
Lat.              32.753
Long.             130.762
Depth. (km)       12
Mag.              7.3
Station Code      OKY002
Station Lat.      35.1787
Station Long.     134.0500
Station Height(m) 229
Record Time       2016/04/16 01:27:03
Sampling Freq(Hz) 100Hz
Duration Time(s)  60
Dir.              N-S
Scale Factor      7845(gal)/8223790
Max. Acc. (gal)   2.304
Last Correction   2016/04/16 01:27:03
Memo.             
[...]
   -4085    -4067    -4055    -4033    -4013    -3989    -3963    -3951 
   -3943    -3932    -3932    -3939    -3948    -3965    -3987    -4010 
   -4039    -4066    -4083    -4095    -4107    -4125    -4144    -4163 
   -4189    -4222    -4255    -4284    -4303    -4329    -4360    -4367 
   -4363    -4372    -4384    -4392    -4401    -4409    -4413    -4403 
   -4388    -4382    -4368    -4342    -4317    -4291    -4268    -4247 
   -4230    -4222    -4213    -4203    -4199    -4191    -4180    -4167 
   -4152    -4144    -4133    -4113    -4102    -4097    -4079    -4063 
   -4054    -4045    -4031    -4003    -3979    -3974    -3967    -3958 
   -3959    -3964    -3974    -3984    -3997    -4024    -4051    -4060 
   -4074    -4102    -4136    -4164    -4192    -4223    -4253    -4280 
   -4301    -4320    -4332    -4341    -4356    -4371    -4387    -4405 
   -4419    -4442    -4464    -4473    -4471    -4469    -4463    -4450 
   -4433    -4410    -4384    -4368    -4363    -4356    -4352    -4352 
   -4352    -4352    -4355    -4360    -4360    -4360    -4360    -4365 
   -4369    -4368    -4364    -4357    -4344    -4337    -4334    -4325 
   -4307    -4302    -4302    -4293    -4286    -4293    -4298    -4293 
   -4283    -4282    -4280    -4270    -4261    -4256    -4245    -4240 
   -4241    -4243    -4248    -4253    -4253    -4256    -4256    -4251 
   -4245    -4243    -4233    -4220    -4214    -4217    -4215    -4210 
   -4207    -4205    -4200    -4195    -4199    -4214    -4228    -4236 
   -4248    -4263    -4268    -4266    -4266    -4266    -4248    -4225 
   -4218    -4214    -4202    -4192    -4185    -4186    -4192    -4178 
   -4155    -4166    -4174    -4149    -4166    -4200    -4202    -4228 
   -4266    -4289    -4324    -4337    -4352    -4380    -4374    -4360 
   -4360    -4348    -4327    -4298    -4276    -4260    -4233    -4214 
   -4207    -4200    -4189    -4183    -4189    -4197    -4197    -4195 
   -4200    -4202    -4210    -4217    -4210    -4207    -4210    -4209 
   -4209    -4205    -4197    -4187    -4171    -4156    -4144    -4125 
   -4112    -4105    -4085    -4063    -4052    -4043    -4036    -4032 
   -4035    -4052    -4068    -4071    -4086    -4107    -4120    -4133 
   -4158    -4178    -4191    -4200    -4214    -4233    -4256    -4266 
   -4282    -4314    -4341    -4359    -4378    -4401    -4418    -4433 
   -4444    -4450    -4455    -4453    -4452    -4456    -4457    -4446 
   -4442    -4444    -4442    -4441    -4433    -4415    -4399    -4379 
   -4359    -4347    -4332    -4311    -4294    -4289    -4287    -4278 
   -4276    -4280    -4276    -4261    -4248    -4253    -4261    -4256 
   -4260    -4275    -4280    -4275    -4278    -4280    -4274    -4258 
   -4238    -4217    -4192    -4166    -4145    -4135    -4125    -4117 
   -4106    -4097    -4090    -4086    -4085    -4091    -4104    -4112 
   -4118    -4136    -4163    -4172    -4171    -4178    -4186    -4171 
   -4152    -4137    -4121    -4101    -4087    -4088    -4090    -4090 
   -4104    -4128    -4147    -4158    -4163    -4167    -4172    -4174 
   -4175    -4187    -4202    -4205    -4210    -4222    -4232    -4230 
   -4233    -4245    -4266    -4276    -4279    -4299    -4322    -4326 
   -4327    -4333    -4330    -4320    -4302    -4289    -4283    -4266 
   -4243    -4222    -4209    -4194    -4174    -4164    -4156    -4135 
   -4113    -4110    -4117    -4118    -4117    -4126    -4151    -4178 
   -4197    -4220    -4247    -4255    -4266    -4289    -4310    -4314 
   -4324    -4348    -4368    -4382    -4407    -4434    -4455    -4483 
   -4504    -4517    -4531    -4550    -4563    -4573    -4592    -4604 
   -4598    -4596    -4608    -4614    -4615    -4627    -4645    -4657 
   -4661    -4656    -4645    -4622    -4585    -4550    -4518    -4475 
   -4433    -4395    -4364    -4344    -4327    -4311    -4295    -4284 
   -4276    -4268    -4276    -4295    -4310    -4333    -4365    -4395 
   -4423    -4450    -4476    -4494    -4510    -4518    -4521    -4526 
   -4518    -4495    -4477    -4455    -4421    -4396    -4379    -4352 
   -4321    -4295    -4270    -4243    -4213    -4187    -4164    -4140 
   -4117    -4104    -4102    -4104    -4102    -4109    -4122    -4137 
   -4151    -4159    -4163    -4156    -4139    -4132    -4131    -4121 
   -4117    -4120    -4121    -4132    -4139    -4132    -4132    -4131 
   -4117    -4106    -4106    -4104    -4102    -4110    -4121    -4132 
   -4145    -4163    -4183    -4207    -4230    -4255    -4284    -4315 
   -4344    -4374    -4402    -4418    -4422    -4425    -4423    -4411 
   -4391    -4376    -4360    -4336    -4305    -4279    -4253    -4220 
   -4182    -4149    -4122    -4087    -4045    -4013    -3989    -3960 
   -3932    -3923    -3928    -3935    -3954    -3989    -4023    -4052 
   -4074    -4104    -4135    -4152    -4164    -4178    -4190    -4200 
   -4213    -4228    -4247    -4261    -4271    -4282    -4297    -4311 
   -4310    -4302    -4293    -4282    -4270    -4261    -4258    -4260 
   -4266    -4275    -4288    -4291    -4278    -4271    -4271    -4256 
   -4233    -4212    -4207    -4213    -4213    -4222    -4248    -4276 
   -4295    -4321    -4356    -4382    -4392    -4402    -4409    -4402 
   -4379    -4352    -4324    -4293    -4260    -4232    -4218    -4217 
   -4215    -4220    -4233    -4243    -4258    -4274    -4284    -4293 
   -4295    -4288    -4287    -4289    -4278    -4266    -4266    -4256 
   -4238    -4225    -4217    -4205    -4194    -4191    -4187    -4172 
   -4153    -4143    -4136    -4129    -4120    -4105    -4095    -4094 
   -4091    -4093    -4102    -4109    -4102    -4088    -4074    -4063 
   -4055    -4043    -4043    -4051    -4051    -4054    -4068    -4083 
   -4102    -4122    -4135    -4147    -4153    -4163    -4178    -4191 
   -4207    -4228    -4237    -4241    -4241    -4237    -4237    -4233 
   -4225    -4225    -4225    -4228    -4228    -4240    -4258    -4268 
   -4270    -4275    -4284    -4294    -4303    -4311    -4324    -4341 
   -4359    -4365    -4371    -4383    -4374    -4345    -4349    -4349 
   -4313    -4307    -4326    -4321    -4307    -4306    -4322    -4334 
   -4330    -4341    -4367    -4372    -4363    -4356    -4356    -4349 
   -4334    -4324    -4317    -4306    -4293    -4279    -4271    -4263 
   -4252    -4251    -4248    -4237    -4225    -4218    -4213    -4203 
   -4185    -4178    -4178    -4156    -4147    -4162    -4174    -4178 
   -4195    -4220    -4243    -4256    -4275    -4303    -4327    -4348 
   -4372    -4399    -4425    -4446    -4469    -4498    -4521    -4538 
   -4561    -4592    -4611    -4618    -4631    -4641    -4637    -4625 
   -4606    -4591    -4577    -4556    -4530    -4502    -4487    -4463 
   -4425    -4402    -4382    -4351    -4332    -4326    -4317    -4295 
   -4271    -4263    -4253    -4233    -4232    -4228    -4205    -4176 
   -4145    -4110    -4074    -4035    -4005    -3982    -3962    -3946 
   -3937    -3942    -3960    -3983    -4002    -4027    -4059    -4082 
   -4091    -4102    -4112    -4098    -4072    -4054    -4039    -4017 
   -3996    -3979    -3967    -3951    -3942    -3942    -3946    -3956 
   -3967    -3981    -4001    -4017    -4033    -4054    -4078    -4094 
   -4105    -4118    -4125    -4114    -4099    -4097    -4086    -4060 
   -4050    -4050    -4045    -4052    -4069    -4093    -4118    -4139 
   -4159    -4186    -4210    -4225    -4240    -4255    -4266    -4279 
   -4287    -4297    -4313    -4320    -4321    -4326    -4324    -4315 
   -4311    -4310    -4306    -4293    -4274    -4263    -4256    -4241 
   -4230    -4228    -4230    -4233    -4228    -4220    -4207    -4178 
   -4149    -4129    -4099    -4050    -4005    -3975    -3946    -3905 
   -3863    -3820    -3776    -3736    -3697    -3669    -3651    -3628 
   -3604    -3595    -3593    -3588    -3588    -3605    -3626    -3646 
   -3678    -3717    -3759    -3802    -3842    -3890    -3944    -3990 
   -4036    -4085    -4131    -4159    -4178    -4192    -4207    -4220 
   -4233    -4253    -4282    -4299    -4314    -4334    -4355    -4367 
   -4368    -4369    -4375    -4368    -4349    -4342    -4342    -4329 
   -4310    -4294    -4276    -4255    -4238    -4225    -4203    -4176 
   -4158    -4148    -4145    -4148    -4155    -4164    -4178    -4197 
   -4215    -4237    -4255    -4263    -4278    -4302    -4332    -4364 
   -4396    -4430    -4460    -4482    -4502    -4530    -4556    -4577 
   -4588    -4595    -4602    -4606    -4606    -4606    -4603    -4591 
   -4579    -4573    -4558    -4531    -4514    -4502    -4483    -4469 
   -4456    -4434    -4413    -4390    -4368    -4348    -4321    -4287 
   -4266    -4252    -4228    -4213    -4205    -4189    -4171    -4168 
   -4164    -4163    -4175    -4190    -4212    -4241    -4266    -4293 
   -4325    -4351    -4375    -4405    -4436    -4464    -4496    -4537 
   -4580    -4618    -4654    -4696    -4737    -4777    -4824    -4872 
   -4915    -4962    -5013    -5062    -5108    -5146    -5182    -5217 
   -5247    -5270    -5292    -5319    -5336    -5350    -5370    -5387 
   -5400    -5416    -5432    -5437    -5435    -5432    -5428    -5420 
   -5405    -5387    -5366    -5339    -5310    -5273    -5225    -5182 
   -5135    -5088    -5049    -5015    -4978    -4949    -4932    -4916 
   -4900    -4897    -4896    -4889    -4901    -4923    -4942    -4959 
   -4981    -5004    -5030    -5047    -5067    -5096    -5119    -5136 
   -5161    -5188    -5209    -5227    -5250    -5270    -5290    -5319 
   -5350    -5371    -5390    -5416    -5431    -5432    -5443    -5452 
   -5439    -5427    -5421    -5405    -5382    -5363    -5336    -5297 
   -5266    -5240    -5204    -5163    -5131    -5100    -5069    -5047 
   -5027    -5000    -4988    -4988    -4978    -4976    -4985    -4989 
   -4996    -5013    -5026    -5024    -5038    -5060    -5073    -5090 
   -5121    -5140    -5150    -5161    -5164    -5157    -5148    -5130 
   -5093    -5058    -5012    -4943    -4870    -4796    -4710    -4622 
   -4545    -4469    -4383    -4311    -4252    -4189    -4131    -4079 
   -4027    -3981    -3940    -3889    -3831    -3781    -3736    -3682 
   -3632    -3592    -3539    -3492    -3451    -3395    -3336    -3298 
   -3258    -3210    -3172    -3145    -3117    -3103    -3106    -3114 
   -3129    -3149    -3169    -3188    -3215    -3244    -3258    -3279 
   -3311    -3331    -3342    -3366    -3384    -3380    -3385    -3393 
   -3384    -3377    -3380    -3369    -3345    -3323    -3289    -3240 
   -3191    -3137    -3061    -2976    -2906    -2844    -2778    -2718 
   -2677    -2632    -2579    -2535    -2488    -2428    -2377    -2331 
   -2273    -2219    -2184    -2151    -2126    -2130    -2151    -2180 
   -2236    -2319    -2403    -2484    -2582    -2688    -2785    -2889 
   -2998    -3096    -3198    -3306    -3399    -3478    -3558    -3638 
   -3711    -3776    -3842    -3890    -3916    -3946    -3982    -3998 
   -4012    -4036    -4044    -4040    -4045    -4044    -4024    -4003 
   -3990    -3964    -3932    -3910    -3885    -3847    -3813    -3792 
   -3757    -3711    -3676    -3638    -3591    -3555    -3530    -3495 
   -3468    -3464    -3459    -3451    -3464    -3491    -3510    -3538 
   -3589    -3639    -3680    -3738    -3808    -3865    -3920    -3996 
   -4064    -4122    -4190    -4261    -4317    -4367    -4425    -4479 
   -4521    -4573    -4630    -4653    -4664    -4687    -4689    -4666 
   -4653    -4635    -4599    -4561    -4538    -4511    -4479    -4460 
   -4449    -4437    -4429    -4428    -4423    -4417    -4409    -4396 
   -4390    -4393    -4406    -4421    -4434    -4446    -4467    -4484 
   -4502    -4521    -4526    -4527    -4530    -4514    -4492    -4484 
   -4473    -4452    -4438    -4440    -4449    -4453    -4459    -4477 
   -4498    -4518    -4542    -4560    -4568    -4591    -4608    -4595 
   -4580    -4580    -4568    -4554    -4552    -4550    -4553    -4563 
   -4579    -4595    -4611    -4642    -4668    -4679    -4699    -4718 
   -4704    -4688    -4691    -4673    -4629    -4596    -4572    -4538 
   -4510    -4498    -4494    -4495    -4510    -4531    -4553    -4585 
   -4633    -4668    -4695    -4746    -4784    -4804    -4847    -4888 
   -4903    -4923    -4950    -4968    -4978    -5005    -5030    -5034 
   -5040    -5057    -5059    -5055    -5065    -5065    -5058    -5071 
   -5084    -5074    -5071    -5088    -5089    -5077    -5082    -5089 
   -5071    -5054    -5053    -5038    -5012    -5003    -4989    -4961 
   -4947    -4935    -4903    -4870    -4854    -4842    -4834    -4850 
   -4880    -4904    -4934    -4978    -5020    -5049    -5076    -5103 
   -5116    -5120    -5131    -5142    -5143    -5151    -5164    -5169 
   -5169    -5178    -5174    -5162    -5159    -5154    -5130    -5101 
   -5085    -5062    -5032    -5026    -5032    -5022    -5013    -5030 
   -5040    -5046    -5071    -5097    -5111    -5134    -5164    -5185 
   -5211    -5247    -5273    -5285    -5302    -5319    -5313    -5309 
   -5325    -5333    -5331    -5346    -5368    -5381    -5409    -5454 
   -5490    -5522    -5576    -5630    -5671    -5722    -5783    -5829 
   -5877    -5942    -6006    -6066    -6138    -6214    -6278    -6338 
   -6408    -6460    -6493    -6531    -6567    -6588    -6602    -6619 
   -6631    -6635    -6643    -6646    -6632    -6609    -6579    -6536 
   -6482    -6427    -6363    -6282    -6201    -6129    -6043    -5949 
   -5869    -5790    -5701    -5620    -5547    -5463    -5371    -5286 
   -5211    -5139    -5070    -5011    -4953    -4896    -4850    -4807 
   -4761    -4719    -4685    -4644    -4588    -4545    -4499    -4433 
   -4374    -4317    -4238    -4162    -4110    -4060    -4003    -3963 
   -3924    -3873    -3836    -3816    -3788    -3751    -3732    -3724 
   -3708    -3708    -3734    -3755    -3776    -3819    -3865    -3890 
   -3910    -3935    -3935    -3915    -3901    -3875    -3828    -3785 
   -3742    -3686    -3634    -3592    -3551    -3505    -3470    -3439 
   -3392    -3346    -3314    -3265    -3198    -3153    -3111    -3045 
   -2980    -2937    -2893    -2843    -2811    -2802    -2792    -2783 
   -2789    -2810    -2835    -2860    -2893    -2921    -2943    -2967 
   -2980    -2970    -2972    -2986    -2979    -2967    -2975    -2976 
   -2975    -2994    -3013    -3017    -3033    -3064    -3088    -3105 
   -3136    -3172    -3203    -3248    -3311    -3372    -3429    -3496 
   -3555    -3588    -3620    -3662    -3684    -3689    -3704    -3717 
   -3709    -3707    -3717    -3721    -3716    -3717    -3719    -3719 
   -3730    -3742    -3754    -3774    -3805    -3834    -3863    -3912 
   -3959    -3990    -4021    -4054    -4087    -4118    -4144    -4180 
   -4222    -4255    -4294    -4334    -4360    -4392    -4433    -4452 
   -4467    -4487    -4494    -4488    -4480    -4461    -4425    -4378 
   -4329    -4266    -4186    -4105    -4017    -3910    -3793    -3684 
   -3578    -3461    -3355    -3265    -3172    -3086    -3024    -2978 
   -2937    -2920    -2928    -2943    -2971    -3025    -3069    -3094 
   -3129    -3165    -3180    -3198    -3232    -3257    -3264    -3277 
   -3307    -3325    -3330    -3352    -3368    -3368    -3373    -3366 
   -3338    -3317    -3307    -3289    -3280    -3289    -3303    -3316 
   -3335    -3360    -3379    -3399    -3435    -3472    -3497    -3538 
   -3595    -3634    -3666    -3705    -3744    -3770    -3792    -3816 
   -3844    -3867    -3885    -3908    -3924    -3928    -3937    -3946 
   -3948    -3970    -3979    -3969    -3970    -3978    -3973    -3956 
   -3948    -3936    -3913    -3889    -3854    -3805    -3746    -3688 
   -3630    -3561    -3501    -3459    -3411    -3369    -3355    -3342 
   -3319    -3314    -3326    -3333    -3342    -3364    -3387    -3400 
   -3418    -3440    -3456    -3470    -3500    -3518    -3511    -3510 
   -3504    -3483    -3458    -3431    -3392    -3345    -3298    -3240 
   -3173    -3121    -3079    -3029    -2980    -2949    -2917    -2875 
   -2844    -2835    -2822    -2801    -2790    -2789    -2781    -2783 
   -2792    -2779    -2779    -2822    -2857    -2878    -2924    -2984 
   -3040    -3090    -3145    -3190    -3211    -3232    -3271    -3288 
   -3298    -3326    -3350    -3364    -3387    -3406    -3406    -3400 
   -3392    -3369    -3341    -3310    -3265    -3213    -3176    -3141 
   -3084    -3033    -2998    -2957    -2914    -2876    -2844    -2818 
   -2790    -2783    -2794    -2785    -2785    -2810    -2826    -2837 
   -2863    -2890    -2910    -2937    -2975    -3010    -3044    -3082 
   -3119    -3149    -3172    -3196    -3210    -3204    -3202    -3198 
   -3180    -3171    -3172    -3159    -3132    -3113    -3092    -3053 
   -3007    -2967    -2920    -2863    -2830    -2802    -2762    -2739 
   -2733    -2721    -2728    -2755    -2783    -2814    -2867    -2929 
   -2983    -3046    -3126    -3194    -3256    -3333    -3415    -3492 
   -3573    -3655    -3730    -3798    -3861    -3917    -3960    -3989 
   -4001    -3997    -3971    -3937    -3915    -3890    -3861    -3828 
   -3801    -3776    -3738    -3690    -3655    -3612    -3553    -3510 
   -3474    -3429    -3392    -3379    -3366    -3354    -3358    -3377 
   -3396    -3414    -3442    -3468    -3483    -3497    -3518    -3534 
   -3546    -3566    -3595    -3615    -3627    -3642    -3659    -3673 
   -3682    -3697    -3715    -3723    -3731    -3738    -3738    -3732 
   -3719    -3700    -3685    -3674    -3658    -3651    -3657    -3658 
   -3653    -3651    -3647    -3631    -3609    -3596    -3586    -3572 
   -3554    -3547    -3553    -3550    -3543    -3547    -3549    -3543 
   -3544    -3547    -3542    -3532    -3522    -3516    -3505    -3483 
   -3464    -3453    -3438    -3422    -3404    -3391    -3384    -3372 
   -3354    -3346    -3335    -3315    -3292    -3275    -3257    -3227 
   -3190    -3165    -3149    -3132    -3122    -3123    -3137    -3148 
   -3153    -3173    -3198    -3211    -3225    -3242    -3264    -3289 
   -3316    -3352    -3399    -3438    -3469    -3507    -3544    -3570 
   -3588    -3607    -3628    -3645    -3658    -3686    -3724    -3753 
   -3746    -3738    -3788    -3832    -3835    -3859    -3906    -3951 
   -3991    -4027    -4078    -4124    -4149    -4190    -4233    -4251 
   -4278    -4325    -4378    -4440    -4504    -4558    -4630    -4719 
   -4780    -4827    -4885    -4928    -4955    -4997    -5049    -5071 
   -5086    -5120    -5142    -5148    -5157    -5167    -5179    -5188 
   -5188    -5189    -5198    -5209    -5209    -5206    -5219    -5239 
   -5258    -5279    -5304    -5325    -5341    -5354    -5366    -5367 
   -5356    -5328    -5290    -5254    -5209    -5150    -5101    -5073 
   -5036    -4986    -4946    -4918    -4889    -4845    -4806    -4779 
   -4746    -4716    -4708    -4707    -4699    -4695    -4698    -4707 
   -4722    -4739    -4766    -4796    -4816    -4834    -4850    -4855 
   -4851    -4834    -4804    -4779    -4754    -4733    -4722    -4715 
   -4710    -4710    -4718    -4720    -4714    -4704    -4699    -4696 
