Origin Time       2016/04/16 01:25:00
Lat.              32.753
Long.             130.762
Depth. (km)       12
Mag.              7.3
Station Code      OKY015
Station Lat.      35.2793
Station Long.     133.9256
Station Height(m) 475
Record Time       2016/04/16 01:26:23
Sampling Freq(Hz) 100Hz
Duration Time(s)  103
Dir.              E-W
Scale Factor      7845(gal)/8223790
Max. Acc. (gal)   2.062
Last Correction   2016/04/16 01:26:23
Memo.             
[...]
   -2901    -2843    -2832    -2818    -2805    -2853    -2902    -2922 
   -2978    -3037    -3065    -3119    -3190    -3213    -3213    -3213 
   -3169    -3098    -3045    -2984    -2909    -2851    -2786    -2694 
   -2629    -2597    -2570    -2579    -2620    -2662    -2727    -2813 
   -2899    -3003    -3103    -3168    -3217    -3258    -3277    -3275 
   -3250    -3194    -3113    -3021    -2929    -2848    -2772    -2712 
   -2678    -2658    -2643    -2654    -2675    -2686    -2701    -2716 
   -2718    -2721    -2731    -2740    -2766    -2809    -2849    -2882 
   -2928    -2967    -2986    -3005    -3036    -3049    -3059    -3080 
   -3083    -3075    -3100    -3137    -3152    -3169    -3188    -3188 
   -3192    -3213    -3227    -3235    -3244    -3244    -3241    -3244 
   -3260    -3292    -3330    -3365    -3392    -3407    -3426    -3446 
   -3461    -3464    -3461    -3449    -3433    -3433    -3439    -3442 
   -3459    -3483    -3470    -3443    -3434    -3396    -3331    -3289 
   -3252    -3194    -3176    -3199    -3203    -3217    -3265    -3288 
   -3284    -3288    -3265    -3222    -3180    -3106    -3006    -2930 
   -2867    -2817    -2817    -2837    -2837    -2839    -2848    -2840 
   -2830    -2835    -2824    -2805    -2790    -2756    -2732    -2743 
   -2764    -2802    -2872    -2928    -2972    -3051    -3109    -3125 
   -3148    -3150    -3098    -3061    -3045    -2997    -2961    -2972 
   -2978    -2997    -3060    -3105    -3134    -3194    -3223    -3219 
   -3238    -3227    -3169    -3129    -3075    -2982    -2918    -2870 
   -2792    -2745    -2727    -2687    -2660    -2652    -2623    -2609 
   -2631    -2652    -2678    -2729    -2768    -2801    -2863    -2917 
   -2948    -3001    -3056    -3080    -3117    -3165    -3169    -3165 
   -3188    -3186    -3168    -3186    -3196    -3179    -3180    -3177 
   -3136    -3082    -3018    -2941    -2893    -2867    -2848    -2870 
   -2926    -2986    -3075    -3196    -3307    -3397    -3480    -3528 
   -3547    -3555    -3535    -3492    -3456    -3426    -3406    -3407 
   -3415    -3430    -3458    -3474    -3469    -3458    -3435    -3393 
   -3354    -3321    -3265    -3202    -3146    -3096    -3049    -3032 
   -3046    -3068    -3092    -3138    -3194    -3232    -3257    -3272 
   -3268    -3246    -3229    -3217    -3200    -3180    -3173    -3168 
   -3153    -3138    -3132    -3118    -3088    -3053    -3029    -3024 
   -3029    -3037    -3057    -3084    -3106    -3133    -3146    -3117 
   -3071    -3038    -3006    -2963    -2943    -2963    -2990    -3007 
   -3053    -3123    -3175    -3215    -3257    -3269    -3250    -3225 
   -3180    -3113    -3059    -3024    -2986    -2956    -2936    -2924 
   -2932    -2938    -2936    -2956    -2980    -2972    -2960    -2959 
   -2955    -2970    -2991    -2986    -2965    -2951    -2937    -2917 
   -2896    -2889    -2895    -2906    -2913    -2932    -2965    -2984 
   -2988    -2998    -3017    -3036    -3069    -3118    -3150    -3184 
   -3238    -3275    -3283    -3295    -3308    -3303    -3287    -3258 
   -3218    -3171    -3111    -3059    -3030    -3001    -2963    -2936 
   -2901    -2849    -2828    -2847    -2871    -2894    -2901    -2880 
   -2849    -2817    -2791    -2797    -2833    -2867    -2893    -2896 
   -2880    -2903    -2961    -2984    -2994    -3044    -3109    -3165 
   -3219    -3246    -3248    -3268    -3289    -3292    -3326    -3385 
   -3403    -3361    -3281    -3203    -3157    -3118    -3049    -2979 
   -2947    -2925    -2889    -2857    -2857    -2879    -2907    -2952 
   -2995    -3017    -3048    -3113    -3207    -3349    -3501    -3592 
   -3620    -3608    -3561    -3500    -3449    -3424    -3430    -3420 
   -3361    -3256    -3118    -2970    -2848    -2774    -2731    -2721 
   -2762    -2808    -2781    -2686    -2606    -2601    -2654    -2729 
   -2836    -2970    -3067    -3068    -3006    -2972    -3017    -3090 
   -3106    -3076    -3076    -3087    -3040    -2964    -2920    -2898 
   -2889    -2879    -2848    -2830    -2841    -2843    -2857    -2932 
   -3002    -3011    -2972    -2905    -2839    -2821    -2857    -2918 
   -2970    -2988    -2945    -2840    -2754    -2736    -2749    -2776 
   -2822    -2866    -2867    -2817    -2759    -2729    -2718    -2735 
   -2772    -2785    -2763    -2743    -2708    -2666    -2652    -2652 
   -2658    -2683    -2695    -2678    -2664    -2655    -2625    -2596 
   -2567    -2524    -2501    -2504    -2504    -2525    -2598    -2682 
   -2748    -2813    -2863    -2875    -2875    -2893    -2928    -2963 
   -2976    -2967    -2951    -2922    -2921    -2967    -2995    -2986 
   -3002    -3032    -3040    -3036    -3017    -2978    -2949    -2943 
   -2938    -2929    -2915    -2906    -2926    -2982    -3064    -3168 
   -3272    -3357    -3423    -3459    -3466    -3470    -3462    -3435 
   -3443    -3487    -3515    -3543    -3559    -3526    -3466    -3411 
   -3360    -3336    -3319    -3249    -3125    -2980    -2844    -2759 
   -2752    -2789    -2837    -2902    -2964    -3018    -3092    -3190 
   -3265    -3302    -3295    -3246    -3194    -3175    -3177    -3206 
   -3241    -3226    -3156    -3076    -3001    -2961    -2984    -3019 
   -3022    -2986    -2906    -2844    -2853    -2868    -2853    -2849 
   -2849    -2852    -2886    -2915    -2894    -2860    -2843    -2832 
   -2852    -2910    -2945    -2932    -2886    -2820    -2767    -2733 
   -2674    -2600    -2544    -2512    -2504    -2521    -2515    -2465 
   -2457    -2517    -2573    -2623    -2695    -2749    -2799    -2878 
   -2936    -2971    -3006    -2988    -2924    -2884    -2878    -2894 
   -2933    -2964    -2978    -2970    -2905    -2816    -2794    -2851 
   -2928    -2983    -2997    -2941    -2826    -2720    -2691    -2768 
   -2886    -2943    -2921    -2879    -2862    -2882    -2913    -2907 
   -2879    -2886    -2914    -2914    -2893    -2837    -2749    -2732 
   -2837    -2998    -3161    -3258    -3238    -3206    -3264    -3388 
   -3557    -3680    -3608    -3372    -3127    -2992    -3041    -3218 
   -3314    -3234    -3052    -2843    -2739    -2822    -2951    -3013 
   -3025    -2965    -2874    -2857    -2926    -3061    -3260    -3440 
   -3514    -3520    -3530    -3555    -3627    -3754    -3834    -3805 
   -3699    -3543    -3379    -3268    -3204    -3118    -2971    -2752 
   -2501    -2324    -2292    -2388    -2546    -2674    -2710    -2710 
   -2772    -2924    -3146    -3379    -3514    -3520    -3499    -3523 
   -3595    -3677    -3685    -3578    -3415    -3258    -3165    -3168 
   -3176    -3049    -2785    -2493    -2277    -2214    -2292    -2370 
   -2315    -2188    -2144    -2204    -2322    -2494    -2675    -2821 
   -2986    -3157    -3252    -3277    -3280    -3269    -3262    -3272 
   -3289    -3277    -3177    -3044    -3029    -3132    -3213    -3215 
   -3169    -3084    -2990    -2955    -2986    -3021    -3017    -2995 
   -3009    -3073    -3172    -3256    -3277    -3273    -3341    -3483 
   -3628    -3692    -3608    -3420    -3260    -3227    -3336    -3481 
   -3511    -3380    -3180    -3036    -3019    -3105    -3180    -3196 
   -3180    -3144    -3102    -3105    -3123    -3125    -3150    -3203 
   -3211    -3196    -3237    -3292    -3304    -3329    -3388    -3427 
   -3402    -3365    -3406    -3491    -3495    -3396    -3271    -3164 
   -3103    -3098    -3100    -3057    -2983    -2909    -2857    -2874 
   -2953    -3017    -3033    -2990    -2902    -2878    -2967    -3063 
   -3060    -2995    -2956    -2944    -2928    -2918    -2960    -3073 
   -3218    -3343    -3447    -3519    -3539    -3530    -3542    -3555 
   -3530    -3510    -3511    -3485    -3427    -3357    -3275    -3206 
   -3169    -3132    -3053    -2957    -2911    -2917    -2934    -2949 
   -2932    -2891    -2902    -2975    -3056    -3111    -3129    -3122 
   -3146    -3202    -3221    -3180    -3098    -2998    -2940    -2940 
   -2951    -2930    -2847    -2713    -2600    -2544    -2500    -2454 
   -2470    -2540    -2569    -2555    -2554    -2567    -2628    -2756 
   -2876    -2936    -2970    -3010    -3065    -3133    -3171    -3176 
   -3183    -3196    -3215    -3267    -3342    -3434    -3563    -3674 
   -3653    -3534    -3429    -3353    -3325    -3353    -3339    -3241 
   -3117    -2994    -2896    -2876    -2926    -3001    -3044    -3017 
   -2971    -3001    -3109    -3234    -3304    -3295    -3279    -3343 
   -3464    -3578    -3665    -3690    -3603    -3429    -3296    -3267 
   -3289    -3302    -3248    -3109    -2991    -2960    -2945    -2922 
   -2926    -2887    -2782    -2740    -2811    -2924    -3045    -3084 
   -3003    -2953    -2998    -3069    -3163    -3250    -3258    -3191 
   -3063    -2920    -2890    -2960    -2978    -2934    -2906    -2844 
   -2731    -2640    -2584    -2565    -2602    -2609    -2513    -2382 
   -2290    -2243    -2273    -2343    -2351    -2347    -2411    -2488 
   -2594    -2792    -2997    -3121    -3157    -3122    -3121    -3250 
   -3411    -3472    -3447    -3385    -3289    -3215    -3202    -3210 
   -3198    -3109    -2959    -2867    -2872    -2862    -2802    -2721 
   -2610    -2494    -2435    -2432    -2457    -2470    -2447    -2442 
   -2511    -2625    -2733    -2820    -2848    -2824    -2824    -2867 
   -2884    -2863    -2822    -2758    -2710    -2740    -2802    -2833 
   -2860    -2890    -2889    -2867    -2830    -2755    -2648    -2573 
   -2575    -2631    -2664    -2621    -2542    -2512    -2550    -2632 
   -2727    -2781    -2786    -2774    -2740    -2687    -2652    -2640 
   -2605    -2570    -2579    -2584    -2565    -2562    -2556    -2552 
   -2608    -2698    -2752    -2762    -2749    -2729    -2717    -2747 
   -2805    -2833    -2813    -2786    -2792    -2820    -2844    -2879 
   -2936    -3001    -3030    -3011    -2983    -2974    -2941    -2857 
   -2744    -2647    -2612    -2646    -2682    -2677    -2663    -2667 
   -2639    -2567    -2521    -2513    -2482    -2397    -2289    -2214 
   -2196    -2189    -2151    -2124    -2126    -2134    -2147    -2155 
   -2151    -2149    -2128    -2079    -2026    -1980    -1945    -1934 
   -1956    -2026    -2133    -2250    -2362    -2454    -2509    -2528 
   -2532    -2562    -2641    -2759    -2874    -2937    -2909    -2791 
   -2660    -2571    -2520    -2508    -2513    -2492    -2434    -2338 
   -2192    -2073    -2064    -2101    -2118    -2146    -2199    -2226 
   -2230    -2227    -2218    -2220    -2235    -2247    -2269    -2286 
   -2282    -2285    -2334    -2421    -2515    -2571    -2570    -2532 
   -2512    -2531    -2575    -2631    -2683    -2708    -2685    -2629 
   -2597    -2636    -2720    -2801    -2893    -3006    -3094    -3149 
   -3217    -3314    -3427    -3574    -3723    -3809    -3861    -3927 
   -3963    -3974    -4006    -4043    -4081    -4158    -4238    -4289 
   -4332    -4360    -4378    -4402    -4423    -4426    -4421    -4411 
   -4388    -4351    -4307    -4263    -4212    -4162    -4112    -4051 
   -4000    -3965    -3923    -3859    -3790    -3709    -3615    -3534 
   -3468    -3407    -3358    -3327    -3298    -3249    -3188    -3153 
   -3145    -3134    -3133    -3165    -3191    -3190    -3198    -3229 
   -3280    -3369    -3474    -3544    -3586    -3631    -3661    -3684 
   -3727    -3751    -3732    -3713    -3699    -3681    -3678    -3661 
   -3618    -3588    -3593    -3636    -3727    -3834    -3889    -3886 
   -3850    -3797    -3781    -3819    -3840    -3817    -3770    -3670 
   -3532    -3438    -3354    -3226    -3103    -2983    -2825    -2681 
   -2578    -2478    -2392    -2338    -2284    -2246    -2269    -2307 
   -2366    -2477    -2574    -2632    -2716    -2830    -2940    -3048 
   -3133    -3171    -3188    -3190    -3165    -3160    -3175    -3145 
   -3084    -3036    -2980    -2924    -2907    -2895    -2852    -2818 
   -2790    -2758    -2772    -2817    -2837    -2893    -3014    -3130 
   -3227    -3331    -3437    -3554    -3684    -3786    -3856    -3906 
   -3889    -3812    -3774    -3782    -3750    -3670    -3563    -3410 
   -3232    -3064    -2913    -2814    -2762    -2673    -2542    -2408 
   -2276    -2172    -2158    -2224    -2313    -2397    -2444    -2486 
   -2606    -2799    -3006    -3192    -3311    -3354    -3399    -3480 
   -3584    -3708    -3786    -3763    -3736    -3769    -3804    -3866 
   -3974    -4044    -4086    -4185    -4284    -4333    -4376    -4387 
   -4374    -4437    -4542    -4583    -4553    -4445    -4275    -4171 
   -4174    -4178    -4135    -4017    -3788    -3528    -3368    -3276 
   -3186    -3096    -2959    -2756    -2590    -2488    -2394    -2338 
   -2312    -2269    -2277    -2366    -2471    -2606    -2779    -2903 
   -2976    -3057    -3142    -3244    -3375    -3472    -3477    -3395 
   -3268    -3157    -3121    -3130    -3094    -2965    -2770    -2575 
   -2467    -2463    -2502    -2531    -2516    -2458    -2446    -2543 
   -2671    -2771    -2833    -2806    -2724    -2701    -2733    -2759 
   -2755    -2668    -2528    -2450    -2435    -2420    -2424    -2424 
   -2361    -2262    -2168    -2070    -1998    -1968    -1939    -1914 
   -1898    -1837    -1748    -1707    -1718    -1791    -1938    -2047 
   -2025    -1911    -1753    -1587    -1471    -1393    -1312    -1233 
   -1140     -990     -885     -899     -936     -972    -1050    -1117 
   -1182    -1281    -1344    -1395    -1507    -1637    -1745    -1857 
   -1953    -1988    -1998    -2029    -2087    -2172    -2243    -2227 
   -2139    -2056    -1993    -1942    -1881    -1772    -1637    -1526 
   -1418    -1285    -1171    -1120    -1144    -1229    -1351    -1502 
   -1675    -1821    -1933    -2046    -2139    -2150    -2118    -2091 
   -2022    -1899    -1761    -1613    -1474    -1379    -1308    -1250 
   -1212    -1171    -1127    -1113    -1128    -1170    -1259    -1336 
   -1362    -1405    -1525    -1738    -2026    -2293    -2471    -2582 
   -2651    -2712    -2785    -2821    -2802    -2772    -2708    -2579 
   -2423    -2236    -2011    -1826    -1725    -1638    -1567    -1535 
   -1499    -1440    -1387    -1363    -1379    -1445    -1551    -1690 
   -1833    -1917    -1930    -1937    -1941    -1941    -1980    -2073 
   -2169    -2246    -2316    -2355    -2351    -2331    -2322    -2332 
   -2367    -2415    -2454    -2497    -2543    -2584    -2659    -2762 
   -2857    -2982    -3153    -3346    -3569    -3776    -3885    -3905 
   -3909    -3939    -4012    -4125    -4232    -4295    -4321    -4329 
   -4325    -4310    -4291    -4248    -4174    -4082    -3979    -3896 
   -3847    -3793    -3694    -3595    -3530    -3492    -3515    -3627 
   -3747    -3820    -3885    -3940    -3951    -3951    -3982    -3986 
   -3951    -3950    -4009    -4094    -4144    -4126    -4068    -4002 
   -3959    -3971    -3993    -3970    -3924    -3869    -3766    -3650 
   -3618    -3645    -3661    -3692    -3754    -3816    -3892    -3967 
   -4005    -4024    -4027    -3986    -3927    -3898    -3897    -3885 
   -3824    -3712    -3601    -3538    -3489    -3459    -3496    -3537 
   -3492    -3419    -3395    -3419    -3492    -3603    -3692    -3731 
   -3704    -3597    -3476    -3418    -3384    -3336    -3265    -3127 
   -2990    -2963    -2990    -3011    -3052    -3079    -3083    -3111 
   -3164    -3226    -3322    -3437    -3488    -3453    -3410    -3440 
   -3566    -3742    -3910    -4055    -4158    -4191    -4215    -4303 
   -4390    -4395    -4351    -4305    -4276    -4255    -4178    -4033 
   -3886    -3788    -3738    -3730    -3711    -3661    -3645    -3684 
   -3728    -3763    -3774    -3723    -3657    -3647    -3650    -3601 
   -3523    -3429    -3339    -3299    -3275    -3211    -3132    -3057 
   -2976    -2920    -2899    -2862    -2799    -2755    -2720    -2704 
   -2745    -2833    -2934    -3064    -3208    -3333    -3457    -3607 
   -3767    -3931    -4082    -4172    -4205    -4215    -4210    -4197 
   -4182    -4156    -4109    -4035    -3943    -3858    -3798    -3776 
   -3774    -3751    -3694    -3608    -3523    -3481    -3473    -3469 
   -3466    -3466    -3473    -3492    -3516    -3530    -3535    -3550 
   -3589    -3631    -3658    -3662    -3639    -3612    -3608    -3615 
   -3611    -3595    -3565    -3511    -3449    -3406    -3395    -3423 
   -3488    -3559    -3600    -3626    -3651    -3662    -3682    -3750 
   -3840    -3935    -4045    -4149    -4222    -4288    -4372    -4471 
   -4581    -4700    -4797    -4858    -4899    -4926    -4935    -4928 
   -4909    -4891    -4865    -4820    -4769    -4700    -4599    -4506 
   -4453    -4428    -4423    -4431    -4436    -4440    -4450    -4453 
   -4453    -4455    -4437    -4403    -4378    -4353    -4322    -4294 
   -4263    -4225    -4205    -4202    -4209    -4217    -4210    -4190 
   -4166    -4122    -4062    -4002    -3944    -3904    -3893    -3897 
   -3902    -3904    -3877    -3816    -3746    -3665    -3563    -3458 
   -3350    -3230    -3111    -3014    -2944    -2905    -2902    -2933 
   -2986    -3051    -3118    -3177    -3248    -3329    -3399    -3459 
   -3527    -3588    -3628    -3643    -3631    -3604    -3559    -3500 
   -3450    -3414    -3384    -3387    -3406    -3416    -3457    -3537 
   -3618    -3701    -3805    -3905    -3991    -4083    -4183    -4288 
   -4398    -4510    -4631    -4761    -4885    -4985    -5057    -5092 
   -5076    -5027    -4963    -4868    -4745    -4610    -4461    -4318 
   -4220    -4156    -4105    -4069    -4050    -4017    -3971    -3908 
   -3824    -3744    -3662    -3565    -3492    -3457    -3416    -3391 
   -3406    -3439    -3507    -3624    -3736    -3828    -3940    -4055 
   -4128    -4178    -4205    -4202    -4199    -4205    -4205    -4207 
   -4209    -4191    -4178    -4186    -4194    -4220    -4278    -4351 
   -4438    -4549    -4653    -4741    -4837    -4928    -4982    -5011 
   -5015    -4977    -4923    -4872    -4819    -4774    -4747    -4726 
   -4719    -4742    -4774    -4789    -4772    -4715    -4627    -4541 
   -4471    -4392    -4302    -4237    -4199    -4178    -4199    -4260 
   -4317    -4369    -4415    -4421    -4392    -4375    -4356    -4310 
   -4261    -4223    -4178    -4135    -4113    -4110    -4126    -4171 
   -4225    -4256    -4271    -4279    -4256    -4210    -4137    -4023 
   -3886    -3755    -3634    -3534    -3466    -3419    -3376    -3339 
   -3327    -3335    -3350    -3375    -3400    -3419    -3433    -3440 
   -3440    -3426    -3397    -3361    -3323    -3283    -3231    -3179 
   -3126    -3073    -3034    -2999    -2949    -2905    -2874    -2835 
   -2792    -2762    -2725    -2678    -2636    -2609    -2594    -2594 
   -2616    -2650    -2678    -2717    -2782    -2847    -2906    -2964 
   -3001    -3015    -3019    -3017    -3017    -3026    -3030    -3033 
   -3038    -3029    -3010    -3007    -3021    -3032    -3055    -3096 
   -3137    -3160    -3164    -3153    -3138    -3123    -3107    -3088 
   -3071    -3053    -3045    -3057    -3063    -3067    -3090    -3114 
   -3133    -3176    -3221    -3242    -3257    -3254    -3221    -3180 
