Origin Time       2016/04/16 01:25:00
Lat.              32.753
Long.             130.762
Depth. (km)       12
Mag.              7.3
Station Code      OKY011
Station Lat.      34.6540
Station Long.     133.9067
Station Height(m) 2
Record Time       2016/04/16 01:26:50
Sampling Freq(Hz) 100Hz
Duration Time(s)  65
Dir.              N-S
Scale Factor      7845(gal)/8223790
Max. Acc. (gal)   4.403
Last Correction   2016/04/16 01:26:51
Memo.             
[...]
    9232     9242     9223     9185     9137     9085     9028     8953 
    8858     8752     8633     8502     8357     8228     8144     8114 
    8135     8195     8270     8337     8376     8388     8398     8424 
    8469     8519     8553     8568     8567     8550     8522     8487 
    8453     8421     8391     8368     8348     8322     8293     8270 
    8241     8198     8141     8085     8031     7969     7912     7874 
    7858     7863     7886     7940     8024     8111     8199     8278 
    8333     8380     8421     8449     8467     8456     8407     8337 
    8257     8174     8083     7987     7898     7834     7797     7780 
    7780     7804     7843     7877     7908     7946     7959     7940 
    7920     7903     7892     7889     7893     7902     7916     7936 
    7979     8044     8108     8155     8197     8245     8286     8330 
    8391     8463     8529     8583     8622     8642     8631     8607 
    8594     8579     8569     8575     8599     8645     8699     8752 
    8781     8768     8721     8652     8572     8487     8413     8352 
    8294     8215     8127     8044     7978     7935     7935     7986 
    8051     8121     8212     8303     8375     8417     8440     8447 
    8433     8411     8403     8387     8351     8305     8266     8228 
    8197     8205     8245     8281     8302     8305     8283     8243 
    8218     8232     8268     8319     8394     8484     8573     8648 
    8691     8708     8699     8658     8610     8571     8533     8509 
    8515     8550     8592     8634     8680     8711     8706     8684 
    8665     8642     8611     8583     8548     8479     8379     8256 
    8117     7964     7815     7681     7565     7474     7429     7416 
    7425     7447     7484     7548     7638     7735     7850     7977 
    8100     8224     8360     8510     8650     8765     8856     8910 
    8918     8905     8899     8895     8885     8887     8905     8922 
    8927     8918     8880     8807     8718     8621     8513     8390 
    8256     8137     8037     7943     7862     7793     7708     7600 
    7479     7354     7231     7132     7080     7067     7069     7091 
    7134     7195     7281     7411     7591     7776     7929     8064 
    8197     8311     8421     8549     8677     8783     8868     8938 
    8993     9038     9086     9137     9162     9153     9121     9067 
    8980     8858     8721     8584     8441     8302     8182     8085 
    8000     7925     7860     7801     7749     7705     7685     7690 
    7695     7707     7736     7761     7778     7809     7867     7948 
    8047     8172     8314     8433     8526     8600     8641     8640 
    8629     8626     8619     8599     8581     8564     8532     8484 
    8437     8398     8359     8328     8311     8303     8291     8284 
    8295     8302     8293     8289     8293     8289     8276     8271 
    8283     8313     8349     8401     8467     8526     8567     8596 
    8618     8626     8625     8635     8664     8688     8699     8684 
    8630     8533     8421     8307     8187     8073     7981     7913 
    7873     7867     7889     7915     7933     7969     8028     8085 
    8149     8221     8280     8313     8305     8279     8251     8205 
    8151     8109     8082     8051     8016     8002     8007     8020 
    8040     8052     8035     7987     7920     7839     7749     7661 
    7601     7573     7564     7573     7596     7631     7674     7720 
    7770     7804     7816     7831     7859     7885     7903     7943 
    8006     8075     8158     8255     8343     8398     8434     8464 
    8487     8490     8500     8529     8557     8590     8619     8640 
    8637     8611     8592     8595     8604     8614     8618     8607 
    8573     8517     8471     8440     8401     8372     8368     8374 
    8378     8379     8376     8359     8310     8237     8168     8110 
    8073     8073     8094     8111     8114     8113     8109     8105 
    8102     8095     8082     8063     8047     8035     8010     7964 
    7911     7857     7804     7761     7746     7765     7809     7886 
    8000     8120     8218     8293     8333     8313     8243     8160 
    8077     7996     7929     7885     7862     7851     7848     7852 
    7867     7890     7928     7977     8037     8105     8181     8266 
    8360     8453     8533     8581     8604     8604     8577     8532 
    8472     8418     8384     8371     8368     8361     8347     8316 
    8267     8215     8159     8102     8073     8081     8121     8176 
    8220     8259     8299     8336     8380     8437     8494     8533 
    8559     8588     8611     8618     8617     8611     8602     8602 
    8618     8625     8611     8579     8540     8490     8433     8372 
    8324     8280     8233     8176     8114     8060     8016     7986 
    7971     7951     7931     7928     7936     7939     7929     7940 
    7983     8037     8122     8241     8359     8456     8533     8586 
    8595     8563     8507     8436     8363     8310     8293     8310 
    8337     8356     8360     8341     8302     8259     8221     8189 
    8156     8141     8155     8185     8226     8278     8299     8279 
    8226     8162     8106     8054     8016     7997     7982     7990 
    8035     8102     8193     8294     8382     8433     8444     8424 
    8380     8318     8244     8155     8059     7964     7873     7797 
    7743     7712     7708     7739     7803     7885     7963     8024 
    8062     8075     8082     8113     8172     8251     8347     8444 
    8537     8615     8665     8706     8752     8791     8830     8891 
    8962     9036     9103     9146     9162     9155     9128     9096 
    9063     9027     8985     8929     8860     8775     8684     8587 
    8472     8344     8222     8111     8014     7938     7884     7854 
    7836     7836     7862     7894     7928     7979     8040     8105 
    8172     8248     8324     8384     8424     8441     8437     8424 
    8401     8376     8371     8411     8492     8603     8719     8815 
    8887     8938     8961     8954     8929     8900     8862     8811 
    8758     8702     8630     8553     8464     8347     8210     8056 
    7888     7716     7558     7437     7346     7277     7244     7244 
    7277     7346     7444     7564     7700     7854     8012     8155 
    8280     8384     8473     8553     8606     8627     8642     8667 
    8698     8727     8748     8738     8677     8588     8487     8370 
    8244     8129     8025     7929     7851     7782     7722     7670 
    7632     7627     7652     7696     7750     7807     7860     7903 
    7931     7964     8007     8058     8128     8233     8360     8486 
    8590     8673     8737     8772     8795     8812     8816     8812 
    8797     8769     8746     8741     8754     8779     8796     8800 
    8784     8745     8687     8626     8588     8573     8565     8560 
    8560     8546     8502     8430     8343     8240     8135     8064 
    8029     8012     8014     8040     8071     8091     8111     8162 
    8226     8291     8370     8454     8509     8525     8515     8484 
    8433     8384     8352     8316     8262     8195     8128     8055 
    7989     7943     7897     7844     7803     7773     7754     7750 
    7761     7805     7878     7959     8052     8159     8251     8324 
    8390     8437     8451     8441     8426     8431     8463     8522 
    8612     8714     8808     8892     8968     9032     9065     9070 
    9071     9051     9003     8937     8843     8711     8549     8387 
    8245     8131     8063     8047     8070     8114     8164     8213 
    8239     8225     8206     8191     8156     8117     8098     8082 
    8059     8043     8044     8054     8071     8111     8159     8201 
    8228     8233     8241     8260     8291     8345     8410     8451 
    8471     8480     8476     8447     8411     8379     8341     8295 
    8256     8226     8190     8139     8098     8078     8073     8067 
    8064     8055     8023     7974     7935     7892     7835     7780 
    7738     7712     7699     7708     7753     7809     7867     7935 
    8006     8067     8114     8163     8232     8310     8403     8515 
    8619     8695     8742     8766     8772     8758     8741     8737 
    8738     8737     8748     8770     8808     8865     8937     9005 
    9051     9066     9053     9001     8900     8762     8606     8430 
    8243     8067     7893     7704     7512     7327     7160     7017 
    6907     6863     6876     6939     7055     7202     7365     7542 
    7709     7863     8005     8135     8271     8414     8532     8612 
    8658     8672     8661     8642     8633     8619     8588     8553 
    8540     8530     8506     8484     8463     8414     8337     8248 
    8149     8019     7870     7740     7645     7576     7538     7527 
    7531     7537     7550     7569     7581     7588     7614     7682 
    7781     7905     8050     8195     8318     8413     8486     8530 
    8540     8527     8499     8457     8398     8337     8293     8255 
    8209     8159     8111     8054     7985     7931     7889     7836 
    7776     7712     7632     7524     7410     7329     7277     7246 
    7264     7315     7358     7395     7439     7497     7564     7650 
    7776     7924     8078     8237     8394     8537     8654     8729 
    8765     8779     8776     8775     8784     8792     8775     8723 
    8642     8533     8426     8337     8264     8215     8193     8206 
    8243     8260     8263     8266     8248     8209     8152     8094 
    8048     8007     7982     7983     7994     7998     8005     8010 
    8000     7978     7987     8035     8111     8215     8329     8418 
    8473     8505     8522     8519     8490     8459     8447     8434 
    8411     8374     8291     8164     8017     7867     7734     7626 
    7545     7501     7500     7527     7577     7645     7711     7770 
    7848     7959     8078     8201     8324     8444     8557     8655 
    8739     8803     8850     8895     8928     8946     8953     8949 
    8931     8887     8810     8712     8596     8440     8256     8075 
    7900     7734     7597     7500     7418     7335     7256     7177 
    7103     7048     7028     7042     7076     7132     7221     7318 
    7410     7522     7661     7804     7942     8089     8244     8385 
    8500     8584     8655     8719     8773     8820     8846     8839 
    8806     8737     8633     8506     8379     8272     8176     8097 
    8048     8007     7950     7871     7774     7661     7524     7361 
    7203     7079     6990     6949     6971     7044     7149     7275 
    7411     7543     7662     7776     7888     8009     8144     8295 
    8451     8595     8711     8787     8807     8762     8675     8575 
    8464     8360     8274     8221     8206     8203     8185     8149 
    8093     8019     7936     7859     7792     7712     7624     7542 
    7461     7385     7314     7236     7142     7045     6972     6924 
    6894     6893     6929     7021     7165     7349     7573     7807 
    8032     8264     8499     8721     8912     9051     9153     9235 
    9298     9354     9386     9371     9316     9227     9101     8969 
    8850     8735     8610     8474     8347     8248     8176     8121 
    8083     8058     8020     7989     7977     7979     7989     8001 
    8013     8023     8028     8032     8019     7996     7998     8033 
    8090     8182     8321     8482     8645     8802     8955     9097 
    9219     9320     9404     9478     9545     9605     9651     9675 
    9662     9617     9548     9464     9362     9254     9161     9093 
    9051     9047     9086     9146     9200     9259     9315     9351 
    9381     9394     9374     9331     9286     9246     9207     9166 
    9132     9100     9076     9067     9061     9050     9038     9009 
    8965     8915     8847     8761     8658     8543     8426     8306 
    8206     8139     8097     8075     8078     8105     8143     8186 
    8251     8343     8456     8590     8726     8850     8957     9065 
    9175     9275     9363     9437     9478     9483     9444     9352 
    9221     9062     8899     8750     8626     8529     8457     8404 
    8370     8347     8333     8340     8352     8365     8391     8428 
    8440     8428     8410     8391     8379     8387     8411     8441 
    8487     8559     8660     8770     8868     8950     9015     9050 
    9065     9073     9066     9045     9020     9000     8964     8896 
    8792     8660     8507     8332     8152     7997     7854     7722 
    7630     7565     7495     7419     7352     7292     7249     7240 
    7263     7302     7356     7457     7611     7780     7955     8139 
    8318     8505     8696     8880     9045     9182     9290     9364 
    9393     9387     9355     9300     9242     9171     9067     8938 
    8777     8584     8379     8166     7931     7674     7423     7184 
    6948     6731     6546     6384     6250     6148     6076     6029 
    6027     6097     6232     6415     6640     6899     7182     7480 
    7785     8094     8395     8679     8949     9209     9443     9628 
    9756     9823     9815     9744     9643     9522     9358     9153 
    8945     8746     8545     8322     8056     7740     7389     7025 
    6671     6349     6054     5783     5537     5286     5016     4735 
    4446     4175     3946     3781     3678     3627     3650     3769 
    3955     4190     4482     4830     5220     5641     6083     6527 
    6959     7349     7690     7983     8191     8314     8397     8446 
    8451     8421     8387     8352     8295     8224     8152     8082 
    8021     7979     7948     7905     7848     7815     7799     7777 
    7744     7701     7630     7542     7464     7410     7383     7383 
    7406     7468     7573     7704     7863     8051     8228     8365 
    8473     8545     8568     8565     8561     8542     8517     8513 
    8527     8537     8523     8496     8471     8434     8398     8380 
    8370     8348     8307     8247     8179     8094     7954     7789 
    7641     7496     7358     7246     7156     7089     7059     7040 
    7015     6994     6952     6872     6759     6628     6513     6408 
    6311     6265     6270     6309     6380     6458     6538     6627 
    6725     6853     7021     7194     7356     7514     7665     7804 
    7947     8105     8276     8444     8614     8777     8889     8932 
    8924     8868     8780     8681     8583     8494     8414     8337 
    8272     8210     8131     8017     7867     7689     7489     7296 
    7142     7028     6947     6912     6922     6951     6983     7047 
    7153     7302     7501     7719     7919     8094     8251     8414 
    8590     8766     8961     9180     9409     9649     9892    10115 
   10318    10503    10678    10844    10968    11020    11011    10945 
   10810    10620    10405    10173     9919     9672     9458     9282 
    9155     9085     9077     9113     9196     9325     9479     9649 
    9845    10055    10265    10450    10612    10762    10891    10991 
   11057    11083    11060    10984    10881    10754    10585    10381 
   10154     9900     9610     9277     8918     8540     8152     7786 
    7452     7155     6912     6708     6531     6367     6176     5956 
    5741     5532     5355     5246     5200     5208     5290     5455 
    5675     5931     6216     6521     6844     7167     7474     7767 
    8021     8221     8367     8449     8474     8444     8356     8221 
    8051     7865     7693     7546     7400     7241     7069     6880 
    6671     6467     6276     6083     5907     5769     5655     5549 
    5462     5418     5417     5452     5535     5659     5842     6104 
    6424     6808     7260     7751     8268     8806     9344     9855 
   10327    10771    11165    11492    11735    11863    11870    11776 
   11599    11346    11016    10631    10230     9817     9421     9070 
    8773     8515     8293     8120     7971     7825     7688     7553 
    7441     7368     7325     7314     7358     7481     7684     7947 
    8243     8542     8868     9221     9586     9965    10355    10751 
   11155    11524    11812    11980    11989    11840    11595    11268 
   10885    10485    10080     9676     9277     8887     8506     8111 
    7708     7317     6952     6619     6336     6135     6011     5953 
    5968     6035     6129     6226     6320     6417     6539     6718 
    6985     7330     7727     8162     8600     9013     9402     9756 
   10066    10339    10566    10748    10886    10957    10939    10845 
   10704    10494    10224     9945     9680     9421     9174     8955 
    8760     8572     8391     8222     8047     7865     7700     7555 
    7439     7350     7280     7240     7233     7264     7350     7491 
    7652     7835     8052     8314     8603     8869     9104     9304 
    9451     9562     9622     9590     9497     9350     9132     8873 
    8581     8255     7921     7605     7318     7047     6768     6465 
    6145     5822     5529     5271     5067     4950     4909     4934 
    5012     5097     5188     5302     5433     5557     5667     5775 
    5887     6000     6130     6299     6512     6755     7021     7300 
    7572     7821     8037     8233     8403     8513     8581     8630 
    8668     8721     8789     8846     8866     8837     8770     8660 
    8502     8302     8066     7812     7553     7281     6993     6685 
    6363     6012     5661     5364     5115     4947     4885     4870 
    4912     5020     5161     5331     5502     5682     5875     6049 
    6210     6351     6480     6598     6673     6739     6797     6832 
    6889     6957     7034     7110     7173     7273     7388     7504 
    7631     7742     7834     7881     7878     7844     7756     7650 
    7545     7431     7330     7221     7082     6907     6718     6544 
    6373     6214     6080     5967     5871     5769     5671     5623 
    5644     5717     5811     5880     5922     5991     6085     6184 
    6276     6365     6486     6656     6844     7044     7267     7535 
    7832     8122     8404     8671     8945     9232     9481     9688 
    9869    10031    10172    10246    10247    10187    10080     9950 
    9786     9595     9404     9204     9015     8847     8712     8622 
    8572     8572     8579     8545     8494     8444     8385     8310 
    8202     8063     7906     7761     7639     7481     7260     7037 
    6886     6839     6858     6933     7115     7381     7674     7982 
    8270     8494     8615     8649     8646     8590     8441     8230 
    8004     7782     7534     7298     7098     6893     6687     6498 
    6355     6297     6293     6331     6420     6571     6785     7044 
    7337     7622     7886     8137     8316     8426     8519     8606 
    8704     8823     8965     9123     9279     9452     9636     9819 
   10011    10196    10376    10528    10613    10643    10659    10671 
   10639    10544    10386    10164     9922     9694     9483     9274 
    9047     8824     8626     8459     8334     8257     8243     8252 
    8274     8322     8328     8278     8235     8193     8151     8143 
