Origin Time       2016/04/16 01:25:00
Lat.              32.753
Long.             130.762
Depth. (km)       12
Mag.              7.3
Station Code      OKY009
Station Lat.      34.9176
Station Long.     134.0923
Station Height(m) 48
Record Time       2016/04/16 01:26:58
Sampling Freq(Hz) 100Hz
Duration Time(s)  64
Dir.              N-S
Scale Factor      7845(gal)/8223790
Max. Acc. (gal)   1.950
Last Correction   2016/04/16 01:26:59
Memo.             
[...]
   -2158    -2114    -2073    -2045    -2031    -2033    -2047    -2062 
   -2072    -2079    -2084    -2089    -2101    -2107    -2095    -2065 
   -2030    -1995    -1964    -1937    -1912    -1904    -1914    -1930 
   -1949    -1965    -1981    -2001    -2029    -2056    -2070    -2073 
   -2065    -2053    -2061    -2085    -2124    -2166    -2200    -2219 
   -2223    -2205    -2173    -2133    -2092    -2061    -2034    -2010 
   -1989    -1971    -1953    -1944    -1926    -1891    -1854    -1822 
   -1788    -1759    -1738    -1726    -1728    -1755    -1806    -1856 
   -1903    -1948    -1982    -2007    -2027    -2042    -2047    -2045 
   -2037    -2027    -2019    -2016    -2023    -2039    -2062    -2088 
   -2119    -2149    -2174    -2199    -2212    -2215    -2215    -2207 
   -2189    -2162    -2123    -2083    -2057    -2064    -2104    -2163 
   -2215    -2243    -2249    -2231    -2199    -2162    -2124    -2093 
   -2072    -2060    -2057    -2058    -2052    -2039    -2023    -1999 
   -1969    -1945    -1933    -1927    -1934    -1945    -1941    -1925 
   -1898    -1858    -1818    -1786    -1773    -1791    -1826    -1864 
   -1892    -1900    -1888    -1861    -1822    -1781    -1752    -1738 
   -1740    -1748    -1755    -1765    -1776    -1794    -1822    -1863 
   -1908    -1956    -1996    -2029    -2056    -2074    -2074    -2053 
   -2011    -1964    -1922    -1885    -1865    -1875    -1910    -1964 
   -2027    -2077    -2097    -2091    -2064    -2015    -1953    -1887 
   -1830    -1804    -1818    -1852    -1884    -1899    -1895    -1880 
   -1859    -1831    -1799    -1764    -1737    -1729    -1740    -1769 
   -1815    -1863    -1898    -1915    -1919    -1915    -1910    -1917 
   -1941    -1977    -2023    -2076    -2123    -2158    -2178    -2169 
   -2139    -2107    -2072    -2045    -2045    -2074    -2120    -2166 
   -2189    -2180    -2138    -2079    -2012    -1953    -1910    -1884 
   -1878    -1899    -1930    -1954    -1965    -1962    -1952    -1941 
   -1937    -1939    -1949    -1961    -1960    -1939    -1911    -1887 
   -1877    -1887    -1917    -1962    -2019    -2083    -2134    -2163 
   -2170    -2154    -2119    -2074    -2029    -1993    -1975    -1966 
   -1965    -1966    -1960    -1935    -1896    -1848    -1800    -1767 
   -1750    -1750    -1768    -1806    -1852    -1895    -1927    -1954 
   -1960    -1939    -1904    -1865    -1837    -1836    -1857    -1892 
   -1935    -1979    -2015    -2034    -2034    -2020    -1988    -1952 
   -1934    -1944    -1985    -2058    -2139    -2199    -2232    -2239 
   -2219    -2182    -2143    -2098    -2058    -2034    -2030    -2052 
   -2098    -2149    -2189    -2214    -2219    -2215    -2204    -2188 
   -2178    -2176    -2178    -2189    -2196    -2188    -2181    -2176 
   -2165    -2155    -2141    -2116    -2097    -2085    -2072    -2053 
   -2020    -1972    -1915    -1867    -1830    -1803    -1784    -1775 
   -1771    -1781    -1806    -1836    -1871    -1903    -1930    -1961 
   -1991    -2016    -2049    -2085    -2115    -2141    -2166    -2185 
   -2201    -2224    -2253    -2285    -2312    -2326    -2330    -2335 
   -2346    -2357    -2362    -2354    -2324    -2285    -2246    -2208 
   -2181    -2169    -2165    -2165    -2151    -2111    -2045    -1960 
   -1868    -1788    -1733    -1698    -1682    -1680    -1683    -1680 
   -1672    -1648    -1605    -1547    -1490    -1455    -1456    -1494 
   -1566    -1653    -1742    -1826    -1899    -1949    -1975    -1972 
   -1944    -1900    -1850    -1814    -1788    -1759    -1732    -1706 
   -1665    -1617    -1570    -1530    -1506    -1491    -1478    -1462 
   -1447    -1433    -1428    -1431    -1439    -1448    -1449    -1444 
   -1433    -1409    -1385    -1375    -1378    -1387    -1405    -1425 
   -1436    -1431    -1416    -1409    -1408    -1408    -1402    -1397 
   -1405    -1429    -1460    -1497    -1528    -1548    -1567    -1582 
   -1586    -1580    -1570    -1553    -1544    -1552    -1568    -1583 
   -1593    -1593    -1579    -1553    -1521    -1478    -1421    -1372 
   -1343    -1328    -1333    -1370    -1424    -1493    -1583    -1680 
   -1781    -1881    -1966    -2029    -2076    -2110    -2134    -2149 
   -2157    -2149    -2124    -2097    -2064    -2019    -1988    -1973 
   -1954    -1933    -1917    -1904    -1902    -1907    -1910    -1899 
   -1869    -1833    -1792    -1750    -1729    -1726    -1729    -1749 
   -1775    -1795    -1810    -1813    -1802    -1776    -1729    -1675 
   -1636    -1609    -1599    -1614    -1648    -1677    -1688    -1684 
   -1671    -1641    -1605    -1582    -1576    -1586    -1617    -1660 
   -1703    -1745    -1783    -1802    -1799    -1787    -1784    -1798 
   -1831    -1892    -1962    -2027    -2077    -2106    -2110    -2107 
   -2110    -2111    -2128    -2176    -2239    -2312    -2393    -2466 
   -2524    -2565    -2582    -2583    -2575    -2559    -2536    -2512 
   -2488    -2470    -2448    -2417    -2381    -2342    -2299    -2255 
   -2211    -2155    -2084    -2007    -1935    -1876    -1841    -1830 
   -1838    -1856    -1878    -1903    -1926    -1953    -1984    -2019 
   -2064    -2116    -2168    -2204    -2227    -2238    -2241    -2242 
   -2251    -2266    -2290    -2331    -2384    -2432    -2467    -2484 
   -2479    -2459    -2435    -2420    -2423    -2447    -2484    -2520 
   -2548    -2562    -2558    -2536    -2516    -2516    -2532    -2556 
   -2586    -2623    -2660    -2687    -2702    -2713    -2725    -2755 
   -2809    -2879    -2959    -3048    -3138    -3223    -3303    -3368 
   -3419    -3464    -3492    -3516    -3546    -3581    -3622    -3673 
   -3728    -3778    -3813    -3827    -3807    -3748    -3665    -3572 
   -3480    -3396    -3339    -3310    -3299    -3292    -3283    -3267 
   -3235    -3198    -3164    -3141    -3126    -3117    -3111    -3109 
   -3098    -3078    -3045    -2994    -2932    -2867    -2806    -2759 
   -2731    -2720    -2724    -2748    -2786    -2822    -2852    -2878 
   -2893    -2898    -2898    -2882    -2852    -2802    -2731    -2646 
   -2560    -2482    -2423    -2386    -2366    -2354    -2336    -2308 
   -2266    -2212    -2154    -2104    -2073    -2073    -2098    -2150 
   -2230    -2315    -2397    -2473    -2527    -2556    -2560    -2523 
   -2451    -2367    -2284    -2211    -2168    -2158    -2169    -2178 
   -2178    -2157    -2107    -2041    -1960    -1878    -1809    -1752 
   -1711    -1682    -1653    -1614    -1561    -1495    -1422    -1355 
   -1300    -1258    -1244    -1262    -1291    -1323    -1348    -1359 
   -1350    -1316    -1259    -1190    -1120    -1062    -1024    -1000 
    -990    -1003    -1035    -1074    -1111    -1132    -1133    -1121 
   -1090    -1044     -990     -932     -886     -855     -837     -835 
    -851     -870     -885     -893     -892     -881     -864     -845 
    -834     -847     -886     -946    -1023    -1105    -1171    -1210 
   -1220    -1204    -1177    -1169    -1193    -1248    -1336    -1440 
   -1534    -1611    -1663    -1677    -1676    -1682    -1701    -1733 
   -1781    -1842    -1910    -1975    -2034    -2077    -2104    -2120 
   -2130    -2128    -2119    -2107    -2097    -2096    -2102    -2116 
   -2134    -2151    -2169    -2199    -2241    -2284    -2336    -2393 
   -2444    -2488    -2521    -2536    -2531    -2500    -2446    -2386 
   -2330    -2290    -2276    -2295    -2353    -2439    -2538    -2639 
   -2717    -2751    -2747    -2718    -2693    -2690    -2718    -2782 
   -2870    -2952    -3007    -3029    -3007    -2948    -2863    -2762 
   -2667    -2587    -2516    -2451    -2393    -2336    -2282    -2231 
   -2182    -2141    -2107    -2076    -2049    -2029    -2012    -1989 
   -1953    -1907    -1852    -1787    -1729    -1679    -1634    -1601 
   -1566    -1517    -1463    -1408    -1345    -1290    -1246    -1208 
   -1170    -1129    -1084    -1034     -981     -935     -905     -886 
    -882     -897     -927     -963     -996    -1030    -1071    -1111 
   -1148    -1190    -1221    -1229    -1229    -1223    -1205    -1185 
   -1174    -1171    -1190    -1230    -1266    -1274    -1248    -1189 
   -1113    -1042     -982     -939     -920     -916     -919     -934 
    -958     -974     -986    -1012    -1058    -1117    -1192    -1282 
   -1381    -1472    -1541    -1570    -1561    -1522    -1459    -1382 
   -1304    -1244    -1212    -1206    -1223    -1240    -1248    -1236 
   -1190    -1120    -1048     -985     -946     -950     -989    -1048 
   -1125    -1209    -1289    -1359    -1413    -1448    -1471    -1490 
   -1503    -1513    -1516    -1507    -1501    -1493    -1483    -1476 
   -1476    -1485    -1509    -1566    -1645    -1741    -1856    -1982 
   -2114    -2255    -2397    -2519    -2632    -2740    -2847    -2959 
   -3060    -3140    -3204    -3248    -3271    -3295    -3323    -3365 
   -3424    -3476    -3511    -3543    -3563    -3576    -3584    -3572 
   -3537    -3476    -3393    -3303    -3222    -3167    -3130    -3092 
   -3055    -3015    -2976    -2944    -2918    -2902    -2895    -2890 
   -2882    -2867    -2837    -2783    -2706    -2605    -2494    -2384 
   -2280    -2192    -2126    -2072    -2018    -1961    -1902    -1852 
   -1821    -1804    -1809    -1838    -1880    -1934    -1996    -2050 
   -2096    -2128    -2137    -2130    -2119    -2111    -2130    -2187 
   -2277    -2386    -2515    -2656    -2792    -2910    -3001    -3056 
   -3083    -3090    -3086    -3078    -3067    -3056    -3052    -3057 
   -3076    -3113    -3164    -3222    -3289    -3368    -3454    -3544 
   -3631    -3700    -3742    -3754    -3740    -3713    -3692    -3678 
   -3657    -3630    -3612    -3601    -3596    -3603    -3619    -3645 
   -3684    -3727    -3757    -3762    -3734    -3678    -3603    -3507 
   -3404    -3304    -3219    -3168    -3152    -3161    -3190    -3230 
   -3277    -3322    -3357    -3377    -3384    -3380    -3373    -3364 
   -3361    -3364    -3362    -3350    -3335    -3321    -3300    -3273 
   -3235    -3194    -3148    -3100    -3056    -3009    -2955    -2899 
   -2844    -2794    -2754    -2717    -2681    -2650    -2620    -2602 
   -2608    -2636    -2682    -2740    -2808    -2878    -2948    -3011 
   -3071    -3127    -3179    -3222    -3257    -3287    -3308    -3312 
   -3302    -3289    -3288    -3284    -3268    -3244    -3219    -3200 
   -3184    -3169    -3146    -3109    -3059    -3009    -2967    -2947 
   -2944    -2960    -2998    -3044    -3079    -3099    -3092    -3057 
   -3005    -2928    -2825    -2714    -2604    -2494    -2390    -2288 
   -2185    -2074    -1958    -1852    -1755    -1655    -1553    -1451 
   -1339    -1225    -1121    -1030     -954     -905     -876     -855 
    -841     -827     -812     -789     -758     -714     -650     -576 
    -499     -421     -349     -292     -248     -207     -174     -149 
    -128     -118     -131     -162     -201     -248     -306     -376 
    -449     -513     -560     -591     -625     -673     -733     -805 
    -889     -966    -1039    -1115    -1188    -1263    -1343    -1424 
   -1497    -1556    -1603    -1641    -1669    -1701    -1740    -1786 
   -1836    -1881    -1917    -1948    -1980    -2003    -2016    -2031 
   -2049    -2068    -2095    -2139    -2189    -2236    -2274    -2304 
   -2324    -2338    -2349    -2353    -2359    -2377    -2403    -2424 
   -2442    -2448    -2442    -2428    -2417    -2403    -2388    -2380 
   -2366    -2338    -2299    -2249    -2192    -2133    -2076    -2034 
   -2011    -2010    -2019    -2019    -1993    -1933    -1825    -1675 
   -1512    -1352    -1217    -1125    -1081    -1077    -1100    -1132 
   -1151    -1150    -1124    -1074    -1007     -934     -869     -831 
    -835     -880     -955    -1046    -1127    -1189    -1243    -1286 
   -1321    -1363    -1414    -1463    -1501    -1526    -1535    -1520 
   -1472    -1397    -1293    -1167    -1046     -942     -854     -787 
    -728     -664     -588     -510     -434     -356     -282     -217 
    -162     -117      -91      -94     -124     -170     -225     -283 
    -332     -365     -388     -396     -395     -390     -386     -398 
    -440     -500     -577     -673     -777     -874     -963    -1038 
   -1093    -1138    -1177    -1213    -1243    -1262    -1273    -1273 
   -1255    -1223    -1175    -1124    -1073    -1031    -1005     -993 
    -993    -1007    -1020    -1024    -1023    -1012     -997     -989 
    -984     -974     -970     -976     -994    -1026    -1071    -1123 
   -1169    -1198    -1205    -1196    -1174    -1152    -1129    -1107 
   -1092    -1092    -1112    -1148    -1194    -1236    -1256    -1246 
   -1217    -1202    -1220    -1273    -1352    -1441    -1524    -1579 
   -1588    -1561    -1509    -1449    -1404    -1389    -1418    -1479 
   -1540    -1580    -1590    -1557    -1491    -1414    -1339    -1275 
   -1237    -1228    -1236    -1259    -1294    -1331    -1355    -1358 
   -1333    -1289    -1239    -1190    -1142    -1088    -1039     -999 
    -954     -909     -857     -788     -718     -660     -611     -577 
    -568     -585     -623     -669     -715     -758     -787     -789 
    -767     -718     -643     -560     -473     -394     -332     -278 
    -232     -189     -140      -93      -47        4       49       81 
      91       75       28      -41     -109     -155     -180     -189 
    -170     -125      -67       -9       31       32      -10      -89 
    -187     -287     -383     -475     -533     -553     -548     -530 
    -521     -535     -566     -607     -657     -711     -762     -799 
    -810     -796     -772     -754     -753     -780     -838     -915 
    -992    -1057    -1085    -1067    -1013     -938     -849     -774 
    -737     -735     -766     -818     -859     -862     -822     -747 
    -643     -526     -430     -370     -364     -425     -540     -673 
    -814     -940    -1031    -1093    -1131    -1138    -1119    -1098 
   -1094    -1124    -1183    -1259    -1341    -1414    -1470    -1516 
   -1556    -1595    -1641    -1692    -1742    -1787    -1822    -1842 
   -1842    -1831    -1825    -1822    -1831    -1852    -1873    -1890 
   -1888    -1864    -1823    -1777    -1726    -1677    -1649    -1649 
   -1663    -1677    -1691    -1686    -1661    -1625    -1576    -1514 
   -1451    -1405    -1385    -1381    -1391    -1404    -1404    -1385 
   -1344    -1281    -1204    -1136    -1089    -1065    -1055    -1047 
   -1042    -1044    -1058    -1070    -1081    -1101    -1119    -1132 
   -1148    -1158    -1159    -1169    -1182    -1197    -1206    -1215 
   -1228    -1239    -1229    -1212    -1190    -1161    -1135    -1125 
   -1131    -1158    -1205    -1273    -1354    -1436    -1517    -1597 
   -1660    -1707    -1744    -1765    -1772    -1776    -1780    -1787 
   -1800    -1815    -1826    -1829    -1821    -1810    -1798    -1796 
   -1821    -1872    -1939    -2007    -2057    -2083    -2066    -1999 
   -1906    -1804    -1699    -1615    -1575    -1568    -1587    -1625 
   -1663    -1672    -1652    -1606    -1543    -1475    -1428    -1422 
   -1457    -1516    -1594    -1686    -1763    -1803    -1799    -1752 
   -1676    -1599    -1551    -1535    -1551    -1583    -1628    -1668 
   -1694    -1699    -1691    -1680    -1674    -1672    -1684    -1711 
   -1755    -1807    -1859    -1902    -1927    -1944    -1945    -1939 
   -1930    -1915    -1911    -1930    -1977    -2039    -2091    -2120 
   -2130    -2121    -2098    -2079    -2074    -2089    -2130    -2189 
   -2254    -2319    -2370    -2397    -2393    -2361    -2308    -2242 
   -2174    -2111    -2053    -2001    -1964    -1939    -1922    -1902 
   -1885    -1878    -1888    -1925    -1999    -2095    -2200    -2301 
   -2371    -2411    -2432    -2434    -2420    -2419    -2435    -2467 
   -2519    -2577    -2624    -2647    -2644    -2614    -2562    -2504 
   -2438    -2358    -2276    -2192    -2111    -2046    -1991    -1944 
   -1894    -1836    -1760    -1671    -1582    -1497    -1428    -1378 
   -1340    -1320    -1318    -1333    -1367    -1412    -1467    -1532 
   -1598    -1651    -1680    -1691    -1691    -1682    -1661    -1647 
   -1653    -1677    -1719    -1786    -1872    -1960    -2037    -2101 
   -2157    -2199    -2222    -2231    -2235    -2241    -2266    -2317 
   -2384    -2461    -2546    -2627    -2691    -2727    -2731    -2706 
   -2658    -2605    -2565    -2538    -2519    -2505    -2493    -2471 
   -2440    -2411    -2394    -2393    -2413    -2463    -2536    -2616 
   -2691    -2749    -2772    -2759    -2710    -2636    -2555    -2463 
   -2365    -2277    -2212    -2172    -2157    -2162    -2180    -2204 
   -2226    -2247    -2278    -2309    -2334    -2353    -2367    -2373 
   -2366    -2353    -2340    -2331    -2322    -2330    -2359    -2400 
   -2446    -2489    -2512    -2512    -2502    -2497    -2493    -2490 
   -2489    -2481    -2459    -2432    -2405    -2381    -2353    -2323 
   -2290    -2251    -2207    -2166    -2130    -2098    -2076    -2053 
   -2026    -2003    -2003    -2038    -2100    -2174    -2258    -2338 
   -2393    -2421    -2427    -2415    -2392    -2369    -2358    -2358 
   -2362    -2374    -2396    -2421    -2452    -2484    -2511    -2544 
   -2587    -2631    -2667    -2706    -2743    -2774    -2801    -2809 
   -2783    -2737    -2683    -2625    -2581    -2562    -2565    -2601 
   -2667    -2748    -2833    -2915    -2984    -3044    -3096    -3137 
   -3171    -3204    -3244    -3287    -3336    -3400    -3468    -3527 
   -3578    -3615    -3630    -3627    -3624    -3640    -3680    -3738 
   -3813    -3896    -3962    -3991    -3996    -3983    -3962    -3942 
   -3923    -3893    -3851    -3804    -3755    -3700    -3628    -3555 
   -3497    -3459    -3446    -3450    -3459    -3465    -3462    -3447 
   -3427    -3400    -3369    -3349    -3345    -3353    -3368    -3375 
   -3369    -3352    -3317    -3273    -3218    -3153    -3088    -3028 
   -2970    -2930    -2914    -2911    -2918    -2933    -2960    -3001 
   -3041    -3083    -3126    -3163    -3186    -3192    -3183    -3172 
   -3169    -3175    -3192    -3221    -3248    -3281    -3317    -3341 
   -3364    -3396    -3440    -3487    -3518    -3534    -3538    -3519 
   -3478    -3429    -3373    -3326    -3300    -3295    -3300    -3314 
   -3325    -3325    -3316    -3302    -3272    -3230    -3186    -3150 
   -3134    -3150    -3192    -3232    -3276    -3330    -3369    -3379 
   -3376    -3368    -3365    -3377    -3412    -3458    -3504    -3543 
   -3558    -3539    -3491    -3426    -3348    -3268    -3206    -3171 
   -3164    -3187    -3230    -3276    -3316    -3348    -3357    -3343 
   -3322    -3299    -3276    -3257    -3254    -3277    -3330    -3397 
   -3469    -3530    -3581    -3628    -3669    -3708    -3750    -3781 
   -3802    -3813    -3811    -3797    -3765    -3715    -3667    -3624 
   -3578    -3527    -3465    -3388    -3306    -3215    -3119    -3033 
   -2963    -2911    -2882    -2872    -2878    -2894    -2906    -2906 
   -2895    -2879    -2863    -2857    -2855    -2863    -2893    -2945 
