Origin Time       2016/04/16 01:25:00
Lat.              32.753
Long.             130.762
Depth. (km)       12
Mag.              7.3
Station Code      OKY005
Station Lat.      35.0098
Station Long.     133.7317
Station Height(m) 134
Record Time       2016/04/16 01:26:52
Sampling Freq(Hz) 100Hz
Duration Time(s)  65
Dir.              E-W
Scale Factor      7845(gal)/8223790
Max. Acc. (gal)   2.649
Last Correction   2016/04/16 01:26:52
Memo.             
[...]
     322      251      271      387      571      789     1024     1225 
    1371     1444     1424     1352     1248     1121      990      870 
     799      772      747      753      811      881      962     1055 
    1138     1209     1264     1286     1301     1313     1287     1219 
    1121     1015      912      830      791      822      936     1101 
    1297     1499     1648     1729     1755     1702     1617     1525 
    1405     1297     1233     1173     1105     1047      992      935 
     877      810      751      724      708      719      787      895 
    1031     1197     1378     1556     1701     1783     1804     1780 
    1710     1602     1470     1329     1202     1081      978      913 
     882      885      897      908      931      951      973     1008 
    1051     1094     1121     1119     1101     1081     1058     1050 
    1067     1109     1169     1215     1250     1278     1285     1277 
    1273     1278     1287     1286     1278     1269     1250     1200 
    1113     1004      877      719      553      425      342      319 
     378      484      633      808      951     1069     1174     1240 
    1282     1297     1286     1287     1263     1208     1170     1120 
    1057     1017      996     1000     1057     1152     1274     1399 
    1522     1617     1644     1625     1557     1414     1233     1046 
     859      702      587      529      519      550      610      680 
     756      822      861      870      858      835      822      826 
     834      851      881      884      853      807      743      687 
     661      649      660      711      787      892     1021     1142 
    1246     1316     1325     1293     1233     1151     1059      946 
     824      720      629      556      517      496      502      540 
     595      661      753      853      950     1065     1188     1308 
    1414     1491     1533     1540     1521     1485     1422     1345 
    1282     1250     1250     1282     1321     1360     1393     1383 
    1347     1294     1216     1144     1073     1008      985      986 
     984      990     1023     1069     1100     1125     1142     1129 
    1104     1074     1028      982      945      901      872      861 
     862      888      927      978     1075     1208     1332     1445 
    1532     1544     1490     1412     1312     1216     1155     1127 
    1140     1183     1208     1206     1182     1111      999      877 
     772      718      726      799      946     1146     1356     1530 
    1649     1714     1714     1663     1588     1502     1421     1345 
    1254     1170     1116     1053      978      924      890      876 
     895      942     1015     1119     1240     1343     1421     1471 
    1456     1378     1282     1179     1077      990      908      854 
     832      824      841      877      892      892      888      877 
     885      892      882      913      977     1031     1098     1174 
    1225     1255     1252     1204     1138     1065      982      893 
     822      788      762      739      757      803      853      919 
    1008     1123     1247     1366     1466     1540     1586     1599 
    1568     1509     1439     1337     1221     1124     1043      984 
     955      951      982     1039     1088     1123     1156     1188 
    1201     1201     1196     1167     1117     1035      919      803 
     687      583      531      526      573      673      792      927 
    1073     1183     1259     1312     1331     1341     1340     1296 
    1213     1102      955      805      680      573      479      410 
     364      334      333      365      419      511      641      778 
     912     1024     1094     1131     1132     1096     1062     1034 
     992      955      924      896      880      854      815      778 
     754      764      808      882      990     1092     1158     1201 
    1215     1196     1150     1097     1060     1032     1026     1053 
    1092     1132     1167     1179     1171     1156     1129     1112 
    1124     1155     1201     1250     1286     1318     1325     1271 
    1183     1085      972      876      807      757      739      734 
     731      764      816      847      870      899      915      912 
     901      897      895      888      884      893      920      961 
     996     1023     1060     1102     1132     1163     1194     1213 
    1212     1185     1138     1077      997      900      800      712 
     662      639      635      700      824      932     1047     1165 
    1217     1229     1215     1156     1096     1038      973      931 
     923      929      947      972      985     1005     1012      976 
     929      897      877      888      936     1015     1098     1146 
    1152     1131     1070      984      901      823      754      715 
     711      747      826      931     1036     1107     1144     1144 
    1094     1030      972      896      826      785      758      747 
     737      706      676      633      560      492      438      413 
     450      518      592      680      731      727      677      579 
     476      378      295      257      240      229      233      232 
     230      259      318      400      500      615      735      838 
     936     1024     1055     1030      962      841      700      556 
     405      286      198      140      129      143      178      237 
     291      344      399      434      457      463      444      409 
     368      349      353      378      442      542      648      764 
     892      999     1060     1069     1005      877      715      545 
     395      279      191      124       71       28      -11      -49 
     -89     -102      -65       29      194      413      641      851 
    1008     1085     1094     1058      982      901      834      788 
     788      835      924     1062     1201     1317     1426     1503 
    1526     1518     1502     1472     1429     1398     1363     1321 
    1300     1263     1212     1208     1225     1242     1297     1374 
    1459     1572     1692     1804     1906     1973     2015     2023 
    1992     1946     1883     1800     1745     1709     1663     1632 
    1615     1582     1534     1471     1405     1355     1331     1331 
    1366     1452     1572     1706     1859     2025     2178     2308 
    2413     2511     2586     2619     2620     2605     2587     2569 
    2555     2552     2548     2543     2542     2528     2516     2508 
    2486     2490     2536     2608     2702     2785     2841     2880 
    2874     2828     2767     2700     2629     2546     2477     2450 
    2440     2435     2448     2474     2498     2521     2558     2613 
    2697     2794     2875     2955     3029     3055     3040     3005 
    2940     2872     2818     2785     2787     2803     2816     2830 
    2852     2880     2903     2917     2921     2903     2863     2798 
    2702     2582     2455     2308     2126     1930     1728     1514 
    1310     1139     1007      907      849      857      936     1065 
    1227     1418     1601     1745     1852     1894     1869     1813 
    1726     1599     1453     1306     1144      982      850      745 
     666      633      626      657      724      791      857      935 
    1008     1080     1155     1219     1266     1285     1264     1206 
    1097      957      808      638      493      383      272      190 
     124       54       11      -10      -10       35      116      225 
     351      453      515      537      508      421      288      135 
     -25     -171     -283     -346     -369     -378     -373     -360 
    -329     -259     -148        5      202      422      649      866 
    1057     1188     1217     1144      987      758      483      201 
     -60     -289     -481     -619     -697     -720     -681     -602 
    -493     -338     -156       16      174      332      487      622 
     737      847      946      999     1004      976      899      765 
     595      399      172      -81     -341     -579     -762     -890 
    -963     -974     -923     -815     -688     -575     -464     -368 
    -297     -233     -194     -191     -197     -211     -253     -309 
    -364     -432     -506     -550     -553     -533     -468     -348 
    -184       21      249      488      741      965     1144     1286 
    1366     1378     1341     1260     1161     1057      939      826 
     738      677      643      642      676      733      795      855 
     888      884      854      780      666      553      444      313 
     190       94       10      -65     -117     -139     -124      -65 
      28      167      352      546      724      876      973     1026 
    1047     1034     1026     1039     1039     1044     1070     1104 
    1151     1206     1278     1391     1516     1620     1729     1841 
    1914     1984     2047     2070     2084     2070     1996     1894 
    1772     1637     1517     1417     1351     1343     1410     1563 
    1796     2085     2381     2641     2852     3005     3100     3148 
    3141     3060     2924     2728     2467     2200     1958     1740 
    1579     1501     1509     1613     1791     2010     2246     2466 
    2648     2776     2826     2816     2762     2654     2494     2292 
    2062     1810     1551     1334     1165     1039      992     1012 
    1100     1247     1395     1528     1634     1683     1688     1682 
    1702     1767     1864     1998     2133     2211     2224     2158 
    2016     1842     1663     1499     1377     1321     1351     1447 
    1584     1749     1914     2011     2014     1939     1786     1566 
    1325     1093      907      778      683      621      602      603 
     622      672      750      855     1012     1221     1462     1734 
    1999     2203     2350     2439     2461     2436     2386     2335 
    2300     2274     2243     2204     2162     2116     2065     2014 
    1973     1946     1923     1899     1881     1872     1852     1823 
    1807     1777     1718     1636     1535     1441     1367     1294 
    1247     1242     1251     1281     1339     1408     1472     1525 
    1557     1590     1625     1648     1679     1733     1811     1904 
    2008     2119     2236     2377     2523     2659     2791     2886 
    2918     2905     2848     2754     2658     2583     2515     2451 
    2386     2288     2178     2089     2000     1917     1850     1783 
    1715     1653     1593     1541     1505     1466     1424     1402 
    1405     1439     1517     1614     1698     1772     1806     1780 
    1723     1625     1483     1343     1223     1124     1067     1057 
    1070     1104     1148     1189     1229     1274     1308     1337 
    1356     1345     1312     1246     1128      967      787      598 
     425      282      183      144      166      240      379      560 
     756      955     1131     1258     1336     1366     1339     1282 
    1229     1171     1132     1135     1158     1192     1240     1281 
    1297     1286     1232     1131     1003      872      753      653 
     594      565      538      519      498      461      429      386 
     314      253      214      170      128       97       70       47 
      17      -22      -47      -65      -90     -108     -102      -81 
     -47       -1       56      125      198      252      287      326 
     348      334      295      229      143       62        2      -28 
     -18       27       81      144      237      338      438      545 
     664      777      861      920      967      984      961      911 
     820      688      529      340      167       47      -37      -83 
     -79      -47      -18      -13      -27      -55      -83     -103 
    -116     -112      -83      -40       25       99      151      168 
     139       87       72      103      187      344      576      855 
    1142     1405     1645     1826     1918     1960     1966     1934 
    1891     1852     1830     1840     1844     1817     1764     1649 
    1466     1246      985      737      569      473      459      537 
     670      832      997     1136     1250     1339     1409     1474 
    1548     1626     1691     1742     1776     1769     1718     1636 
    1537     1448     1366     1263     1158     1059      951      838 
     743      668      606      569      557      553      558      556 
     526      476      410      342      289      279      334      449 
     600      783      977     1146     1275     1377     1440     1480 
    1524     1556     1582     1615     1636     1611     1548     1451 
    1324     1200     1098     1017      966      945      945      935 
     909      877      830      787      781      804      841      893 
     945      966      963      922      838      750      673      622 
     638      724      866     1046     1223     1347     1395     1360 
    1244     1067      881      715      584      514      523      599 
     715      847      950      989      945      822      643      451 
     289      174      117      131      221      365      521      665 
     770      781      689      504      225     -105     -449     -766 
   -1012    -1162    -1225    -1223    -1163    -1089    -1063    -1088 
   -1152    -1258    -1362    -1437    -1467    -1421    -1308    -1171 
   -1044     -949     -922     -974    -1102    -1273    -1439    -1590 
   -1706    -1764    -1752    -1669    -1551    -1417    -1275    -1154 
   -1069    -1021     -999     -982     -984    -1005    -1023    -1044 
   -1098    -1178    -1273    -1378    -1470    -1520    -1503    -1405 
   -1239    -1013     -749     -477     -225      -27       78       78 
      -4     -149     -342     -532     -665     -741     -777     -760 
    -692     -619     -568     -526     -517     -564     -649     -750 
    -841     -868     -804     -672     -480     -245      -10      199 
     370      480      514      473      352      171      -37     -278 
    -508     -680     -796     -854     -855     -812     -731     -622 
    -495     -351     -199      -58       47      114      149      143 
      98       40      -27     -112     -201     -294     -407     -523 
    -645     -784     -903     -977    -1007     -963     -858     -702 
    -495     -286      -91       94      228      301      328      299 
     224      116      -23     -170     -309     -433     -526     -592 
    -621     -610     -573     -511     -425     -326     -217     -105 
      18      156      275      353      390      355      253       95 
    -117     -346     -571     -774     -911     -969     -958     -882 
    -781     -695     -626     -579     -566     -561     -557     -561 
    -546     -508     -454     -388     -333     -303     -310     -373 
    -472     -598     -757     -896     -966     -982     -918     -757 
    -535     -246       76      364      615      815      922      942 
     888      767      595      400      216       55      -64     -133 
    -159     -147      -91      -14       58      128      195      240 
     270      292      299      306      315      307      280      249 
     214      174      144      137      151      186      241      333 
     454      581      720      864     1017     1175     1312     1437 
    1559     1642     1686     1692     1655     1579     1495     1408 
    1339     1320     1334     1391     1506     1649     1806     1975 
    2134     2288     2435     2558     2658     2756     2837     2876 
    2902     2913     2879     2816     2733     2627     2520     2425 
    2331     2269     2231     2174     2107     2037     1971     1906 
    1831     1764     1713     1656     1602     1563     1545     1566 
    1614     1665     1719     1771     1795     1786     1749     1709 
    1679     1647     1629     1642     1664     1691     1728     1771 
    1821     1844     1830     1799     1741     1653     1557     1483 
    1444     1416     1397     1405     1418     1413     1397     1367 
    1324     1277     1230     1182     1119     1051      978      886 
     807      751      680      602      531      463      402      349 
     291      252      255      280      314      361      409      454 
     510      576      666      766      855      953     1047     1124 
    1192     1244     1293     1344     1389     1431     1489     1557 
    1637     1710     1772     1844     1888     1881     1858     1823 
    1773     1713     1653     1610     1587     1575     1576     1586 
    1587     1593     1624     1658     1679     1699     1719     1726 
    1733     1741     1725     1699     1676     1663     1674     1714 
    1763     1806     1823     1798     1726     1603     1431     1251 
    1104     1017     1015     1086     1196     1306     1382     1402 
    1362     1258     1113      962      837      762      769      873 
    1038     1228     1428     1593     1711     1807     1868     1919 
    1985     2034     2046     2027     1979     1906     1815     1715 
    1624     1553     1513     1489     1485     1503     1516     1516 
    1516     1513     1505     1478     1455     1462     1494     1568 
    1690     1825     1958     2060     2102     2095     2023     1892 
    1736     1560     1394     1271     1178     1135     1159     1206 
    1254     1313     1379     1439     1482     1512     1521     1524 
    1534     1535     1537     1552     1553     1540     1551     1580 
    1598     1601     1590     1578     1574     1580     1613     1680 
    1777     1891     1973     2014     2030     2006     1949     1911 
    1890     1852     1795     1706     1582     1456     1340     1242 
    1215     1260     1333     1443     1571     1667     1755     1829 
    1852     1859     1857     1823     1800     1795     1792     1795 
    1784     1764     1744     1706     1657     1624     1624     1653 
    1698     1759     1811     1833     1840     1825     1806     1819 
    1841     1863     1918     1980     2026     2079     2114     2135 
    2158     2158     2161     2199     2265     2362     2471     2570 
    2647     2679     2648     2574     2466     2319     2169     2034 
    1925     1848     1792     1769     1788     1821     1865     1937 
    2007     2076     2149     2195     2226     2253     2253     2243 
    2242     2234     2215     2181     2114     2027     1930     1821 
    1717     1617     1507     1408     1325     1259     1224     1224 
    1235     1274     1351     1447     1544     1636     1714     1790 
    1857     1907     1958     2008     2047     2101     2163     2222 
    2295     2361     2392     2423     2461     2471     2463     2444 
    2411     2367     2309     2259     2249     2272     2336     2442 
    2560     2682     2795     2882     2930     2936     2909     2852 
    2771     2679     2578     2474     2370     2272     2176     2073 
    1972     1894     1838     1804     1811     1857     1929     2039 
    2170     2281     2374     2431     2421     2351     2232     2081 
    1926     1768     1628     1530     1467     1422     1404     1420 
    1460     1521     1605     1702     1803     1892     1952     1985 
    1993     1972     1933     1873     1817     1777     1733     1696 
