Origin Time       2016/04/16 01:25:00
Lat.              32.753
Long.             130.762
Depth. (km)       12
Mag.              7.3
Station Code      OKY009
Station Lat.      34.9176
Station Long.     134.0923
Station Height(m) 48
Record Time       2016/04/16 01:26:58
Sampling Freq(Hz) 100Hz
Duration Time(s)  64
Dir.              E-W
Scale Factor      7845(gal)/8223790
Max. Acc. (gal)   1.447
Last Correction   2016/04/16 01:26:59
Memo.             
[...]
    -997     -989     -973     -962     -954     -951     -963     -987 
   -1004    -1005    -1005    -1007    -1007    -1007    -1000     -997 
   -1000    -1009    -1024    -1050    -1084    -1119    -1155    -1198 
   -1242    -1277    -1304    -1325    -1337    -1343    -1339    -1321 
   -1293    -1256    -1220    -1197    -1193    -1196    -1196    -1188 
   -1166    -1135    -1104    -1074    -1042    -1000     -947     -881 
    -818     -777     -781     -826     -893     -955     -994    -1007 
   -1004    -1003    -1015    -1043    -1084    -1119    -1144    -1162 
   -1171    -1175    -1175    -1169    -1154    -1136    -1119    -1105 
   -1097    -1096    -1100    -1111    -1121    -1121    -1105    -1070 
   -1026     -987     -965     -954     -962     -984    -1008    -1032 
   -1042    -1035    -1035    -1039    -1044    -1050    -1053    -1062 
   -1086    -1125    -1182    -1254    -1324    -1374    -1395    -1383 
   -1345    -1294    -1256    -1244    -1260    -1293    -1317    -1327 
   -1320    -1298    -1262    -1215    -1156    -1102    -1075    -1080 
   -1111    -1159    -1209    -1260    -1305    -1329    -1328    -1302 
   -1252    -1190    -1127    -1075    -1051    -1057    -1084    -1127 
   -1174    -1213    -1242    -1248    -1225    -1192    -1163    -1147 
   -1146    -1165    -1197    -1233    -1269    -1290    -1287    -1270 
   -1244    -1208    -1173    -1146    -1128    -1128    -1143    -1167 
   -1202    -1243    -1277    -1304    -1323    -1333    -1339    -1339 
   -1344    -1355    -1355    -1345    -1339    -1327    -1314    -1321 
   -1339    -1358    -1379    -1402    -1413    -1405    -1387    -1356 
   -1313    -1267    -1221    -1175    -1147    -1151    -1179    -1223 
   -1266    -1296    -1300    -1274    -1239    -1209    -1190    -1189 
   -1193    -1192    -1179    -1147    -1107    -1078    -1071    -1077 
   -1080    -1074    -1051    -1013     -967     -915     -862     -812 
    -764     -726     -710     -711     -731     -773     -837     -918 
   -1000    -1069    -1109    -1117    -1101    -1065    -1020     -978 
    -955     -954     -966     -992    -1031    -1074    -1104    -1111 
   -1089    -1050    -1004     -967     -955     -965     -994    -1035 
   -1074    -1107    -1119    -1111    -1098    -1098    -1120    -1158 
   -1201    -1242    -1267    -1274    -1270    -1256    -1223    -1177 
   -1133    -1093    -1063    -1051    -1055    -1075    -1102    -1123 
   -1138    -1139    -1124    -1098    -1067    -1034    -1012    -1004 
   -1003    -1005    -1012    -1015    -1016    -1020    -1021    -1016 
   -1009     -994     -974     -953     -935     -926     -928     -946 
    -969     -990    -1008    -1012     -989     -949     -905     -868 
    -853     -870     -903     -945     -984    -1011    -1026    -1028 
   -1012     -992     -973     -947     -915     -885     -859     -838 
    -816     -785     -743     -696     -656     -642     -662     -708 
    -781     -866     -943    -1000    -1038    -1069    -1100    -1139 
   -1182    -1224    -1259    -1285    -1302    -1317    -1325    -1333 
   -1341    -1339    -1329    -1314    -1293    -1267    -1236    -1189 
   -1132    -1085    -1060    -1060    -1088    -1135    -1190    -1236 
   -1260    -1262    -1246    -1215    -1193    -1182    -1169    -1152 
   -1144    -1146    -1165    -1202    -1248    -1291    -1327    -1358 
   -1381    -1402    -1422    -1428    -1405    -1364    -1314    -1266 
   -1232    -1228    -1251    -1294    -1339    -1371    -1383    -1374 
   -1360    -1358    -1368    -1386    -1404    -1405    -1390    -1378 
   -1368    -1356    -1341    -1328    -1321    -1313    -1305    -1301 
   -1301    -1310    -1331    -1362    -1390    -1408    -1420    -1433 
   -1453    -1486    -1532    -1588    -1649    -1706    -1741    -1740 
   -1707    -1657    -1602    -1556    -1530    -1524    -1526    -1539 
   -1554    -1570    -1584    -1594    -1597    -1583    -1545    -1491 
   -1433    -1379    -1333    -1300    -1269    -1246    -1247    -1274 
   -1312    -1350    -1375    -1382    -1381    -1378    -1368    -1354 
   -1343    -1341    -1354    -1372    -1391    -1395    -1381    -1360 
   -1345    -1336    -1333    -1333    -1314    -1277    -1233    -1196 
   -1173    -1167    -1174    -1185    -1185    -1154    -1088    -1000 
    -908     -828     -781     -780     -824     -899     -987    -1078 
   -1155    -1213    -1254    -1279    -1286    -1281    -1278    -1274 
   -1266    -1255    -1246    -1233    -1221    -1200    -1163    -1113 
   -1051     -987     -940     -911     -893     -895     -913     -934 
    -953     -976    -1004    -1030    -1053    -1073    -1065    -1026 
    -966     -907     -862     -861     -897     -958    -1032    -1111 
   -1173    -1204    -1205    -1188    -1158    -1117    -1081    -1053 
   -1039    -1043    -1059    -1080    -1093    -1092    -1065    -1013 
    -946     -877     -816     -765     -720     -687     -661     -641 
    -627     -622     -618     -600     -572     -540     -514     -499 
    -499     -504     -510     -510     -498     -483     -476     -480 
    -493     -530     -585     -654     -731     -801     -847     -866 
    -857     -828     -795     -754     -715     -689     -683     -688 
    -697     -707     -719     -739     -765     -795     -822     -832 
    -827     -810     -778     -733     -687     -648     -623     -616 
    -626     -645     -664     -684     -702     -711     -704     -687 
    -657     -615     -572     -542     -525     -518     -521     -529 
    -538     -556     -572     -572     -561     -546     -522     -483 
    -432     -370     -306     -229     -144      -76      -36      -17 
     -17      -25      -22        5       62      136      207      257 
     272      245      182      105       29      -32      -72      -86 
     -76      -52      -41      -60     -106     -172     -246     -318 
    -392     -469     -553     -641     -719     -773     -803     -816 
    -819     -812     -800     -789     -792     -808     -832     -861 
    -892     -907     -901     -880     -846     -799     -749     -715 
    -710     -734     -788     -858     -935    -1011    -1081    -1144 
   -1197    -1237    -1262    -1285    -1308    -1327    -1345    -1372 
   -1410    -1460    -1520    -1578    -1624    -1648    -1655    -1648 
   -1630    -1606    -1594    -1590    -1595    -1601    -1595    -1582 
   -1553    -1516    -1487    -1472    -1475    -1501    -1543    -1580 
   -1603    -1599    -1563    -1506    -1449    -1409    -1383    -1381 
   -1398    -1431    -1463    -1490    -1512    -1526    -1539    -1553 
   -1576    -1606    -1644    -1691    -1741    -1776    -1796    -1807 
   -1810    -1811    -1817    -1823    -1830    -1830    -1826    -1826 
   -1833    -1836    -1838    -1845    -1849    -1850    -1852    -1858 
   -1871    -1887    -1895    -1888    -1872    -1852    -1840    -1837 
   -1844    -1859    -1883    -1904    -1921    -1930    -1927    -1896 
   -1841    -1769    -1694    -1625    -1587    -1584    -1605    -1624 
   -1625    -1602    -1566    -1530    -1506    -1499    -1514    -1541 
   -1571    -1595    -1611    -1615    -1613    -1606    -1598    -1576 
   -1539    -1489    -1437    -1394    -1371    -1381    -1410    -1431 
   -1414    -1354    -1248    -1112     -963     -819     -693     -606 
    -556     -538     -553     -602     -660     -712     -751     -767 
    -761     -754     -757     -764     -778     -793     -792     -770 
    -734     -685     -639     -600     -566     -545     -537     -533 
    -537     -550     -583     -639     -715     -805     -899     -977 
   -1030    -1044    -1026     -981     -911     -822     -723     -627 
    -546     -486     -457     -473     -523     -603     -704     -801 
    -880     -928     -950     -958     -962     -972    -1000    -1058 
   -1132    -1201    -1252    -1285    -1297    -1285    -1259    -1230 
   -1220    -1236    -1286    -1370    -1476    -1590    -1702    -1799 
   -1883    -1964    -2039    -2104    -2154    -2187    -2207    -2219 
   -2205    -2161    -2091    -2000    -1903    -1810    -1729    -1663 
   -1611    -1571    -1541    -1524    -1514    -1509    -1513    -1521 
   -1535    -1560    -1603    -1668    -1746    -1819    -1871    -1890 
   -1873    -1829    -1771    -1701    -1624    -1545    -1463    -1383 
   -1310    -1239    -1171    -1107    -1043     -977     -922     -885 
    -861     -835     -808     -785     -777     -796     -838     -895 
    -962    -1034    -1109    -1170    -1196    -1185    -1158    -1121 
   -1075    -1031     -989     -957     -945     -958     -992    -1034 
   -1078    -1117    -1151    -1197    -1269    -1360    -1457    -1552 
   -1637    -1709    -1773    -1833    -1891    -1929    -1945    -1929 
   -1873    -1788    -1686    -1584    -1499    -1431    -1377    -1331 
   -1279    -1209    -1117    -1003     -869     -734     -602     -481 
    -382     -291     -206     -144     -108      -91      -94     -114 
    -140     -166     -182     -171     -140     -103      -65      -32 
     -20      -22      -35      -49      -62      -68      -67      -45 
       0       60      110      140      152      148      139      128 
     117      112      105       90       86       89       90      102 
     125      155      189      216      220      206      194      194 
     207      222      218      189      133       64       -8      -60 
     -78      -68      -47      -32      -32      -63     -116     -178 
    -246     -310     -359     -394     -419     -429     -417     -392 
    -359     -318     -282     -255     -238     -218     -187     -155 
    -129     -121     -125     -143     -175     -214     -256     -301 
    -344     -375     -390     -388     -379     -372     -379     -405 
    -440     -468     -487     -493     -492     -493     -513     -557 
    -621     -697     -783     -858     -918     -954     -967     -955 
    -926     -892     -851     -801     -745     -684     -625     -576 
    -544     -522     -506     -488     -468     -444     -417     -395 
    -383     -376     -370     -375     -399     -440     -499     -575 
    -656     -735     -805     -861     -900     -926     -938     -936 
    -931     -915     -888     -859     -838     -830     -837     -853 
    -876     -893     -889     -864     -837     -810     -774     -737 
    -702     -683     -687     -722     -778     -859     -959    -1065 
   -1167    -1251    -1312    -1328    -1308    -1279    -1250    -1232 
   -1242    -1269    -1304    -1340    -1362    -1359    -1325    -1264 
   -1185    -1102    -1031     -984     -961     -951     -949     -947 
    -943     -935     -920     -909     -918     -949    -1000    -1067 
   -1143    -1213    -1266    -1300    -1318    -1316    -1294    -1267 
   -1237    -1215    -1213    -1240    -1302    -1385    -1459    -1509 
   -1524    -1509    -1475    -1441    -1425    -1426    -1437    -1455 
   -1475    -1498    -1528    -1564    -1594    -1617    -1647    -1691 
   -1763    -1867    -1995    -2128    -2247    -2328    -2367    -2370 
   -2353    -2340    -2353    -2386    -2438    -2498    -2543    -2546 
   -2512    -2448    -2373    -2290    -2209    -2137    -2076    -2020 
   -1952    -1865    -1763    -1644    -1518    -1399    -1296    -1213 
   -1152    -1107    -1073    -1038     -993     -949     -919     -901 
    -899     -913     -929     -947     -987    -1057    -1143    -1247 
   -1351    -1428    -1470    -1485    -1483    -1487    -1507    -1540 
   -1574    -1588    -1572    -1524    -1448    -1356    -1274    -1212 
   -1175    -1165    -1173    -1182    -1181    -1173    -1165    -1166 
   -1183    -1219    -1267    -1327    -1378    -1410    -1431    -1453 
   -1485    -1528    -1593    -1668    -1741    -1809    -1877    -1944 
   -2010    -2084    -2166    -2250    -2332    -2407    -2466    -2509 
   -2531    -2539    -2533    -2516    -2496    -2482    -2466    -2444 
   -2419    -2377    -2316    -2245    -2172    -2092    -2004    -1925 
   -1861    -1810    -1773    -1750    -1736    -1725    -1721    -1721 
   -1722    -1726    -1733    -1746    -1780    -1826    -1868    -1904 
   -1945    -1980    -2016    -2072    -2139    -2214    -2282    -2335 
   -2371    -2390    -2396    -2394    -2388    -2381    -2373    -2367 
   -2369    -2373    -2362    -2335    -2285    -2203    -2096    -1973 
   -1849    -1741    -1660    -1606    -1583    -1582    -1590    -1597 
   -1593    -1575    -1551    -1528    -1512    -1499    -1486    -1471 
   -1463    -1460    -1452    -1429    -1390    -1332    -1250    -1158 
   -1084    -1050    -1070    -1147    -1278    -1429    -1568    -1674 
   -1738    -1763    -1755    -1733    -1695    -1644    -1586    -1520 
   -1441    -1364    -1304    -1262    -1232    -1206    -1185    -1162 
   -1127    -1075    -1017     -958     -901     -854     -826     -819 
    -828     -859     -920    -1020    -1146    -1278    -1398    -1489 
   -1535    -1545    -1526    -1505    -1501    -1524    -1570    -1617 
   -1648    -1658    -1645    -1605    -1545    -1490    -1459    -1457 
   -1489    -1547    -1613    -1668    -1713    -1745    -1767    -1777 
   -1779    -1781    -1792    -1809    -1822    -1833    -1836    -1825 
   -1807    -1792    -1798    -1833    -1884    -1946    -2006    -2029 
   -2030    -2039    -2046    -2047    -2061    -2095    -2154    -2234 
   -2319    -2408    -2486    -2548    -2596    -2628    -2647    -2656 
   -2646    -2596    -2517    -2436    -2363    -2296    -2224    -2153 
   -2093    -2042    -2012    -1992    -1949    -1887    -1823    -1769 
   -1740    -1741    -1755    -1773    -1788    -1798    -1821    -1861 
   -1902    -1949    -1992    -1998    -1954    -1869    -1755    -1644 
   -1566    -1520    -1495    -1483    -1456    -1402    -1334    -1273 
   -1223    -1196    -1198    -1219    -1254    -1290    -1314    -1339 
   -1372    -1399    -1402    -1386    -1352    -1308    -1282    -1293 
   -1348    -1443    -1571    -1726    -1887    -2014    -2095    -2144 
   -2184    -2230    -2280    -2334    -2386    -2421    -2438    -2436 
   -2427    -2428    -2448    -2481    -2513    -2525    -2511    -2479 
   -2430    -2365    -2301    -2242    -2196    -2163    -2143    -2130 
   -2126    -2133    -2135    -2118    -2085    -2046    -2007    -1991 
   -2020    -2079    -2146    -2215    -2265    -2281    -2269    -2242 
   -2220    -2231    -2284    -2362    -2442    -2506    -2544    -2555 
   -2542    -2505    -2459    -2419    -2389    -2374    -2373    -2373 
   -2361    -2327    -2272    -2212    -2165    -2138    -2133    -2157 
   -2201    -2242    -2269    -2280    -2266    -2223    -2151    -2061 
   -1971    -1898    -1856    -1852    -1878    -1912    -1938    -1939 
   -1904    -1837    -1752    -1672    -1613    -1572    -1543    -1512 
   -1471    -1431    -1391    -1350    -1308    -1270    -1233    -1208 
   -1189    -1173    -1165    -1161    -1147    -1123    -1088    -1046 
   -1000     -961     -932     -926     -940     -966     -996    -1021 
   -1036    -1035    -1019     -982     -927     -870     -834     -824 
    -842     -886     -953    -1020    -1075    -1121    -1162    -1188 
   -1189    -1178    -1170    -1163    -1162    -1162    -1154    -1128 
   -1090    -1050    -1016    -1000    -1007    -1016    -1005     -965 
    -890     -792     -676     -553     -454     -382     -321     -259 
    -197     -144     -105      -79      -79      -95     -120     -141 
    -152     -152     -156     -176     -221     -289     -378     -476 
    -575     -679     -796     -916    -1028    -1117    -1163    -1166 
   -1148    -1129    -1123    -1135    -1169    -1210    -1251    -1285 
   -1302    -1306    -1316    -1332    -1347    -1363    -1377    -1364 
   -1325    -1279    -1224    -1173    -1139    -1104    -1053     -999 
    -936     -857     -776     -723     -702     -702     -727     -787 
    -859     -929     -987    -1032    -1067    -1086    -1090    -1102 
   -1139    -1201    -1294    -1410    -1520    -1606    -1658    -1667 
   -1638    -1590    -1541    -1524    -1551    -1610    -1686    -1765 
   -1830    -1858    -1842    -1775    -1664    -1530    -1405    -1320 
   -1282    -1291    -1333    -1371    -1397    -1408    -1386    -1331 
   -1264    -1194    -1129    -1069    -1008     -958     -920     -876 
    -831     -792     -762     -746     -743     -741     -739     -738 
    -731     -718     -693     -665     -638     -622     -634     -684 
    -753     -824     -886     -929     -961     -986    -1008    -1032 
   -1055    -1062    -1058    -1063    -1080    -1093    -1113    -1147 
   -1179    -1190    -1182    -1169    -1159    -1162    -1185    -1221 
   -1263    -1306    -1339    -1359    -1363    -1347    -1306    -1251 
   -1189    -1131    -1089    -1077    -1081    -1093    -1101    -1090 
   -1050     -986     -922     -861     -810     -772     -754     -750 
    -753     -757     -750     -723     -677     -616     -552     -487 
    -427     -388     -369     -355     -334     -306     -263     -211 
    -167     -143     -144     -160     -176     -190     -207     -232 
    -255     -271     -297     -336     -376     -422     -475     -526 
    -572     -598     -595     -577     -561     -546     -540     -552 
    -573     -599     -623     -649     -676     -702     -720     -728 
    -711     -669     -608     -540     -487     -475     -502     -557 
    -634     -719     -784     -800     -770     -706     -618     -523 
    -450     -410     -405     -434     -491     -549     -577     -566 
    -515     -433     -338     -255     -207     -202     -238     -310 
    -396     -481     -561     -616     -637     -615     -546     -454 
    -365     -282     -220     -194     -198     -220     -249     -279 
    -294     -294     -295     -295     -289     -286     -284     -278 
    -251     -194     -118      -36       45      112      156      171 
     166      155      149      156      180      216      255      292 
     317      328      328      303      263      236      216      205 
     202      198      207      232      251      259      263      257 
     234      199      174      178      205      240      275      291 
     279      240      175       98       22      -43      -76      -83 
     -85      -82      -81      -95     -126     -160     -195     -240 
    -283     -314     -326     -318     -291     -253     -216     -198 
    -210     -241     -279     -314     -336     -332     -314     -299 
    -284     -280     -294     -301     -288     -265     -229     -186 
    -140      -91      -37       16       68      117      162      191 
     207      217      211      197      190      184      162      135 
     106       71       22      -32      -79     -109     -136     -166 
    -199     -229     -245     -243     -218     -176     -137     -118 
    -116     -122     -139     -147     -125      -74      -11       47 
      93      108      109      109      110      103       94       83 
      68       54       59       81      101      116      124      118 
     112      110      112      122      153      182      190      190 
     182      157      135      144      184      236      283      319 
