Origin Time       2016/04/16 01:25:00
Lat.              32.753
Long.             130.762
Depth. (km)       12
Mag.              7.3
Station Code      OKY008
Station Lat.      34.8701
Station Long.     133.9036
Station Height(m) 62
Record Time       2016/04/16 01:26:53
Sampling Freq(Hz) 100Hz
Duration Time(s)  65
Dir.              E-W
Scale Factor      7845(gal)/8223790
Max. Acc. (gal)   1.936
Last Correction   2016/04/16 01:26:54
Memo.             
[...]
     259      202      140       85       54       55       78      101 
     118      139      148      133      101       65       40       31 
      32       56       94      124      149      187      225      261 
     299      328      352      383      413      425      427      419 
     411      419      430      422      403      387      363      322 
     282      249      222      205      195      176      157      139 
     110       89       85       79       67       55       39       16 
     -13      -41      -64      -90     -108     -103      -95      -93 
     -81      -64      -59      -55      -37      -27      -11       27 
      82      143      212      275      336      402      432      425 
     421      413      399      403      419      432      441      440 
     425      406      380      348      329      341      372      410 
     463      515      552      584      607      621      625      612 
     611      634      652      676      722      756      780      819 
     854      880      913      938      954      993     1047     1105 
    1173     1240     1285     1298     1289     1266     1213     1146 
    1101     1065     1036     1039     1065     1096     1120     1140 
    1162     1167     1150     1129     1107     1080     1067     1077 
    1100     1128     1154     1181     1216     1254     1290     1328 
    1356     1383     1428     1472     1507     1554     1595     1597 
    1578     1551     1505     1462     1437     1425     1426     1447 
    1471     1490     1502     1516     1516     1498     1468     1428 
    1386     1366     1366     1378     1402     1431     1452     1476 
    1507     1514     1487     1457     1424     1366     1301     1242 
    1179     1133     1107     1090     1097     1119     1143     1182 
    1230     1267     1282     1291     1308     1345     1389     1440 
    1513     1587     1644     1698     1760     1814     1857     1895 
    1915     1911     1884     1833     1763     1683     1599     1520 
    1449     1386     1328     1281     1240     1198     1159     1116 
    1070     1035     1016     1003     1000     1009     1021     1017 
    1000      982      949      888      826      777      727      679 
     638      606      584      571      546      530      529      513 
     488      480      473      464      464      463      456      449 
     429      396      360      314      253      203      172      133 
      95       72       49       28        1      -49      -93     -139 
    -212     -270     -310     -370     -427     -477     -549     -611 
    -652     -699     -735     -738     -750     -766     -749     -722 
    -712     -689     -658     -631     -579     -519     -461     -361 
    -233     -106       28      156      253      326      368      380 
     400      421      399      423      514      503      456      529 
     572      526      519      523      519      521      486      457 
     454      449      472      511      557      641      735      808 
     858      877      868      823      745      660      592      538 
     515      523      562      623      688      764      843      897 
     911      897      874      845      785      715      672      638 
     611      596      594      612      641      665      689      691 
     673      656      625      588      565      548      530      521 
     510      475      429      382      317      234      162       91 
      20      -25      -47      -47       -9       45      118      210 
     297      376      457      522      579      635      680      712 
     728      735      739      715      677      648      614      575 
     533      484      427      370      301      209      122       37 
     -58     -144     -220     -284     -319     -322     -305     -265 
    -220     -178     -144     -129     -125     -133     -153     -171 
    -187     -202     -190     -156     -129     -105      -79      -87 
    -109     -124     -176     -259     -325     -392     -459     -480 
    -472     -449     -390     -334     -309     -268     -221     -193 
    -156      -95      -18       75      184      302      434      569 
     681      788      884      940      967      972      942      909 
     882      835      787      764      743      722      719      715 
     707      720      751      776      819      882      936      993 
    1059     1136     1229     1334     1440     1547     1649     1737 
    1796     1830     1852     1852     1838     1822     1821     1838 
    1869     1892     1899     1887     1846     1780     1696     1599 
    1509     1431     1351     1290     1262     1228     1177     1128 
    1073      996      935      908      885      877      884      872 
     851      820      737      633      546      453      379      356 
     357      382      440      493      533      585      623      627 
     633      656      675      699      735      770      803      815 
     788      731      654      553      468      425      421      457 
     526      598      656      696      704      668      599      500 
     378      246      128       32      -47     -105     -126     -121 
    -110      -85      -20       60      144      255      380      499 
     623      751      872      996     1115     1210     1320     1453 
    1575     1684     1790     1861     1898     1907     1894     1873 
    1845     1804     1769     1740     1703     1669     1638     1595 
    1561     1548     1543     1545     1553     1563     1570     1568 
    1561     1575     1590     1588     1593     1605     1595     1571 
    1533     1471     1398     1331     1275     1235     1206     1197 
    1216     1246     1266     1282     1286     1259     1212     1161 
    1094     1024      967      918      884      886      903      934 
     990     1043     1086     1131     1163     1175     1173     1154 
    1133     1107     1071     1044     1017      981      946      899 
     826      753      683      600      521      440      344      244 
     129       11      -68     -118     -153     -139      -74        5 
      91      171      224      237      224      195      148       95 
      63       49       60       86      114      149      171      166 
     153      121       64       28        9      -31      -70      -94 
    -144     -194     -220     -259     -263     -211     -159      -63 
      87      212      311      415      477      479      459      460 
     506      575      637      715      799      873      957     1009 
    1012     1023     1031     1004      992     1008     1024     1060 
    1113     1151     1185     1224     1244     1247     1228     1169 
    1100     1047      986      951      985     1042     1105     1198 
    1297     1378     1440     1456     1445     1435     1404     1347 
    1291     1237     1185     1155     1152     1151     1140     1142 
    1166     1190     1204     1217     1235     1240     1236     1232 
    1209     1155     1105     1062     1003      949      896      845 
     818      795      772      761      730      685      642      583 
     522      486      451      430      437      457      496      548 
     584      607      623      600      526      444      348      233 
     140       93       76       83       81       58       39       -9 
    -112     -232     -344     -461     -557     -610     -626     -602 
    -548     -480     -387     -284     -202     -143      -99      -81 
     -87     -105     -136     -176     -203     -222     -225     -197 
    -159     -124      -71      -21        2       17       22        9 
     -16      -45      -68      -72      -64      -70      -74      -64 
     -70      -83      -79      -78      -95     -116     -147     -207 
    -297     -417     -556     -691     -815     -927    -1009    -1060 
   -1102    -1128    -1125    -1119    -1117    -1120    -1151    -1197 
   -1239    -1285    -1325    -1329    -1291    -1230    -1156    -1062 
    -962     -872     -780     -688     -599     -518     -451     -383 
    -299     -205      -87       43      191      369      530      668 
     819      946     1015     1051     1058     1016      934      827 
     702      566      440      329      234      147       39      -93 
    -222     -346     -468     -568     -641     -681     -679     -631 
    -557     -475     -396     -342     -333     -367     -441     -556 
    -689     -827     -949    -1017    -1039    -1026     -969     -896 
    -842     -811     -805     -828     -859     -873     -853     -801 
    -723     -616     -486     -348     -217      -94       18      103 
     147      170      174      152      125      103       75       40 
       4      -23      -51      -78     -102     -122     -148     -184 
    -224     -261     -302     -351     -407     -464     -522     -562 
    -577     -577     -560     -511     -448     -394     -344     -289 
    -245     -216     -182     -151     -136     -117      -86      -70 
     -54      -18        4       -2      -11      -17      -47      -98 
    -143     -178     -225     -283     -328     -370     -434     -514 
    -600     -695     -795     -886     -965    -1021    -1058    -1094 
   -1123    -1133    -1163    -1209    -1237    -1267    -1306    -1324 
   -1318    -1285    -1217    -1136    -1039     -903     -762     -639 
    -523     -434     -388     -357     -341     -346     -348     -342 
    -344     -333     -303     -265     -218     -167     -116      -60 
      -9       20       36       37        8      -40      -93     -155 
    -207     -243     -295     -370     -437     -513     -619     -722 
    -797     -859     -897     -885     -838     -784     -722     -662 
    -618     -579     -545     -532     -522     -506     -513     -525 
    -518     -518     -529     -522     -506     -496     -461     -411 
    -367     -315     -266     -229     -207     -225     -286     -378 
    -506     -662     -819     -954    -1042    -1078    -1057     -986 
    -884     -773     -681     -606     -535     -500     -483     -448 
    -409     -373     -318     -261     -211     -167     -136     -129 
    -137     -152     -184     -228     -253     -280     -309     -310 
    -307     -303     -263     -230     -214     -182     -147     -121 
     -99      -99     -131     -176     -224     -288     -353     -386 
    -390     -361     -287     -186      -75       32      112      167 
     220      259      278      292      313      329      342      364 
     386      406      438      456      449      438      398      318 
     232      129       21      -62     -135     -190     -205     -194 
    -182     -157     -121      -87      -62      -43      -29      -18 
     -10        2       25       41       45       41       23      -10 
     -59     -114     -174     -229     -259     -261     -237     -171 
     -54       81      203      306      383      422      423      406 
     399      410      448      526      645      774      895     1007 
    1098     1144     1144     1111     1047      978      918      866 
     835      826      835      864      900      936      974     1013 
    1051     1092     1133     1171     1205     1233     1244     1237 
    1230     1224     1208     1185     1159     1116     1053      994 
     954      915      880      864      872      901      947      990 
    1031     1053     1031      984      932      864      789      730 
     677      645      643      656      681      730      796      864 
     922      974     1020     1053     1070     1080     1093     1107 
    1117     1132     1148     1151     1136     1107     1060      986 
     889      797      733      696      702      727      758      810 
     851      884      929      953      943      932      924      913 
     903      886      868      846      818      780      751      737 
     719      702      693      675      643      592      513      422 
     314      194       93       18      -27      -36      -17       27 
      89      149      203      257      319      391      461      535 
     618      697      778      853      913      980     1038     1080 
    1136     1198     1235     1255     1264     1254     1224     1175 
    1109     1055     1021      982      949      939      932      935 
     959      984      999     1026     1053     1059     1051     1036 
     999      946      909      889      862      842      837      835 
     849      864      854      834      811      776      745      733 
     739      756      795      880      985     1069     1154     1224 
    1246     1259     1267     1237     1200     1177     1156     1135 
    1123     1131     1143     1133     1132     1144     1140     1124 
    1101     1062      997      889      780      695      614      557 
     545      548      560      596      637      675      704      718 
     704      676      653      619      572      548      546      550 
     564      600      645      677      710      749      772      793 
     816      823      832      854      881      931     1008     1090 
    1177     1271     1360     1422     1470     1520     1551     1549 
    1540     1532     1514     1499     1502     1513     1532     1575 
    1611     1636     1683     1726     1753     1783     1796     1796 
    1799     1791     1784     1806     1852     1911     1985     2074 
    2178     2280     2367     2439     2500     2535     2531     2515 
    2500     2461     2413     2378     2334     2281     2235     2191 
    2147     2110     2072     2043     2026     2006     1989     1979 
    1961     1930     1911     1911     1919     1935     1960     1979 
    1985     1968     1927     1873     1791     1688     1598     1524 
    1462     1417     1370     1327     1305     1281     1236     1200 
    1173     1140     1115     1107     1129     1170     1200     1224 
    1263     1304     1337     1370     1405     1443     1476     1495 
    1505     1518     1522     1507     1491     1478     1451     1416 
    1383     1358     1328     1304     1294     1300     1308     1297 
    1282     1294     1298     1289     1291     1289     1269     1248 
    1216     1169     1133     1112     1089     1071     1081     1096 
    1100     1116     1136     1140     1150     1162     1165     1185 
    1220     1246     1278     1310     1321     1316     1301     1263 
    1202     1121     1030      955      896      842      828      866 
     920      982     1074     1182     1289     1390     1478     1556 
    1618     1660     1702     1749     1791     1842     1917     1988 
    2042     2076     2072     2022     1946     1848     1742     1663 
    1603     1554     1547     1579     1615     1653     1701     1732 
    1738     1738     1736     1729     1738     1771     1810     1848 
    1875     1885     1885     1881     1865     1841     1831     1841 
    1845     1844     1856     1865     1864     1872     1895     1914 
    1922     1927     1929     1930     1944     1948     1944     1953 
    1958     1954     1969     1996     2020     2047     2068     2073 
    2068     2053     2034     2008     1966     1921     1863     1788 
    1702     1599     1486     1374     1269     1166     1077     1020 
     987      976      984     1009     1053     1101     1125     1129 
    1125     1097     1039      978      927      892      888      907 
     934      958      976      969      936      882      818      765 
     734      728      750      788      831      876      909      926 
     931      926      903      869      843      835      834      841 
     859      881      903      905      896      885      855      808 
     776      747      699      652      614      560      498      436 
     368      303      255      230      230      251      292      351 
     403      449      491      510      510      513      525      552 
     598      652      704      758      807      831      845      862 
     841      778      715      641      542      445      352      256 
     183      137      110      106      106       83       45       18 
      -8      -51      -89     -101     -102      -90      -49       -4 
      21       47       87      110      109       91       51        5 
     -21      -49      -82      -81      -47      -22        5       51 
      93      124      153      184      212      241      266      279 
     282      299      313      297      282      274      259      251 
     243      222      203      174      120       64        8      -68 
    -144     -198     -251     -314     -375     -429     -487     -549 
    -603     -650     -696     -720     -737     -774     -812     -838 
    -864     -885     -900     -915     -918     -913     -913     -897 
    -862     -835     -811     -783     -774     -770     -751     -750 
    -757     -735     -707     -684     -643     -591     -538     -487 
    -451     -432     -406     -392     -409     -425     -430     -445 
    -469     -491     -514     -523     -508     -499     -490     -457 
    -438     -442     -441     -461     -506     -549     -600     -649 
    -664     -648     -618     -577     -530     -492     -476     -472 
    -480     -513     -545     -561     -569     -558     -515     -454 
    -387     -321     -278     -252     -238     -241     -255     -268 
    -288     -321     -364     -403     -437     -468     -498     -522 
    -529     -526     -522     -521     -532     -558     -588     -616 
    -645     -657     -643     -612     -564     -493     -422     -369 
    -334     -314     -314     -329     -340     -342     -348     -338 
    -311     -288     -271     -259     -255     -244     -228     -221 
    -222     -220     -229     -249     -263     -279     -303     -315 
    -326     -355     -376     -388     -418     -442     -442     -448 
    -453     -430     -402     -386     -356     -321     -303     -287 
    -291     -328     -357     -379     -413     -425     -403     -372 
    -333     -292     -275     -282     -302     -334     -375     -407 
    -434     -457     -460     -445     -430     -419     -411     -407 
    -403     -391     -378     -373     -376     -373     -353     -318 
    -279     -236     -195     -163     -126      -90      -65      -45 
     -18       20       67      122      187      249      297      317 
     317      314      307      284      252      221      183      129 
      78       35        5      -11      -17      -28      -37      -43 
     -70     -118     -159     -193     -228     -244     -244     -243 
    -222     -180     -149     -133     -117     -108     -121     -144 
    -166     -193     -210     -214     -211     -190     -135      -68 
     -22       25       97      164      217      278      348      418 
     480      529      561      568      550      519      480      451 
     434      414      413      434      442      436      438      433 
     409      394      392      398      417      448      475      493 
     502      486      445      391      338      299      274      263 
     280      305      317      332      341      325      298      274 
     243      210      190      178      178      198      222      246 
