Origin Time       2016/04/16 01:25:00
Lat.              32.753
Long.             130.762
Depth. (km)       12
Mag.              7.3
Station Code      OSK006
Station Lat.      34.5894
Station Long.     135.4710
Station Height(m) 3
Record Time       2016/04/16 01:27:48
Sampling Freq(Hz) 100Hz
Duration Time(s)  60
Dir.              E-W
Scale Factor      7845(gal)/8223790
Max. Acc. (gal)   5.714
Last Correction   2016/04/16 01:27:50
Memo.             
[...]
    4681     4720     4756     4735     4699     4685     4645     4568 
    4495     4423     4371     4326     4258     4175     4077     3965 
    3869     3780     3690     3609     3508     3388     3279     3172 
    3075     3005     2929     2828     2728     2640     2552     2469 
    2392     2315     2257     2222     2155     2057     1982     1919 
    1864     1854     1844     1804     1779     1755     1725     1723 
    1734     1744     1776     1799     1792     1799     1818     1833 
    1868     1917     1958     2001     2030     2043     2096     2180 
    2218     2224     2284     2367     2403     2425     2471     2524 
    2586     2639     2673     2732     2808     2863     2907     2941 
    2967     2998     3040     3083     3126     3165     3192     3213 
    3238     3275     3314     3360     3399     3429     3464     3476 
    3458     3477     3528     3544     3558     3608     3628     3619 
    3631     3631     3618     3620     3628     3643     3658     3646 
    3634     3649     3651     3638     3631     3627     3628     3620 
    3578     3519     3489     3508     3528     3507     3474     3469 
    3476     3472     3451     3435     3435     3437     3435     3446 
    3476     3518     3549     3566     3584     3607     3646     3693 
    3734     3762     3788     3831     3893     3969     4044     4091 
    4126     4172     4197     4217     4270     4344     4387     4406 
    4437     4468     4488     4525     4552     4554     4560     4568 
    4579     4590     4587     4576     4567     4546     4514     4479 
    4445     4418     4399     4383     4356     4324     4299     4268 
    4220     4151     4054     3959     3888     3846     3824     3763 
    3659     3566     3488     3415     3342     3261     3188     3133 
    3071     2997     2913     2829     2747     2681     2629     2573 
    2515     2450     2378     2328     2282     2203     2121     2091 
    2069     2008     1953     1925     1896     1854     1802     1763 
    1738     1706     1680     1668     1656     1637     1615     1594 
    1576     1571     1566     1528     1474     1431     1397     1368 
    1355     1343     1339     1345     1348     1333     1294     1252 
    1237     1260     1300     1313     1282     1254     1260     1278 
    1278     1274     1278     1281     1277     1270     1252     1232 
    1230     1232     1220     1223     1236     1220     1202     1201 
    1178     1158     1151     1136     1136     1132     1097     1081 
    1100     1097     1081     1070     1063     1065     1053     1026 
    1005      990      990     1000     1008     1008     1000      985 
     959      928      923      949      973      984      962      909 
     877      868      853      854      873      877      864      850 
     834      816      810      805      785      761      754      777 
     810      800      773      767      756      754      787      789 
     769      754      720      702      728      739      724      711 
     695      672      646      627      622      608      579      566 
     571      553      514      493      490      472      456      461 
     475      500      540      562      579      626      683      719 
     749      783      823      872      926      980     1051     1146 
    1243     1320     1363     1391     1425     1478     1563     1683 
    1796     1859     1903     1975     2077     2185     2281     2362 
    2439     2525     2610     2697     2811     2928     3021     3114 
    3204     3280     3365     3465     3557     3643     3740     3847 
    3963     4071     4149     4238     4371     4491     4577     4689 
    4823     4920     4994     5105     5235     5354     5468     5568 
    5676     5798     5896     5987     6110     6231     6319     6403 
    6504     6609     6713     6812     6890     6970     7067     7156 
    7244     7354     7454     7512     7557     7596     7642     7700 
    7759     7821     7863     7865     7865     7893     7944     8002 
    8035     8050     8075     8105     8147     8179     8177     8182 
    8199     8203     8220     8239     8248     8264     8248     8220 
    8229     8252     8252     8237     8213     8166     8114     8102 
    8121     8117     8102     8105     8110     8114     8121     8120 
    8108     8083     8054     8055     8071     8056     8050     8062 
    8067     8083     8094     8073     8070     8081     8064     8040 
    8048     8073     8090     8100     8089     8056     8046     8055 
    8054     8054     8071     8095     8108     8082     8037     8023 
    8032     8024     7983     7956     7955     7942     7903     7860 
    7823     7794     7765     7723     7669     7604     7553     7515 
    7458     7371     7277     7192     7125     7056     6952     6831 
    6733     6660     6582     6478     6370     6280     6183     6068 
    5957     5854     5749     5641     5537     5437     5343     5250 
    5147     5043     4934     4819     4715     4603     4477     4372 
    4286     4190     4066     3915     3770     3655     3555     3454 
    3329     3171     3006     2872     2759     2646     2525     2396 
    2258     2139     2019     1867     1719     1621     1544     1448 
    1329     1216     1129     1053      976      909      842      757 
     679      619      569      518      469      419      355      292 
     252      246      265      266      244      222      212      230 
     275      313      336      361      391      418      456      515 
     589      668      738      800      859      931     1021     1109 
    1192     1277     1359     1444     1544     1655     1753     1836 
    1925     2025     2135     2243     2338     2432     2528     2613 
    2709     2828     2941     3042     3150     3261     3376     3511 
    3658     3776     3867     3963     4058     4151     4271     4405 
    4515     4611     4689     4768     4877     4988     5071     5148 
    5238     5327     5405     5476     5544     5621     5710     5771 
    5798     5821     5850     5906     5981     6030     6052     6080 
    6123     6162     6203     6235     6241     6246     6281     6323 
    6345     6355     6372     6403     6444     6480     6511     6551 
    6586     6610     6633     6669     6711     6739     6736     6723 
    6750     6863     6982     6960     6886     6918     6979     6988 
    6990     7011     7030     7023     7023     7061     7060     7026 
    7021     6994     6956     6966     6961     6925     6894     6860 
    6817     6787     6766     6724     6681     6662     6635     6573 
    6501     6453     6411     6366     6330     6295     6241     6170 
    6119     6093     6052     5994     5968     5975     5954     5876 
    5775     5727     5807     5923     5856     5701     5691     5719 
    5692     5707     5715     5676     5645     5629     5610     5571 
    5564     5594     5548     5466     5433     5398     5343     5290 
    5221     5144     5093     5055     4992     4920     4861     4783 
    4673     4568     4490     4421     4334     4243     4152     4040 
    3924     3813     3712     3636     3563     3469     3375     3287 
    3179     3080     3013     2930     2833     2759     2700     2623 
    2538     2457     2384     2331     2292     2236     2172     2130 
    2098     2058     2016     1961     1890     1818     1763     1748 
    1749     1703     1622     1551     1485     1420     1367     1327 
    1290     1244     1194     1136     1063      999      955      915 
     869      819      764      714      666      607      544      503 
     479      442      409      375      317      256      216      170 
     124       98       72       31       -4      -35      -81     -133 
    -182     -228     -261     -280     -302     -325     -342     -364 
    -391     -415     -442     -464     -471     -481     -493     -496 
    -522     -573     -595     -587     -589     -599     -611     -635 
    -661     -684     -704     -699     -683     -689     -702     -710 
    -728     -753     -761     -772     -788     -793     -807     -832 
    -846     -855     -866     -869     -868     -864     -862     -872 
    -890     -890     -874     -866     -864     -873     -892     -897 
    -886     -885     -881     -866     -866     -870     -854     -838 
    -831     -816     -801     -787     -756     -730     -727     -718 
    -700     -687     -664     -639     -618     -587     -549     -515 
    -490     -467     -444     -425     -398     -360     -330     -298 
    -248     -210     -172     -114      -63      -10       59      117 
     167      237      318      396      468      531      606      692 
     785      885      980     1058     1138     1233     1334     1436 
    1557     1683     1779     1868     1975     2091     2215     2343 
    2455     2559     2663     2770     2884     3007     3122     3248 
    3388     3501     3586     3682     3785     3883     3986     4106 
    4225     4317     4395     4499     4604     4689     4770     4866 
    4959     5031     5105     5205     5312     5410     5501     5579 
    5653     5730     5805     5872     5937     6008     6081     6147 
    6197     6239     6299     6367     6423     6465     6497     6528 
    6569     6610     6640     6654     6651     6655     6671     6679 
    6682     6686     6693     6698     6697     6702     6711     6716 
    6721     6716     6691     6677     6681     6685     6682     6675 
    6663     6654     6663     6683     6693     6687     6687     6706 
    6732     6747     6756     6763     6770     6781     6791     6806 
    6831     6853     6872     6893     6907     6922     6941     6951 
    6952     6963     6980     6990     6995     6995     6994     6987 
    6975     6963     6948     6936     6929     6921     6901     6867 
    6839     6825     6810     6781     6750     6724     6689     6640 
    6589     6538     6492     6450     6394     6332     6272     6214 
    6162     6100     6014     5931     5872     5813     5749     5688 
    5621     5547     5471     5382     5281     5197     5131     5058 
    4980     4889     4788     4698     4619     4553     4492     4417 
    4333     4266     4197     4121     4054     3994     3935     3879 
    3811     3723     3636     3573     3511     3446     3392     3329 
    3253     3194     3133     3049     2972     2921     2879     2821 
    2740     2658     2600     2552     2494     2436     2388     2342 
    2303     2261     2218     2189     2170     2143     2110     2083 
    2062     2053     2064     2065     2046     2041     2062     2088 
    2111     2128     2147     2170     2193     2224     2277     2342 
    2401     2452     2506     2555     2601     2651     2712     2772 
    2825     2880     2934     2991     3055     3109     3150     3200 
    3257     3311     3369     3431     3492     3562     3618     3659 
    3719     3789     3848     3906     3974     4040     4105     4178 
    4253     4324     4390     4455     4527     4598     4652     4710 
    4783     4842     4895     4958     5012     5055     5100     5148 
    5188     5224     5265     5300     5324     5344     5363     5381 
    5400     5416     5422     5414     5408     5420     5445     5456 
    5441     5428     5421     5405     5391     5391     5401     5408 
    5406     5389     5360     5344     5337     5325     5319     5312 
    5298     5286     5273     5259     5248     5243     5243     5255 
    5268     5270     5259     5235     5209     5217     5244     5232 
    5200     5186     5182     5171     5162     5171     5192     5202 
    5196     5181     5179     5189     5178     5154     5135     5125 
    5116     5104     5092     5077     5047     5009     4982     4974 
    4977     4978     4980     4970     4936     4905     4878     4847 
    4828     4810     4785     4773     4754     4734     4734     4729 
    4706     4688     4680     4666     4645     4619     4598     4598 
    4604     4591     4572     4557     4541     4527     4527     4544 
    4572     4585     4568     4548     4537     4531     4544     4557 
    4564     4573     4572     4568     4583     4600     4617     4633 
    4638     4642     4645     4645     4662     4700     4731     4743 
    4753     4772     4787     4800     4814     4820     4826     4846 
    4873     4899     4931     4973     5005     5030     5043     5043 
    5055     5071     5069     5073     5089     5088     5092     5113 
    5124     5130     5130     5121     5134     5155     5146     5121 
    5107     5113     5130     5125     5098     5080     5062     5020 
    4956     4899     4862     4835     4796     4754     4695     4603 
    4502     4414     4341     4261     4171     4095     4028     3931 
    3812     3703     3588     3462     3352     3248     3144     3038 
    2907     2770     2651     2532     2392     2226     2060     1917 
    1775     1632     1507     1379     1239     1085      923      762 
     615      473      336      214      103      -13     -136     -266 
    -399     -525     -650     -770     -872     -972    -1073    -1167 
   -1273    -1371    -1451    -1532    -1613    -1683    -1760    -1844 
   -1923    -1998    -2053    -2079    -2104    -2149    -2189    -2228 
   -2270    -2300    -2323    -2330    -2312    -2300    -2311    -2330 
   -2330    -2311    -2303    -2300    -2272    -2224    -2196    -2200 
   -2195    -2155    -2111    -2077    -2025    -1975    -1944    -1896 
   -1838    -1779    -1701    -1626    -1563    -1474    -1378    -1294 
   -1216    -1156    -1088     -989     -885     -766     -631     -508 
    -402     -299     -198     -108      -31       55      170      294 
     418      545      645      707      773      864      982     1117 
    1233     1339     1449     1541     1626     1706     1772     1875 
    2008     2128     2243     2344     2415     2484     2565     2659 
    2762     2849     2929     3026     3136     3245     3354     3445 
    3510     3577     3667     3762     3842     3927     4023     4099 
    4155     4225     4322     4415     4502     4592     4679     4752 
    4816     4876     4928     4973     5000     5027     5089     5158 
    5206     5240     5260     5285     5331     5393     5443     5462 
    5474     5508     5544     5562     5578     5610     5649     5675 
    5661     5630     5636     5684     5730     5751     5751     5730 
    5705     5713     5764     5817     5836     5817     5786     5793 
    5848     5888     5892     5899     5919     5962     6025     6073 
    6100     6115     6108     6115     6164     6201     6224     6255 
    6273     6278     6295     6319     6342     6373     6421     6473 
    6509     6523     6516     6513     6540     6600     6663     6683 
    6670     6651     6637     6666     6741     6801     6789     6721 
    6666     6658     6704     6795     6852     6804     6721     6673 
    6639     6612     6620     6624     6597     6573     6566     6548 
    6523     6504     6473     6431     6403     6396     6397     6388 
    6351     6307     6266     6231     6207     6173     6120     6064 
    6008     5961     5917     5848     5767     5718     5688     5636 
    5570     5509     5459     5431     5405     5350     5247     5104 
    4974     4900     4876     4858     4791     4692     4596     4484 
    4375     4302     4248     4190     4121     4048     3981     3904 
    3808     3709     3646     3612     3582     3555     3553     3547 
    3453     3300     3226     3225     3237     3268     3280     3242 
    3172     3103     3096     3154     3163     3075     3006     3051 
    3192     3304     3279     3154     2999     2882     2928     3122 
    3299     3365     3323     3231     3153     3096     3079     3168 
    3298     3336     3345     3416     3469     3451     3358     3226 
    3235     3453     3663     3744     3713     3573     3480     3561 
    3717     3844     3865     3793     3770     3823     3905     4023 
    4099     4098     4062     3936     3789     3869     4178     4487 
    4621     4479     4164     3924     3946     4197     4421     4473 
    4475     4509     4554     4535     4386     4197     4121     4205 
    4476     4806     4934     4776     4486     4309     4347     4471 
    4572     4642     4661     4631     4596     4598     4637     4608 
    4476     4413     4492     4590     4599     4510     4411     4378 
    4365     4355     4369     4368     4349     4356     4364     4367 
    4363     4278     4190     4214     4276     4336     4406     4393 
    4279     4194     4213     4243     4233     4253     4287     4276 
    4284     4280     4194     4164     4225     4248     4286     4374 
    4399     4351     4322     4360     4428     4464     4496     4537 
    4546     4544     4552     4572     4622     4662     4693     4760 
    4811     4822     4857     4920     4958     4977     5015     5069 
    5115     5135     5155     5209     5266     5292     5321     5368 
    5397     5393     5401     5447     5502     5532     5549     5580 
    5597     5571     5564     5610     5664     5676     5641     5598 
    5585     5568     5521     5486     5478     5464     5421     5370 
    5350     5325     5248     5197     5212     5193     5112     5050 
    5016     4981     4945     4905     4877     4868     4823     4731 
    4654     4623     4626     4642     4612     4513     4401     4307 
    4251     4223     4183     4148     4140     4107     4036     3943 
    3835     3757     3734     3723     3680     3608     3568     3550 
    3503     3447     3423     3399     3357     3329     3294     3221 
    3161     3145     3126     3064     2972     2905     2898     2915 
    2874     2754     2639     2601     2624     2647     2628     2562 
    2478     2409     2365     2319     2245     2182     2169     2163 
    2128     2043     1918     1815     1761     1729     1711     1683 
    1609     1478     1328     1209     1121     1046      994      970 
     945      859      726      610      518      427      334      229 
     133       67        8      -59     -152     -271     -375     -423 
    -436     -511     -675     -823     -884     -857     -812     -868 
   -1008    -1140    -1229    -1267    -1289    -1325    -1363    -1398 
   -1409    -1401    -1453    -1568    -1645    -1640    -1606    -1615 
   -1665    -1692    -1680    -1682    -1710    -1732    -1752    -1765 
   -1733    -1682    -1668    -1675    -1664    -1647    -1642    -1634 
   -1621    -1593    -1552    -1535    -1545    -1545    -1525    -1472 
   -1405    -1372    -1375    -1379    -1351    -1294    -1254    -1230 
   -1193    -1138    -1078    -1028     -993     -967     -936     -876 
    -793     -724     -683     -646     -589     -521     -450     -372 
    -289     -216     -143      -58       47      147      225      313 
     429      548      646      720      784      858      953     1073 
    1204     1325     1447     1557     1648     1752     1859     1956 
    2070     2195     2289     2357     2424     2525     2647     2759 
    2890     3034     3141     3223     3312     3396     3484     3586 
