Origin Time       2016/04/16 01:25:00
Lat.              32.753
Long.             130.762
Depth. (km)       12
Mag.              7.3
Station Code      OSK010
Station Lat.      34.3755
Station Long.     135.2549
Station Height(m) 3
Record Time       2016/04/16 01:27:20
Sampling Freq(Hz) 100Hz
Duration Time(s)  73
Dir.              E-W
Scale Factor      7845(gal)/8223790
Max. Acc. (gal)   4.702
Last Correction   2016/04/16 01:27:23
Memo.             
[...]
  -11654   -11650   -11620   -11587   -11561   -11538   -11541   -11568 
  -11589   -11593   -11578   -11558   -11557   -11560   -11556   -11564 
  -11584   -11603   -11624   -11657   -11685   -11696   -11708   -11729 
  -11736   -11724   -11708   -11682   -11658   -11655   -11666   -11668 
  -11650   -11610   -11556   -11506   -11458   -11404   -11349   -11298 
  -11254   -11218   -11181   -11142   -11121   -11115   -11105   -11084 
  -11051   -11014   -10968   -10901   -10837   -10813   -10814   -10816 
  -10814   -10821   -10832   -10816   -10771   -10722   -10687   -10674 
  -10670   -10667   -10675   -10682   -10675   -10669   -10675   -10685 
  -10694   -10702   -10700   -10681   -10652   -10629   -10616   -10617 
  -10633   -10656   -10681   -10701   -10719   -10732   -10736   -10721 
  -10694   -10674   -10679   -10689   -10698   -10696   -10667   -10636 
  -10625   -10624   -10621   -10612   -10586   -10552   -10520   -10493 
  -10478   -10471   -10461   -10458   -10478   -10494   -10484   -10467 
  -10467   -10473   -10478   -10500   -10530   -10547   -10558   -10567 
  -10571   -10574   -10571   -10578   -10604   -10636   -10651   -10651 
  -10643   -10650   -10685   -10737   -10782   -10808   -10813   -10818 
  -10847   -10895   -10955   -11014   -11060   -11090   -11117   -11151 
  -11175   -11175   -11179   -11203   -11247   -11296   -11327   -11330 
  -11319   -11321   -11346   -11369   -11384   -11416   -11454   -11480 
  -11480   -11461   -11457   -11483   -11515   -11543   -11562   -11556 
  -11538   -11539   -11558   -11573   -11578   -11601   -11635   -11647 
  -11638   -11645   -11677   -11709   -11722   -11739   -11772   -11786 
  -11762   -11716   -11677   -11651   -11610   -11554   -11511   -11460 
  -11381   -11283   -11169   -11052   -10940   -10828   -10714   -10608 
  -10511   -10404   -10284   -10179   -10106   -10045    -9984    -9909 
   -9810    -9733    -9695    -9683    -9688    -9694    -9697    -9717 
   -9763    -9810    -9845    -9880    -9927    -9977   -10011   -10042 
  -10088   -10139   -10174   -10187   -10196   -10212   -10224   -10238 
  -10266   -10292   -10300   -10289   -10276   -10278   -10278   -10277 
  -10300   -10341   -10380   -10413   -10454   -10501   -10535   -10569 
  -10624   -10706   -10808   -10891   -10935   -10971   -11032   -11111 
  -11194   -11264   -11317   -11373   -11425   -11465   -11512   -11562 
  -11615   -11677   -11726   -11747   -11743   -11724   -11727   -11755 
  -11772   -11777   -11784   -11790   -11788   -11777   -11769   -11766 
  -11770   -11780   -11803   -11835   -11877   -11932   -12001   -12074 
  -12132   -12174   -12210   -12240   -12262   -12279   -12301   -12322 
  -12312   -12274   -12249   -12237   -12210   -12172   -12141   -12104 
  -12046   -12000   -11966   -11921   -11873   -11830   -11784   -11742 
  -11695   -11620   -11538   -11468   -11404   -11333   -11254   -11173 
  -11091   -11007   -10917   -10825   -10752   -10696   -10638   -10570 
  -10507   -10447   -10376   -10292   -10208   -10125   -10046    -9995 
   -9969    -9953    -9936    -9918    -9909    -9911    -9900    -9865 
   -9828    -9802    -9780    -9761    -9751    -9741    -9730    -9724 
   -9732    -9748    -9752    -9728    -9705    -9701    -9693    -9680 
   -9690    -9726    -9780    -9841    -9906    -9977   -10058   -10141 
  -10233   -10349   -10471   -10580   -10685   -10778   -10858   -10937 
  -11039   -11173   -11330   -11485   -11618   -11722   -11816   -11909 
  -12000   -12078   -12131   -12163   -12198   -12245   -12302   -12353 
  -12379   -12393   -12409   -12436   -12463   -12465   -12460   -12472 
  -12478   -12451   -12422   -12413   -12402   -12378   -12360   -12341 
  -12294   -12225   -12154   -12097   -12073   -12046   -11989   -11913 
  -11824   -11739   -11668   -11596   -11503   -11379   -11241   -11121 
  -11020   -10906   -10768   -10621   -10469   -10320   -10181   -10055 
   -9949    -9857    -9749    -9626    -9513    -9413    -9336    -9286 
   -9251    -9216    -9171    -9109    -9049    -9012    -9000    -8992 
   -8986    -8985    -8988    -8974    -8942    -8922    -8926    -8941 
   -8954    -8978    -9020    -9054    -9074    -9108    -9154    -9212 
   -9290    -9396    -9520    -9639    -9749    -9864    -9983   -10102 
  -10206   -10304   -10405   -10501   -10580   -10655   -10736   -10810 
  -10875   -10944   -11005   -11062   -11122   -11176   -11230   -11283 
  -11331   -11387   -11442   -11487   -11533   -11584   -11615   -11628 
  -11642   -11663   -11692   -11712   -11711   -11693   -11668   -11666 
  -11689   -11700   -11693   -11693   -11708   -11724   -11726   -11724 
  -11722   -11704   -11673   -11647   -11624   -11595   -11553   -11511 
  -11465   -11412   -11361   -11330   -11302   -11256   -11207   -11167 
  -11145   -11134   -11119   -11105   -11105   -11110   -11103   -11074 
  -11028   -10979   -10935   -10905   -10887   -10856   -10795   -10702 
  -10604   -10513   -10420   -10334   -10255   -10174   -10106   -10054 
  -10007    -9968    -9941    -9926    -9934    -9969   -10015   -10057 
  -10100   -10166   -10263   -10382   -10530   -10696   -10859   -11011 
  -11151   -11288   -11442   -11611   -11786   -11970   -12171   -12371 
  -12538   -12675   -12815   -12970   -13115   -13254   -13409   -13559 
  -13678   -13778   -13880   -13992   -14108   -14238   -14382   -14513 
  -14608   -14655   -14685   -14733   -14790   -14851   -14918   -14980 
  -15028   -15053   -15060   -15066   -15083   -15095   -15095   -15097 
  -15090   -15040   -14955   -14877   -14780   -14663   -14551   -14422 
  -14264   -14087   -13868   -13631   -13413   -13211   -13014   -12802 
  -12569   -12313   -12033   -11758   -11492   -11225   -10968   -10712 
  -10443   -10200    -9984    -9767    -9559    -9362    -9184    -9034 
   -8895    -8766    -8649    -8520    -8385    -8262    -8149    -8047 
   -7947    -7854    -7777    -7704    -7623    -7531    -7441    -7377 
   -7348    -7339    -7356    -7391    -7433    -7495    -7569    -7627 
   -7673    -7739    -7816    -7892    -7977    -8066    -8155    -8263 
   -8395    -8533    -8660    -8760    -8837    -8896    -8949    -9015 
   -9094    -9182    -9283    -9393    -9487    -9570    -9649    -9721 
   -9784    -9856    -9950   -10062   -10168   -10257   -10334   -10396 
  -10458   -10535   -10635   -10748   -10837   -10889   -10908   -10901 
  -10882   -10858   -10841   -10848   -10875   -10917   -10959   -10974 
  -10971   -10970   -10963   -10962   -10983   -11025   -11086   -11149 
  -11194   -11219   -11223   -11214   -11218   -11230   -11265   -11325 
  -11365   -11368   -11346   -11313   -11280   -11250   -11214   -11180 
  -11167   -11183   -11194   -11171   -11124   -11068   -11039   -11038 
  -11044   -11053   -11075   -11107   -11152   -11188   -11207   -11210 
  -11204   -11194   -11196   -11227   -11280   -11337   -11365   -11365 
  -11362   -11362   -11362   -11356   -11331   -11287   -11246   -11223 
  -11206   -11164   -11092   -11021   -10987   -11001   -11032   -11038 
  -11021   -11007   -11002   -10987   -10941   -10874   -10827   -10810 
  -10798   -10785   -10778   -10786   -10800   -10802   -10795   -10790 
  -10788   -10801   -10825   -10854   -10886   -10912   -10945   -10999 
  -11070   -11141   -11213   -11292   -11375   -11469   -11583   -11708 
  -11828   -11936   -12044   -12167   -12297   -12429   -12542   -12629 
  -12707   -12788   -12866   -12928   -12974   -13009   -13045   -13084 
  -13123   -13153   -13172   -13197   -13228   -13259   -13286   -13316 
  -13355   -13409   -13462   -13497   -13527   -13568   -13629   -13697 
  -13757   -13805   -13829   -13849   -13878   -13917   -13953   -13968 
  -13952   -13917   -13883   -13853   -13814   -13773   -13728   -13662 
  -13585   -13509   -13439   -13363   -13273   -13188   -13111   -13042 
  -12981   -12910   -12833   -12764   -12699   -12638   -12588   -12530 
  -12461   -12390   -12325   -12275   -12216   -12127   -12017   -11894 
  -11765   -11634   -11492   -11331   -11171   -11007   -10833   -10654 
  -10485   -10327   -10162    -9981    -9798    -9632    -9478    -9325 
   -9174    -9027    -8892    -8779    -8679    -8594    -8519    -8454 
   -8408    -8384    -8376    -8380    -8385    -8413    -8467    -8532 
   -8606    -8687    -8776    -8863    -8947    -9045    -9154    -9259 
   -9352    -9431    -9505    -9590    -9676    -9759    -9837    -9913 
   -9979   -10030   -10080   -10138   -10196   -10250   -10303   -10351 
  -10392   -10427   -10463   -10504   -10544   -10574   -10584   -10584 
  -10592   -10609   -10633   -10665   -10702   -10743   -10781   -10821 
  -10867   -10906   -10943   -10984   -11029   -11068   -11094   -11103 
  -11098   -11090   -11079   -11059   -11029   -10990   -10936   -10887 
  -10859   -10836   -10808   -10782   -10771   -10767   -10759   -10752 
  -10744   -10729   -10716   -10701   -10689   -10689   -10689   -10692 
  -10697   -10702   -10721   -10754   -10787   -10825   -10859   -10890 
  -10917   -10922   -10916   -10920   -10922   -10897   -10843   -10782 
  -10720   -10646   -10559   -10462   -10353   -10243   -10142   -10044 
   -9949    -9850    -9745    -9660    -9595    -9548    -9512    -9478 
   -9458    -9456    -9472    -9497    -9520    -9556    -9607    -9659 
   -9714    -9776    -9832    -9875    -9917    -9958   -10002   -10048 
  -10088   -10127   -10164   -10200   -10242   -10295   -10358   -10434 
  -10503   -10575   -10654   -10731   -10813   -10906   -11005   -11105 
  -11194   -11280   -11368   -11464   -11568   -11653   -11723   -11805 
  -11893   -11982   -12075   -12155   -12220   -12276   -12340   -12417 
  -12495   -12559   -12604   -12633   -12658   -12694   -12726   -12749 
  -12772   -12787   -12792   -12796   -12796   -12789   -12771   -12753 
  -12738   -12721   -12695   -12656   -12599   -12541   -12483   -12418 
  -12349   -12279   -12204   -12114   -12015   -11916   -11827   -11739 
  -11650   -11564   -11477   -11391   -11308   -11227   -11155   -11079 
  -10995   -10906   -10813   -10721   -10628   -10530   -10438   -10353 
  -10274   -10218   -10180   -10141   -10088   -10037    -9998    -9971 
   -9957    -9960    -9975    -9985    -9999   -10015   -10022   -10021 
  -10022   -10035   -10064   -10093   -10111   -10119   -10129   -10143 
  -10156   -10169   -10196   -10224   -10243   -10250   -10255   -10270 
  -10285   -10287   -10274   -10269   -10272   -10272   -10268   -10261 
  -10254   -10249   -10242   -10243   -10249   -10247   -10237   -10210 
  -10177   -10149   -10133   -10130   -10127   -10110   -10093   -10092 
  -10112   -10149   -10187   -10223   -10261   -10309   -10370   -10436 
  -10509   -10596   -10686   -10778   -10871   -10975   -11090   -11190 
  -11277   -11367   -11460   -11551   -11645   -11739   -11827   -11897 
  -11954   -12010   -12074   -12140   -12197   -12259   -12336   -12414 
  -12476   -12529   -12580   -12630   -12684   -12742   -12803   -12869 
  -12941   -13011   -13084   -13153   -13219   -13294   -13378   -13460 
  -13532   -13586   -13616   -13617   -13610   -13618   -13628   -13616 
  -13582   -13533   -13474   -13413   -13363   -13319   -13258   -13169 
  -13069   -12973   -12884   -12788   -12672   -12548   -12437   -12360 
  -12302   -12233   -12155   -12063   -11965   -11884   -11816   -11747 
  -11672   -11581   -11479   -11379   -11277   -11157   -11032   -10913 
  -10788   -10648   -10496   -10342   -10184   -10017    -9840    -9671 
   -9521    -9375    -9231    -9096    -8968    -8849    -8743    -8658 
   -8603    -8568    -8533    -8522    -8537    -8552    -8559    -8577 
   -8622    -8676    -8742    -8834    -8929    -9005    -9076    -9157 
   -9251    -9351    -9447    -9532    -9609    -9680    -9752    -9830 
   -9917   -10003   -10080   -10152   -10227   -10307   -10386   -10469 
  -10551   -10642   -10729   -10813   -10894   -10967   -11045   -11137 
  -11222   -11304   -11400   -11499   -11587   -11665   -11739   -11807 
  -11863   -11917   -11973   -12008   -12017   -12008   -11990   -11967 
  -11932   -11871   -11797   -11728   -11662   -11577   -11466   -11352 
  -11240   -11134   -11037   -10937   -10829   -10706   -10567   -10428 
  -10296   -10172   -10054    -9937    -9815    -9691    -9571    -9463 
   -9367    -9269    -9161    -9059    -8980    -8918    -8868    -8810 
   -8745    -8687    -8637    -8594    -8559    -8537    -8520    -8494 
   -8469    -8453    -8437    -8426    -8426    -8431    -8437    -8441 
   -8451    -8467    -8490    -8525    -8573    -8623    -8669    -8730 
   -8799    -8863    -8935    -9020    -9112    -9197    -9279    -9364 
   -9451    -9537    -9624    -9702    -9786    -9883    -9973   -10049 
  -10123   -10191   -10251   -10309   -10354   -10378   -10395   -10409 
  -10422   -10430   -10434   -10428   -10409   -10382   -10355   -10326 
  -10292   -10258   -10230   -10210   -10183   -10156   -10137   -10115 
  -10091   -10068   -10035    -9989    -9933    -9877    -9849    -9840 
   -9825    -9791    -9748    -9715    -9702    -9701    -9720    -9751 
   -9769    -9795    -9852    -9930   -10018   -10125   -10260   -10407 
  -10557   -10712   -10879   -11053   -11236   -11425   -11627   -11853 
  -12089   -12322   -12548   -12772   -12993   -13212   -13436   -13664 
  -13890   -14106   -14319   -14521   -14700   -14858   -15016   -15172 
  -15315   -15435   -15525   -15585   -15628   -15669   -15709   -15735 
  -15754   -15770   -15776   -15772   -15768   -15770   -15777   -15797 
  -15827   -15859   -15898   -15928   -15936   -15936   -15934   -15919 
  -15901   -15881   -15850   -15800   -15720   -15615   -15488   -15342 
  -15191   -15051   -14905   -14739   -14558   -14364   -14165   -13979 
  -13801   -13621   -13446   -13271   -13113   -12964   -12822   -12687 
  -12565   -12465   -12372   -12266   -12162   -12070   -11975   -11875 
  -11782   -11685   -11576   -11472   -11373   -11269   -11155   -11029 
  -10901   -10779   -10677   -10592   -10497   -10390   -10288   -10185 
  -10084    -9985    -9890    -9801    -9718    -9629    -9540    -9452 
   -9366    -9298    -9254    -9220    -9197    -9180    -9173    -9180 
   -9200    -9225    -9265    -9332    -9429    -9533    -9644    -9763 
   -9869    -9967   -10079   -10211   -10359   -10509   -10643   -10744 
  -10818   -10887   -10963   -11034   -11088   -11129   -11149   -11149 
  -11136   -11098   -11047   -10995   -10930   -10848   -10752   -10646 
  -10521   -10389   -10266   -10145   -10022    -9915    -9807    -9691 
   -9579    -9474    -9367    -9255    -9143    -9047    -8964    -8878 
   -8791    -8700    -8610    -8527    -8446    -8375    -8328    -8278 
   -8213    -8155    -8104    -8048    -7985    -7924    -7874    -7823 
   -7771    -7720    -7655    -7581    -7515    -7461    -7420    -7381 
   -7334    -7283    -7233    -7195    -7167    -7132    -7096    -7083 
   -7084    -7094    -7107    -7111    -7106    -7115    -7153    -7206 
   -7263    -7319    -7365    -7404    -7460    -7528    -7607    -7705 
   -7803    -7889    -7973    -8064    -8166    -8260    -8340    -8418 
   -8496    -8573    -8655    -8733    -8795    -8846    -8904    -8981 
   -9063    -9139    -9212    -9279    -9344    -9418    -9486    -9545 
   -9622    -9705    -9776    -9845    -9919    -9994   -10069   -10147 
  -10230   -10328   -10438   -10559   -10674   -10777   -10881   -10994 
  -11118   -11257   -11398   -11530   -11658   -11782   -11904   -12020 
  -12133   -12252   -12367   -12472   -12576   -12661   -12733   -12811 
  -12885   -12957   -13035   -13120   -13204   -13284   -13360   -13432 
  -13489   -13545   -13609   -13668   -13711   -13748   -13788   -13826 
  -13857   -13888   -13927   -13964   -13991   -14021   -14060   -14102 
  -14141   -14173   -14203   -14231   -14268   -14311   -14345   -14364 
  -14353   -14326   -14321   -14342   -14349   -14334   -14301   -14261 
  -14219   -14169   -14106   -14037   -13965   -13894   -13822   -13745 
  -13659   -13563   -13464   -13367   -13273   -13182   -13095   -13000 
  -12900   -12802   -12690   -12564   -12434   -12301   -12170   -12042 
  -11900   -11749   -11601   -11460   -11340   -11237   -11132   -11022 
  -10909   -10808   -10728   -10662   -10608   -10561   -10504   -10454 
  -10405   -10354   -10308   -10261   -10210   -10169   -10141   -10110 
  -10079   -10053   -10025    -9989    -9952    -9926    -9910    -9895 
   -9877    -9861    -9849    -9837    -9836    -9846    -9869    -9892 
   -9915    -9942    -9979   -10018   -10053   -10098   -10156   -10211 
  -10250   -10291   -10343   -10397   -10444   -10488   -10546   -10608 
  -10667   -10728   -10794   -10870   -10951   -11029   -11111   -11200 
  -11288   -11383   -11488   -11592   -11669   -11722   -11774   -11842 
  -11904   -11944   -11961   -11947   -11909   -11865   -11828   -11789 
  -11735   -11658   -11569   -11483   -11388   -11275   -11153   -11033 
  -10902   -10773   -10660   -10551   -10420   -10261   -10088    -9918 
   -9760    -9616    -9477    -9328    -9163    -8997    -8835    -8677 
   -8537    -8418    -8324    -8240    -8154    -8070    -8004    -7959 
   -7929    -7911    -7897    -7886    -7885    -7900    -7919    -7939 
   -7967    -8006    -8059    -8109    -8155    -8210    -8274    -8343 
   -8417    -8494    -8587    -8694    -8812    -8938    -9062    -9185 
   -9320    -9470    -9629    -9798    -9969   -10137   -10304   -10474 
  -10644   -10816   -10993   -11169   -11337   -11493   -11641   -11772 
  -11900   -12031   -12163   -12294   -12414   -12518   -12603   -12672 
  -12730   -12788   -12852   -12931   -13016   -13084   -13134   -13171 
  -13197   -13230   -13278   -13325   -13377   -13429   -13460   -13482 
  -13489   -13481   -13475   -13478   -13475   -13456   -13417   -13371 
  -13323   -13266   -13200   -13136   -13086   -13036   -12980   -12924 
  -12865   -12800   -12746   -12711   -12685   -12658   -12627   -12592 
  -12556   -12532   -12521   -12507   -12482   -12459   -12451   -12452 
  -12455   -12444   -12415   -12370   -12324   -12302   -12290   -12262 
  -12214   -12152   -12087   -12028   -11952   -11862   -11774   -11686 
  -11587   -11493   -11407   -11310   -11199   -11091   -10991   -10882 
  -10775   -10686   -10601   -10507   -10409   -10326   -10276   -10250 
  -10218   -10177   -10142   -10125   -10130   -10154   -10187   -10223 
  -10255   -10296   -10359   -10427   -10492   -10557   -10621   -10679 
  -10740   -10809   -10872   -10920   -10949   -10960   -10968   -10993 
  -11022   -11037   -11022   -10983   -10939   -10893   -10847   -10800 
  -10740   -10679   -10628   -10580   -10521   -10461   -10407   -10368 
  -10350   -10345   -10339   -10335   -10334   -10339   -10349   -10368 
  -10395   -10420   -10451   -10493   -10547   -10598   -10633   -10675 
  -10735   -10785   -10817   -10862   -10918   -10960   -10984   -11013 
  -11051   -11087   -11115   -11146   -11188   -11234   -11268   -11290 
  -11313   -11337   -11344   -11352   -11369   -11383   -11379   -11356 
  -11322   -11288   -11257   -11230   -11209   -11175   -11124   -11060 
  -10996   -10947   -10909   -10864   -10812   -10760   -10719   -10683 
  -10646   -10616   -10605   -10597   -10567   -10521   -10489   -10480 
  -10477   -10473   -10470   -10465   -10451   -10434   -10430   -10438 
  -10424   -10404   -10401   -10409   -10416   -10411   -10392   -10369 
