Origin Time       2016/04/16 01:25:00
Lat.              32.753
Long.             130.762
Depth. (km)       12
Mag.              7.3
Station Code      OSK008
Station Lat.      34.4402
Station Long.     135.3917
Station Height(m) 10
Record Time       2016/04/16 01:26:37
Sampling Freq(Hz) 100Hz
Duration Time(s)  158
Dir.              N-S
Scale Factor      7845(gal)/8223790
Max. Acc. (gal)   6.147
Last Correction   2016/04/16 01:26:38
Memo.             
[...]
   -4225    -4282    -4341    -4396    -4446    -4494    -4544    -4598 
   -4644    -4687    -4731    -4773    -4814    -4850    -4880    -4918 
   -4945    -4962    -4986    -5000    -5004    -5004    -4992    -4976 
   -4969    -4963    -4954    -4934    -4905    -4880    -4858    -4843 
   -4831    -4818    -4795    -4765    -4743    -4727    -4689    -4642 
   -4600    -4552    -4507    -4477    -4446    -4399    -4342    -4298 
   -4261    -4223    -4191    -4168    -4140    -4113    -4097    -4090 
   -4082    -4071    -4069    -4078    -4085    -4083    -4074    -4071 
   -4085    -4109    -4126    -4131    -4131    -4137    -4164    -4210 
   -4248    -4275    -4306    -4352    -4406    -4463    -4502    -4531 
   -4577    -4629    -4681    -4743    -4799    -4837    -4874    -4912 
   -4950    -4989    -5030    -5067    -5103    -5142    -5186    -5232 
   -5282    -5336    -5393    -5454    -5506    -5552    -5611    -5671 
   -5717    -5763    -5803    -5838    -5875    -5902    -5927    -5957 
   -5981    -5996    -6010    -6021    -6026    -6035    -6046    -6052 
   -6054    -6056    -6046    -6035    -6033    -6035    -6030    -6021 
   -6008    -5999    -5989    -5975    -5962    -5954    -5942    -5930 
   -5927    -5922    -5910    -5899    -5879    -5853    -5830    -5800 
   -5760    -5721    -5675    -5626    -5578    -5521    -5463    -5413 
   -5358    -5298    -5247    -5206    -5173    -5148    -5131    -5115 
   -5105    -5107    -5116    -5138    -5167    -5204    -5244    -5289 
   -5337    -5390    -5445    -5501    -5560    -5623    -5682    -5730 
   -5780    -5819    -5844    -5863    -5879    -5883    -5879    -5864 
   -5838    -5807    -5767    -5717    -5664    -5602    -5533    -5464 
   -5395    -5327    -5256    -5181    -5105    -5030    -4956    -4885 
   -4814    -4745    -4680    -4617    -4556    -4496    -4437    -4376 
   -4313    -4248    -4182    -4114    -4052    -3990    -3925    -3863 
   -3800    -3736    -3673    -3612    -3563    -3518    -3461    -3400 
   -3331    -3256    -3183    -3103    -3017    -2928    -2828    -2727 
   -2631    -2527    -2421    -2323    -2220    -2123    -2038    -1956 
   -1878    -1806    -1742    -1690    -1648    -1613    -1576    -1540 
   -1513    -1495    -1489    -1490    -1487    -1486    -1494    -1503 
   -1518    -1539    -1560    -1586    -1621    -1655    -1684    -1721 
   -1760    -1799    -1844    -1894    -1945    -2011    -2084    -2153 
   -2223    -2292    -2363    -2439    -2509    -2582    -2662    -2736 
   -2816    -2906    -2995    -3095    -3204    -3316    -3431    -3546 
   -3665    -3794    -3932    -4078    -4220    -4351    -4475    -4596 
   -4716    -4849    -4974    -5085    -5189    -5282    -5360    -5437 
   -5521    -5594    -5652    -5710    -5757    -5792    -5836    -5880 
   -5914    -5934    -5940    -5934    -5922    -5902    -5872    -5837 
   -5795    -5744    -5687    -5625    -5559    -5497    -5433    -5367 
   -5305    -5235    -5169    -5120    -5077    -5035    -4993    -4954 
   -4928    -4904    -4881    -4865    -4846    -4824    -4807    -4784 
   -4761    -4738    -4710    -4688    -4665    -4635    -4615    -4594 
   -4567    -4545    -4522    -4498    -4483    -4468    -4450    -4436 
   -4419    -4398    -4374    -4352    -4327    -4294    -4256    -4214 
   -4168    -4124    -4081    -4032    -3981    -3932    -3889    -3844 
   -3805    -3770    -3740    -3712    -3685    -3665    -3646    -3623 
   -3595    -3568    -3544    -3528    -3507    -3481    -3468    -3456 
   -3445    -3446    -3445    -3431    -3420    -3420    -3418    -3426 
   -3453    -3476    -3481    -3488    -3507    -3534    -3566    -3595 
   -3615    -3636    -3647    -3657    -3677    -3694    -3719    -3763 
   -3809    -3856    -3915    -3982    -4059    -4148    -4243    -4352 
   -4468    -4590    -4726    -4868    -5019    -5186    -5354    -5521 
   -5698    -5883    -6072    -6261    -6447    -6631    -6809    -6980 
   -7149    -7311    -7462    -7596    -7715    -7827    -7928    -8010 
   -8086    -8155    -8212    -8263    -8314    -8365    -8407    -8449 
   -8499    -8543    -8588    -8637    -8679    -8721    -8768    -8806 
   -8847    -8885    -8914    -8943    -8955    -8945    -8939    -8926 
   -8892    -8853    -8803    -8739    -8672    -8592    -8503    -8411 
   -8307    -8201    -8094    -7978    -7851    -7722    -7589    -7453 
   -7307    -7159    -7003    -6840    -6673    -6505    -6330    -6148 
   -5968    -5786    -5602    -5422    -5242    -5058    -4876    -4695 
   -4523    -4357    -4178    -4001    -3840    -3690    -3551    -3419 
   -3289    -3177    -3076    -2975    -2884    -2816    -2754    -2691 
   -2641    -2598    -2551    -2505    -2461    -2417    -2367    -2313 
   -2261    -2211    -2157    -2101    -2053    -2012    -1979    -1949 
   -1927    -1915    -1914    -1915    -1930    -1960    -1981    -2010 
   -2045    -2074    -2102    -2135    -2165    -2189    -2215    -2243 
   -2270    -2293    -2317    -2343    -2366    -2390    -2421    -2452 
   -2488    -2528    -2573    -2617    -2663    -2706    -2754    -2805 
   -2853    -2899    -2949    -3001    -3052    -3106    -3157    -3211 
   -3264    -3310    -3352    -3393    -3423    -3439    -3450    -3453 
   -3450    -3438    -3414    -3381    -3336    -3284    -3232    -3177 
   -3107    -3034    -2960    -2879    -2801    -2727    -2650    -2567 
   -2482    -2394    -2309    -2227    -2139    -2049    -1962    -1877 
   -1795    -1722    -1647    -1575    -1520    -1470    -1420    -1377 
   -1345    -1317    -1289    -1263    -1239    -1223    -1219    -1209 
   -1200    -1205    -1219    -1235    -1259    -1290    -1324    -1367 
   -1416    -1467    -1518    -1571    -1626    -1679    -1729    -1775 
   -1817    -1852    -1885    -1917    -1938    -1952    -1966    -1979 
   -1984    -1991    -2004    -2026    -2056    -2088    -2123    -2165 
   -2219    -2277    -2342    -2417    -2502    -2584    -2673    -2766 
   -2860    -2955    -3049    -3138    -3226    -3315    -3392    -3464 
   -3541    -3613    -3678    -3744    -3802    -3865    -3929    -3981 
   -4032    -4086    -4132    -4180    -4228    -4270    -4313    -4360 
   -4402    -4445    -4500    -4558    -4617    -4680    -4746    -4814 
   -4892    -4973    -5053    -5131    -5211    -5287    -5360    -5433 
   -5503    -5571    -5634    -5694    -5755    -5811    -5859    -5902 
   -5944    -5984    -6022    -6053    -6075    -6092    -6112    -6123 
   -6127    -6131    -6130    -6123    -6119    -6114    -6108    -6103 
   -6095    -6087    -6084    -6084    -6080    -6077    -6079    -6083 
   -6092    -6103    -6118    -6141    -6168    -6199    -6242    -6299 
   -6366    -6444    -6529    -6624    -6731    -6852    -6979    -7109 
   -7248    -7389    -7530    -7676    -7820    -7963    -8111    -8256 
   -8403    -8548    -8681    -8811    -8947    -9084    -9219    -9350 
   -9470    -9589    -9703    -9810    -9906    -9983   -10039   -10081 
  -10106   -10110   -10091   -10049    -9989    -9915    -9829    -9729 
   -9621    -9502    -9364    -9215    -9051    -8881    -8712    -8533 
   -8343    -8139    -7933    -7728    -7515    -7302    -7092    -6872 
   -6648    -6430    -6218    -6008    -5788    -5560    -5331    -5092 
   -4849    -4606    -4356    -4091    -3825    -3558    -3284    -3005 
   -2727    -2448    -2162    -1875    -1598    -1325    -1051     -778 
    -511     -251       -5      224      444      646      830      994 
    1139     1259     1358     1440     1494     1524     1537     1535 
    1518     1490     1448     1394     1336     1271     1202     1131 
    1059      985      912      838      760      677      589      493 
     388      279      159       28     -114     -270     -429     -595 
    -774     -957    -1139    -1323    -1499    -1674    -1848    -2012 
   -2165    -2311    -2455    -2598    -2740    -2871    -2995    -3123 
   -3248    -3365    -3481    -3596    -3707    -3820    -3935    -4044 
   -4152    -4266    -4386    -4498    -4612    -4730    -4845    -4954 
   -5060    -5167    -5275    -5375    -5471    -5563    -5648    -5729 
   -5798    -5860    -5930    -5999    -6057    -6115    -6180    -6251 
   -6327    -6399    -6467    -6547    -6629    -6708    -6782    -6845 
   -6905    -6967    -7017    -7051    -7067    -7072    -7074    -7065 
   -7044    -7003    -6947    -6875    -6795    -6704    -6596    -6474 
   -6342    -6197    -6043    -5881    -5707    -5522    -5331    -5136 
   -4935    -4729    -4519    -4310    -4101    -3897    -3694    -3495 
   -3307    -3125    -2948    -2787    -2633    -2485    -2350    -2228 
   -2116    -2014    -1921    -1841    -1771    -1710    -1663    -1629 
   -1602    -1583    -1579    -1587    -1603    -1636    -1682    -1734 
   -1796    -1872    -1962    -2064    -2170    -2288    -2417    -2546 
   -2681    -2829    -2980    -3137    -3299    -3461    -3624    -3788 
   -3951    -4113    -4258    -4405    -4556    -4693    -4824    -4951 
   -5080    -5211    -5331    -5454    -5590    -5711    -5827    -5956 
   -6062    -6158    -6266    -6350    -6407    -6480    -6544    -6569 
   -6589    -6610    -6604    -6582    -6555    -6511    -6460    -6405 
   -6327    -6243    -6162    -6064    -5958    -5860    -5755    -5640 
   -5533    -5424    -5306    -5194    -5088    -4969    -4852    -4748 
   -4644    -4538    -4441    -4347    -4256    -4174    -4093    -4017 
   -3955    -3893    -3834    -3781    -3738    -3700    -3661    -3627 
   -3599    -3572    -3547    -3526    -3503    -3483    -3466    -3447 
   -3427    -3414    -3402    -3383    -3361    -3346    -3329    -3308 
   -3292    -3277    -3261    -3252    -3248    -3249    -3254    -3264 
   -3277    -3291    -3314    -3342    -3369    -3397    -3431    -3464 
   -3492    -3524    -3557    -3582    -3597    -3611    -3619    -3615 
   -3607    -3595    -3573    -3537    -3488    -3434    -3380    -3319 
   -3245    -3167    -3087    -3003    -2915    -2832    -2743    -2650 
   -2562    -2478    -2390    -2308    -2239    -2176    -2120    -2073 
   -2043    -2027    -2019    -2023    -2043    -2077    -2121    -2172 
   -2232    -2309    -2388    -2469    -2562    -2659    -2763    -2876 
   -2994    -3115    -3241    -3375    -3519    -3669    -3825    -3990 
   -4159    -4332    -4510    -4693    -4881    -5071    -5260    -5451 
   -5643    -5831    -6015    -6193    -6372    -6546    -6718    -6890 
   -7059    -7225    -7388    -7546    -7707    -7862    -8006    -8148 
   -8284    -8414    -8533    -8638    -8733    -8814    -8884    -8943 
   -8986    -9012    -9027    -9028    -9019    -9000    -8972    -8938 
   -8901    -8860    -8819    -8775    -8727    -8687    -8649    -8611 
   -8575    -8548    -8526    -8505    -8486    -8472    -8464    -8456 
   -8444    -8437    -8434    -8418    -8403    -8388    -8365    -8336 
   -8303    -8257    -8205    -8143    -8073    -8001    -7928    -7847 
   -7759    -7666    -7576    -7489    -7400    -7307    -7221    -7127 
   -7038    -6952    -6860    -6767    -6673    -6575    -6477    -6380 
   -6281    -6177    -6068    -5962    -5867    -5771    -5674    -5579 
   -5494    -5410    -5325    -5244    -5178    -5113    -5040    -4972 
   -4914    -4862    -4812    -4768    -4730    -4689    -4650    -4617 
   -4572    -4522    -4494    -4455    -4391    -4348    -4320    -4256 
   -4190    -4140    -4072    -3993    -3917    -3836    -3747    -3651 
   -3538    -3422    -3322    -3213    -3082    -2959    -2840    -2705 
   -2574    -2455    -2331    -2203    -2084    -1971    -1864    -1763 
   -1661    -1571    -1489    -1412    -1347    -1289    -1235    -1185 
   -1138    -1093    -1051    -1012     -981     -955     -929     -911 
    -901     -896     -893     -900     -911     -926     -949     -977 
   -1005    -1038    -1077    -1115    -1156    -1202    -1252    -1304 
   -1359    -1418    -1483    -1553    -1628    -1711    -1806    -1904 
   -2010    -2126    -2250    -2384    -2519    -2658    -2806    -2959 
   -3113    -3268    -3426    -3588    -3744    -3893    -4040    -4180 
   -4306    -4422    -4527    -4622    -4703    -4765    -4811    -4846 
   -4864    -4864    -4847    -4818    -4780    -4730    -4669    -4604 
   -4533    -4457    -4379    -4294    -4205    -4117    -4036    -3959 
   -3877    -3796    -3719    -3653    -3585    -3520    -3462    -3412 
   -3365    -3326    -3296    -3275    -3258    -3252    -3248    -3248 
   -3258    -3280    -3303    -3322    -3343    -3372    -3400    -3433 
   -3466    -3497    -3530    -3563    -3589    -3615    -3653    -3692 
   -3719    -3751    -3788    -3828    -3871    -3915    -3962    -4016 
   -4074    -4143    -4215    -4288    -4368    -4455    -4544    -4641 
   -4741    -4838    -4930    -5026    -5134    -5240    -5339    -5441 
   -5545    -5647    -5748    -5850    -5957    -6064    -6166    -6272 
   -6386    -6501    -6612    -6727    -6843    -6955    -7068    -7186 
   -7307    -7425    -7526    -7626    -7730    -7827    -7919    -8002 
   -8078    -8144    -8199    -8248    -8290    -8324    -8359    -8391 
   -8414    -8446    -8492    -8530    -8565    -8615    -8672    -8729 
   -8795    -8874    -8962    -9054    -9147    -9246    -9360    -9483 
   -9605    -9730    -9860    -9981   -10099   -10218   -10326   -10428 
  -10527   -10616   -10692   -10755   -10814   -10859   -10893   -10917 
  -10932   -10936   -10932   -10922   -10903   -10875   -10841   -10801 
  -10748   -10693   -10629   -10551   -10466   -10380   -10282   -10174 
  -10060    -9938    -9806    -9664    -9514    -9355    -9197    -9030 
   -8853    -8679    -8500    -8313    -8131    -7948    -7756    -7564 
   -7377    -7194    -7005    -6814    -6629    -6448    -6266    -6091 
   -5922    -5755    -5590    -5431    -5279    -5135    -5000    -4877 
   -4757    -4637    -4527    -4422    -4318    -4222    -4129    -4039 
   -3956    -3882    -3809    -3746    -3690    -3636    -3586    -3546 
   -3508    -3473    -3447    -3430    -3411    -3393    -3381    -3369 
   -3355    -3338    -3326    -3308    -3281    -3253    -3222    -3188 
   -3154    -3121    -3079    -3034    -2990    -2943    -2894    -2839 
   -2776    -2713    -2644    -2571    -2490    -2408    -2322    -2227 
   -2133    -2039    -1945    -1854    -1765    -1682    -1606    -1539 
   -1474    -1413    -1360    -1316    -1281    -1248    -1224    -1205 
   -1189    -1181    -1181    -1185    -1192    -1209    -1230    -1258 
   -1293    -1329    -1367    -1413    -1460    -1509    -1563    -1617 
   -1671    -1729    -1786    -1848    -1911    -1973    -2039    -2111 
   -2189    -2276    -2367    -2469    -2577    -2686    -2806    -2934 
   -3059    -3187    -3325    -3458    -3585    -3708    -3831    -3950 
   -4058    -4159    -4261    -4353    -4430    -4506    -4577    -4634 
   -4687    -4729    -4764    -4796    -4823    -4843    -4855    -4866 
   -4872    -4866    -4858    -4847    -4826    -4801    -4779    -4750 
   -4719    -4689    -4658    -4629    -4600    -4572    -4545    -4523 
   -4502    -4480    -4461    -4445    -4426    -4406    -4383    -4364 
   -4342    -4320    -4303    -4289    -4275    -4260    -4253    -4255 
   -4256    -4258    -4268    -4283    -4298    -4315    -4340    -4365 
   -4392    -4422    -4456    -4488    -4517    -4546    -4580    -4608 
   -4635    -4662    -4685    -4707    -4723    -4731    -4739    -4745 
   -4743    -4731    -4710    -4691    -4665    -4629    -4588    -4544 
   -4492    -4438    -4383    -4324    -4266    -4210    -4155    -4102 
   -4055    -4008    -3963    -3928    -3892    -3855    -3828    -3802 
   -3774    -3753    -3731    -3709    -3686    -3662    -3642    -3620 
   -3597    -3580    -3565    -3549    -3541    -3537    -3535    -3542 
   -3553    -3569    -3592    -3619    -3650    -3686    -3723    -3757 
   -3794    -3834    -3869    -3901    -3931    -3959    -3986    -4008 
   -4029    -4052    -4069    -4086    -4104    -4116    -4129    -4144 
   -4156    -4166    -4178    -4189    -4202    -4217    -4230    -4245 
   -4258    -4271    -4288    -4307    -4325    -4337    -4349    -4365 
   -4380    -4391    -4398    -4402    -4401    -4395    -4387    -4379 
   -4365    -4342    -4318    -4288    -4251    -4207    -4158    -4106 
   -4060    -4006    -3944    -3886    -3832    -3778    -3724    -3673 
   -3624    -3577    -3532    -3489    -3451    -3416    -3384    -3353 
   -3327    -3304    -3284    -3269    -3261    -3264    -3269    -3277 
   -3292    -3315    -3346    -3381    -3416    -3453    -3495    -3541 
   -3581    -3619    -3658    -3699    -3730    -3761    -3790    -3808 
   -3827    -3848    -3854    -3852    -3858    -3854    -3839    -3828 
   -3816    -3792    -3763    -3734    -3705    -3677    -3647    -3615 
   -3589    -3569    -3544    -3526    -3511    -3491    -3474    -3466 
   -3456    -3449    -3450    -3453    -3457    -3461    -3468    -3481 
   -3500    -3518    -3532    -3551    -3574    -3601    -3627    -3650 
   -3674    -3701    -3727    -3757    -3797    -3835    -3871    -3917 
   -3963    -4012    -4064    -4113    -4163    -4218    -4266    -4318 
   -4369    -4414    -4457    -4499    -4534    -4568    -4604    -4633 
   -4650    -4665    -4680    -4684    -4683    -4685    -4681    -4679 
   -4677    -4673    -4669    -4669    -4669    -4673    -4675    -4675 
   -4683    -4692    -4698    -4708    -4720    -4729    -4743    -4762 
   -4781    -4804    -4828    -4851    -4876    -4905    -4936    -4966 
   -5001    -5039    -5074    -5112    -5155    -5197    -5235    -5277 
   -5317    -5358    -5393    -5422    -5448    -5471    -5490    -5503 
   -5509    -5506    -5501    -5491    -5472    -5451    -5425    -5394 
   -5360    -5327    -5294    -5266    -5235    -5202    -5174    -5152 
   -5131    -5109    -5089    -5071    -5054    -5035    -5017    -5003 
   -4986    -4965    -4941    -4915    -4885    -4855    -4822    -4780 
   -4731    -4681    -4627    -4568    -4510    -4445    -4376    -4307 
   -4238    -4166    -4093    -4021    -3950    -3873    -3796    -3726 
   -3658    -3584    -3504    -3426    -3349    -3269    -3191    -3113 
   -3037    -2963    -2893    -2828    -2764    -2705    -2652    -2602 
   -2554    -2509    -2470    -2434    -2397    -2362    -2331    -2301 
   -2267    -2234    -2205    -2174    -2142    -2111    -2079    -2049 
   -2023    -1993    -1960    -1933    -1908    -1883    -1861    -1844 
   -1829    -1822    -1819    -1822    -1830    -1844    -1868    -1899 
   -1937    -1982    -2033    -2087    -2147    -2211    -2276    -2342 
   -2412    -2482    -2555    -2627    -2704    -2785    -2862    -2936 
   -3015    -3095    -3171    -3244    -3316    -3388    -3454    -3518 
   -3582    -3645    -3704    -3762    -3813    -3867    -3925    -3977 
   -4025    -4078    -4128    -4178    -4232    -4279    -4329    -4382 
   -4430    -4479    -4530    -4579    -4625    -4675    -4722    -4762 
   -4804    -4846    -4878    -4909    -4941    -4969    -5001    -5031 
   -5055    -5086    -5123    -5157    -5192    -5232    -5273    -5317 
   -5363    -5404    -5448    -5497    -5541    -5582    -5622    -5661 
   -5703    -5744    -5779    -5814    -5848    -5879    -5910    -5940 
