Origin Time       2016/04/16 01:25:00
Lat.              32.753
Long.             130.762
Depth. (km)       12
Mag.              7.3
Station Code      OSK003
Station Lat.      34.7668
Station Long.     135.4683
Station Height(m) 5
Record Time       2016/04/16 01:27:31
Sampling Freq(Hz) 100Hz
Duration Time(s)  114
Dir.              E-W
Scale Factor      7845(gal)/8223790
Max. Acc. (gal)   5.245
Last Correction   2016/04/16 01:27:32
Memo.             
[...]
    -310     -388     -471     -552     -631     -715     -799     -877 
    -954    -1026    -1090    -1158    -1228    -1293    -1355    -1422 
   -1486    -1544    -1599    -1657    -1718    -1779    -1841    -1904 
   -1966    -2023    -2077    -2128    -2174    -2214    -2253    -2290 
   -2328    -2365    -2389    -2404    -2427    -2452    -2469    -2482 
   -2492    -2492    -2488    -2484    -2475    -2466    -2461    -2447 
   -2431    -2419    -2404    -2386    -2373    -2358    -2347    -2338 
   -2322    -2307    -2300    -2288    -2267    -2245    -2220    -2189 
   -2150    -2107    -2061    -2008    -1952    -1888    -1818    -1748 
   -1671    -1587    -1503    -1422    -1341    -1264    -1194    -1128 
   -1062     -996     -927     -853     -777     -704     -631     -560 
    -499     -441     -382     -325     -261     -194     -131      -75 
     -31        0       28       49       60       65       68       67 
      59       37        8      -22      -59     -101     -141     -183 
    -225     -265     -307     -346     -383     -421     -461     -502 
    -533     -561     -589     -619     -654     -697     -741     -784 
    -830     -874     -923     -973    -1026    -1081    -1133    -1185 
   -1244    -1297    -1350    -1405    -1455    -1501    -1552    -1602 
   -1651    -1702    -1753    -1809    -1865    -1918    -1971    -2026 
   -2083    -2149    -2219    -2289    -2359    -2432    -2505    -2577 
   -2658    -2744    -2830    -2917    -3002    -3084    -3165    -3237 
   -3306    -3373    -3434    -3495    -3554    -3600    -3640    -3680 
   -3707    -3727    -3744    -3748    -3743    -3738    -3727    -3704 
   -3677    -3643    -3599    -3546    -3488    -3424    -3355    -3281 
   -3204    -3121    -3029    -2937    -2844    -2744    -2644    -2550 
   -2451    -2347    -2246    -2144    -2039    -1934    -1833    -1737 
   -1636    -1535    -1441    -1351    -1260    -1169    -1081     -999 
    -909     -826     -747     -672     -600     -530     -463     -398 
    -333     -266     -206     -151     -101      -54      -14       18 
      47       72       94      110      125      136      137      137 
     139      133      121      109       94       79       63       45 
      25        5      -13      -37      -60      -79      -98     -116 
    -133     -153     -171     -184     -203     -225     -248     -272 
    -299     -326     -355     -383     -413     -442     -472     -506 
    -540     -573     -611     -648     -680     -720     -765     -807 
    -846     -886     -927     -970    -1012    -1059    -1111    -1161 
   -1206    -1254    -1302    -1344    -1383    -1431    -1476    -1517 
   -1563    -1609    -1649    -1695    -1738    -1772    -1804    -1830 
   -1852    -1875    -1888    -1902    -1915    -1918    -1918    -1915 
   -1904    -1895    -1884    -1873    -1867    -1854    -1848    -1846 
   -1841    -1837    -1833    -1833    -1833    -1837    -1848    -1859 
   -1871    -1894    -1915    -1935    -1962    -1987    -2008    -2038 
   -2066    -2096    -2124    -2144    -2162    -2181    -2200    -2215 
   -2227    -2238    -2245    -2246    -2245    -2239    -2228    -2220 
   -2209    -2192    -2174    -2155    -2135    -2107    -2072    -2037 
   -1995    -1946    -1895    -1840    -1776    -1711    -1642    -1571 
   -1498    -1429    -1355    -1277    -1205    -1133    -1058     -992 
    -932     -873     -816     -769     -726     -689     -654     -622 
    -592     -562     -537     -519     -502     -487     -479     -468 
    -456     -448     -440     -427     -419     -411     -403     -396 
    -386     -372     -356     -340     -328     -318     -303     -287 
    -270     -249     -229     -209     -189     -172     -162     -148 
    -137     -129     -118     -105      -94      -89      -85      -81 
     -81      -89      -97     -103     -116     -131     -151     -174 
    -205     -244     -287     -334     -388     -450     -517     -584 
    -657     -735     -814     -890     -970    -1050    -1132    -1212 
   -1291    -1371    -1448    -1525    -1605    -1683    -1764    -1844 
   -1919    -1998    -2077    -2157    -2236    -2319    -2401    -2478 
   -2555    -2639    -2724    -2808    -2889    -2967    -3046    -3123 
   -3204    -3284    -3355    -3419    -3478    -3530    -3578    -3624 
   -3665    -3700    -3728    -3748    -3763    -3771    -3769    -3761 
   -3747    -3727    -3704    -3670    -3626    -3580    -3527    -3461 
   -3384    -3302    -3215    -3121    -3017    -2906    -2787    -2662 
   -2528    -2393    -2251    -2104    -1954    -1802    -1645    -1491 
   -1334    -1178    -1030     -881     -731     -581     -425     -263 
    -105       54      216      370      521      670      816      953 
    1086     1219     1348     1478     1610     1733     1841     1942 
    2037     2123     2201     2277     2346     2408     2463     2511 
    2546     2571     2587     2596     2597     2594     2584     2565 
    2538     2501     2459     2413     2361     2303     2243     2178 
    2111     2043     1972     1896     1822     1746     1665     1586 
    1509     1431     1356     1281     1198     1121     1043      961 
     877      796      707      616      526      436      346      256 
     163       68      -31     -133     -237     -344     -454     -568 
    -684     -799     -918    -1043    -1166    -1289    -1421    -1553 
   -1679    -1803    -1930    -2056    -2182    -2305    -2423    -2533 
   -2636    -2745    -2853    -2955    -3055    -3157    -3254    -3346 
   -3433    -3516    -3600    -3681    -3757    -3835    -3908    -3973 
   -4036    -4099    -4158    -4212    -4258    -4297    -4329    -4357 
   -4376    -4387    -4388    -4382    -4369    -4349    -4321    -4284 
   -4243    -4203    -4159    -4113    -4068    -4020    -3965    -3909 
   -3848    -3785    -3719    -3655    -3585    -3516    -3451    -3385 
   -3312    -3235    -3163    -3090    -3019    -2960    -2903    -2844 
   -2787    -2737    -2693    -2646    -2602    -2569    -2532    -2500 
   -2475    -2451    -2435    -2425    -2409    -2397    -2401    -2407 
   -2413    -2424    -2434    -2447    -2465    -2482    -2502    -2524 
   -2548    -2578    -2610    -2636    -2660    -2688    -2717    -2744 
   -2775    -2811    -2851    -2891    -2934    -2978    -3018    -3052 
   -3087    -3125    -3157    -3188    -3221    -3258    -3294    -3322 
   -3349    -3369    -3387    -3402    -3412    -3422    -3429    -3433 
   -3431    -3426    -3415    -3400    -3373    -3343    -3310    -3264 
   -3211    -3156    -3094    -3024    -2948    -2868    -2781    -2688 
   -2594    -2496    -2390    -2280    -2165    -2050    -1934    -1817 
   -1698    -1576    -1455    -1334    -1217    -1104     -996     -886 
    -767     -650     -540     -427     -314     -207      -99       11 
     120      228      344      459      566      675      778      877 
     980     1081     1179     1279     1377     1464     1543     1621 
    1703     1779     1850     1926     1996     2053     2111     2163 
    2207     2247     2281     2309     2332     2347     2357     2363 
    2365     2359     2351     2338     2326     2311     2293     2272 
    2251     2228     2201     2170     2135     2096     2049     2001 
    1952     1892     1836     1777     1711     1644     1574     1495 
    1418     1340     1254     1170     1090     1005      918      827 
     735      643      553      467      375      279      183       86 
     -10     -103     -198     -292     -382     -467     -552     -638 
    -727     -818     -908     -997    -1086    -1173    -1259    -1347 
   -1433    -1517    -1606    -1698    -1786    -1868    -1948    -2029 
   -2107    -2182    -2261    -2335    -2405    -2473    -2538    -2606 
   -2678    -2743    -2808    -2876    -2943    -3005    -3068    -3129 
   -3191    -3249    -3306    -3365    -3418    -3466    -3518    -3565 
   -3607    -3646    -3684    -3723    -3759    -3796    -3828    -3859 
   -3888    -3912    -3932    -3951    -3965    -3977    -3983    -3979 
   -3964    -3948    -3928    -3905    -3878    -3848    -3815    -3774 
   -3735    -3692    -3639    -3584    -3527    -3466    -3406    -3336 
   -3261    -3184    -3102    -3017    -2928    -2832    -2733    -2628 
   -2512    -2398    -2286    -2163    -2034    -1907    -1775    -1640 
   -1505    -1366    -1224    -1081     -938     -796     -654     -518 
    -390     -265     -147      -35       68      164      255      334 
     400      456      506      553      594      625      650      669 
     680      680      670      658      637      604      569      526 
     479      425      364      297      224      141       51      -44 
    -149     -256     -367     -487     -614     -745     -882    -1019 
   -1156    -1297    -1436    -1578    -1721    -1857    -1992    -2126 
   -2255    -2384    -2511    -2631    -2755    -2878    -2988    -3099 
   -3208    -3314    -3415    -3518    -3619    -3715    -3807    -3896 
   -3971    -4040    -4116    -4187    -4247    -4302    -4352    -4398 
   -4438    -4473    -4509    -4538    -4564    -4587    -4604    -4625 
   -4642    -4654    -4664    -4671    -4676    -4683    -4687    -4684 
   -4681    -4683    -4677    -4669    -4660    -4645    -4627    -4611 
   -4590    -4561    -4526    -4483    -4438    -4391    -4333    -4270 
   -4200    -4129    -4055    -3974    -3886    -3800    -3704    -3595 
   -3488    -3383    -3269    -3153    -3038    -2922    -2806    -2688 
   -2571    -2455    -2338    -2218    -2101    -1991    -1884    -1780 
   -1686    -1595    -1506    -1417    -1329    -1251    -1175    -1097 
   -1026     -961     -899     -842     -784     -723     -664     -603 
    -545     -488     -427     -363     -301     -237     -176     -121 
     -60        4       60      120      182      243      303      364 
     425      487      540      592      649      704      761      815 
     864      911      954      997     1038     1075     1109     1136 
    1165     1193     1216     1233     1250     1260     1266     1275 
    1285     1289     1293     1291     1282     1271     1258     1243 
    1228     1212     1189     1163     1136     1107     1073     1036 
     996      955      912      868      823      774      728      683 
     631      579      532      488      444      402      368      340 
     311      283      255      228      209      195      183      174 
     160      152      144      135      129      125      122      121 
     116      112      112      110      109      108      108      114 
     117      112      114      120      117      117      122      125 
     129      129      124      120      112       99       90       85 
      72       56       41       23        1      -20      -43      -64 
     -87     -114     -144     -174     -209     -248     -292     -344 
    -394     -446     -508     -572     -631     -693     -757     -820 
    -888     -954    -1017    -1088    -1155    -1223    -1293    -1360 
   -1426    -1497    -1564    -1629    -1694    -1759    -1826    -1898 
   -1965    -2025    -2081    -2138    -2188    -2231    -2272    -2309 
   -2343    -2377    -2405    -2424    -2440    -2454    -2463    -2467 
   -2470    -2470    -2471    -2471    -2459    -2442    -2427    -2403 
   -2370    -2336    -2301    -2259    -2212    -2169    -2121    -2070 
   -2018    -1966    -1910    -1852    -1798    -1741    -1682    -1620 
   -1560    -1498    -1431    -1366    -1298    -1228    -1159    -1092 
   -1023     -953     -890     -832     -772     -712     -649     -584 
    -526     -472     -421     -373     -328     -279     -228     -178 
    -135      -97      -62      -28        4       36       68       95 
     118      141      168      195      221      246      276      303 
     330      361      394      427      456      480      504      525 
     542      558      571      573      573      573      564      546 
     529      503      467      425      376      321      257      189 
     112       32      -47     -137     -230     -328     -429     -531 
    -635     -743     -853     -962    -1067    -1166    -1266    -1366 
   -1463    -1560    -1653    -1738    -1815    -1888    -1958    -2023 
   -2079    -2130    -2185    -2232    -2277    -2323    -2363    -2405 
   -2442    -2474    -2502    -2531    -2552    -2570    -2584    -2596 
   -2602    -2606    -2608    -2598    -2579    -2558    -2531    -2500 
   -2467    -2430    -2392    -2357    -2313    -2267    -2226    -2181 
   -2134    -2084    -2030    -1977    -1922    -1863    -1798    -1734 
   -1672    -1606    -1533    -1457    -1381    -1301    -1220    -1142 
   -1059     -980     -900     -818     -739     -666     -595     -526 
    -471     -418     -368     -330     -301     -274     -256     -251 
    -253     -259     -280     -314     -352     -396     -448     -503 
    -571     -645     -718     -796     -881     -966    -1062    -1166 
   -1271    -1379    -1487    -1601    -1718    -1837    -1958    -2079 
   -2203    -2330    -2459    -2581    -2705    -2835    -2963    -3090 
   -3219    -3346    -3472    -3599    -3724    -3852    -3979    -4104 
   -4228    -4356    -4482    -4604    -4725    -4847    -4966    -5078 
   -5190    -5300    -5409    -5521    -5632    -5740    -5848    -5946 
   -6037    -6129    -6216    -6300    -6378    -6454    -6525    -6590 
   -6650    -6705    -6748    -6785    -6817    -6840    -6860    -6870 
   -6870    -6864    -6845    -6814    -6781    -6736    -6682    -6625 
   -6555    -6471    -6380    -6278    -6170    -6057    -5937    -5817 
   -5691    -5560    -5429    -5292    -5148    -5005    -4860    -4710 
   -4564    -4413    -4260    -4107    -3960    -3819    -3673    -3527 
   -3383    -3238    -3094    -2951    -2810    -2675    -2538    -2403 
   -2274    -2143    -2015    -1894    -1768    -1649    -1541    -1431 
   -1324    -1220    -1120    -1026     -936     -849     -766     -679 
    -591     -514     -437     -355     -276     -201     -125      -52 
      20       89      155      218      278      337      398      454 
     506      556      600      643      684      724      766      803 
     832      862      892      916      936      962      992     1013 
    1034     1059     1081     1097     1119     1136     1146     1155 
    1167     1174     1179     1182     1179     1174     1165     1155 
    1144     1129     1111     1092     1069     1042     1017      989 
     957      922      885      846      803      761      715      665 
     611      557      500      451      403      348      294      243 
     193      143       93       47        4      -43      -87     -128 
    -164     -201     -238     -279     -319     -353     -387     -423 
    -457     -491     -522     -556     -588     -618     -654     -688 
    -718     -746     -766     -787     -805     -824     -845     -857 
    -864     -872     -874     -872     -864     -850     -838     -823 
    -797     -769     -743     -711     -675     -642     -607     -573 
    -545     -511     -476     -445     -413     -382     -349     -313 
    -276     -243     -211     -182     -148     -110      -72      -35 
       4       44       85      121      153      184      218      249 
     276      306      337      364      390      410      432      456 
     479      503      526      542      565      591      611      631 
     654      679      710      743      774      805      838      866 
     893      923      950      978     1007     1030     1055     1081 
    1101     1121     1140     1158     1178     1196     1206     1217 
    1235     1246     1251     1264     1278     1282     1289     1294 
    1290     1286     1282     1277     1264     1246     1221     1196 
    1162     1124     1080     1026      969      908      843      780 
     711      635      558      479      398      318      237      153 
      71       -8      -89     -172     -256     -342     -427     -508 
    -589     -669     -751     -835     -922    -1011    -1101    -1190 
   -1282    -1379    -1475    -1570    -1665    -1763    -1863    -1966 
   -2074    -2182    -2286    -2393    -2500    -2608    -2716    -2825 
   -2938    -3049    -3154    -3260    -3368    -3473    -3578    -3682 
   -3785    -3883    -3974    -4062    -4151    -4238    -4322    -4396 
   -4463    -4523    -4577    -4623    -4669    -4704    -4729    -4753 
   -4772    -4783    -4785    -4781    -4773    -4761    -4742    -4720 
   -4695    -4660    -4625    -4585    -4537    -4487    -4434    -4374 
   -4313    -4251    -4183    -4117    -4044    -3963    -3882    -3798 
   -3708    -3615    -3520    -3422    -3329    -3231    -3130    -3029 
   -2930    -2835    -2740    -2646    -2554    -2461    -2374    -2292 
   -2208    -2121    -2041    -1961    -1878    -1800    -1732    -1661 
   -1595    -1534    -1470    -1405    -1348    -1293    -1239    -1188 
   -1139    -1090    -1039     -990     -943     -897     -855     -820 
    -788     -761     -734     -702     -680     -665     -652     -641 
    -637     -637     -637     -639     -643     -650     -661     -679 
    -695     -711     -733     -757     -781     -815     -853     -885 
    -922     -962    -1007    -1048    -1092    -1138    -1183    -1229 
   -1275    -1317    -1360    -1405    -1448    -1489    -1534    -1576 
   -1620    -1667    -1713    -1757    -1802    -1846    -1895    -1938 
   -1980    -2026    -2068    -2111    -2161    -2204    -2249    -2296 
   -2338    -2380    -2425    -2470    -2508    -2546    -2584    -2619 
   -2647    -2674    -2702    -2721    -2737    -2755    -2764    -2768 
   -2772    -2772    -2766    -2759    -2754    -2744    -2731    -2716 
   -2701    -2683    -2664    -2647    -2635    -2621    -2602    -2581 
   -2565    -2552    -2538    -2520    -2506    -2497    -2489    -2478 
   -2467    -2461    -2457    -2452    -2451    -2451    -2446    -2439 
   -2434    -2428    -2420    -2415    -2413    -2413    -2415    -2408 
   -2397    -2388    -2380    -2373    -2373    -2374    -2374    -2371 
   -2367    -2369    -2373    -2374    -2381    -2389    -2396    -2409 
   -2427    -2438    -2450    -2459    -2461    -2470    -2484    -2489 
   -2493    -2498    -2498    -2497    -2496    -2497    -2501    -2502 
   -2500    -2494    -2489    -2484    -2475    -2469    -2465    -2458 
   -2451    -2444    -2438    -2434    -2431    -2425    -2423    -2425 
   -2430    -2430    -2425    -2430    -2436    -2438    -2442    -2448 
   -2447    -2448    -2454    -2450    -2440    -2435    -2427    -2413 
   -2403    -2386    -2362    -2332    -2299    -2259    -2223    -2187 
   -2142    -2092    -2042    -1989    -1930    -1871    -1809    -1745 
   -1680    -1606    -1534    -1462    -1387    -1314    -1243    -1166 
   -1078     -981     -896     -828     -758     -670     -577     -492 
    -415     -344     -272     -197     -124      -60        0       54 
     102      148      193      232      266      301      325      340 
     353      365      376      380      380      373      360      352 
     348      337      315      288      259      237      212      182 
     148      117       86       54       17      -18      -54      -89 
