Origin Time       2016/04/16 01:25:00
Lat.              32.753
Long.             130.762
Depth. (km)       12
Mag.              7.3
Station Code      OSK010
Station Lat.      34.3755
Station Long.     135.2549
Station Height(m) 3
Record Time       2016/04/16 01:27:20
Sampling Freq(Hz) 100Hz
Duration Time(s)  73
Dir.              N-S
Scale Factor      7845(gal)/8223790
Max. Acc. (gal)   4.102
Last Correction   2016/04/16 01:27:23
Memo.             
[...]
   -5817    -5841    -5831    -5840    -5892    -5945    -5979    -6016 
   -6070    -6124    -6170    -6201    -6205    -6188    -6154    -6124 
   -6115    -6119    -6091    -6023    -5960    -5938    -5952    -5977 
   -5989    -5965    -5934    -5937    -5980    -6046    -6091    -6080 
   -6034    -5994    -6000    -6058    -6104    -6083    -6018    -5971 
   -5953    -5940    -5923    -5902    -5863    -5805    -5760    -5764 
   -5798    -5815    -5810    -5814    -5825    -5829    -5836    -5850 
   -5879    -5923    -5952    -5952    -5957    -5996    -6053    -6087 
   -6069    -6022    -5981    -5964    -5968    -5973    -5956    -5911 
   -5854    -5814    -5803    -5792    -5751    -5689    -5638    -5630 
   -5670    -5714    -5725    -5711    -5702    -5719    -5768    -5815 
   -5823    -5802    -5784    -5791    -5827    -5879    -5907    -5906 
   -5890    -5863    -5842    -5838    -5829    -5790    -5730    -5694 
   -5707    -5725    -5719    -5725    -5764    -5810    -5830    -5842 
   -5880    -5929    -5950    -5945    -5929    -5914    -5915    -5925 
   -5931    -5934    -5925    -5895    -5869    -5864    -5857    -5827 
   -5793    -5760    -5698    -5629    -5590    -5574    -5557    -5537 
   -5510    -5495    -5491    -5483    -5483    -5497    -5506    -5519 
   -5548    -5570    -5576    -5587    -5590    -5567    -5530    -5513 
   -5512    -5509    -5506    -5509    -5495    -5455    -5417    -5417 
   -5447    -5466    -5466    -5481    -5503    -5501    -5491    -5487 
   -5476    -5487    -5532    -5564    -5551    -5516    -5503    -5524 
   -5547    -5547    -5549    -5590    -5629    -5611    -5560    -5551 
   -5599    -5656    -5694    -5713    -5715    -5717    -5717    -5701 
   -5652    -5587    -5563    -5590    -5614    -5605    -5593    -5601 
   -5623    -5656    -5683    -5698    -5714    -5749    -5810    -5864 
   -5883    -5881    -5861    -5833    -5834    -5860    -5871    -5842 
   -5782    -5736    -5706    -5665    -5643    -5656    -5676    -5684 
   -5688    -5706    -5756    -5813    -5831    -5833    -5850    -5864 
   -5875    -5913    -5958    -5977    -5954    -5904    -5871    -5867 
   -5848    -5790    -5755    -5772    -5780    -5755    -5725    -5709 
   -5697    -5694    -5702    -5711    -5736    -5773    -5780    -5765 
   -5768    -5773    -5767    -5760    -5784    -5840    -5891    -5914 
   -5911    -5863    -5796    -5796    -5864    -5915    -5923    -5923 
   -5918    -5890    -5844    -5791    -5751    -5726    -5702    -5674 
   -5656    -5651    -5640    -5633    -5634    -5594    -5498    -5445 
   -5471    -5512    -5533    -5548    -5560    -5560    -5555    -5582 
   -5649    -5687    -5659    -5618    -5614    -5638    -5661    -5656 
   -5613    -5555    -5524    -5525    -5547    -5564    -5545    -5510 
   -5493    -5493    -5516    -5547    -5547    -5513    -5486    -5483 
   -5505    -5536    -5560    -5572    -5583    -5603    -5629    -5674 
   -5740    -5786    -5798    -5819    -5869    -5952    -6053    -6126 
   -6158    -6192    -6242    -6292    -6345    -6396    -6413    -6400 
   -6389    -6396    -6417    -6434    -6427    -6412    -6386    -6346 
   -6318    -6315    -6322    -6312    -6288    -6269    -6262    -6258 
   -6243    -6211    -6173    -6148    -6131    -6115    -6118    -6119 
   -6088    -6039    -5999    -5954    -5910    -5877    -5845    -5814 
   -5790    -5749    -5702    -5687    -5706    -5726    -5738    -5740 
   -5734    -5724    -5729    -5782    -5859    -5890    -5852    -5811 
   -5844    -5925    -5984    -6012    -6019    -5994    -5967    -5971 
   -5991    -5985    -5940    -5914    -5935    -5940    -5880    -5792 
   -5744    -5741    -5732    -5694    -5655    -5614    -5563    -5499 
   -5452    -5456    -5467    -5440    -5421    -5433    -5443    -5448 
   -5468    -5512    -5566    -5590    -5597    -5633    -5701    -5745 
   -5757    -5772    -5798    -5830    -5861    -5883    -5906    -5923 
   -5913    -5902    -5918    -5894    -5818    -5744    -5694    -5687 
   -5698    -5661    -5595    -5552    -5532    -5519    -5532    -5552 
   -5555    -5563    -5616    -5689    -5745    -5771    -5775    -5790 
   -5814    -5825    -5846    -5896    -5921    -5896    -5846    -5787 
   -5746    -5730    -5703    -5653    -5585    -5508    -5437    -5375 
   -5352    -5393    -5427    -5391    -5352    -5358    -5382    -5417 
   -5455    -5478    -5495    -5487    -5441    -5421    -5451    -5478 
   -5498    -5532    -5544    -5502    -5437    -5391    -5383    -5395 
   -5391    -5386    -5405    -5425    -5416    -5367    -5312    -5309 
   -5379    -5481    -5555    -5562    -5517    -5468    -5443    -5481 
   -5580    -5640    -5576    -5421    -5270    -5194    -5184    -5196 
   -5211    -5200    -5128    -5009    -4892    -4822    -4811    -4849 
   -4914    -4958    -4946    -4916    -4916    -4946    -4989    -5027 
   -5055    -5093    -5143    -5182    -5220    -5258    -5289    -5336 
   -5410    -5486    -5552    -5616    -5675    -5742    -5822    -5879 
   -5906    -5937    -5991    -6058    -6118    -6148    -6162    -6191 
   -6226    -6242    -6259    -6299    -6322    -6318    -6335    -6392 
   -6446    -6465    -6473    -6507    -6542    -6538    -6509    -6517 
   -6593    -6698    -6770    -6786    -6770    -6764    -6790    -6831 
   -6878    -6943    -6994    -6993    -6945    -6881    -6844    -6856 
   -6876    -6885    -6901    -6897    -6837    -6764    -6728    -6720 
   -6717    -6721    -6702    -6650    -6620    -6624    -6615    -6577 
   -6544    -6544    -6555    -6520    -6451    -6415    -6417    -6411 
   -6358    -6280    -6226    -6199    -6161    -6104    -6030    -5948 
   -5888    -5872    -5864    -5822    -5757    -5726    -5725    -5706 
   -5663    -5614    -5575    -5552    -5552    -5571    -5579    -5570 
   -5541    -5489    -5441    -5424    -5412    -5379    -5335    -5294 
   -5273    -5266    -5262    -5271    -5301    -5336    -5360    -5374 
   -5390    -5424    -5460    -5487    -5509    -5532    -5567    -5606 
   -5623    -5618    -5614    -5623    -5656    -5697    -5729    -5768 
   -5807    -5818    -5792    -5771    -5792    -5856    -5929    -5968 
   -5956    -5930    -5929    -5946    -5967    -5973    -5958    -5944 
   -5964    -6019    -6068    -6073    -6043    -5999    -5965    -5979 
   -6049    -6124    -6154    -6151    -6156    -6184    -6214    -6228 
   -6223    -6205    -6203    -6216    -6219    -6207    -6174    -6137 
   -6122    -6129    -6129    -6103    -6035    -5942    -5849    -5775 
   -5725    -5679    -5622    -5545    -5443    -5359    -5314    -5275 
   -5208    -5127    -5055    -4968    -4857    -4770    -4743    -4734 
   -4693    -4649    -4627    -4619    -4629    -4644    -4648    -4653 
   -4657    -4656    -4671    -4706    -4743    -4796    -4862    -4903 
   -4901    -4891    -4908    -4954    -4997    -5011    -4976    -4922 
   -4920    -5000    -5105    -5159    -5134    -5078    -5057    -5081 
   -5139    -5193    -5182    -5127    -5139    -5255    -5382    -5443 
   -5435    -5413    -5441    -5509    -5549    -5562    -5578    -5603 
   -5636    -5676    -5718    -5752    -5757    -5730    -5701    -5707 
   -5757    -5810    -5819    -5802    -5780    -5767    -5775    -5788 
   -5793    -5796    -5787    -5763    -5744    -5738    -5741    -5749 
   -5772    -5813    -5860    -5902    -5931    -5962    -5998    -6023 
   -6043    -6076    -6115    -6143    -6169    -6214    -6274    -6323 
   -6353    -6372    -6397    -6413    -6411    -6426    -6475    -6534 
   -6571    -6601    -6637    -6681    -6728    -6774    -6828    -6890 
   -6926    -6921    -6902    -6912    -6961    -7028    -7074    -7082 
   -7065    -7048    -7036    -7037    -7041    -7028    -7022    -7040 
   -7056    -7063    -7068    -7060    -7048    -7067    -7117    -7145 
   -7119    -7056    -7014    -7033    -7084    -7123    -7132    -7122 
   -7113    -7121    -7132    -7111    -7051    -6995    -6967    -6932 
   -6872    -6810    -6756    -6702    -6625    -6524    -6435    -6380 
   -6326    -6257    -6183    -6102    -6031    -5996    -5973    -5930 
   -5876    -5809    -5737    -5697    -5683    -5671    -5656    -5634 
   -5606    -5582    -5563    -5545    -5535    -5535    -5529    -5517 
   -5521    -5541    -5541    -5517    -5493    -5481    -5491    -5522 
   -5552    -5566    -5563    -5552    -5545    -5557    -5583    -5603 
   -5620    -5638    -5661    -5676    -5671    -5653    -5656    -5675 
   -5675    -5665    -5660    -5659    -5670    -5692    -5702    -5692 
   -5694    -5717    -5729    -5719    -5692    -5661    -5661    -5686 
   -5691    -5680    -5672    -5651    -5606    -5552    -5508    -5474 
   -5443    -5405    -5371    -5374    -5402    -5420    -5421    -5417 
   -5418    -5420    -5414    -5412    -5424    -5422    -5395    -5371 
   -5370    -5374    -5370    -5362    -5339    -5298    -5258    -5232 
   -5212    -5189    -5158    -5116    -5071    -5038    -5005    -4978 
   -4977    -4993    -5004    -5008    -5004    -4996    -5000    -5009 
   -5005    -4993    -4992    -5001    -5019    -5034    -5023    -4989 
   -4963    -4955    -4972    -4984    -4969    -4938    -4912    -4893 
   -4878    -4872    -4877    -4884    -4874    -4860    -4855    -4854 
   -4852    -4860    -4876    -4899    -4931    -4976    -5024    -5055 
   -5065    -5065    -5080    -5108    -5138    -5169    -5201    -5212 
   -5217    -5242    -5285    -5336    -5390    -5437    -5471    -5508 
   -5567    -5643    -5709    -5753    -5780    -5806    -5838    -5880 
   -5927    -5973    -6012    -6038    -6050    -6044    -6029    -6006 
   -5984    -5968    -5952    -5919    -5884    -5863    -5842    -5817 
   -5790    -5783    -5817    -5877    -5918    -5935    -5976    -6054 
   -6145    -6216    -6255    -6297    -6366    -6427    -6457    -6465 
   -6462    -6450    -6436    -6416    -6392    -6373    -6345    -6299 
   -6226    -6124    -6019    -5931    -5864    -5809    -5738    -5664 
   -5590    -5517    -5443    -5371    -5304    -5248    -5217    -5208 
   -5193    -5161    -5124    -5093    -5086    -5100    -5103    -5070 
   -5035    -5047    -5103    -5157    -5181    -5192    -5220    -5275 
   -5346    -5421    -5478    -5503    -5512    -5543    -5617    -5697 
   -5741    -5767    -5803    -5852    -5886    -5899    -5923    -5973 
   -6034    -6102    -6165    -6205    -6234    -6288    -6354    -6400 
   -6423    -6436    -6463    -6517    -6563    -6579    -6592    -6623 
   -6660    -6691    -6711    -6731    -6764    -6828    -6901    -6951 
   -6985    -7025    -7065    -7110    -7167    -7223    -7257    -7267 
   -7261    -7241    -7218    -7222    -7252    -7273    -7268    -7250 
   -7230    -7214    -7209    -7203    -7188    -7177    -7149    -7088 
   -7033    -6983    -6906    -6833    -6797    -6775    -6748    -6714 
   -6660    -6597    -6564    -6562    -6582    -6621    -6666    -6702 
   -6725    -6732    -6743    -6775    -6818    -6864    -6905    -6932 
   -6951    -6967    -6985    -7006    -7021    -7021    -7011    -7018 
   -7037    -7032    -7010    -6988    -6952    -6907    -6890    -6905 
   -6921    -6909    -6866    -6813    -6777    -6770    -6777    -6777 
   -6775    -6786    -6814    -6858    -6902    -6939    -6960    -6957 
   -6947    -6957    -6999    -7069    -7137    -7160    -7149    -7141 
   -7148    -7172    -7203    -7215    -7191    -7141    -7098    -7071 
   -7038    -7006    -6978    -6924    -6841    -6751    -6666    -6596 
   -6539    -6467    -6374    -6282    -6214    -6168    -6123    -6053 
   -5950    -5849    -5782    -5737    -5680    -5590    -5481    -5364 
   -5250    -5123    -4984    -4866    -4784    -4710    -4619    -4511 
   -4405    -4307    -4209    -4105    -4014    -3940    -3867    -3808 
   -3770    -3717    -3639    -3570    -3532    -3511    -3492    -3465 
   -3429    -3385    -3335    -3284    -3250    -3235    -3217    -3173 
   -3111    -3052    -3006    -2971    -2929    -2874    -2820    -2759 
   -2681    -2593    -2502    -2416    -2340    -2254    -2141    -2026 
   -1939    -1890    -1863    -1833    -1776    -1706    -1671    -1682 
   -1710    -1740    -1776    -1826    -1884    -1945    -2011    -2088 
   -2177    -2272    -2371    -2477    -2577    -2678    -2801    -2934 
   -3059    -3172    -3292    -3433    -3588    -3744    -3889    -4028 
   -4172    -4322    -4459    -4568    -4672    -4789    -4915    -5027 
   -5119    -5193    -5256    -5316    -5375    -5425    -5459    -5478 
   -5481    -5479    -5472    -5460    -5447    -5435    -5406    -5355 
   -5298    -5258    -5235    -5225    -5215    -5202    -5177    -5142 
   -5130    -5151    -5190    -5220    -5239    -5256    -5275    -5300 
   -5336    -5382    -5428    -5462    -5489    -5513    -5532    -5541 
   -5549    -5567    -5594    -5625    -5655    -5671    -5675    -5699 
   -5753    -5815    -5867    -5915    -5975    -6041    -6106    -6168 
   -6234    -6301    -6361    -6411    -6455    -6511    -6575    -6631 
   -6683    -6737    -6779    -6810    -6852    -6913    -6966    -6995 
   -7030    -7098    -7173    -7236    -7294    -7352    -7414    -7497 
   -7592    -7684    -7786    -7897    -8002    -8110    -8233    -8364 
   -8492    -8617    -8743    -8877    -9004    -9117    -9242    -9375 
   -9486    -9576    -9667    -9753    -9826    -9869    -9898    -9936 
   -9971    -9995   -10026   -10050   -10034    -9991    -9957    -9944 
   -9931    -9913    -9896    -9879    -9865    -9849    -9841    -9860 
   -9883    -9884    -9890    -9907    -9918    -9929    -9941    -9946 
   -9940    -9907    -9871    -9844    -9807    -9749    -9664    -9566 
   -9468    -9375    -9289    -9186    -9069    -8962    -8842    -8698 
   -8556    -8411    -8253    -8089    -7915    -7734    -7550    -7360 
   -7169    -6990    -6824    -6664    -6488    -6308    -6172    -6068 
   -5968    -5869    -5765    -5652    -5533    -5428    -5339    -5243 
   -5127    -5012    -4926    -4842    -4741    -4635    -4534    -4441 
   -4363    -4270    -4149    -4031    -3931    -3840    -3759    -3692 
   -3634    -3596    -3586    -3570    -3530    -3496    -3487    -3487 
   -3481    -3461    -3439    -3420    -3388    -3348    -3296    -3227 
   -3153    -3115    -3095    -3044    -2964    -2874    -2781    -2704 
   -2650    -2616    -2605    -2604    -2601    -2608    -2625    -2651 
   -2682    -2728    -2791    -2857    -2928    -3013    -3102    -3203 
   -3321    -3419    -3508    -3618    -3734    -3836    -3935    -4025 
   -4107    -4183    -4255    -4314    -4344    -4340    -4318    -4305 
   -4318    -4337    -4336    -4314    -4274    -4225    -4190    -4170 
   -4139    -4077    -4008    -3977    -3987    -3991    -3944    -3874 
   -3831    -3808    -3785    -3762    -3727    -3677    -3628    -3591 
   -3570    -3568    -3543    -3495    -3462    -3446    -3431    -3423 
   -3412    -3391    -3369    -3352    -3345    -3373    -3400    -3366 
   -3287    -3226    -3204    -3206    -3194    -3152    -3094    -3038 
   -2986    -2947    -2929    -2918    -2909    -2914    -2926    -2937 
   -2974    -3046    -3137    -3213    -3273    -3350    -3458    -3585 
   -3707    -3817    -3924    -4041    -4178    -4317    -4448    -4565 
   -4665    -4761    -4874    -5004    -5135    -5247    -5328    -5395 
   -5460    -5521    -5580    -5638    -5676    -5697    -5718    -5742 
   -5771    -5791    -5784    -5765    -5752    -5732    -5709    -5703 
   -5719    -5737    -5745    -5751    -5771    -5831    -5946    -6091 
   -6228    -6338    -6440    -6579    -6767    -6961    -7134    -7285 
   -7422    -7560    -7712    -7871    -8021    -8154    -8263    -8355 
   -8446    -8559    -8679    -8775    -8838    -8878    -8910    -8945 
   -8986    -9030    -9057    -9054    -9038    -9038    -9059    -9074 
   -9067    -9045    -9015    -8981    -8950    -8915    -8870    -8830 
   -8789    -8738    -8673    -8604    -8540    -8484    -8426    -8378 
   -8329    -8268    -8198    -8133    -8068    -7997    -7931    -7871 
   -7804    -7723    -7636    -7542    -7450    -7361    -7271    -7184 
   -7106    -7032    -6956    -6868    -6764    -6670    -6593    -6519 
   -6421    -6303    -6195    -6099    -5994    -5869    -5734    -5594 
   -5447    -5298    -5159    -5016    -4852    -4677    -4506    -4345 
   -4195    -4058    -3931    -3815    -3704    -3596    -3505    -3447 
   -3415    -3397    -3391    -3410    -3458    -3526    -3600    -3677 
   -3766    -3869    -3981    -4113    -4268    -4419    -4533    -4622 
   -4720    -4814    -4888    -4961    -5043    -5111    -5152    -5186 
   -5235    -5293    -5327    -5320    -5312    -5327    -5343    -5348 
   -5351    -5341    -5314    -5292    -5293    -5305    -5308    -5289 
   -5273    -5281    -5300    -5317    -5336    -5348    -5346    -5327 
   -5287    -5240    -5198    -5155    -5086    -4999    -4905    -4791 
   -4649    -4506    -4372    -4238    -4090    -3925    -3765    -3627 
   -3497    -3350    -3194    -3037    -2884    -2751    -2636    -2531 
   -2408    -2280    -2180    -2123    -2093    -2053    -2011    -1992 
   -2000    -2019    -2056    -2111    -2178    -2253    -2358    -2488 
   -2606    -2718    -2841    -2986    -3156    -3327    -3489    -3658 
   -3842    -4020    -4192    -4364    -4526    -4684    -4846    -5000 
   -5134    -5246    -5348    -5451    -5549    -5637    -5705    -5764 
   -5830    -5896    -5968    -6048    -6114    -6172    -6231    -6295 
   -6367    -6453    -6521    -6559    -6590    -6644    -6727    -6832 
   -6930    -6995    -7036    -7075    -7129    -7202    -7271    -7318 
   -7352    -7392    -7435    -7464    -7487    -7501    -7504    -7507 
   -7503    -7489    -7482    -7469    -7444    -7422    -7396    -7362 
   -7337    -7317    -7272    -7206    -7141    -7091    -7053    -7009 
   -6955    -6903    -6853    -6801    -6744    -6696    -6654    -6598 
   -6542    -6504    -6492    -6504    -6509    -6484    -6444    -6417 
   -6401    -6399    -6419    -6426    -6394    -6353    -6320    -6297 
   -6274    -6235    -6178    -6137    -6106    -6049    -5987    -5952 
   -5931    -5904    -5872    -5848    -5825    -5793    -5760    -5741 
   -5727    -5698    -5660    -5645    -5640    -5611    -5555    -5486 
   -5416    -5355    -5298    -5239    -5177    -5109    -5035    -4968 
   -4920    -4880    -4838    -4801    -4776    -4766    -4772    -4789 
   -4818    -4864    -4922    -4984    -5055    -5131    -5209    -5294 
   -5395    -5514    -5634    -5736    -5826    -5933    -6043    -6112 
   -6137    -6154    -6174    -6188    -6210    -6250    -6269    -6230 
   -6146    -6073    -6039    -6015    -5971    -5907    -5830    -5736 
   -5630    -5557    -5522    -5472    -5397    -5329    -5285    -5267 
   -5265    -5268    -5283    -5316    -5356    -5400    -5456    -5524 
   -5597    -5663    -5709    -5737    -5775    -5830    -5884    -5921 
   -5927    -5899    -5853    -5821    -5806    -5780    -5706    -5578 
   -5437    -5316    -5201    -5076    -4927    -4748    -4549    -4360 
   -4200    -4055    -3897    -3723    -3543    -3373    -3235    -3140 
   -3064    -2984    -2893    -2813    -2775    -2781    -2805    -2830 
