Origin Time       2016/04/16 01:25:00
Lat.              32.753
Long.             130.762
Depth. (km)       12
Mag.              7.3
Station Code      OSK008
Station Lat.      34.4402
Station Long.     135.3917
Station Height(m) 10
Record Time       2016/04/16 01:26:37
Sampling Freq(Hz) 100Hz
Duration Time(s)  158
Dir.              E-W
Scale Factor      7845(gal)/8223790
Max. Acc. (gal)   4.554
Last Correction   2016/04/16 01:26:38
Memo.             
[...]
    2299     2342     2382     2416     2446     2474     2501     2515 
    2517     2524     2527     2513     2497     2482     2459     2439 
    2423     2405     2384     2365     2353     2351     2349     2347 
    2351     2353     2349     2343     2342     2340     2332     2322 
    2313     2300     2286     2278     2269     2255     2245     2236 
    2224     2208     2193     2173     2142     2107     2074     2031 
    1975     1917     1852     1783     1711     1632     1545     1460 
    1379     1300     1227     1155     1085     1031      997      970 
     949      942      946      954      973     1000     1030     1060 
    1086     1112     1142     1165     1183     1209     1225     1230 
    1232     1227     1216     1215     1219     1215     1201     1192 
    1189     1188     1185     1183     1185     1196     1220     1256 
    1290     1324     1366     1416     1472     1539     1606     1675 
    1745     1825     1907     1982     2062     2146     2219     2289 
    2357     2411     2457     2504     2548     2583     2605     2623 
    2646     2666     2674     2687     2714     2736     2744     2751 
    2764     2778     2782     2778     2767     2749     2721     2693 
    2659     2609     2559     2513     2461     2411     2363     2307 
    2251     2203     2154     2107     2061     2016     1973     1937 
    1902     1871     1844     1821     1799     1781     1769     1764 
    1763     1765     1777     1794     1809     1833     1871     1914 
    1953     1995     2047     2101     2155     2218     2277     2328 
    2390     2452     2502     2550     2594     2633     2667     2701 
    2736     2767     2792     2818     2848     2878     2899     2920 
    2941     2960     2975     2984     2988     2991     2991     2986 
    2978     2961     2947     2933     2914     2891     2871     2857 
    2843     2832     2826     2816     2806     2808     2806     2801 
    2797     2792     2778     2759     2740     2721     2702     2685 
    2667     2648     2640     2633     2624     2623     2621     2619 
    2623     2625     2619     2612     2605     2590     2578     2565 
    2544     2516     2485     2451     2413     2370     2319     2262 
    2204     2141     2077     2022     1964     1904     1852     1802 
    1757     1717     1676     1638     1606     1571     1537     1507 
    1476     1443     1405     1372     1340     1306     1279     1254 
    1223     1193     1163     1129     1100     1077     1053     1031 
    1009      993      980      966      962      967      974      981 
     999     1028     1060     1092     1136     1190     1240     1291 
    1347     1402     1455     1501     1540     1575     1606     1634 
    1656     1676     1694     1707     1726     1748     1765     1780 
    1799     1818     1833     1850     1865     1883     1906     1925 
    1944     1964     1980     2007     2041     2077     2118     2161 
    2205     2262     2319     2380     2450     2524     2598     2683 
    2771     2856     2944     3032     3115     3194     3267     3331 
    3388     3443     3496     3538     3569     3601     3630     3653 
    3677     3693     3703     3716     3728     3736     3744     3748 
    3746     3744     3746     3736     3721     3708     3684     3640 
    3597     3555     3496     3423     3352     3276     3188     3099 
    3009     2905     2795     2687     2574     2459     2346     2228 
    2111     1998     1885     1783     1682     1580     1493     1416 
    1334     1267     1216     1165     1121     1090     1060     1039 
    1026     1016     1009     1009     1012     1016     1017     1020 
    1019     1015     1007      990      967      943      909      869 
     824      769      708      643      572      499      425      344 
     270      205      139       75       27      -16      -55      -81 
     -98     -112     -114     -106      -91      -70      -45      -16 
      25       70      114      167      221      280      344      414 
     490      568      646      730      816      897      985     1084 
    1182     1278     1374     1468     1559     1658     1764     1864 
    1956     2052     2146     2234     2319     2409     2496     2562 
    2619     2677     2728     2766     2791     2810     2816     2813 
    2817     2811     2792     2778     2767     2752     2743     2737 
    2737     2740     2747     2759     2787     2814     2835     2859 
    2889     2917     2943     2964     2984     3006     3025     3042 
    3065     3088     3107     3130     3154     3175     3200     3226 
    3249     3277     3302     3319     3339     3364     3391     3415 
    3439     3470     3503     3530     3559     3592     3615     3636 
    3655     3676     3693     3699     3699     3701     3696     3677 
    3653     3626     3588     3541     3484     3415     3341     3254 
    3160     3063     2961     2852     2743     2640     2528     2409 
    2297     2188     2079     1980     1880     1773     1676     1590 
    1509     1431     1355     1287     1227     1170     1127     1097 
    1073     1055     1050     1053     1067     1090     1123     1162 
    1210     1256     1298     1350     1404     1451     1494     1535 
    1576     1618     1663     1703     1746     1798     1852     1911 
    1979     2042     2104     2172     2242     2309     2366     2412 
    2457     2496     2521     2536     2548     2543     2528     2515 
    2500     2478     2450     2413     2371     2332     2286     2235 
    2180     2118     2049     1977     1900     1819     1734     1649 
    1564     1478     1389     1302     1217     1135     1059      990 
     922      853      792      735      679      627      583      538 
     492      456      429      405      378      355      342      333 
     329      332      336      338      352      370      388      406 
     430      453      475      499      522      537      553      576 
     594      612      645      680      718      761      810      874 
     946     1011     1081     1163     1250     1340     1431     1522 
    1620     1721     1823     1926     2031     2135     2232     2328 
    2420     2502     2582     2660     2732     2798     2860     2907 
    2949     2992     3025     3048     3068     3080     3083     3078 
    3056     3024     2997     2967     2928     2879     2820     2759 
    2701     2636     2573     2509     2444     2382     2323     2263 
    2209     2160     2106     2050     2001     1956     1907     1859 
    1817     1771     1723     1684     1648     1603     1566     1539 
    1502     1462     1431     1397     1362     1332     1301     1267 
    1233     1202     1178     1159     1140     1121     1109     1107 
    1113     1125     1140     1158     1183     1210     1235     1260 
    1285     1305     1325     1343     1362     1379     1393     1409 
    1431     1457     1483     1509     1540     1572     1603     1638 
    1675     1709     1741     1779     1821     1863     1907     1949 
    2000     2060     2119     2177     2238     2305     2382     2466 
    2550     2631     2717     2818     2921     3019     3126     3238 
    3350     3462     3581     3707     3828     3950     4068     4183 
    4295     4405     4507     4606     4700     4784     4866     4945 
    5016     5084     5146     5201     5254     5304     5347     5386 
    5420     5451     5481     5502     5514     5519     5517     5505 
    5490     5466     5429     5389     5339     5281     5215     5138 
    5055     4962     4857     4743     4618     4479     4338     4195 
    4043     3879     3712     3551     3388     3217     3049     2891 
    2732     2575     2424     2274     2124     1981     1842     1706 
    1571     1437     1305     1177     1050      924      807      691 
     571      454      346      241      140       43      -45     -129 
    -212     -287     -355     -419     -480     -533     -588     -638 
    -677     -710     -739     -764     -780     -792     -800     -799 
    -796     -789     -774     -762     -757     -747     -738     -734 
    -728     -723     -724     -726     -723     -719     -712     -700 
    -688     -673     -646     -615     -584     -548     -508     -463 
    -414     -365     -318     -271     -222     -175     -126      -74 
     -27       16       60      109      147      180      216      244 
     263      284      309      336      363      394      434      484 
     540      607      687      773      869      973     1085     1210 
    1345     1476     1611     1757     1914     2077     2238     2394 
    2558     2724     2880     3032     3180     3323     3453     3576 
    3694     3801     3893     3977     4048     4104     4152     4195 
    4220     4236     4245     4243     4230     4214     4187     4155 
    4118     4071     4020     3970     3916     3858     3801     3747 
    3696     3649     3604     3557     3511     3472     3433     3395 
    3354     3311     3269     3223     3173     3123     3071     3011 
    2945     2878     2810     2739     2666     2593     2515     2440 
    2373     2305     2236     2169     2107     2045     1982     1921 
    1863     1804     1744     1683     1622     1571     1521     1466 
    1413     1367     1323     1282     1243     1202     1173     1146 
    1121     1104     1094     1089     1090     1098     1112     1131 
    1165     1200     1228     1267     1318     1363     1412     1470 
    1518     1567     1632     1699     1761     1837     1925     2006 
    2089     2201     2316     2415     2532     2663     2783     2915 
    3051     3172     3298     3423     3541     3659     3774     3877 
    3974     4071     4156     4233     4320     4401     4463     4534 
    4618     4683     4750     4839     4918     4985     5070     5151 
    5221     5298     5373     5436     5502     5564     5611     5655 
    5691     5713     5722     5727     5724     5706     5683     5652 
    5613     5562     5503     5443     5373     5297     5216     5130 
    5036     4935     4830     4723     4614     4504     4393     4279 
    4158     4036     3919     3797     3669     3547     3426     3295 
    3164     3038     2909     2774     2640     2504     2362     2218 
    2076     1927     1772     1620     1468     1316     1163     1012 
     859      718      583      451      332      222      120       28 
     -47     -117     -178     -228     -265     -295     -319     -337 
    -351     -360     -365     -369     -375     -382     -392     -407 
    -421     -438     -463     -491     -519     -552     -591     -627 
    -662     -702     -739     -774     -811     -842     -868     -890 
    -907     -918     -923     -919     -903     -882     -854     -818 
    -776     -727     -669     -607     -540     -467     -395     -319 
    -244     -176     -110      -41       20       74      125      175 
     222      270      315      357      396      432      468      506 
     532      553      579      603      611      622      637      645 
     650      660      672      685      697      715      735      753 
     772      796      818      834      846      861      870      872 
     869      862      849      830      808      781      750      715 
     677      637      594      548      498      445      388      332 
     278      224      168      117       79       47       18       -2 
     -10      -11       -5        8       36       65      102      149 
     205      268      340      410      484      566      653      751 
     857      961     1073     1190     1306     1426     1557     1692 
    1821     1948     2076     2208     2340     2469     2596     2727 
    2851     2970     3096     3219     3329     3435     3547     3646 
    3724     3808     3892     3951     4012     4079     4129     4182 
    4247     4302     4357     4430     4498     4564     4649     4729 
    4799     4882     4969     5040     5117     5198     5258     5316 
    5382     5431     5466     5506     5535     5551     5567     5576 
    5576     5576     5576     5570     5566     5568     5571     5570 
    5574     5583     5587     5587     5595     5601     5601     5602 
    5598     5590     5589     5579     5567     5563     5551     5529 
    5516     5502     5479     5452     5422     5383     5347     5306 
    5252     5190     5120     5042     4965     4885     4796     4702 
    4608     4518     4430     4345     4263     4178     4097     4025 
    3959     3894     3835     3776     3726     3678     3634     3596 
    3562     3532     3511     3497     3492     3497     3507     3518 
    3538     3572     3607     3638     3669     3700     3728     3746 
    3755     3761     3753     3730     3696     3658     3615     3568 
    3511     3458     3407     3352     3294     3241     3188     3137 
    3092     3045     2995     2951     2910     2863     2816     2768 
    2724     2677     2624     2571     2520     2466     2407     2338 
    2267     2196     2119     2031     1937     1833     1721     1602 
    1472     1334     1183     1026      872      707      535      373 
     210       41     -120     -276     -427     -572     -719     -864 
    -996    -1125    -1258    -1381    -1498    -1613    -1721    -1822 
   -1922    -2016    -2107    -2196    -2280    -2351    -2424    -2492 
   -2544    -2584    -2619    -2644    -2663    -2681    -2691    -2683 
   -2664    -2648    -2636    -2619    -2596    -2571    -2544    -2521 
   -2496    -2461    -2424    -2393    -2358    -2313    -2263    -2220 
   -2173    -2110    -2043    -1977    -1906    -1826    -1745    -1661 
   -1579    -1489    -1394    -1302    -1212    -1120    -1026     -938 
    -845     -749     -658     -569     -476     -382     -283     -180 
     -81       14      118      225      332      436      542      646 
     745      847      949     1044     1142     1242     1337     1433 
    1533     1632     1726     1822     1918     2015     2116     2222 
    2322     2424     2525     2623     2720     2814     2903     2988 
    3078     3157     3231     3308     3387     3461     3534     3609 
    3686     3762     3838     3910     3983     4055     4122     4189 
    4255     4314     4376     4438     4498     4557     4621     4679 
    4735     4788     4837     4880     4923     4961     4986     5001 
    5009     5013     5009     4989     4958     4922     4876     4820 
    4761     4693     4621     4550     4475     4393     4315     4241 
    4163     4085     4014     3948     3882     3819     3757     3704 
    3659     3618     3577     3544     3523     3497     3477     3472 
    3465     3465     3477     3492     3510     3539     3573     3618 
    3674     3735     3801     3878     3959     4051     4152     4252 
    4357     4464     4576     4693     4812     4932     5051     5167 
    5287     5405     5522     5637     5748     5853     5958     6056 
    6145     6231     6307     6369     6424     6471     6504     6524 
    6535     6531     6512     6481     6442     6389     6331     6262 
    6176     6081     5980     5864     5744     5620     5478     5339 
    5193     5034     4884     4733     4560     4382     4212     4031 
    3834     3634     3435     3230     3019     2805     2592     2384 
    2177     1972     1779     1598     1416     1247     1100      954 
     814      691      579      468      369      284      211      148 
      86       25      -23      -67     -114     -156     -183     -214 
    -252     -287     -318     -348     -378     -407     -437     -467 
    -506     -545     -575     -611     -658     -704     -751     -807 
    -859     -907     -966    -1028    -1084    -1144    -1205    -1258 
   -1310    -1363    -1410    -1456    -1498    -1533    -1561    -1583 
   -1599    -1611    -1611    -1599    -1586    -1566    -1534    -1495 
   -1451    -1401    -1343    -1277    -1206    -1128    -1044     -955 
    -858     -751     -643     -538     -425     -301     -175      -45 
      86      218      355      492      629      767      905     1039 
    1173     1306     1437     1564     1692     1823     1949     2070 
    2195     2313     2430     2550     2666     2776     2882     2986 
    3087     3183     3271     3350     3420     3485     3546     3599 
    3643     3681     3708     3728     3750     3765     3769     3767 
    3769     3767     3757     3747     3732     3717     3705     3689 
    3666     3647     3631     3615     3604     3595     3588     3585 
    3585     3585     3588     3591     3592     3593     3593     3592 
    3589     3586     3581     3574     3566     3553     3535     3520 
    3505     3487     3469     3451     3433     3416     3404     3388 
    3376     3368     3355     3343     3333     3319     3303     3284 
    3256     3223     3191     3152     3107     3057     3002     2945 
    2891     2833     2775     2721     2667     2612     2560     2512 
    2461     2419     2378     2330     2286     2254     2220     2184 
    2151     2115     2072     2029     1991     1949     1895     1836 
    1786     1728     1661     1601     1540     1474     1405     1337 
    1271     1201     1120     1039      965      890      814      739 
     672      610      556      514      476      440      418      406 
     398      405      423      440      461      493      525      560 
     606      649      685      728      776      815      851      886 
     918      943      966      992     1008     1015     1020     1024 
    1021     1012      996      981      967      949      924      899 
     873      841      810      780      741      707      679      648 
     619      592      562      532      510      490      471      451 
     437      423      411      406      402      400      403      411 
     423      438      459      481      506      538      571      612 
     657      702      753      804      850      897      947      994 
    1038     1080     1123     1163     1205     1251     1297     1341 
    1389     1443     1499     1553     1606     1664     1723     1784 
    1845     1908     1971     2030     2091     2150     2205     2258 
    2311     2361     2408     2452     2493     2531     2563     2594 
    2629     2656     2681     2708     2732     2751     2764     2776 
    2791     2806     2818     2832     2847     2862     2880     2902 
    2924     2943     2960     2983     3009     3032     3055     3079 
    3100     3123     3149     3168     3186     3206     3223     3235 
    3249     3261     3271     3284     3296     3306     3319     3331 
    3342     3354     3369     3387     3407     3426     3442     3458 
    3478     3495     3511     3530     3549     3568     3588     3608 
    3631     3661     3693     3728     3766     3807     3854     3902 
    3951     4005     4059     4107     4158     4210     4256     4303 
    4344     4378     4406     4430     4449     4459     4460     4457 
    4448     4426     4399     4367     4329     4286     4230     4171 
    4112     4039     3960     3885     3804     3716     3626     3530 
    3434     3339     3240     3136     3037     2941     2840     2740 
