Origin Time       2016/04/16 01:25:00
Lat.              32.753
Long.             130.762
Depth. (km)       12
Mag.              7.3
Station Code      OSK009
Station Lat.      34.4366
Station Long.     135.5816
Station Height(m) 209
Record Time       2016/04/16 01:27:32
Sampling Freq(Hz) 100Hz
Duration Time(s)  60
Dir.              E-W
Scale Factor      7845(gal)/8223790
Max. Acc. (gal)   1.122
Last Correction   2016/04/16 01:27:34
Memo.             
[...]
   -2697    -2701    -2702    -2705    -2705    -2706    -2705    -2701 
   -2702    -2705    -2708    -2713    -2720    -2727    -2733    -2740 
   -2743    -2748    -2754    -2756    -2759    -2759    -2759    -2759 
   -2762    -2759    -2758    -2759    -2762    -2759    -2759    -2763 
   -2764    -2764    -2766    -2764    -2763    -2766    -2767    -2766 
   -2766    -2764    -2762    -2763    -2764    -2762    -2759    -2759 
   -2756    -2755    -2754    -2747    -2743    -2745    -2747    -2748 
   -2754    -2758    -2767    -2779    -2783    -2786    -2791    -2790 
   -2789    -2790    -2790    -2791    -2795    -2797    -2798    -2801 
   -2802    -2802    -2802    -2801    -2797    -2794    -2791    -2789 
   -2789    -2790    -2791    -2792    -2795    -2795    -2792    -2792 
   -2795    -2797    -2795    -2792    -2792    -2792    -2791    -2791 
   -2791    -2790    -2792    -2794    -2795    -2801    -2805    -2806 
   -2809    -2814    -2821    -2824    -2825    -2829    -2832    -2833 
   -2835    -2832    -2830    -2828    -2828    -2829    -2830    -2830 
   -2832    -2833    -2832    -2832    -2830    -2828    -2825    -2822 
   -2816    -2811    -2810    -2809    -2805    -2801    -2798    -2794 
   -2789    -2783    -2779    -2776    -2772    -2763    -2758    -2758 
   -2754    -2751    -2752    -2748    -2743    -2745    -2743    -2733 
   -2729    -2725    -2716    -2709    -2705    -2700    -2700    -2701 
   -2701    -2705    -2710    -2714    -2717    -2717    -2714    -2713 
   -2716    -2718    -2716    -2712    -2714    -2720    -2718    -2716 
   -2717    -2717    -2713    -2710    -2714    -2716    -2716    -2720 
   -2725    -2727    -2727    -2728    -2732    -2736    -2740    -2740 
   -2744    -2748    -2752    -2759    -2764    -2771    -2776    -2782 
   -2792    -2802    -2803    -2808    -2814    -2814    -2813    -2814 
   -2816    -2817    -2824    -2830    -2835    -2840    -2844    -2847 
   -2844    -2841    -2843    -2844    -2843    -2843    -2844    -2847 
   -2849    -2847    -2847    -2848    -2849    -2849    -2851    -2852 
   -2852    -2852    -2856    -2862    -2863    -2862    -2862    -2863 
   -2866    -2863    -2859    -2859    -2860    -2860    -2863    -2867 
   -2866    -2862    -2863    -2859    -2849    -2841    -2832    -2817 
   -2806    -2801    -2794    -2789    -2786    -2782    -2774    -2767 
   -2758    -2748    -2740    -2732    -2721    -2717    -2717    -2718 
   -2721    -2727    -2732    -2733    -2735    -2737    -2736    -2733 
   -2733    -2736    -2740    -2748    -2752    -2758    -2763    -2767 
   -2771    -2774    -2772    -2771    -2772    -2774    -2775    -2778 
   -2778    -2776    -2776    -2775    -2775    -2774    -2770    -2767 
   -2764    -2759    -2752    -2747    -2744    -2740    -2737    -2739 
   -2744    -2745    -2745    -2744    -2744    -2743    -2740    -2740 
   -2743    -2747    -2756    -2764    -2776    -2791    -2805    -2818 
   -2832    -2843    -2851    -2860    -2866    -2871    -2879    -2884 
   -2889    -2894    -2898    -2905    -2913    -2920    -2926    -2932 
   -2937    -2941    -2945    -2948    -2949    -2949    -2949    -2949 
   -2945    -2936    -2929    -2920    -2911    -2903    -2894    -2889 
   -2882    -2875    -2866    -2857    -2849    -2841    -2830    -2821 
   -2810    -2801    -2790    -2781    -2772    -2766    -2758    -2751 
   -2749    -2748    -2747    -2747    -2743    -2743    -2744    -2740 
   -2740    -2744    -2747    -2748    -2748    -2751    -2752    -2752 
   -2755    -2759    -2763    -2770    -2775    -2779    -2785    -2790 
   -2794    -2792    -2789    -2787    -2790    -2790    -2789    -2790 
   -2791    -2792    -2792    -2792    -2791    -2790    -2791    -2797 
   -2799    -2798    -2798    -2797    -2795    -2795    -2791    -2789 
   -2792    -2797    -2799    -2801    -2802    -2803    -2806    -2806 
   -2805    -2805    -2803    -2805    -2808    -2811    -2813    -2816 
   -2822    -2828    -2828    -2829    -2828    -2826    -2825    -2824 
   -2820    -2817    -2811    -2808    -2803    -2794    -2785    -2781 
   -2775    -2771    -2767    -2758    -2752    -2748    -2737    -2729 
   -2725    -2720    -2712    -2704    -2700    -2697    -2691    -2686 
   -2685    -2685    -2681    -2674    -2674    -2674    -2673    -2673 
   -2673    -2673    -2675    -2675    -2673    -2668    -2666    -2663 
   -2659    -2655    -2654    -2652    -2655    -2659    -2662    -2666 
   -2666    -2664    -2667    -2667    -2666    -2667    -2668    -2669 
   -2671    -2674    -2678    -2681    -2683    -2685    -2683    -2685 
   -2686    -2686    -2687    -2688    -2690    -2693    -2694    -2693 
   -2694    -2695    -2695    -2697    -2698    -2702    -2708    -2716 
   -2721    -2721    -2720    -2720    -2717    -2717    -2718    -2716 
   -2714    -2716    -2714    -2713    -2712    -2709    -2704    -2695 
   -2686    -2679    -2673    -2664    -2660    -2658    -2655    -2654 
   -2656    -2656    -2656    -2662    -2666    -2668    -2675    -2681 
   -2683    -2690    -2695    -2694    -2694    -2695    -2695    -2695 
   -2698    -2700    -2704    -2709    -2717    -2725    -2732    -2739 
   -2745    -2752    -2758    -2762    -2767    -2774    -2776    -2782 
   -2789    -2795    -2799    -2805    -2813    -2822    -2830    -2839 
   -2844    -2849    -2857    -2862    -2866    -2868    -2874    -2879 
   -2882    -2887    -2893    -2899    -2909    -2917    -2921    -2926 
   -2929    -2933    -2934    -2934    -2936    -2938    -2941    -2945 
   -2952    -2955    -2956    -2960    -2964    -2961    -2959    -2959 
   -2953    -2944    -2936    -2929    -2921    -2917    -2913    -2905 
   -2895    -2887    -2880    -2874    -2866    -2857    -2849    -2839 
   -2833    -2826    -2814    -2806    -2802    -2797    -2792    -2791 
   -2791    -2791    -2792    -2797    -2802    -2806    -2811    -2816 
   -2818    -2822    -2824    -2822    -2820    -2814    -2808    -2802 
   -2795    -2792    -2790    -2785    -2782    -2778    -2767    -2758 
   -2751    -2740    -2731    -2724    -2716    -2708    -2704    -2698 
   -2691    -2686    -2677    -2666    -2656    -2646    -2632    -2623 
   -2613    -2606    -2600    -2593    -2589    -2586    -2582    -2577 
   -2573    -2571    -2567    -2565    -2565    -2565    -2559    -2558 
   -2558    -2556    -2554    -2554    -2555    -2558    -2563    -2571 
   -2578    -2583    -2587    -2592    -2594    -2594    -2593    -2592 
   -2589    -2587    -2590    -2592    -2592    -2590    -2592    -2596 
   -2596    -2593    -2592    -2589    -2586    -2582    -2575    -2567 
   -2560    -2556    -2554    -2552    -2551    -2550    -2548    -2546 
   -2546    -2546    -2546    -2550    -2556    -2570    -2582    -2597 
   -2613    -2623    -2633    -2643    -2651    -2659    -2666    -2669 
   -2677    -2685    -2691    -2698    -2708    -2718    -2731    -2740 
   -2752    -2762    -2770    -2781    -2797    -2806    -2810    -2820 
   -2833    -2843    -2849    -2860    -2870    -2876    -2886    -2901 
   -2914    -2925    -2940    -2956    -2971    -2983    -2995    -3007 
   -3021    -3033    -3045    -3056    -3068    -3079    -3088    -3099 
   -3107    -3113    -3119    -3125    -3129    -3130    -3133    -3137 
   -3138    -3141    -3142    -3144    -3148    -3152    -3150    -3149 
   -3146    -3141    -3142    -3142    -3138    -3136    -3134    -3133 
   -3129    -3122    -3115    -3111    -3107    -3099    -3092    -3086 
   -3076    -3069    -3065    -3059    -3053    -3052    -3051    -3045 
   -3041    -3033    -3025    -3014    -3002    -2999    -2997    -2988 
   -2986    -2991    -2992    -2995    -3001    -3010    -3018    -3024 
   -3033    -3045    -3055    -3063    -3073    -3084    -3090    -3092 
   -3098    -3106    -3109    -3106    -3103    -3102    -3098    -3092 
   -3086    -3079    -3069    -3059    -3045    -3033    -3022    -3010 
   -3002    -2997    -2986    -2975    -2961    -2948    -2934    -2921 
   -2906    -2891    -2874    -2862    -2849    -2835    -2824    -2810 
   -2794    -2776    -2759    -2744    -2732    -2724    -2713    -2704 
   -2700    -2695    -2687    -2679    -2671    -2663    -2652    -2644 
   -2639    -2635    -2627    -2623    -2621    -2619    -2614    -2614 
   -2613    -2610    -2609    -2609    -2606    -2602    -2604    -2608 
   -2609    -2610    -2614    -2623    -2633    -2644    -2654    -2668 
   -2682    -2695    -2712    -2728    -2740    -2755    -2767    -2783 
   -2802    -2818    -2830    -2844    -2856    -2863    -2872    -2878 
   -2879    -2882    -2887    -2887    -2889    -2893    -2895    -2896 
   -2895    -2895    -2896    -2893    -2887    -2884    -2886    -2884 
   -2882    -2880    -2879    -2875    -2871    -2867    -2862    -2856 
   -2851    -2847    -2843    -2837    -2832    -2826    -2817    -2810 
   -2805    -2798    -2790    -2783    -2778    -2774    -2766    -2756 
   -2754    -2751    -2745    -2740    -2737    -2732    -2731    -2729 
   -2724    -2720    -2712    -2702    -2693    -2685    -2677    -2671 
   -2669    -2667    -2664    -2663    -2664    -2662    -2655    -2651 
   -2650    -2644    -2636    -2632    -2628    -2624    -2621    -2620 
   -2617    -2614    -2610    -2604    -2598    -2590    -2579    -2574 
   -2569    -2560    -2552    -2550    -2548    -2546    -2546    -2548 
   -2544    -2543    -2548    -2550    -2550    -2559    -2569    -2575 
   -2587    -2601    -2612    -2627    -2640    -2652    -2666    -2679 
   -2693    -2708    -2724    -2739    -2754    -2770    -2786    -2802 
   -2820    -2836    -2852    -2870    -2890    -2909    -2926    -2943 
   -2960    -2979    -2999    -3015    -3030    -3048    -3065    -3080 
   -3095    -3109    -3122    -3137    -3149    -3157    -3161    -3163 
   -3167    -3172    -3173    -3176    -3180    -3180    -3180    -3177 
   -3172    -3165    -3157    -3150    -3141    -3129    -3117    -3105 
   -3090    -3075    -3055    -3036    -3015    -2994    -2972    -2949 
   -2925    -2902    -2876    -2849    -2825    -2802    -2778    -2752 
   -2727    -2704    -2679    -2655    -2632    -2610    -2587    -2563 
   -2538    -2515    -2492    -2467    -2448    -2436    -2427    -2415 
   -2407    -2405    -2403    -2397    -2396    -2400    -2404    -2411 
   -2417    -2423    -2431    -2442    -2455    -2470    -2490    -2511 
   -2529    -2550    -2571    -2592    -2608    -2623    -2643    -2664 
   -2681    -2704    -2727    -2743    -2759    -2781    -2795    -2816 
   -2837    -2856    -2876    -2901    -2924    -2947    -2970    -2991 
   -3011    -3036    -3060    -3082    -3102    -3126    -3152    -3175 
   -3194    -3222    -3246    -3267    -3289    -3311    -3330    -3354 
   -3379    -3397    -3416    -3435    -3456    -3477    -3492    -3505 
   -3522    -3537    -3546    -3557    -3569    -3580    -3591    -3604 
   -3618    -3630    -3643    -3657    -3666    -3676    -3684    -3684 
   -3684    -3688    -3689    -3689    -3692    -3689    -3686    -3684 
   -3676    -3665    -3653    -3639    -3628    -3615    -3597    -3582 
   -3566    -3546    -3527    -3508    -3491    -3476    -3461    -3442 
   -3423    -3407    -3392    -3373    -3358    -3343    -3326    -3308 
   -3294    -3280    -3268    -3253    -3238    -3226    -3213    -3196 
   -3179    -3167    -3154    -3138    -3123    -3111    -3094    -3078 
   -3063    -3046    -3025    -3003    -2982    -2960    -2940    -2920 
   -2899    -2878    -2855    -2833    -2809    -2783    -2756    -2727 
   -2694    -2666    -2636    -2605    -2575    -2544    -2513    -2486 
   -2458    -2425    -2394    -2367    -2338    -2309    -2282    -2259 
   -2238    -2215    -2196    -2182    -2166    -2147    -2135    -2124 
   -2107    -2093    -2081    -2069    -2058    -2050    -2042    -2034 
   -2029    -2025    -2025    -2023    -2023    -2025    -2025    -2026 
   -2029    -2027    -2030    -2037    -2042    -2043    -2049    -2053 
   -2053    -2058    -2061    -2058    -2057    -2057    -2057    -2056 
   -2053    -2053    -2057    -2053    -2050    -2050    -2046    -2039 
   -2037    -2034    -2030    -2026    -2025    -2023    -2020    -2022 
   -2023    -2025    -2026    -2029    -2034    -2039    -2045    -2053 
   -2065    -2074    -2084    -2093    -2101    -2110    -2118    -2123 
   -2130    -2139    -2146    -2153    -2157    -2162    -2170    -2174 
   -2174    -2178    -2178    -2180    -2181    -2178    -2178    -2184 
   -2185    -2185    -2187    -2185    -2184    -2185    -2184    -2184 
   -2187    -2185    -2185    -2187    -2189    -2189    -2191    -2195 
   -2199    -2201    -2207    -2212    -2222    -2234    -2243    -2254 
   -2269    -2282    -2295    -2307    -2317    -2330    -2343    -2354 
   -2363    -2373    -2381    -2392    -2407    -2419    -2431    -2447 
   -2465    -2484    -2501    -2519    -2540    -2560    -2583    -2609 
   -2633    -2663    -2695    -2725    -2755    -2785    -2814    -2847 
   -2879    -2909    -2937    -2967    -2998    -3028    -3055    -3082 
   -3109    -3140    -3167    -3192    -3223    -3253    -3276    -3304 
   -3334    -3354    -3375    -3399    -3416    -3437    -3462    -3484 
   -3501    -3522    -3544    -3570    -3593    -3615    -3636    -3655 
   -3676    -3696    -3713    -3731    -3750    -3766    -3781    -3794 
   -3811    -3828    -3844    -3861    -3878    -3896    -3912    -3925 
   -3936    -3948    -3956    -3959    -3963    -3964    -3964    -3964 
   -3960    -3955    -3951    -3942    -3927    -3912    -3896    -3875 
   -3852    -3831    -3805    -3778    -3750    -3717    -3685    -3655 
   -3620    -3582    -3547    -3511    -3473    -3434    -3395    -3357 
   -3321    -3284    -3244    -3203    -3163    -3123    -3087    -3051 
   -3011    -2978    -2945    -2911    -2880    -2853    -2825    -2797 
   -2768    -2740    -2717    -2690    -2658    -2629    -2602    -2575 
   -2552    -2531    -2508    -2486    -2466    -2442    -2416    -2393 
   -2371    -2349    -2328    -2309    -2289    -2274    -2259    -2239 
   -2220    -2203    -2185    -2169    -2151    -2137    -2126    -2111 
   -2098    -2091    -2084    -2074    -2068    -2062    -2052    -2041 
   -2037    -2033    -2027    -2023    -2025    -2027    -2029    -2030 
   -2031    -2033    -2031    -2033    -2034    -2038    -2039    -2042 
   -2047    -2053    -2060    -2066    -2073    -2079    -2084    -2089 
   -2100    -2111    -2118    -2124    -2133    -2139    -2150    -2163 
   -2173    -2184    -2195    -2204    -2215    -2227    -2241    -2254 
   -2269    -2288    -2305    -2328    -2351    -2370    -2392    -2413 
   -2432    -2450    -2469    -2488    -2506    -2528    -2548    -2570 
   -2593    -2617    -2641    -2666    -2683    -2706    -2733    -2759 
   -2787    -2818    -2847    -2880    -2915    -2945    -2974    -3003 
   -3036    -3065    -3090    -3115    -3140    -3167    -3194    -3221 
   -3249    -3273    -3295    -3319    -3339    -3355    -3372    -3387 
   -3403    -3419    -3434    -3447    -3461    -3476    -3488    -3497 
   -3510    -3518    -3520    -3526    -3534    -3539    -3542    -3543 
   -3547    -3551    -3555    -3558    -3559    -3557    -3557    -3557 
   -3554    -3549    -3546    -3542    -3537    -3532    -3528    -3526 
   -3523    -3520    -3515    -3511    -3505    -3501    -3492    -3480 
   -3468    -3456    -3442    -3427    -3411    -3393    -3375    -3355 
   -3336    -3316    -3298    -3279    -3258    -3237    -3213    -3190 
   -3165    -3144    -3123    -3100    -3080    -3061    -3042    -3026 
   -3007    -2986    -2964    -2944    -2921    -2895    -2871    -2844 
   -2821    -2797    -2771    -2745    -2721    -2691    -2660    -2633 
   -2604    -2569    -2538    -2509    -2484    -2457    -2434    -2411 
   -2388    -2366    -2344    -2324    -2307    -2289    -2272    -2255 
   -2239    -2224    -2208    -2192    -2177    -2161    -2141    -2120 
   -2101    -2085    -2074    -2066    -2057    -2053    -2052    -2046 
   -2042    -2038    -2034    -2033    -2031    -2027    -2025    -2025 
   -2023    -2022    -2026    -2030    -2027    -2029    -2031    -2034 
   -2037    -2038    -2038    -2038    -2034    -2034    -2037    -2039 
   -2039    -2042    -2046    -2049    -2053    -2057    -2062    -2065 
   -2070    -2079    -2083    -2087    -2093    -2098    -2104    -2114 
   -2124    -2133    -2142    -2150    -2155    -2161    -2166    -2170 
   -2172    -2173    -2174    -2174    -2178    -2184    -2188    -2193 
   -2200    -2209    -2219    -2228    -2236    -2245    -2253    -2263 
   -2276    -2288    -2300    -2313    -2331    -2349    -2367    -2385 
   -2404    -2423    -2442    -2461    -2481    -2502    -2527    -2548 
   -2569    -2593    -2616    -2636    -2659    -2683    -2706    -2727 
   -2749    -2772    -2794    -2817    -2841    -2863    -2889    -2915 
   -2938    -2960    -2983    -3002    -3022    -3045    -3063    -3082 
   -3102    -3119    -3137    -3157    -3176    -3192    -3208    -3226 
   -3241    -3253    -3264    -3279    -3294    -3307    -3321    -3335 
   -3348    -3357    -3368    -3376    -3381    -3385    -3388    -3388 
   -3392    -3393    -3391    -3388    -3384    -3379    -3373    -3366 
   -3358    -3352    -3345    -3335    -3327    -3322    -3316    -3307 
   -3302    -3295    -3283    -3269    -3256    -3238    -3223    -3210 
   -3192    -3177    -3167    -3153    -3141    -3132    -3118    -3100 
   -3088    -3075    -3060    -3048    -3034    -3019    -3005    -2986 
   -2972    -2960    -2943    -2928    -2915    -2901    -2884    -2871 
   -2860    -2844    -2832    -2820    -2806    -2795    -2786    -2776 
   -2768    -2764    -2758    -2752    -2752    -2749    -2743    -2739 
   -2735    -2731    -2728    -2727    -2721    -2721    -2718    -2716 
   -2713    -2708    -2702    -2700    -2695    -2691    -2690    -2687 
   -2685    -2682    -2678    -2675    -2673    -2664    -2656    -2651 
   -2644    -2639    -2635    -2632    -2632    -2629    -2625    -2623 
   -2619    -2614    -2612    -2610    -2605    -2602    -2601    -2601 
   -2600    -2597    -2596    -2596    -2593    -2589    -2587    -2587 
   -2583    -2582    -2579    -2577    -2575    -2578    -2581    -2583 
   -2583    -2583    -2583    -2584    -2586    -2586    -2589    -2592 
   -2593    -2592    -2590    -2589    -2587    -2584    -2579    -2577 
   -2571    -2565    -2562    -2559    -2554    -2548    -2546    -2542 
   -2538    -2533    -2529    -2525    -2519    -2513    -2512    -2508 
   -2501    -2497    -2490    -2478    -2469    -2459    -2448    -2435 
   -2424    -2416    -2403    -2390    -2378    -2366    -2355    -2343 
   -2331    -2319    -2304    -2292    -2278    -2266    -2253    -2241 
   -2227    -2215    -2201    -2188    -2177    -2165    -2150    -2135 
   -2124    -2111    -2101    -2091    -2081    -2070    -2058    -2045 
   -2033    -2023    -2015    -2007    -2001    -1995    -1989    -1987 
   -1985    -1988    -1989    -1989    -1992    -1993    -1996    -2000 
   -2007    -2011    -2018    -2026    -2034    -2041    -2050    -2060 
   -2065    -2073    -2085    -2095    -2107    -2124    -2139    -2155 
   -2174    -2191    -2207    -2224    -2241    -2257    -2270    -2282 
