Origin Time       2016/04/16 01:25:00
Lat.              32.753
Long.             130.762
Depth. (km)       12
Mag.              7.3
Station Code      OSK005
Station Lat.      34.7255
Station Long.     135.5099
Station Height(m) 4
Record Time       2016/04/16 01:28:24
Sampling Freq(Hz) 100Hz
Duration Time(s)  75
Dir.              N-S
Scale Factor      7845(gal)/8223790
Max. Acc. (gal)   4.004
Last Correction   2016/04/16 01:28:26
Memo.             
[...]
    1509     1456     1483     1584     1763     1971     2102     2006 
    1831     1829     1910     1998     2053     1989     1933     1948 
    1949     2083     2407     2624     2511     2155     1776     1603 
    1767     2157     2562     2821     2767     2378     1949     1746 
    1802     2053     2363     2559     2581     2486     2347     2195 
    2061     2016     2050     2110     2212     2338     2385     2289 
    2114     1975     1915     1918     1935     1925     1922     1937 
    1885     1763     1680     1690     1674     1539     1355     1213 
    1159     1224     1337     1410     1366     1174      929      764 
     747      832      928      990      926      722      557      502 
     530      653      733      643      441      240      199      349 
     495      549      508      338      122       28      109      243 
     271      195      135       97        9      -51        5       67 
      -5     -194     -330     -251      -82      -59     -144     -237 
    -341     -399     -379     -340     -301     -314     -446     -569 
    -529     -386     -319     -438     -649     -723     -607     -425 
    -263     -271     -577     -905     -938     -723     -379      -60 
     -11     -233     -603     -972     -987     -544      -55       71 
    -144     -411     -540     -583     -558     -380     -159     -116 
    -233     -291     -194      -59      -89     -315     -481     -386 
    -186      -49       44       62      -54     -224     -352     -356 
    -205        1      121      103        4      -94      -68      102 
     220      168       54      -22       18      178      336      459 
     511      436      344      311      295      344      461      560 
     641      728      799      811      741      630      529      548 
     762     1009     1090     1023      888      747      715      828 
     999     1096     1042      913      846      876      959     1009 
    1004      976      945      963     1021     1073     1148     1193 
    1105      994     1017     1158     1270     1255     1224     1296 
    1352     1343     1378     1399     1323     1267     1345     1535 
    1746     1819     1703     1572     1526     1524     1642     1911 
    2085     2038     1890     1732     1711     1910     2119     2182 
    2151     2058     1991     2023     2088     2162     2241     2262 
    2223     2196     2243     2286     2280     2299     2301     2258 
    2257     2300     2319     2292     2276     2296     2296     2311 
    2378     2417     2380     2258     2150     2185     2303     2365 
    2322     2227     2158     2115     2111     2166     2212     2209 
    2123     1975     1907     1965     2033     2046     2031     1968 
    1844     1726     1665     1698     1803     1833     1746     1637 
    1563     1545     1522     1460     1440     1478     1509     1474 
    1375     1281     1213     1174     1194     1250     1266     1243 
    1169     1015      892      909     1004     1075     1067      966 
     846      795      800      808      795      784      774      734 
     702      697      630      525      484      488      498      550 
     604      556      429      334      318      332      319      287 
     278      305      340      325      276      259      266      294 
     321      278      205      174      156      190      360      565 
     610      430      180       81      144      253      402      573 
     635      548      425      361      355      396      454      532 
     683      801      776      679      588      548      619      738 
     820      895      940      882      767      720      814      987 
    1071      996      888      866      962     1100     1138     1104 
    1090     1043      990     1059     1193     1229     1167     1105 
    1078     1081     1138     1197     1206     1209     1225     1235 
    1204     1109     1070     1150     1192     1150     1140     1156 
    1104      994      905      874      918      990     1003      959 
     929      928      895      778      670      672      751      810 
     822      815      747      641      595      579      568      600 
     675      757      770      693      629      615      592      549 
     569      685      793      828      834      841      854      876 
     903      911      857      807      900     1127     1343     1439 
    1386     1263     1170     1121     1173     1383     1586     1622 
    1609     1632     1609     1561     1606     1695     1701     1664 
    1664     1679     1725     1830     1965     2038     1925     1701 
    1613     1674     1714     1733     1822     1962     2074     2104 
    2046     1921     1734     1587     1628     1833     2047     2161 
    2162     2101     1989     1836     1732     1741     1775     1786 
    1859     1979     2061     2096     2058     1939     1806     1705 
    1621     1579     1669     1888     2060     2057     1919     1714 
    1554     1532     1557     1568     1622     1709     1771     1811 
    1815     1729     1568     1444     1395     1391     1471     1632 
    1761     1775     1672     1528     1445     1444     1467     1457 
    1462     1541     1648     1705     1703     1655     1551     1404 
    1282     1304     1507     1759     1881     1846     1695     1479 
    1355     1418     1530     1606     1719     1802     1723     1554 
    1445     1424     1445     1512     1590     1591     1517     1445 
    1409     1387     1379     1379     1364     1374     1445     1471 
    1393     1290     1217     1202     1251     1270     1229     1185 
    1208     1291     1273     1074      880      859      967     1070 
    1112     1123     1112      996      735      533      544      635 
     730      830      846      730      518      274      140      187 
     268      276      286      268      128      -31     -122     -210 
    -303     -386     -407     -288     -147     -228     -537     -822 
    -900     -824     -715     -607     -532     -589     -788     -985 
   -1065    -1042     -974     -923     -942     -980     -976    -1036 
   -1196    -1281    -1242    -1167    -1092    -1023    -1031    -1162 
   -1350    -1451    -1341    -1088     -943     -999    -1128    -1208 
   -1210    -1189    -1159    -1112    -1101    -1088     -999     -919 
    -886     -884     -985    -1094    -1034     -885     -757     -650 
    -614     -629     -635     -683     -700     -584     -508     -545 
    -468     -298     -187     -106      -85     -170     -282     -349 
    -299     -108       93      170      155      141      117       56 
      54      144      244      329      413      446      386      284 
     259      348      468      513      504      508      481      398 
     360      440      594      704      708      661      629      612 
     604      622      692      799      859      861      853      846 
     815      795      837      890      890      880      886      928 
    1017     1071     1026      958      949      987     1071     1154 
    1128     1030      965      996     1139     1256     1239     1138 
    1020      984     1081     1230     1334     1345     1304     1259 
    1194     1155     1200     1294     1363     1350     1306     1337 
    1435     1503     1503     1447     1370     1352     1431     1524 
    1547     1556     1606     1621     1575     1553     1534     1507 
    1559     1615     1599     1626     1732     1810     1830     1777 
    1651     1594     1664     1721     1718     1726     1740     1738 
    1760     1799     1810     1795     1760     1702     1679     1707 
    1741     1815     1927     1925     1781     1690     1718     1749 
    1769     1822     1864     1896     1921     1890     1825     1755 
    1701     1723     1810     1829     1761     1728     1744     1734 
    1691     1614     1554     1605     1679     1679     1660     1605 
    1476     1364     1333     1366     1402     1399     1347     1254 
    1198     1201     1181     1152     1125     1032      928      885 
     842      789      751      684      576      514      529      511 
     437      360      233      106       90       93       49      -16 
    -167     -336     -388     -382     -392     -461     -610     -702 
    -664     -639     -676     -735     -851     -976    -1026     -993 
    -912     -893    -1003    -1138    -1208    -1229    -1239    -1219 
   -1175    -1177    -1204    -1230    -1275    -1306    -1327    -1404 
   -1475    -1391    -1201    -1116    -1167    -1212    -1223    -1251 
   -1281    -1300    -1275    -1158    -1013     -955     -972     -967 
    -943    -1003    -1060     -978     -861     -784     -673     -577 
    -535     -476     -449     -477     -450     -365     -279     -178 
     -52       75      174      214      233      255      261      315 
     454      572      660      792      869      820      788      830 
     859      888      953     1020     1096     1206     1286     1255 
    1181     1188     1275     1337     1340     1358     1433     1513 
    1549     1557     1551     1516     1490     1505     1514     1512 
    1534     1560     1578     1617     1624     1571     1528     1520 
    1499     1478     1520     1634     1691     1644     1621     1653 
    1651     1602     1553     1575     1682     1757     1736     1713 
    1737     1741     1729     1773     1825     1815     1810     1875 
    1946     1969     1977     1995     2026     2079     2096     2084 
    2146     2243     2266     2278     2359     2432     2442     2431 
    2412     2404     2461     2548     2606     2644     2659     2663 
    2683     2677     2662     2718     2803     2837     2829     2798 
    2779     2830     2911     2924     2844     2774     2799     2868 
    2921     2988     3029     2972     2871     2798     2759     2787 
    2905     3014     3015     2943     2859     2781     2754     2783 
    2825     2876     2863     2735     2619     2613     2664     2702 
    2691     2650     2594     2544     2512     2478     2467     2498 
    2517     2508     2501     2470     2378     2276     2241     2278 
    2313     2297     2251     2196     2143     2121     2142     2173 
    2158     2087     2015     1952     1888     1917     2008     2034 
    2007     1956     1854     1787     1821     1858     1809     1750 
    1748     1746     1740     1726     1640     1549     1552     1588 
    1609     1611     1557     1460     1405     1393     1351     1289 
    1267     1271     1308     1345     1290     1138      947      795 
     796      919      970      912      823      712      603      538 
     484      415      376      329      217      166      205      152 
      35      -18      -94     -217     -299     -356     -419     -499 
    -585     -610     -614     -684     -774     -845     -929    -1017 
   -1089    -1127    -1112    -1116    -1188    -1250    -1290    -1347 
   -1390    -1414    -1476    -1545    -1559    -1537    -1522    -1533 
   -1579    -1630    -1655    -1652    -1642    -1652    -1687    -1718 
   -1703    -1648    -1630    -1658    -1648    -1620    -1630    -1632 
   -1586    -1532    -1499    -1479    -1463    -1456    -1459    -1447 
   -1391    -1308    -1225    -1156    -1125    -1120    -1119    -1120 
   -1071     -959     -868     -800     -720     -706     -746     -715 
    -619     -537     -467     -378     -299     -279     -275     -210 
    -120      -43       44      133      214      284      337      365 
     396      472      592      723      815      823      805      877 
    1028     1167     1282     1371     1404     1412     1455     1526 
    1625     1746     1845     1930     2011     2065     2130     2220 
    2305     2409     2513     2558     2597     2664     2729     2817 
    2926     2988     3014     3051     3100     3184     3291     3369 
    3406     3434     3488     3559     3607     3630     3651     3653 
    3626     3639     3740     3877     3956     3937     3871     3865 
    3917     3925     3917     3955     3983     4012     4028     3986 
    3991     4048     4045     4033     4062     4072     4059     4032 
    3994     3993     4008     3986     3937     3913     3932     3951 
    3920     3886     3880     3866     3879     3921     3888     3813 
    3801     3790     3754     3753     3738     3677     3649     3666 
    3682     3677     3627     3549     3495     3464     3456     3472 
    3469     3439     3399     3331     3240     3192     3203     3196 
    3150     3099     3029     2967     2965     2948     2887     2847 
    2802     2720     2659     2623     2560     2469     2382     2319 
    2277     2255     2239     2188     2098     2011     1935     1852 
    1761     1692     1655     1622     1575     1497     1404     1312 
    1216     1143     1097     1035      955      888      815      718 
     630      558      471      368      287      220      140       56 
     -45     -178     -278     -318     -373     -460     -548     -641 
    -745     -843     -932    -1020    -1107    -1189    -1273    -1374 
   -1476    -1561    -1634    -1721    -1817    -1898    -1964    -2046 
   -2153    -2234    -2267    -2338    -2450    -2512    -2521    -2556 
   -2628    -2687    -2745    -2826    -2878    -2891    -2914    -2941 
   -2976    -3045    -3086    -3071    -3056    -3069    -3092    -3133 
   -3221    -3272    -3230    -3192    -3186    -3161    -3159    -3191 
   -3191    -3149    -3119    -3117    -3103    -3078    -3061    -3030 
   -2971    -2917    -2879    -2844    -2816    -2781    -2733    -2694 
   -2635    -2535    -2448    -2400    -2355    -2303    -2243    -2170 
   -2074    -1975    -1907    -1854    -1771    -1677    -1591    -1495 
   -1402    -1304    -1193    -1100    -1026     -966     -903     -831 
    -758     -673     -557     -436     -349     -309     -263     -190 
    -112       -2      129      230      283      329      402      495 
     581      685      800      853      876      940     1020     1090 
    1163     1246     1334     1408     1456     1506     1554     1615 
    1707     1781     1825     1885     1979     2057     2085     2098 
    2150     2234     2313     2381     2423     2439     2479     2546 
    2594     2640     2712     2759     2776     2822     2894     2941 
    2982     3041     3084     3109     3136     3163     3200     3245 
    3275     3304     3346     3377     3376     3360     3372     3418 
    3457     3453     3427     3416     3424     3454     3464     3407 
    3355     3349     3333     3296     3289     3299     3287     3246 
    3183     3102     3022     2974     2963     2949     2889     2808 
    2749     2688     2629     2592     2515     2428     2381     2316 
    2247     2222     2184     2111     2019     1930     1887     1865 
    1811     1745     1675     1594     1533     1498     1456     1389 
    1306     1236     1178     1138     1086     1019      966      908 
     837      769      680      606      599      579      506      449 
     394      330      298      275      232      182      144      133 
     112       56       11      -17      -70     -102      -87      -94 
    -139     -174     -206     -229     -224     -237     -253     -234 
    -256     -314     -333     -329     -332     -318     -305     -321 
    -342     -342     -336     -340     -357     -373     -356     -337 
    -363     -391     -375     -351     -356     -370     -370     -346 
    -333     -363     -378     -349     -329     -324     -307     -310 
    -336     -352     -361     -367     -363     -364     -344     -309 
    -332     -394     -419     -427     -429     -407     -407     -448 
    -486     -502     -515     -522     -518     -530     -558     -577 
    -598     -631     -668     -693     -697     -685     -675     -696 
    -750     -780     -783     -795     -784     -758     -774     -793 
    -781     -797     -815     -781     -756     -766     -749     -715 
    -711     -712     -693     -664     -619     -561     -517     -506 
    -495     -445     -368     -307     -271     -237     -198     -149 
    -101      -63       -9       70      133      184      237      284 
     361      453      484      486      540      638      757      880 
     945      954     1026     1143     1198     1233     1316     1405 
    1499     1603     1699     1783     1836     1859     1895     1966 
    2087     2238     2351     2416     2473     2512     2535     2594 
    2710     2814     2860     2886     2933     2997     3073     3149 
    3191     3198     3215     3262     3315     3349     3377     3414 
    3446     3478     3516     3524     3495     3489     3518     3523 
    3504     3480     3456     3459     3469     3437     3419     3437 
    3422     3361     3284     3242     3260     3280     3252     3192 
    3142     3109     3075     3029     2986     2947     2915     2882 
    2844     2811     2763     2697     2629     2571     2533     2513 
    2508     2492     2424     2331     2266     2224     2162     2107 
    2087     2053     2006     1968     1925     1868     1800     1737 
    1686     1651     1628     1609     1571     1512     1460     1408 
    1352     1329     1325     1302     1271     1229     1161     1101 
    1078     1050     1019     1005      980      928      877      843 
     818      815      820      785      737      718      693      649 
     619      602      558      514      506      500      460      440 
     429      378      341      344      310      259      263      270 
     236      209      195      163      139      147      143       97 
      49       35       36       40       27       -5      -47      -76 
     -81      -97     -126     -124     -129     -182     -201     -183 
    -218     -284     -321     -346     -353     -356     -407     -459 
    -460     -459     -464     -467     -504     -568     -610     -643 
    -637     -565     -521     -558     -627     -687     -699     -662 
    -650     -664     -648     -641     -662     -666     -648     -615 
    -594     -616     -652     -650     -618     -576     -545     -542 
    -556     -553     -538     -523     -503     -490     -467     -403 
    -346     -334     -319     -301     -298     -282     -253     -241 
    -212     -141      -70      -35      -27      -29      -28       -9 
      31       81      147      243      314      289      240      266 
     329      378      433      461      464      514      579      600 
     618      664      695      702      728      767      793      823 
     864      876      884      927      951      940      955      997 
    1032     1059     1069     1058     1069     1113     1155     1185 
    1204     1189     1185     1242     1312     1337     1325     1314 
    1325     1352     1395     1444     1470     1494     1541     1598 
    1641     1642     1611     1599     1651     1744     1803     1818 
    1850     1898     1900     1880     1908     1987     2072     2139 
    2173     2192     2227     2273     2301     2322     2386     2500 
    2598     2648     2664     2693     2766     2844     2887     2903 
    2921     2983     3102     3202     3232     3249     3314     3388 
