Origin Time       2016/04/16 01:25:00
Lat.              32.753
Long.             130.762
Depth. (km)       12
Mag.              7.3
Station Code      OSK005
Station Lat.      34.7255
Station Long.     135.5099
Station Height(m) 4
Record Time       2016/04/16 01:28:24
Sampling Freq(Hz) 100Hz
Duration Time(s)  75
Dir.              E-W
Scale Factor      7845(gal)/8223790
Max. Acc. (gal)   4.632
Last Correction   2016/04/16 01:28:26
Memo.             
[...]
   -4922    -4955    -4887    -4808    -4793    -4876    -4972    -4994 
   -5015    -5059    -5047    -5053    -5119    -5109    -5073    -5162 
   -5290    -5364    -5425    -5458    -5427    -5391    -5400    -5478 
   -5630    -5745    -5749    -5715    -5706    -5746    -5840    -5913 
   -5944    -5987    -6012    -6044    -6146    -6197    -6180    -6227 
   -6289    -6315    -6396    -6462    -6409    -6389    -6482    -6569 
   -6624    -6671    -6660    -6644    -6716    -6818    -6858    -6835 
   -6806    -6826    -6886    -6945    -6999    -7040    -7055    -7088 
   -7121    -7118    -7134    -7149    -7138    -7192    -7287    -7327 
   -7339    -7338    -7346    -7418    -7481    -7489    -7515    -7526 
   -7499    -7526    -7593    -7631    -7692    -7730    -7690    -7707 
   -7742    -7722    -7798    -7888    -7846    -7834    -7881    -7898 
   -7925    -7948    -7939    -7956    -7983    -7979    -7993    -8016 
   -8016    -8062    -8108    -8037    -7955    -7942    -7963    -8073 
   -8152    -8087    -8040    -8001    -7900    -7862    -7862    -7881 
   -7981    -7997    -7885    -7807    -7717    -7609    -7642    -7742 
   -7747    -7722    -7669    -7538    -7469    -7477    -7454    -7501 
   -7538    -7364    -7240    -7318    -7295    -7188    -7264    -7366 
   -7300    -7202    -7094    -6993    -7055    -7149    -7094    -7072 
   -7115    -7060    -7001    -7022    -7021    -6979    -6934    -6929 
   -6994    -7038    -6997    -6959    -6964    -6982    -6985    -6926 
   -6855    -6909    -7001    -7017    -7028    -7015    -6957    -6951 
   -6979    -6990    -6995    -6951    -6898    -6921    -6947    -6905 
   -6883    -6914    -6937    -6922    -6851    -6785    -6814    -6875 
   -6886    -6860    -6777    -6706    -6737    -6768    -6748    -6750 
   -6708    -6596    -6542    -6555    -6577    -6621    -6621    -6578 
   -6588    -6561    -6411    -6305    -6342    -6393    -6394    -6356 
   -6312    -6323    -6330    -6265    -6238    -6235    -6186    -6169 
   -6186    -6214    -6251    -6183    -6066    -6077    -6106    -6052 
   -6016    -6006    -5977    -5979    -6010    -6022    -6077    -6147 
   -6087    -5968    -5961    -6008    -6046    -6118    -6176    -6122 
   -5984    -5907    -5985    -6130    -6214    -6191    -6085    -5998 
   -5961    -5940    -6004    -6177    -6285    -6218    -6093    -6058 
   -6075    -6099    -6127    -6120    -6150    -6222    -6183    -6091 
   -6091    -6107    -6084    -6083    -6075    -6081    -6154    -6165 
   -6083    -6077    -6120    -6110    -6089    -6042    -6018    -6134 
   -6245    -6216    -6188    -6185    -6143    -6124    -6114    -6081 
   -6091    -6122    -6147    -6166    -6166    -6212    -6261    -6191 
   -6089    -6085    -6151    -6265    -6367    -6385    -6358    -6322 
   -6247    -6193    -6265    -6401    -6455    -6440    -6432    -6416 
   -6417    -6477    -6516    -6513    -6528    -6534    -6521    -6547 
   -6601    -6660    -6693    -6677    -6689    -6744    -6747    -6720 
   -6751    -6794    -6837    -6917    -6975    -6970    -6926    -6893 
   -6959    -7080    -7096    -7102    -7236    -7314    -7269    -7275 
   -7321    -7353    -7395    -7380    -7384    -7503    -7566    -7585 
   -7677    -7673    -7577    -7586    -7628    -7655    -7771    -7838 
   -7742    -7688    -7755    -7820    -7839    -7819    -7786    -7778 
   -7743    -7700    -7755    -7854    -7878    -7811    -7695    -7681 
   -7803    -7838    -7777    -7736    -7672    -7619    -7623    -7632 
   -7647    -7665    -7652    -7612    -7538    -7449    -7439    -7495 
   -7484    -7446    -7464    -7446    -7361    -7272    -7198    -7188 
   -7231    -7233    -7210    -7219    -7167    -7032    -6959    -6970 
   -6984    -6990    -6967    -6902    -6848    -6804    -6739    -6716 
   -6744    -6762    -6762    -6720    -6624    -6564    -6534    -6501 
   -6539    -6593    -6562    -6513    -6448    -6312    -6242    -6309 
   -6373    -6405    -6438    -6382    -6261    -6172    -6127    -6191 
   -6308    -6295    -6242    -6261    -6232    -6148    -6112    -6142 
   -6235    -6323    -6304    -6196    -6097    -6042    -6056    -6145 
   -6235    -6284    -6257    -6123    -6023    -6029    -6026    -6076 
   -6214    -6251    -6161    -6056    -5960    -5960    -6075    -6110 
   -6026    -5983    -6016    -6056    -6083    -6037    -5911    -5856 
   -5918    -6016    -6084    -6062    -6011    -5995    -5940    -5852 
   -5819    -5852    -5944    -6050    -6026    -5867    -5768    -5768 
   -5753    -5752    -5810    -5850    -5857    -5841    -5740    -5611 
   -5540    -5509    -5547    -5634    -5653    -5623    -5605    -5547 
   -5466    -5412    -5390    -5404    -5379    -5285    -5252    -5316 
   -5354    -5377    -5416    -5373    -5265    -5173    -5097    -5092 
   -5185    -5255    -5235    -5217    -5219    -5154    -5050    -5004 
   -5039    -5116    -5127    -5084    -5139    -5213    -5185    -5123 
   -5043    -4958    -5000    -5155    -5293    -5363    -5347    -5275 
   -5248    -5235    -5181    -5192    -5339    -5503    -5571    -5556 
   -5517    -5536    -5605    -5579    -5551    -5678    -5768    -5791 
   -5888    -5954    -6003    -6123    -6162    -6087    -6056    -6110 
   -6210    -6336    -6417    -6430    -6455    -6531    -6615    -6654 
   -6612    -6538    -6523    -6552    -6592    -6675    -6782    -6847 
   -6853    -6771    -6619    -6501    -6493    -6596    -6725    -6751 
   -6662    -6617    -6656    -6654    -6593    -6501    -6373    -6269 
   -6254    -6336    -6494    -6592    -6529    -6424    -6343    -6232 
   -6133    -6088    -6110    -6200    -6295    -6376    -6455    -6447 
   -6339    -6226    -6108    -6031    -6107    -6251    -6330    -6361 
   -6389    -6396    -6400    -6417    -6389    -6347    -6372    -6424 
   -6444    -6459    -6540    -6710    -6837    -6787    -6652    -6550 
   -6469    -6471    -6609    -6772    -6886    -6912    -6832    -6752 
   -6681    -6600    -6585    -6601    -6615    -6673    -6713    -6701 
   -6673    -6602    -6493    -6408    -6343    -6288    -6308    -6382 
   -6382    -6313    -6259    -6186    -6129    -6119    -6006    -5792 
   -5679    -5702    -5823    -5958    -5921    -5741    -5552    -5356 
   -5238    -5243    -5277    -5363    -5460    -5386    -5216    -5090 
   -4974    -4949    -5020    -4973    -4850    -4811    -4783    -4788 
   -4830    -4772    -4693    -4661    -4567    -4510    -4561    -4558 
   -4514    -4510    -4490    -4498    -4527    -4433    -4318    -4333 
   -4333    -4294    -4374    -4464    -4429    -4347    -4317    -4379 
   -4421    -4329    -4284    -4390    -4428    -4330    -4327    -4509 
   -4664    -4635    -4521    -4499    -4561    -4523    -4490    -4685 
   -4885    -4864    -4838    -4908    -4909    -4866    -4884    -4966 
   -5135    -5304    -5332    -5358    -5448    -5390    -5262    -5327 
   -5543    -5778    -5962    -6037    -6041    -5967    -5842    -5884 
   -6097    -6309    -6521    -6662    -6619    -6521    -6493    -6528 
   -6663    -6895    -7111    -7218    -7209    -7113    -7037    -7076 
   -7210    -7426    -7657    -7743    -7680    -7618    -7599    -7626 
   -7743    -7896    -8004    -8087    -8128    -8127    -8141    -8158 
   -8191    -8280    -8348    -8385    -8413    -8428    -8526    -8642 
   -8640    -8623    -8657    -8661    -8687    -8783    -8868    -8889 
   -8900    -8943    -8954    -8950    -8950    -8884    -8899    -9081 
   -9185    -9190    -9188    -9049    -8856    -8827    -8939    -9054 
   -9081    -9045    -9011    -8932    -8834    -8783    -8741    -8707 
   -8715    -8712    -8681    -8622    -8505    -8397    -8398    -8457 
   -8456    -8410    -8314    -8127    -7940    -7848    -7848    -7925 
   -7978    -7886    -7739    -7630    -7487    -7335    -7294    -7285 
   -7245    -7240    -7192    -7056    -6963    -6864    -6705    -6619 
   -6581    -6490    -6420    -6407    -6380    -6330    -6259    -6143 
   -6003    -5884    -5809    -5800    -5838    -5825    -5744    -5656 
   -5594    -5552    -5512    -5456    -5410    -5360    -5316    -5363 
   -5456    -5478    -5451    -5381    -5266    -5177    -5134    -5181 
   -5347    -5440    -5386    -5377    -5417    -5397    -5367    -5332 
   -5287    -5323    -5404    -5487    -5602    -5640    -5578    -5583 
   -5622    -5575    -5549    -5598    -5652    -5742    -5856    -5888 
   -5873    -5875    -5853    -5845    -5873    -5884    -5922    -6002 
   -6010    -5983    -6049    -6151    -6181    -6148    -6107    -6102 
   -6126    -6147    -6208    -6307    -6323    -6285    -6301    -6312 
   -6290    -6288    -6289    -6303    -6342    -6358    -6361    -6404 
   -6447    -6432    -6389    -6328    -6242    -6203    -6227    -6272 
   -6345    -6381    -6323    -6268    -6239    -6156    -6048    -6023 
   -6076    -6106    -6104    -6127    -6123    -6043    -5940    -5850 
   -5802    -5844    -5968    -6039    -5972    -5896    -5868    -5809 
   -5782    -5809    -5796    -5823    -5907    -5888    -5791    -5727 
   -5709    -5742    -5805    -5807    -5784    -5809    -5822    -5798 
   -5811    -5853    -5888    -5925    -5929    -5902    -5884    -5871 
   -5904    -5984    -6019    -6065    -6162    -6196    -6177    -6181 
   -6192    -6252    -6326    -6320    -6330    -6415    -6481    -6534 
   -6586    -6579    -6590    -6658    -6671    -6689    -6798    -6891 
   -6959    -7048    -7065    -7022    -7007    -6990    -7017    -7155 
   -7248    -7263    -7327    -7365    -7348    -7369    -7381    -7366 
   -7399    -7439    -7464    -7535    -7619    -7646    -7659    -7662 
   -7577    -7457    -7431    -7487    -7530    -7595    -7723    -7769 
   -7652    -7538    -7485    -7383    -7310    -7395    -7476    -7439 
   -7427    -7433    -7342    -7231    -7148    -7051    -7011    -7056 
   -7118    -7144    -7098    -6987    -6876    -6779    -6681    -6635 
   -6659    -6694    -6721    -6700    -6602    -6480    -6335    -6252 
   -6349    -6448    -6415    -6361    -6272    -6104    -6034    -6079 
   -6104    -6131    -6145    -6066    -5996    -5977    -5930    -5887 
   -5894    -5927    -5957    -5934    -5848    -5778    -5746    -5724 
   -5745    -5815    -5850    -5844    -5826    -5813    -5803    -5753 
   -5678    -5703    -5798    -5818    -5791    -5807    -5857    -5892 
   -5859    -5795    -5818    -5853    -5822    -5899    -6058    -6068 
   -6006    -6011    -6006    -6008    -6033    -6022    -6083    -6214 
   -6218    -6180    -6261    -6320    -6297    -6305    -6332    -6366 
   -6424    -6482    -6552    -6617    -6625    -6624    -6673    -6717 
   -6739    -6805    -6875    -6894    -6913    -6972    -7063    -7141 
   -7175    -7217    -7260    -7264    -7311    -7391    -7411    -7457 
   -7566    -7619    -7643    -7699    -7732    -7766    -7824    -7843 
   -7827    -7827    -7874    -7960    -8032    -8060    -8051    -8016 
   -7996    -8000    -8010    -8037    -8070    -8064    -8040    -8051 
   -8066    -8025    -7978    -7963    -7924    -7919    -7973    -7966 
   -7921    -7886    -7798    -7740    -7789    -7816    -7780    -7747 
   -7681    -7593    -7534    -7476    -7429    -7406    -7369    -7340 
   -7335    -7302    -7226    -7132    -7038    -6997    -6993    -6934 
   -6856    -6817    -6755    -6697    -6689    -6625    -6528    -6496 
   -6442    -6349    -6312    -6269    -6210    -6203    -6158    -6049 
   -5971    -5908    -5864    -5881    -5850    -5741    -5679    -5618 
   -5513    -5490    -5510    -5452    -5391    -5346    -5265    -5190 
   -5116    -5024    -4992    -4996    -4978    -4972    -4939    -4833 
   -4735    -4708    -4703    -4660    -4619    -4635    -4641    -4585 
   -4568    -4611    -4598    -4523    -4496    -4533    -4585    -4634 
   -4641    -4606    -4617    -4648    -4638    -4677    -4742    -4750 
   -4801    -4865    -4868    -4918    -4978    -4954    -4982    -5098 
   -5193    -5279    -5352    -5355    -5381    -5485    -5584    -5652 
   -5694    -5726    -5798    -5875    -5910    -5946    -6031    -6129 
   -6195    -6246    -6331    -6427    -6471    -6481    -6550    -6683 
   -6768    -6804    -6872    -6937    -6999    -7105    -7153    -7165 
   -7277    -7393    -7429    -7495    -7581    -7619    -7670    -7743 
   -7782    -7836    -7912    -7954    -8014    -8105    -8149    -8160 
   -8205    -8280    -8334    -8341    -8349    -8391    -8440    -8490 
   -8559    -8594    -8598    -8644    -8687    -8692    -8703    -8694 
   -8688    -8766    -8823    -8791    -8787    -8849    -8873    -8829 
   -8781    -8792    -8839    -8854    -8830    -8792    -8749    -8719 
   -8726    -8727    -8696    -8665    -8612    -8506    -8428    -8437 
   -8437    -8391    -8371    -8322    -8212    -8108    -8016    -7935 
   -7886    -7819    -7713    -7632    -7573    -7476    -7331    -7219 
   -7187    -7134    -7018    -6914    -6791    -6616    -6490    -6426 
   -6313    -6168    -6037    -5904    -5810    -5745    -5603    -5433 
   -5333    -5240    -5109    -4965    -4772    -4599    -4537    -4484 
   -4364    -4220    -4081    -3973    -3888    -3771    -3643    -3524 
   -3369    -3244    -3198    -3098    -2932    -2809    -2691    -2587 
   -2558    -2497    -2378    -2317    -2255    -2111    -2004    -1979 
   -1942    -1891    -1856    -1800    -1726    -1690    -1683    -1680 
   -1665    -1613    -1561    -1548    -1554    -1578    -1583    -1551 
   -1547    -1580    -1624    -1669    -1676    -1671    -1717    -1750 
   -1775    -1876    -1973    -2003    -2050    -2124    -2173    -2218 
   -2292    -2393    -2506    -2604    -2675    -2737    -2826    -2957 
   -3092    -3213    -3322    -3416    -3507    -3597    -3713    -3880 
   -4032    -4145    -4261    -4364    -4473    -4606    -4722    -4843 
   -5003    -5120    -5206    -5348    -5498    -5620    -5752    -5872 
   -5987    -6131    -6261    -6365    -6477    -6574    -6683    -6858 
   -7021    -7117    -7186    -7260    -7349    -7462    -7574    -7674 
   -7780    -7873    -7960    -8040    -8095    -8164    -8263    -8345 
   -8426    -8526    -8587    -8619    -8694    -8765    -8810    -8877 
   -8938    -8966    -9005    -9051    -9069    -9107    -9186    -9258 
   -9296    -9296    -9286    -9305    -9319    -9335    -9375    -9375 
   -9346    -9360    -9358    -9340    -9369    -9360    -9306    -9312 
   -9325    -9267    -9234    -9242    -9198    -9146    -9127    -9093 
   -9059    -9050    -9015    -8942    -8869    -8826    -8806    -8772 
   -8711    -8652    -8584    -8510    -8474    -8451    -8380    -8318 
   -8276    -8179    -8078    -8062    -8058    -8004    -7962    -7911 
   -7809    -7739    -7711    -7662    -7631    -7611    -7558    -7512 
   -7469    -7402    -7348    -7304    -7273    -7290    -7307    -7294 
   -7264    -7221    -7186    -7192    -7190    -7180    -7213    -7221 
   -7184    -7190    -7203    -7176    -7175    -7202    -7223    -7264 
   -7281    -7246    -7221    -7223    -7253    -7300    -7306    -7299 
   -7326    -7334    -7334    -7354    -7348    -7344    -7383    -7406 
   -7392    -7383    -7392    -7422    -7460    -7460    -7444    -7484 
   -7515    -7501    -7510    -7512    -7481    -7488    -7515    -7518 
   -7519    -7508    -7461    -7446    -7462    -7447    -7438    -7449 
   -7438    -7420    -7403    -7372    -7340    -7318    -7306    -7307 
   -7263    -7175    -7140    -7132    -7094    -7091    -7080    -6995 
   -6932    -6901    -6851    -6822    -6786    -6720    -6708    -6710 
   -6643    -6586    -6571    -6523    -6473    -6454    -6439    -6426 
   -6378    -6322    -6342    -6353    -6278    -6243    -6264    -6257 
   -6257    -6262    -6223    -6211    -6227    -6210    -6224    -6273 
   -6262    -6223    -6207    -6222    -6261    -6281    -6269    -6270 
   -6285    -6277    -6282    -6319    -6311    -6276    -6305    -6363 
   -6403    -6415    -6384    -6363    -6389    -6392    -6388    -6416 
   -6426    -6427    -6434    -6413    -6415    -6439    -6413    -6407 
   -6454    -6442    -6388    -6389    -6408    -6399    -6396    -6380 
   -6351    -6350    -6346    -6336    -6363    -6351    -6284    -6273 
   -6299    -6284    -6252    -6232    -6237    -6280    -6280    -6211 
   -6172    -6169    -6156    -6162    -6165    -6126    -6110    -6127 
   -6120    -6115    -6114    -6080    -6060    -6043    -5988    -5971 
   -5994    -5973    -5957    -5956    -5904    -5849    -5819    -5780 
   -5773    -5788    -5737    -5687    -5701    -5678    -5623    -5609 
   -5571    -5526    -5519    -5476    -5424    -5410    -5363    -5321 
   -5341    -5328    -5267    -5225    -5181    -5142    -5130    -5112 
   -5103    -5103    -5070    -5016    -4972    -4953    -4954    -4943 
   -4916    -4916    -4914    -4872    -4860    -4895    -4885    -4873 
   -4915    -4912    -4881    -4918    -4934    -4909    -4950    -4980 
   -4931    -4943    -4999    -4978    -4989    -5082    -5120    -5109 
   -5124    -5148    -5182    -5223    -5235    -5240    -5265    -5304 
   -5354    -5383    -5398    -5427    -5452    -5485    -5548    -5594 
   -5595    -5613    -5659    -5694    -5741    -5795    -5819    -5852 
   -5879    -5864    -5902    -5996    -6048    -6096    -6161    -6170 
   -6162    -6184    -6205    -6254    -6330    -6365    -6376    -6427 
   -6474    -6469    -6489    -6538    -6579    -6659    -6714    -6698 
   -6729    -6808    -6828    -6828    -6874    -6943    -6990    -7022 
   -7064    -7092    -7099    -7142    -7192    -7184    -7222    -7323 
   -7335    -7331    -7396    -7400    -7368    -7414    -7466    -7489 
   -7524    -7547    -7550    -7565    -7573    -7557    -7558    -7569 
   -7570    -7607    -7639    -7639    -7666    -7680    -7657    -7659 
   -7650    -7627    -7647    -7670    -7652    -7646    -7649    -7635 
   -7634    -7639    -7632    -7631    -7622    -7597    -7593    -7588 
   -7553    -7520    -7508    -7503    -7503    -7504    -7480    -7449 
   -7406    -7337    -7315    -7333    -7295    -7264    -7275    -7248 
   -7195    -7153    -7115    -7094    -7092    -7091    -7096    -7084 
   -7034    -7010    -6987    -6936    -6941    -6956    -6921    -6902 
   -6917    -6898    -6864    -6848    -6795    -6770    -6815    -6831 
   -6840    -6852    -6797    -6744    -6747    -6705    -6670    -6735 
   -6762    -6718    -6685    -6629    -6586    -6579    -6561    -6551 
   -6573    -6567    -6546    -6546    -6484    -6407    -6400    -6369 
   -6335    -6359    -6340    -6288    -6292    -6259    -6162    -6142 
   -6153    -6107    -6080    -6069    -6031    -6006    -5979    -5933 
   -5915    -5906    -5868    -5860    -5845    -5779    -5724    -5694 
   -5682    -5698    -5703    -5643    -5587    -5566    -5512    -5476 
   -5499    -5505    -5503    -5495    -5437    -5391    -5375    -5346 
   -5341    -5373    -5370    -5360    -5371    -5324    -5268    -5302 
   -5358    -5377    -5377    -5350    -5328    -5347    -5374    -5414 
   -5455    -5460    -5470    -5489    -5475    -5491    -5549    -5576 
   -5590    -5602    -5597    -5640    -5721    -5737    -5726    -5756 
   -5782    -5806    -5857    -5876    -5871    -5914    -5956    -5958 
