Origin Time       2016/04/16 01:25:00
Lat.              32.753
Long.             130.762
Depth. (km)       12
Mag.              7.3
Station Code      OSK009
Station Lat.      34.4366
Station Long.     135.5816
Station Height(m) 209
Record Time       2016/04/16 01:27:32
Sampling Freq(Hz) 100Hz
Duration Time(s)  60
Dir.              N-S
Scale Factor      7845(gal)/8223790
Max. Acc. (gal)   1.928
Last Correction   2016/04/16 01:27:34
Memo.             
[...]
    3662     3657     3649     3639     3630     3618     3603     3586 
    3572     3554     3534     3518     3501     3487     3478     3469 
    3457     3442     3427     3412     3395     3373     3352     3333 
    3312     3295     3276     3260     3246     3231     3215     3199 
    3186     3172     3156     3142     3127     3111     3096     3080 
    3067     3053     3040     3029     3024     3018     3014     3011 
    3007     3006     3001     2995     2991     2984     2979     2979 
    2984     2990     2997     3006     3018     3032     3045     3061 
    3079     3096     3115     3134     3159     3186     3208     3237 
    3269     3296     3326     3357     3387     3416     3446     3473 
    3503     3534     3562     3591     3619     3647     3674     3700 
    3727     3751     3771     3789     3805     3820     3832     3842 
    3852     3861     3870     3877     3880     3883     3882     3879 
    3875     3869     3859     3848     3842     3834     3825     3824 
    3823     3819     3820     3823     3821     3819     3813     3804 
    3789     3773     3757     3738     3719     3704     3686     3667 
    3653     3638     3619     3599     3581     3558     3532     3511 
    3492     3469     3449     3431     3410     3392     3377     3361 
    3342     3327     3312     3295     3283     3271     3258     3250 
    3246     3244     3237     3235     3238     3235     3231     3229 
    3225     3226     3226     3226     3234     3245     3254     3269 
    3283     3298     3314     3327     3341     3355     3369     3384 
    3402     3416     3434     3453     3470     3483     3497     3514 
    3524     3532     3541     3550     3558     3566     3570     3573 
    3578     3582     3585     3584     3581     3578     3574     3569 
    3563     3555     3546     3538     3530     3523     3516     3508 
    3499     3491     3480     3472     3462     3449     3434     3424 
    3415     3402     3388     3384     3376     3365     3357     3348 
    3336     3325     3310     3296     3284     3275     3269     3261 
    3254     3252     3248     3242     3237     3231     3227     3223 
    3218     3213     3206     3198     3192     3186     3179     3172 
    3161     3149     3140     3125     3107     3095     3086     3078 
    3071     3067     3064     3061     3059     3052     3042     3032 
    3021     3010     3001     2990     2979     2978     2982     2986 
    2991     2998     3005     3014     3024     3030     3042     3052 
    3053     3065     3080     3087     3096     3111     3121     3127 
    3138     3148     3154     3165     3179     3191     3203     3215 
    3229     3245     3261     3275     3288     3308     3326     3342 
    3360     3377     3391     3402     3416     3435     3447     3456 
    3466     3473     3477     3485     3491     3492     3495     3496 
    3496     3495     3489     3484     3476     3468     3459     3447 
    3437     3427     3416     3406     3399     3388     3380     3369 
    3360     3350     3343     3333     3319     3308     3300     3291 
    3281     3269     3258     3253     3248     3240     3238     3241 
    3240     3235     3235     3237     3237     3232     3231     3232 
    3232     3232     3234     3232     3230     3231     3234     3237 
    3242     3245     3249     3256     3264     3271     3276     3281 
    3284     3291     3295     3303     3311     3319     3331     3346 
    3358     3375     3393     3412     3431     3446     3462     3484 
    3501     3519     3543     3566     3589     3618     3646     3672 
    3699     3724     3748     3770     3788     3808     3828     3848 
    3869     3890     3915     3937     3959     3978     3993     4001 
    4008     4013     4017     4020     4024     4029     4036     4043 
    4047     4050     4051     4048     4043     4033     4020     4006 
    3993     3978     3962     3947     3936     3924     3910     3896 
    3879     3861     3842     3821     3801     3780     3757     3738 
    3719     3700     3678     3658     3638     3615     3595     3573 
    3547     3520     3495     3470     3447     3423     3397     3376 
    3352     3326     3302     3275     3246     3218     3188     3163 
    3134     3100     3068     3042     3014     2984     2957     2929 
    2902     2874     2844     2811     2782     2758     2735     2710 
    2691     2677     2664     2654     2644     2631     2616     2606 
    2593     2582     2578     2574     2573     2573     2574     2577 
    2577     2579     2582     2581     2582     2586     2590     2594 
    2598     2604     2612     2621     2631     2643     2659     2679 
    2701     2725     2751     2778     2808     2837     2863     2894 
    2922     2949     2979     3013     3048     3084     3126     3171 
    3213     3258     3306     3348     3385     3429     3476     3520 
    3562     3605     3650     3693     3736     3780     3823     3859 
    3894     3929     3960     3984     4009     4035     4055     4072 
    4090     4105     4118     4131     4140     4152     4159     4163 
    4170     4178     4185     4190     4195     4199     4200     4203 
    4205     4205     4202     4199     4199     4197     4197     4197 
    4195     4194     4190     4186     4178     4171     4163     4155 
    4144     4129     4117     4102     4083     4069     4055     4039 
    4023     4012     4000     3986     3978     3974     3967     3963 
    3959     3951     3947     3946     3942     3939     3943     3946 
    3951     3967     3979     3987     4001     4013     4021     4029 
    4036     4044     4052     4060     4071     4082     4090     4098 
    4104     4104     4104     4101     4093     4086     4083     4079 
    4072     4068     4064     4059     4055     4054     4050     4045 
    4047     4048     4050     4054     4055     4055     4058     4062 
    4066     4072     4081     4087     4098     4110     4120     4132 
    4145     4155     4164     4174     4185     4194     4202     4207 
    4213     4218     4218     4215     4214     4209     4205     4199 
    4191     4186     4182     4171     4162     4153     4140     4129 
    4118     4102     4081     4058     4032     4001     3967     3931 
    3894     3861     3827     3792     3761     3730     3697     3663 
    3632     3600     3565     3526     3488     3449     3410     3369 
    3333     3295     3258     3223     3184     3145     3107     3067 
    3029     2992     2956     2921     2886     2855     2825     2791 
    2759     2728     2693     2654     2620     2586     2552     2523 
    2492     2457     2431     2407     2377     2351     2327     2301 
    2278     2258     2238     2223     2208     2192     2181     2172 
    2161     2151     2142     2135     2128     2124     2123     2124 
    2128     2138     2151     2170     2193     2219     2246     2277 
    2315     2354     2393     2435     2478     2524     2573     2614 
    2655     2700     2743     2785     2830     2879     2930     2983 
    3034     3086     3136     3186     3234     3281     3327     3369 
    3414     3458     3499     3538     3580     3622     3661     3697 
    3732     3767     3800     3828     3856     3883     3909     3936 
    3962     3987     4010     4035     4059     4079     4098     4117 
    4133     4145     4158     4167     4175     4183     4192     4200 
    4207     4213     4220     4232     4243     4253     4263     4278 
    4297     4314     4332     4349     4367     4387     4402     4413 
    4426     4437     4446     4460     4471     4482     4492     4502 
    4514     4526     4535     4545     4556     4564     4573     4583 
    4591     4599     4608     4614     4618     4623     4625     4625 
    4627     4629     4626     4626     4623     4619     4617     4611 
    4606     4598     4591     4584     4573     4567     4565     4557 
    4550     4549     4545     4538     4530     4521     4509     4495 
    4479     4461     4440     4417     4395     4368     4337     4302 
    4263     4222     4178     4129     4074     4023     3969     3913 
    3861     3807     3751     3694     3640     3585     3527     3474 
    3423     3373     3325     3276     3232     3188     3144     3105 
    3063     3021     2984     2945     2906     2878     2848     2814 
    2786     2759     2733     2710     2694     2681     2669     2658 
    2648     2643     2639     2633     2631     2631     2633     2636 
    2643     2651     2660     2671     2687     2702     2718     2739 
    2759     2785     2814     2844     2872     2902     2936     2967 
    2998     3028     3056     3084     3115     3144     3169     3194 
    3218     3235     3252     3265     3277     3284     3291     3299 
    3307     3314     3321     3329     3339     3345     3348     3352 
    3354     3354     3355     3358     3361     3362     3366     3369 
    3369     3373     3379     3380     3383     3388     3392     3397 
    3406     3416     3427     3439     3451     3465     3480     3492 
    3504     3518     3535     3554     3570     3589     3612     3634 
    3658     3684     3709     3734     3762     3793     3824     3854 
    3885     3919     3950     3981     4014     4050     4082     4114 
    4145     4175     4207     4238     4266     4293     4320     4342 
    4365     4391     4414     4436     4457     4479     4499     4519 
    4537     4553     4573     4591     4604     4623     4641     4657 
    4675     4693     4710     4730     4747     4764     4780     4795 
    4808     4822     4831     4841     4850     4858     4864     4865 
    4866     4868     4866     4864     4860     4854     4850     4843 
    4837     4830     4822     4814     4804     4791     4776     4762 
    4746     4725     4703     4684     4661     4638     4615     4584 
    4552     4525     4498     4464     4433     4407     4380     4351 
    4322     4298     4271     4240     4209     4178     4143     4105 
    4069     4035     3998     3960     3920     3875     3828     3781 
    3731     3674     3615     3562     3505     3453     3402     3353 
    3307     3261     3215     3173     3129     3083     3040     2997 
    2953     2915     2879     2843     2811     2782     2754     2727 
    2704     2687     2671     2652     2636     2623     2608     2592 
    2577     2565     2551     2539     2527     2513     2502     2489 
    2473     2463     2454     2442     2434     2423     2411     2400 
    2392     2381     2371     2362     2353     2343     2338     2332 
    2326     2326     2330     2335     2343     2351     2362     2374 
    2388     2403     2419     2434     2448     2463     2477     2493 
    2509     2528     2551     2567     2582     2602     2621     2636 
    2652     2667     2678     2693     2712     2732     2751     2770 
    2792     2813     2833     2855     2876     2895     2917     2937 
    2953     2974     2995     3013     3028     3046     3059     3069 
    3082     3096     3107     3114     3127     3142     3149     3157 
    3165     3169     3172     3180     3187     3188     3191     3194 
    3199     3202     3202     3204     3213     3213     3213     3218 
    3223     3227     3235     3244     3252     3261     3273     3281 
    3289     3303     3316     3329     3341     3357     3375     3395 
    3410     3419     3433     3447     3458     3469     3481     3489 
    3499     3511     3522     3528     3535     3542     3547     3550 
    3559     3569     3570     3578     3592     3601     3609     3619 
    3628     3636     3645     3650     3651     3653     3653     3647 
    3642     3634     3624     3613     3607     3599     3586     3576 
    3566     3555     3542     3528     3511     3492     3476     3459 
    3443     3424     3411     3396     3380     3369     3361     3348 
    3333     3322     3310     3300     3295     3287     3280     3277 
    3275     3271     3268     3265     3257     3249     3245     3245 
    3245     3242     3244     3246     3249     3253     3260     3271 
    3281     3288     3295     3303     3308     3315     3322     3325 
    3327     3331     3333     3334     3336     3342     3348     3353 
    3358     3362     3369     3373     3377     3381     3383     3381 
    3381     3379     3379     3381     3381     3383     3385     3385 
    3384     3385     3388     3388     3388     3388     3388     3387 
    3387     3385     3385     3384     3383     3380     3376     3372 
    3369     3369     3369     3369     3368     3368     3373     3376 
    3375     3377     3380     3380     3381     3385     3388     3391 
    3393     3396     3395     3388     3383     3376     3366     3354 
    3342     3330     3316     3302     3291     3279     3262     3244 
    3223     3200     3173     3145     3118     3087     3057     3033 
    3009     2984     2963     2938     2911     2882     2852     2820 
    2787     2754     2721     2690     2660     2631     2602     2573 
    2538     2500     2466     2431     2393     2358     2324     2292 
    2261     2230     2201     2170     2137     2104     2070     2037 
    2004     1971     1934     1903     1869     1836     1807     1779 
    1745     1713     1684     1656     1626     1598     1572     1548 
    1521     1498     1478     1462     1447     1429     1414     1402 
    1393     1387     1387     1386     1386     1389     1394     1402 
    1409     1414     1424     1440     1457     1478     1501     1528 
    1554     1582     1614     1647     1677     1710     1745     1781 
    1818     1857     1902     1946     1987     2030     2074     2115 
    2158     2207     2251     2296     2344     2392     2440     2489 
    2536     2583     2631     2681     2731     2774     2822     2872 
    2917     2960     3006     3053     3098     3140     3179     3217 
    3253     3291     3327     3366     3406     3443     3484     3528 
    3570     3609     3653     3697     3734     3770     3808     3842 
    3873     3901     3923     3946     3971     3990     4005     4023 
    4036     4050     4062     4071     4078     4079     4078     4074 
    4069     4063     4055     4045     4036     4029     4014     3996 
    3978     3954     3925     3898     3867     3834     3802     3767 
    3731     3693     3657     3622     3588     3547     3510     3474 
    3435     3399     3364     3319     3277     3238     3194     3152 
    3111     3067     3025     2986     2945     2907     2872     2835 
    2797     2763     2728     2693     2659     2624     2594     2565 
    2532     2504     2478     2450     2421     2396     2373     2351 
    2328     2308     2292     2277     2262     2249     2238     2228 
    2222     2212     2207     2204     2200     2195     2195     2193 
    2195     2200     2207     2212     2215     2223     2234     2245 
    2253     2261     2273     2288     2301     2315     2331     2347 
    2366     2385     2401     2417     2438     2457     2475     2494 
    2512     2532     2552     2569     2589     2609     2625     2641 
    2660     2679     2695     2714     2732     2751     2768     2786 
    2799     2814     2830     2843     2853     2866     2875     2882 
    2889     2899     2907     2914     2922     2932     2940     2948 
    2953     2961     2972     2982     2990     2998     3002     3007 
    3017     3025     3034     3040     3051     3064     3071     3082 
    3099     3114     3125     3140     3154     3168     3180     3194 
    3207     3221     3235     3248     3260     3275     3287     3298 
    3312     3327     3342     3358     3372     3388     3407     3419 
    3434     3447     3461     3476     3488     3503     3518     3530 
    3543     3555     3568     3580     3592     3603     3611     3622 
    3636     3647     3653     3669     3686     3697     3708     3719 
    3730     3738     3750     3757     3766     3775     3782     3790 
    3797     3807     3815     3820     3828     3839     3847     3856 
    3869     3880     3894     3906     3919     3932     3943     3956 
    3969     3977     3986     3996     4003     4014     4025     4033 
    4041     4047     4051     4055     4062     4067     4074     4078 
    4079     4081     4082     4085     4086     4083     4083     4081 
    4074     4074     4072     4064     4059     4058     4051     4045 
    4045     4041     4035     4033     4031     4028     4025     4024 
    4020     4017     4016     4012     4006     4005     4000     3993 
    3989     3983     3978     3971     3964     3958     3951     3946 
    3937     3928     3924     3917     3909     3901     3894     3886 
    3878     3870     3861     3848     3840     3836     3828     3820 
    3816     3811     3805     3804     3804     3804     3804     3802 
    3804     3807     3809     3811     3813     3816     3819     3821 
    3824     3828     3835     3838     3842     3844     3850     3854 
    3852     3856     3863     3863     3863     3866     3866     3867 
    3869     3866     3865     3866     3869     3870     3869     3870 
    3873     3875     3877     3878     3878     3882     3885     3883 
    3883     3888     3889     3890     3890     3892     3893     3893 
    3893     3894     3896     3897     3901     3904     3904     3908 
    3910     3917     3925     3932     3940     3951     3963     3974 
    3986     4001     4014     4031     4051     4069     4093     4114 
    4135     4158     4183     4209     4232     4255     4276     4297 
    4311     4327     4345     4360     4375     4390     4405     4418 
    4430     4442     4452     4460     4468     4472     4477     4483 
    4486     4487     4486     4486     4486     4486     4484     4480 
    4471     4464     4457     4450     4444     4434     4423     4415 
    4407     4396     4386     4380     4371     4357     4345     4333 
    4321     4306     4287     4266     4251     4233     4214     4195 
    4172     4151     4126     4101     4081     4060     4036     4013 
    3989     3967     3947     3923     3899     3877     3854     3831 
    3808     3785     3761     3740     3719     3700     3684     3667 
    3649     3631     3615     3600     3584     3569     3558     3544 
    3532     3522     3510     3499     3492     3484     3474     3466 
    3459     3453     3445     3437     3434     3431     3423     3419 
    3418     3418     3416     3414     3411     3412     3412     3412 
    3416     3420     3427     3434     3438     3440     3447     3450 
    3450     3451     3454     3456     3456     3457     3458     3461 
    3465     3468     3468     3470     3472     3472     3473     3473 
    3473     3469     3468     3469     3472     3472     3470     3470 
    3472     3473     3473     3474     3474     3477     3481     3484 
    3485     3491     3496     3503     3511     3518     3523     3530 
    3539     3551     3563     3572     3580     3591     3600     3607 
    3618     3627     3636     3646     3658     3669     3680     3692 
    3703     3712     3723     3735     3744     3753     3765     3776 
    3786     3796     3807     3816     3825     3835     3846     3856 
