Origin Time       2016/04/16 01:25:00
Lat.              32.753
Long.             130.762
Depth. (km)       12
Mag.              7.3
Station Code      OSK004
Station Lat.      34.7405
Station Long.     135.6394
Station Height(m) 15
Record Time       2016/04/16 01:27:39
Sampling Freq(Hz) 100Hz
Duration Time(s)  142
Dir.              E-W
Scale Factor      7845(gal)/8223790
Max. Acc. (gal)   2.680
Last Correction   2016/04/16 01:27:40
Memo.             
[...]
  -13630   -13680   -13732   -13786   -13841   -13894   -13945   -13994 
  -14047   -14104   -14160   -14214   -14270   -14324   -14378   -14434 
  -14490   -14546   -14602   -14661   -14710   -14759   -14813   -14864 
  -14909   -14953   -14993   -15028   -15068   -15105   -15130   -15151 
  -15169   -15188   -15206   -15214   -15217   -15222   -15223   -15217 
  -15202   -15187   -15175   -15155   -15124   -15095   -15068   -15034 
  -14997   -14955   -14917   -14878   -14836   -14790   -14742   -14693 
  -14640   -14586   -14538   -14486   -14430   -14372   -14310   -14243 
  -14177   -14107   -14038   -13973   -13905   -13841   -13775   -13714 
  -13653   -13590   -13533   -13486   -13441   -13397   -13358   -13316 
  -13279   -13252   -13228   -13211   -13197   -13189   -13186   -13188 
  -13192   -13197   -13203   -13219   -13236   -13252   -13275   -13297 
  -13316   -13343   -13370   -13393   -13419   -13443   -13473   -13505 
  -13537   -13571   -13602   -13631   -13663   -13697   -13733   -13765 
  -13792   -13817   -13839   -13869   -13898   -13917   -13937   -13959 
  -13976   -13988   -13995   -14004   -14019   -14029   -14037   -14044 
  -14049   -14054   -14067   -14080   -14092   -14103   -14119   -14138 
  -14158   -14184   -14214   -14237   -14265   -14308   -14351   -14392 
  -14443   -14501   -14559   -14621   -14686   -14747   -14806   -14881 
  -14959   -15034   -15109   -15175   -15237   -15305   -15375   -15439 
  -15499   -15556   -15607   -15661   -15714   -15758   -15797   -15836 
  -15873   -15906   -15938   -15957   -15969   -15989   -16005   -16013 
  -16020   -16024   -16017   -16005   -15998   -15986   -15967   -15944 
  -15916   -15886   -15858   -15826   -15785   -15745   -15705   -15660 
  -15608   -15561   -15516   -15465   -15404   -15340   -15279   -15223 
  -15169   -15113   -15051   -14985   -14918   -14859   -14805   -14744 
  -14681   -14629   -14581   -14527   -14472   -14416   -14364   -14320 
  -14276   -14227   -14181   -14137   -14089   -14045   -13999   -13950 
  -13910   -13867   -13814   -13767   -13721   -13672   -13630   -13588 
  -13531   -13468   -13410   -13352   -13296   -13238   -13171   -13106 
  -13042   -12968   -12888   -12820   -12752   -12679   -12607   -12536 
  -12456   -12379   -12306   -12233   -12167   -12104   -12039   -11983 
  -11923   -11858   -11805   -11758   -11705   -11654   -11611   -11572 
  -11537   -11504   -11479   -11458   -11439   -11425   -11411   -11402 
  -11404   -11407   -11403   -11404   -11412   -11422   -11430   -11438 
  -11449   -11461   -11481   -11508   -11533   -11546   -11566   -11601 
  -11638   -11670   -11699   -11724   -11758   -11801   -11844   -11886 
  -11927   -11967   -12012   -12058   -12102   -12147   -12195   -12247 
  -12291   -12334   -12386   -12436   -12479   -12529   -12579   -12630 
  -12680   -12723   -12765   -12811   -12852   -12891   -12935   -12974 
  -13015   -13062   -13106   -13144   -13184   -13225   -13266   -13306 
  -13346   -13386   -13433   -13482   -13522   -13563   -13605   -13648 
  -13694   -13732   -13767   -13806   -13844   -13883   -13930   -13973 
  -14010   -14041   -14072   -14108   -14145   -14173   -14202   -14230 
  -14254   -14281   -14307   -14323   -14337   -14353   -14364   -14376 
  -14382   -14386   -14389   -14389   -14385   -14381   -14377   -14373 
  -14362   -14354   -14357   -14353   -14346   -14342   -14330   -14316 
  -14310   -14295   -14283   -14269   -14249   -14238   -14231   -14216 
  -14204   -14189   -14172   -14158   -14146   -14130   -14113   -14095 
  -14076   -14061   -14050   -14035   -14017   -13999   -13979   -13961 
  -13945   -13923   -13902   -13884   -13867   -13849   -13834   -13818 
  -13801   -13779   -13755   -13737   -13725   -13710   -13695   -13680 
  -13664   -13648   -13640   -13630   -13616   -13608   -13608   -13609 
  -13610   -13616   -13621   -13626   -13637   -13656   -13679   -13702 
  -13724   -13749   -13779   -13813   -13849   -13886   -13921   -13960 
  -14003   -14047   -14092   -14137   -14181   -14234   -14287   -14334 
  -14385   -14445   -14501   -14555   -14608   -14665   -14728   -14790 
  -14845   -14901   -14953   -15003   -15060   -15117   -15163   -15206 
  -15253   -15299   -15341   -15375   -15404   -15434   -15461   -15477 
  -15492   -15499   -15493   -15496   -15502   -15493   -15479   -15466 
  -15454   -15433   -15404   -15373   -15346   -15318   -15279   -15234 
  -15201   -15160   -15107   -15063   -15018   -14963   -14912   -14858 
  -14797   -14736   -14674   -14613   -14557   -14494   -14426   -14364 
  -14305   -14246   -14187   -14131   -14076   -14022   -13971   -13921 
  -13869   -13825   -13779   -13736   -13702   -13671   -13633   -13602 
  -13578   -13549   -13521   -13501   -13495   -13486   -13460   -13440 
  -13435   -13428   -13419   -13410   -13401   -13394   -13394   -13390 
  -13380   -13375   -13374   -13369   -13365   -13363   -13354   -13340 
  -13331   -13321   -13308   -13293   -13279   -13271   -13257   -13236 
  -13221   -13208   -13186   -13166   -13151   -13131   -13106   -13092 
  -13076   -13053   -13034   -13014   -12995   -12981   -12961   -12941 
  -12934   -12921   -12910   -12907   -12898   -12887   -12881   -12879 
  -12881   -12884   -12879   -12873   -12877   -12887   -12892   -12895 
  -12898   -12900   -12904   -12915   -12923   -12926   -12933   -12945 
  -12954   -12968   -12985   -12996   -13008   -13028   -13045   -13063 
  -13090   -13123   -13155   -13185   -13220   -13259   -13304   -13356 
  -13404   -13446   -13502   -13562   -13616   -13674   -13730   -13783 
  -13839   -13894   -13952   -14014   -14071   -14119   -14172   -14227 
  -14285   -14337   -14376   -14418   -14467   -14517   -14563   -14605 
  -14642   -14678   -14713   -14744   -14777   -14809   -14841   -14872 
  -14902   -14926   -14944   -14965   -14985   -14993   -15001   -15017 
  -15026   -15026   -15018   -15012   -15014   -15013   -14997   -14979 
  -14967   -14958   -14944   -14925   -14912   -14905   -14897   -14882 
  -14870   -14866   -14856   -14846   -14841   -14832   -14825   -14825 
  -14825   -14816   -14810   -14809   -14801   -14790   -14783   -14773 
  -14763   -14757   -14747   -14727   -14708   -14698   -14688   -14670 
  -14651   -14634   -14619   -14611   -14605   -14593   -14578   -14571 
  -14566   -14558   -14551   -14547   -14538   -14534   -14538   -14538 
  -14535   -14538   -14535   -14529   -14538   -14547   -14551   -14551 
  -14548   -14546   -14548   -14554   -14557   -14550   -14542   -14543 
  -14548   -14553   -14557   -14555   -14559   -14566   -14575   -14588 
  -14597   -14607   -14621   -14636   -14652   -14670   -14692   -14717 
  -14740   -14764   -14789   -14821   -14858   -14889   -14917   -14953 
  -14987   -15020   -15056   -15093   -15132   -15169   -15205   -15237 
  -15269   -15302   -15331   -15360   -15390   -15412   -15427   -15445 
  -15460   -15471   -15483   -15489   -15492   -15492   -15489   -15484 
  -15480   -15477   -15472   -15465   -15454   -15441   -15430   -15422 
  -15412   -15404   -15395   -15385   -15381   -15368   -15354   -15353 
  -15350   -15344   -15345   -15348   -15348   -15352   -15358   -15363 
  -15367   -15379   -15391   -15399   -15410   -15418   -15422   -15433 
  -15442   -15449   -15457   -15456   -15452   -15447   -15442   -15437 
  -15433   -15422   -15410   -15396   -15376   -15356   -15334   -15313 
  -15299   -15288   -15267   -15242   -15222   -15196   -15171   -15157 
  -15147   -15130   -15113   -15093   -15075   -15057   -15037   -15016 
  -14998   -14982   -14959   -14935   -14909   -14879   -14854   -14829 
  -14800   -14763   -14727   -14688   -14648   -14609   -14570   -14527 
  -14473   -14423   -14380   -14327   -14268   -14208   -14150   -14092 
  -14030   -13965   -13903   -13838   -13765   -13695   -13635   -13574 
  -13510   -13452   -13397   -13336   -13278   -13232   -13186   -13132 
  -13078   -13030   -12991   -12946   -12901   -12861   -12818   -12777 
  -12746   -12717   -12687   -12654   -12622   -12592   -12569   -12552 
  -12529   -12503   -12483   -12465   -12452   -12439   -12424   -12401 
  -12383   -12376   -12375   -12373   -12363   -12353   -12360   -12379 
  -12384   -12380   -12382   -12388   -12405   -12428   -12447   -12459 
  -12474   -12498   -12525   -12548   -12573   -12600   -12637   -12680 
  -12713   -12745   -12785   -12825   -12860   -12898   -12939   -12980 
  -13024   -13065   -13105   -13153   -13194   -13228   -13273   -13323 
  -13366   -13402   -13446   -13498   -13547   -13586   -13624   -13664 
  -13709   -13759   -13806   -13846   -13887   -13925   -13961   -14002 
  -14041   -14077   -14112   -14153   -14192   -14222   -14253   -14283 
  -14304   -14323   -14341   -14358   -14374   -14386   -14392   -14397 
  -14404   -14405   -14404   -14400   -14391   -14384   -14388   -14382 
  -14364   -14346   -14334   -14328   -14330   -14318   -14285   -14265 
  -14272   -14270   -14253   -14231   -14214   -14207   -14206   -14183 
  -14154   -14142   -14130   -14108   -14084   -14054   -14027   -14002 
  -13963   -13918   -13887   -13857   -13815   -13768   -13728   -13694 
  -13656   -13598   -13536   -13483   -13440   -13390   -13328   -13267 
  -13208   -13144   -13080   -13015   -12950   -12888   -12827   -12756 
  -12690   -12625   -12560   -12502   -12445   -12378   -12310   -12254 
  -12206   -12155   -12098   -12046   -12008   -11977   -11943   -11908 
  -11878   -11854   -11831   -11820   -11812   -11799   -11789   -11788 
  -11793   -11804   -11815   -11828   -11843   -11858   -11884   -11913 
  -11939   -11970   -12008   -12044   -12083   -12125   -12164   -12206 
  -12252   -12299   -12347   -12395   -12445   -12492   -12544   -12603 
  -12660   -12713   -12773   -12834   -12892   -12957   -13023   -13085 
  -13147   -13213   -13278   -13340   -13404   -13471   -13541   -13602 
  -13659   -13718   -13782   -13845   -13905   -13957   -14010   -14067 
  -14125   -14179   -14227   -14270   -14318   -14364   -14396   -14424 
  -14463   -14496   -14519   -14536   -14555   -14577   -14597   -14607 
  -14612   -14627   -14638   -14643   -14638   -14632   -14628   -14624 
  -14615   -14604   -14596   -14580   -14558   -14539   -14519   -14499 
  -14481   -14459   -14435   -14411   -14384   -14358   -14331   -14304 
  -14277   -14253   -14234   -14208   -14183   -14166   -14146   -14115 
  -14094   -14076   -14056   -14038   -14021   -14003   -13990   -13977 
  -13968   -13960   -13953   -13945   -13937   -13932   -13925   -13917 
  -13918   -13921   -13921   -13926   -13932   -13932   -13936   -13942 
  -13950   -13959   -13964   -13976   -14000   -14023   -14038   -14052 
  -14065   -14084   -14104   -14125   -14143   -14161   -14181   -14200 
  -14214   -14227   -14241   -14246   -14258   -14273   -14277   -14284 
  -14296   -14297   -14293   -14292   -14293   -14291   -14288   -14287 
  -14283   -14265   -14250   -14237   -14216   -14199   -14192   -14176 
  -14148   -14125   -14102   -14075   -14050   -14023   -13995   -13969 
  -13945   -13922   -13899   -13875   -13853   -13836   -13815   -13798 
  -13783   -13763   -13744   -13734   -13725   -13709   -13694   -13680 
  -13667   -13654   -13641   -13625   -13617   -13617   -13614   -13606 
  -13598   -13593   -13587   -13583   -13586   -13583   -13575   -13578 
  -13591   -13601   -13608   -13610   -13614   -13621   -13640   -13663 
  -13684   -13705   -13724   -13740   -13760   -13782   -13803   -13829 
  -13861   -13888   -13914   -13942   -13968   -13994   -14030   -14071 
  -14100   -14130   -14166   -14203   -14231   -14255   -14281   -14310 
  -14342   -14376   -14409   -14446   -14482   -14511   -14543   -14581 
  -14612   -14642   -14675   -14712   -14751   -14793   -14829   -14866 
  -14909   -14948   -14983   -15014   -15044   -15080   -15125   -15163 
  -15202   -15245   -15287   -15326   -15365   -15398   -15430   -15471 
  -15510   -15550   -15595   -15628   -15657   -15696   -15735   -15769 
  -15807   -15846   -15873   -15901   -15929   -15958   -15985   -16009 
  -16031   -16048   -16058   -16067   -16079   -16094   -16113   -16132 
  -16140   -16136   -16133   -16136   -16131   -16132   -16140   -16137 
  -16133   -16135   -16128   -16121   -16116   -16108   -16104   -16108 
  -16108   -16106   -16104   -16101   -16104   -16114   -16121   -16127 
  -16129   -16127   -16123   -16131   -16144   -16156   -16164   -16167 
  -16175   -16185   -16186   -16183   -16187   -16189   -16190   -16190 
  -16186   -16182   -16179   -16170   -16160   -16157   -16152   -16133 
  -16119   -16108   -16090   -16073   -16062   -16042   -16013   -15997 
  -15974   -15939   -15912   -15886   -15849   -15813   -15778   -15730 
  -15684   -15645   -15599   -15546   -15493   -15439   -15385   -15329 
  -15271   -15206   -15140   -15076   -15007   -14932   -14862   -14790 
  -14720   -14650   -14581   -14512   -14442   -14374   -14307   -14230 
  -14160   -14095   -14025   -13960   -13900   -13839   -13782   -13725 
  -13666   -13603   -13543   -13486   -13432   -13380   -13328   -13275 
  -13221   -13162   -13100   -13041   -12985   -12935   -12883   -12822 
  -12756   -12702   -12656   -12602   -12542   -12491   -12434   -12380 
  -12337   -12283   -12228   -12179   -12124   -12075   -12035   -11985 
  -11939   -11898   -11851   -11805   -11765   -11726   -11682   -11638 
  -11603   -11569   -11530   -11496   -11462   -11421   -11388   -11367 
  -11342   -11313   -11294   -11276   -11256   -11241   -11236   -11226 
  -11217   -11219   -11226   -11227   -11230   -11237   -11250   -11275 
  -11299   -11322   -11352   -11379   -11412   -11448   -11484   -11527 
  -11577   -11632   -11691   -11747   -11799   -11844   -11890   -11940 
  -11989   -12035   -12087   -12143   -12194   -12241   -12286   -12322 
  -12351   -12378   -12410   -12444   -12467   -12492   -12537   -12581 
  -12592   -12567   -12576   -12633   -12658   -12663   -12680   -12685 
  -12691   -12713   -12725   -12738   -12756   -12760   -12783   -12816 
  -12831   -12843   -12860   -12876   -12896   -12924   -12954   -12987 
  -13008   -13020   -13038   -13054   -13070   -13095   -13116   -13132 
  -13157   -13184   -13207   -13225   -13243   -13265   -13286   -13309 
  -13328   -13338   -13344   -13355   -13374   -13401   -13419   -13425 
  -13432   -13446   -13473   -13505   -13527   -13543   -13563   -13579 
  -13598   -13626   -13660   -13697   -13724   -13747   -13782   -13819 
  -13852   -13887   -13932   -13973   -14014   -14052   -14090   -14134 
  -14175   -14203   -14229   -14272   -14337   -14388   -14409   -14439 
  -14492   -14531   -14562   -14604   -14648   -14696   -14742   -14767 
  -14790   -14818   -14831   -14852   -14897   -14939   -14960   -14987 
  -15024   -15040   -15040   -15047   -15063   -15084   -15109   -15126 
  -15136   -15142   -15144   -15138   -15140   -15149   -15155   -15157 
  -15159   -15155   -15151   -15145   -15137   -15129   -15122   -15113 
  -15103   -15097   -15090   -15078   -15057   -15037   -15025   -15020 
  -15012   -14994   -14967   -14945   -14935   -14924   -14908   -14889 
  -14866   -14844   -14828   -14804   -14777   -14754   -14727   -14701 
  -14693   -14690   -14665   -14613   -14571   -14566   -14567   -14551 
  -14542   -14532   -14493   -14458   -14445   -14434   -14423   -14413 
  -14407   -14403   -14386   -14373   -14377   -14381   -14376   -14361 
  -14345   -14342   -14347   -14345   -14341   -14343   -14338   -14324 
  -14319   -14320   -14321   -14319   -14315   -14312   -14305   -14300 
  -14303   -14296   -14288   -14285   -14274   -14261   -14250   -14237 
  -14222   -14210   -14202   -14191   -14179   -14169   -14160   -14148 
  -14143   -14138   -14116   -14092   -14073   -14056   -14062   -14071 
  -14025   -13971   -13987   -13977   -13909   -13900   -13899   -13844 
  -13832   -13839   -13811   -13788   -13763   -13730   -13716   -13710 
  -13702   -13697   -13691   -13678   -13675   -13678   -13676   -13682 
  -13684   -13684   -13697   -13706   -13710   -13720   -13728   -13736 
  -13751   -13761   -13768   -13780   -13798   -13817   -13836   -13853 
  -13867   -13871   -13887   -13913   -13930   -13950   -13971   -13979 
  -13995   -14014   -14019   -14030   -14045   -14067   -14103   -14116 
  -14111   -14135   -14164   -14165   -14184   -14218   -14241   -14265 
  -14288   -14303   -14327   -14353   -14372   -14405   -14442   -14459 
  -14466   -14481   -14501   -14515   -14529   -14547   -14562   -14569 
  -14565   -14555   -14550   -14553   -14554   -14548   -14535   -14519 
  -14496   -14476   -14459   -14435   -14409   -14389   -14364   -14334 
  -14297   -14258   -14233   -14204   -14165   -14134   -14104   -14064 
  -14022   -13990   -13963   -13925   -13886   -13861   -13826   -13780 
  -13748   -13726   -13697   -13666   -13639   -13613   -13587   -13570 
  -13554   -13536   -13518   -13502   -13489   -13475   -13458   -13455 
  -13466   -13479   -13485   -13481   -13481   -13487   -13489   -13501 
  -13524   -13551   -13575   -13594   -13602   -13609   -13613   -13624 
  -13648   -13683   -13713   -13737   -13765   -13790   -13799   -13811 
  -13829   -13853   -13887   -13915   -13930   -13948   -13973   -13996 
  -14017   -14044   -14076   -14106   -14137   -14176   -14207   -14220 
  -14239   -14269   -14301   -14341   -14385   -14426   -14457   -14484 
  -14513   -14539   -14566   -14604   -14648   -14696   -14740   -14769 
  -14785   -14805   -14828   -14858   -14899   -14944   -14979   -15002 
  -15012   -15028   -15054   -15080   -15109   -15145   -15182   -15209 
  -15225   -15237   -15255   -15276   -15302   -15330   -15352   -15371 
  -15399   -15418   -15410   -15396   -15406   -15427   -15452   -15471 
  -15483   -15483   -15471   -15465   -15473   -15480   -15488   -15499 
  -15502   -15496   -15500   -15504   -15502   -15502   -15499   -15495 
  -15496   -15488   -15476   -15472   -15465   -15454   -15442   -15424 
  -15402   -15383   -15364   -15344   -15322   -15300   -15279   -15245 
  -15205   -15171   -15142   -15118   -15097   -15060   -15012   -14962 
  -14921   -14898   -14875   -14840   -14804   -14764   -14713   -14665 
  -14632   -14598   -14554   -14521   -14496   -14459   -14418   -14380 
  -14341   -14310   -14283   -14249   -14212   -14179   -14154   -14137 
  -14107   -14064   -14026   -13995   -13967   -13950   -13934   -13913 
  -13895   -13869   -13838   -13817   -13805   -13795   -13787   -13770 
  -13752   -13740   -13725   -13695   -13667   -13649   -13639   -13637 
  -13633   -13612   -13583   -13564   -13551   -13543   -13540   -13535 
  -13520   -13501   -13479   -13467   -13460   -13451   -13435   -13413 
  -13397   -13396   -13386   -13359   -13338   -13316   -13288   -13273 
  -13266   -13251   -13234   -13217   -13185   -13150   -13124   -13101 
  -13089   -13085   -13070   -13042   -13009   -12974   -12935   -12915 
  -12910   -12897   -12880   -12857   -12822   -12784   -12749   -12722 
  -12702   -12679   -12657   -12633   -12598   -12563   -12530   -12503 
  -12488   -12482   -12463   -12432   -12405   -12388   -12375   -12359 
  -12344   -12332   -12324   -12318   -12299   -12270   -12247   -12249 
  -12262   -12254   -12240   -12237   -12239   -12231   -12212   -12193 
  -12186   -12195   -12209   -12209   -12201   -12197   -12186   -12178 
  -12179   -12174   -12164   -12159   -12158   -12162   -12177   -12183 
