Origin Time       2016/04/16 01:25:00
Lat.              32.753
Long.             130.762
Depth. (km)       12
Mag.              7.3
Station Code      OSK003
Station Lat.      34.7668
Station Long.     135.4683
Station Height(m) 5
Record Time       2016/04/16 01:27:31
Sampling Freq(Hz) 100Hz
Duration Time(s)  114
Dir.              N-S
Scale Factor      7845(gal)/8223790
Max. Acc. (gal)   4.875
Last Correction   2016/04/16 01:27:32
Memo.             
[...]
    2274     2247     2219     2192     2157     2124     2098     2068 
    2037     2014     1992     1966     1944     1917     1890     1871 
    1854     1830     1804     1780     1755     1728     1701     1677 
    1658     1636     1618     1605     1586     1574     1572     1572 
    1576     1586     1594     1606     1624     1638     1655     1675 
    1694     1707     1721     1737     1750     1764     1783     1796 
    1810     1821     1826     1833     1848     1852     1856     1861 
    1859     1852     1842     1830     1821     1818     1822     1829 
    1826     1821     1822     1822     1822     1829     1833     1826 
    1818     1814     1803     1776     1744     1702     1647     1594 
    1543     1483     1416     1341     1260     1173     1078      976 
     870      766      661      548      434      322      206       89 
     -27     -144     -256     -361     -468     -568     -656     -733 
    -801     -862     -908     -939     -966     -984     -986     -977 
    -959     -936     -907     -868     -823     -774     -718     -654 
    -595     -537     -475     -407     -334     -255     -168      -78 
      11       98      187      287      387      490      600      710 
     819      931     1043     1158     1271     1379     1487     1594 
    1694     1790     1883     1972     2061     2149     2236     2323 
    2400     2467     2536     2605     2667     2727     2785     2836 
    2880     2918     2945     2959     2960     2948     2926     2895 
    2862     2825     2781     2733     2686     2628     2565     2511 
    2457     2401     2350     2295     2239     2184     2128     2074 
    2014     1949     1894     1836     1773     1715     1664     1606 
    1552     1499     1439     1381     1333     1279     1224     1178 
    1132     1092     1057     1021      992      965      943      931 
     927      922      920      919      913      913      923      924 
     919      913      907      895      881      861      834      804 
     774      745      712      672      627      579      526      469 
     411      349      280      205      117       22      -70     -170 
    -279     -383     -486     -589     -689     -785     -877     -957 
   -1030    -1102    -1174    -1237    -1296    -1348    -1399    -1449 
   -1497    -1540    -1582    -1621    -1651    -1675    -1699    -1719 
   -1733    -1748    -1759    -1761    -1757    -1745    -1729    -1711 
   -1694    -1683    -1669    -1651    -1634    -1618    -1594    -1572 
   -1548    -1522    -1494    -1460    -1433    -1409    -1374    -1337 
   -1310    -1277    -1237    -1201    -1162    -1123    -1081    -1042 
   -1000     -958     -909     -857     -803     -753     -702     -650 
    -599     -549     -493     -430     -372     -319     -268     -224 
    -183     -140     -103      -75      -47      -23        1       25 
      43       56       67       75       83       97      108      110 
     116      124      131      141      157      175      197      225 
     253      282      318      357      399      446      492      535 
     577      618      657      695      735      780      827      870 
     913      959     1008     1059     1116     1183     1259     1339 
    1422     1512     1606     1709     1819     1930     2046     2168 
    2295     2424     2551     2668     2779     2891     3005     3123 
    3237     3338     3430     3514     3588     3657     3719     3776 
    3838     3897     3955     4013     4067     4117     4166     4210 
    4248     4282     4320     4356     4383     4407     4429     4438 
    4444     4446     4433     4414     4401     4376     4338     4295 
    4247     4189     4126     4058     3979     3890     3793     3689 
    3580     3466     3349     3227     3107     2986     2856     2728 
    2610     2489     2370     2261     2154     2045     1941     1845 
    1746     1651     1560     1464     1367     1278     1189     1100 
    1011      924      832      738      649      560      468      376 
     287      195       94      -13     -124     -236     -355     -480 
    -611     -746     -880    -1013    -1148    -1285    -1422    -1566 
   -1701    -1821    -1930    -2038    -2139    -2222    -2285    -2342 
   -2389    -2421    -2444    -2458    -2461    -2452    -2430    -2390 
   -2343    -2293    -2239    -2174    -2097    -2018    -1930    -1838 
   -1742    -1645    -1548    -1444    -1339    -1237    -1131    -1023 
    -923     -822     -718     -615     -510     -406     -306     -198 
     -90       13      121      233      344      457      571      687 
     804      916     1024     1125     1220     1313     1398     1474 
    1537     1587     1630     1669     1705     1734     1755     1775 
    1792     1802     1806     1807     1803     1794     1783     1768 
    1749     1722     1687     1653     1621     1587     1552     1516 
    1476     1437     1397     1356     1317     1275     1229     1185 
    1142     1101     1062     1015      963      913      862      811 
     761      714      669      625      584      544      500      457 
     417      380      348      313      276      243      211      180 
     152      125      101       78       59       41       28       17 
      14       20       27       37       56       79      102      125 
     148      174      199      222      245      274      306      334 
     360      383      400      419      441      456      469      481 
     484      476      463      453      438      417      394      372 
     349      328      310      294      280      270      263      266 
     279      288      298      317      338      359      380      398 
     410      423      442      464      483      500      519      538 
     553      576      598      619      643      669      693      718 
     741      770      807      847      889      924      961     1005 
    1053     1102     1161     1213     1263     1317     1375     1435 
    1493     1548     1603     1653     1699     1746     1790     1831 
    1873     1906     1937     1971     2000     2027     2053     2081 
    2114     2146     2176     2203     2227     2243     2254     2265 
    2281     2296     2312     2328     2338     2350     2361     2367 
    2369     2371     2377     2384     2390     2389     2381     2370 
    2358     2349     2332     2308     2285     2255     2220     2189 
    2158     2124     2088     2052     2019     1991     1960     1929 
    1899     1869     1846     1829     1813     1800     1794     1788 
    1787     1791     1796     1803     1818     1838     1852     1865 
    1885     1907     1925     1937     1944     1952     1962     1965 
    1971     1985     1998     2006     2014     2027     2045     2064 
    2081     2102     2126     2149     2180     2218     2254     2297 
    2342     2386     2434     2482     2529     2581     2633     2687 
    2743     2797     2851     2905     2953     3002     3051     3100 
    3146     3187     3222     3250     3275     3302     3326     3346 
    3369     3392     3410     3431     3453     3476     3510     3550 
    3585     3623     3666     3715     3769     3823     3880     3944 
    4000     4050     4104     4155     4209     4266     4318     4364 
    4411     4456     4502     4552     4600     4639     4676     4712 
    4745     4772     4800     4827     4852     4872     4887     4899 
    4900     4897     4897     4891     4881     4876     4862     4843 
    4826     4799     4761     4723     4683     4639     4600     4558 
    4511     4460     4406     4349     4298     4248     4197     4147 
    4101     4055     4017     3983     3947     3910     3873     3836 
    3802     3767     3734     3704     3669     3632     3599     3563 
    3524     3492     3457     3419     3381     3336     3292     3254 
    3218     3177     3134     3090     3046     3002     2957     2909 
    2863     2821     2779     2735     2690     2641     2590     2536 
    2475     2416     2353     2274     2195     2111     2018     1919 
    1815     1701     1578     1453     1324     1188     1050      911 
     770      630      488      346      211       71      -68     -199 
    -317     -425     -526     -627     -719     -799     -872     -929 
    -974    -1013    -1038    -1044    -1044    -1035    -1011     -980 
    -945     -892     -830     -766     -689     -604     -517     -422 
    -321     -220     -112        0      122      249      379      508 
     638      772      913     1053     1192     1336     1482     1622 
    1757     1883     2004     2121     2232     2338     2439     2535 
    2625     2710     2791     2867     2937     3006     3069     3125 
    3179     3229     3271     3314     3354     3385     3411     3429 
    3440     3449     3451     3447     3440     3429     3411     3388 
    3357     3315     3272     3226     3180     3126     3063     3001 
    2941     2876     2803     2725     2639     2551     2461     2365 
    2265     2169     2073     1973     1871     1768     1665     1556 
    1443     1329     1217     1101      989      890      793      697 
     608      517      422      344      275      212      167      128 
      97       78       62       47       35       32       35       39 
      43       49       62       74       91      109      124      147 
     175      202      228      261      299      333      372      413 
     448      483      518      556      595      633      665      697 
     727      750      772      796      820      842      859      880 
     896      903      908      911      913      918      918      913 
     912      909      905      903      907      909      905      900 
     903      907      908      915      924      929      938      945 
     946      947      946      942      942      940      939      942 
     946      954      962      970      978      986      996     1005 
    1021     1043     1067     1097     1131     1165     1194     1228 
    1270     1314     1355     1398     1445     1489     1537     1599 
    1664     1728     1799     1873     1953     2037     2123     2215 
    2315     2411     2511     2619     2721     2822     2926     3024 
    3117     3208     3292     3368     3443     3507     3561     3612 
    3653     3684     3713     3736     3748     3754     3750     3736 
    3715     3688     3657     3615     3569     3515     3454     3388 
    3312     3235     3161     3083     2999     2913     2820     2728 
    2641     2556     2471     2393     2309     2226     2150     2079 
    2010     1938     1871     1804     1729     1653     1587     1521 
    1452     1387     1318     1247     1175     1098     1017      942 
     868      788      710      633      553      477      405      332 
     253      168       89       14      -55     -125     -191     -257 
    -322     -378     -427     -483     -537     -579     -618     -650 
    -668     -683     -699     -702     -699     -693     -681     -662 
    -638     -607     -572     -526     -475     -419     -361     -295 
    -225     -151      -74        1       83      167      251      341 
     433      525      619      711      801      889      974     1060 
    1144     1219     1290     1360     1425     1487     1541     1587 
    1626     1658     1682     1702     1717     1729     1740     1740 
    1733     1723     1709     1692     1669     1638     1605     1572 
    1544     1521     1493     1460     1436     1413     1393     1383 
    1381     1381     1383     1389     1397     1409     1422     1440 
    1462     1472     1485     1503     1520     1534     1553     1568 
    1578     1591     1601     1602     1605     1605     1598     1594 
    1588     1574     1556     1534     1509     1486     1460     1425 
    1394     1367     1337     1305     1273     1240     1209     1175 
    1133     1090     1050     1011      973      929      884      842 
     803      762      719      673      630      585      540      498 
     457      418      375      330      284      236      189      141 
      89       37      -16      -75     -128     -182     -240     -297 
    -356     -418     -473     -526     -583     -633     -677     -722 
    -764     -800     -835     -864     -886     -901     -908     -911 
    -915     -913     -899     -880     -855     -820     -780     -739 
    -692     -635     -572     -502     -425     -344     -259     -162 
     -62       36      137      248      368      490      614      741 
     868     1000     1138     1279     1418     1561     1707     1852 
    1995     2138     2278     2413     2542     2668     2791     2906 
    3019     3126     3222     3310     3387     3458     3527     3582 
    3622     3658     3688     3704     3711     3712     3708     3693 
    3670     3640     3601     3554     3501     3439     3376     3312 
    3237     3153     3063     2967     2874     2771     2666     2555 
    2438     2316     2189     2056     1918     1772     1621     1468 
    1316     1161     1007      854      693      533      378      224 
      74      -79     -230     -376     -526     -679     -830     -986 
   -1143    -1297    -1451    -1601    -1746    -1892    -2038    -2170 
   -2300    -2431    -2552    -2662    -2768    -2870    -2963    -3052 
   -3137    -3215    -3283    -3345    -3407    -3466    -3518    -3563 
   -3603    -3639    -3666    -3686    -3703    -3709    -3712    -3712 
   -3704    -3689    -3672    -3647    -3620    -3586    -3546    -3505 
   -3464    -3422    -3380    -3331    -3281    -3232    -3175    -3109 
   -3044    -2976    -2906    -2832    -2751    -2662    -2569    -2470 
   -2366    -2255    -2139    -2018    -1888    -1761    -1632    -1495 
   -1354    -1206    -1053     -897     -738     -575     -410     -246 
     -76       94      265      440      618      800      985     1170 
    1356     1537     1714     1887     2050     2211     2367     2517 
    2663     2802     2933     3061     3187     3308     3423     3537 
    3643     3740     3842     3946     4044     4140     4236     4317 
    4393     4471     4542     4602     4653     4707     4753     4784 
    4807     4824     4828     4820     4806     4780     4745     4704 
    4652     4585     4514     4434     4344     4251     4155     4044 
    3927     3816     3700     3580     3464     3345     3223     3106 
    2986     2868     2755     2644     2529     2413     2307     2205 
    2104     2008     1917     1826     1744     1668     1595     1528 
    1470     1418     1371     1333     1302     1275     1255     1240 
    1232     1229     1229     1233     1246     1266     1289     1313 
    1344     1378     1414     1462     1513     1567     1624     1684 
    1753     1826     1896     1969     2045     2121     2207     2296 
    2382     2469     2559     2654     2749     2848     2948     3049 
    3154     3262     3372     3476     3576     3672     3765     3855 
    3942     4025     4101     4168     4233     4289     4330     4365 
    4393     4417     4437     4452     4457     4457     4452     4434 
    4409     4384     4353     4310     4261     4212     4156     4095 
    4028     3959     3885     3801     3715     3624     3528     3433 
    3331     3219     3103     2986     2867     2740     2612     2485 
    2359     2236     2110     1981     1854     1729     1606     1495 
    1386     1278     1174     1073      977      885      795      711 
     633      553      486      429      370      313      261      212 
     170      129       99       76       59       44       37       43 
      51       60       82      112      143      178      222      268 
     322      383      445      506      569      631      700      766 
     828      899      970     1036     1101     1166     1230     1300 
    1372     1443     1514     1587     1660     1738     1815     1888 
    1961     2027     2093     2165     2228     2289     2353     2405 
    2452     2501     2548     2590     2631     2674     2718     2763 
    2808     2853     2896     2937     2979     3018     3055     3090 
    3126     3159     3192     3221     3249     3280     3307     3334 
    3362     3391     3420     3450     3476     3504     3532     3561 
    3589     3611     3626     3638     3642     3640     3634     3623 
    3601     3573     3537     3492     3443     3388     3329     3264 
    3194     3126     3053     2972     2890     2805     2714     2624 
    2533     2438     2346     2253     2153     2056     1964     1871 
    1783     1701     1615     1533     1456     1378     1301     1232 
    1162     1090     1030      976      919      859      803      750 
     702      664      629      592      565      542      521      503 
     490      473      459      448      444      444      445      446 
     446      449      454      464      477      486      500      518 
     531      545      562      584      602      614      625      641 
     652      658      662      665      676      689      699      712 
     730      750      772      795      822      853      889      927 
     966     1012     1057     1096     1140     1185     1224     1259 
    1301     1343     1382     1424     1462     1495     1533     1570 
    1603     1642     1683     1723     1763     1804     1844     1878 
    1917     1954     1989     2027     2065     2097     2126     2157 
    2184     2207     2226     2241     2253     2258     2263     2265 
    2261     2250     2234     2215     2201     2181     2155     2128 
    2098     2065     2029     1989     1949     1910     1869     1829 
    1787     1745     1707     1667     1628     1593     1556     1514 
    1472     1431     1394     1360     1331     1304     1277     1251 
    1232     1215     1198     1190     1185     1182     1185     1190 
    1201     1217     1235     1254     1281     1308     1332     1359 
    1387     1417     1448     1478     1506     1532     1556     1579 
    1599     1617     1630     1642     1649     1653     1658     1660 
    1657     1651     1642     1640     1637     1630     1624     1617 
    1609     1603     1597     1591     1587     1574     1563     1559 
    1551     1541     1532     1520     1509     1503     1495     1486 
    1478     1468     1462     1459     1453     1437     1418     1405 
    1391     1372     1355     1336     1316     1297     1277     1259 
    1246     1233     1227     1221     1216     1215     1215     1210 
    1204     1201     1201     1198     1185     1174     1162     1142 
    1121     1097     1065     1038     1012      986      957      922 
     885      847      810      770      730      689      649      611 
     571      529      487      449      414      380      355      334 
     317      301      287      274      266      270      279      291 
     302      321      349      373      400      434      469      504 
     542      585      637      688      737      793      846      890 
     940      993     1042     1096     1146     1192     1239     1285 
    1327     1368     1405     1440     1474     1507     1535     1561 
    1587     1614     1637     1658     1680     1699     1717     1740 
