Origin Time       2016/04/16 01:25:00
Lat.              32.753
Long.             130.762
Depth. (km)       12
Mag.              7.3
Station Code      OSK002
Station Lat.      34.8573
Station Long.     135.5958
Station Height(m) 34
Record Time       2016/04/16 01:27:34
Sampling Freq(Hz) 100Hz
Duration Time(s)  112
Dir.              E-W
Scale Factor      7845(gal)/8223790
Max. Acc. (gal)   2.696
Last Correction   2016/04/16 01:27:35
Memo.             
[...]
   -2095    -2085    -2106    -2162    -2196    -2195    -2180    -2180 
   -2196    -2191    -2184    -2211    -2205    -2149    -2126    -2155 
   -2212    -2205    -2089    -2029    -2061    -2085    -2096    -2064 
   -2029    -2018    -1969    -1973    -2045    -2043    -1991    -1975 
   -1984    -2011    -2053    -2057    -2020    -2006    -2018    -2034 
   -2046    -2034    -2011    -1993    -1991    -1992    -1975    -1968 
   -1966    -1945    -1935    -1899    -1861    -1898    -1898    -1852 
   -1867    -1857    -1807    -1798    -1776    -1744    -1741    -1723 
   -1711    -1734    -1757    -1744    -1676    -1634    -1658    -1656 
   -1626    -1634    -1667    -1696    -1703    -1687    -1667    -1647 
   -1655    -1702    -1753    -1755    -1694    -1671    -1723    -1786 
   -1826    -1815    -1737    -1694    -1719    -1761    -1830    -1856 
   -1799    -1790    -1806    -1773    -1787    -1833    -1850    -1856 
   -1846    -1849    -1895    -1911    -1900    -1908    -1938    -1980 
   -1965    -1956    -2042    -2072    -2039    -2058    -2068    -2050 
   -2030    -2030    -2088    -2123    -2085    -2084    -2126    -2092 
   -2047    -2076    -2085    -2088    -2115    -2096    -2116    -2181 
   -2114    -2019    -2049    -2093    -2087    -2062    -2053    -2052 
   -2025    -1979    -1935    -1938    -2018    -2060    -1991    -1915 
   -1888    -1895    -1949    -2006    -1992    -1938    -1910    -1927 
   -1952    -1949    -1960    -1981    -1966    -1962    -1993    -1991 
   -1985    -2016    -2015    -2004    -2020    -2020    -2037    -2085 
   -2096    -2077    -2073    -2085    -2116    -2116    -2085    -2124 
   -2181    -2166    -2153    -2161    -2144    -2139    -2154    -2161 
   -2165    -2189    -2191    -2138    -2120    -2144    -2107    -2083 
   -2114    -2097    -2061    -2072    -2083    -2049    -2003    -2006 
   -2022    -2008    -2026    -2062    -2038    -1991    -1981    -1975 
   -1938    -1922    -1949    -1980    -1965    -1929    -1921    -1929 
   -1917    -1915    -1926    -1896    -1865    -1880    -1884    -1867 
   -1885    -1912    -1899    -1885    -1884    -1854    -1821    -1826 
   -1849    -1858    -1857    -1852    -1830    -1772    -1733    -1744 
   -1761    -1769    -1800    -1830    -1814    -1775    -1757    -1760 
   -1748    -1753    -1804    -1842    -1826    -1802    -1771    -1734 
   -1722    -1744    -1777    -1792    -1784    -1760    -1721    -1709 
   -1728    -1733    -1740    -1749    -1745    -1744    -1746    -1746 
   -1742    -1748    -1773    -1790    -1776    -1767    -1777    -1776 
   -1777    -1810    -1818    -1780    -1760    -1780    -1813    -1841 
   -1846    -1792    -1732    -1745    -1788    -1794    -1780    -1742 
   -1707    -1729    -1748    -1715    -1714    -1745    -1719    -1677 
   -1680    -1663    -1647    -1682    -1706    -1709    -1710    -1692 
   -1675    -1657    -1641    -1667    -1726    -1746    -1719    -1715 
   -1728    -1714    -1705    -1726    -1757    -1773    -1773    -1765 
   -1755    -1765    -1790    -1795    -1823    -1859    -1848    -1838 
   -1871    -1898    -1926    -1956    -1949    -1960    -1996    -1982 
   -1968    -2000    -2020    -2029    -2068    -2066    -1995    -1993 
   -2066    -2081    -2068    -2069    -2056    -2057    -2069    -2047 
   -2042    -2065    -2053    -2034    -2050    -2039    -1996    -1981 
   -1977    -1973    -1966    -1938    -1911    -1904    -1900    -1868 
   -1815    -1779    -1769    -1750    -1706    -1676    -1663    -1634 
   -1598    -1568    -1548    -1514    -1467    -1459    -1462    -1440 
   -1424    -1399    -1364    -1360    -1371    -1355    -1345    -1378 
   -1414    -1416    -1412    -1431    -1451    -1474    -1516    -1552 
   -1586    -1628    -1644    -1653    -1692    -1717    -1734    -1795 
   -1845    -1865    -1906    -1935    -1935    -1968    -2023    -2050 
   -2068    -2111    -2142    -2143    -2173    -2207    -2192    -2189 
   -2234    -2265    -2254    -2238    -2267    -2299    -2274    -2242 
   -2226    -2209    -2211    -2215    -2200    -2176    -2147    -2110 
   -2079    -2072    -2072    -2069    -2066    -2069    -2073    -2077 
   -2070    -2068    -2076    -2070    -2077    -2116    -2139    -2139 
   -2143    -2151    -2160    -2161    -2160    -2176    -2199    -2196 
   -2174    -2161    -2163    -2160    -2133    -2095    -2065    -2053 
   -2060    -2049    -2011    -1968    -1929    -1891    -1852    -1810 
   -1760    -1729    -1721    -1694    -1675    -1692    -1684    -1632 
   -1591    -1580    -1591    -1593    -1591    -1613    -1632    -1642 
   -1658    -1669    -1676    -1707    -1763    -1811    -1842    -1876 
   -1906    -1929    -1965    -2014    -2049    -2070    -2101    -2144 
   -2177    -2188    -2203    -2223    -2214    -2205    -2234    -2246 
   -2222    -2208    -2215    -2218    -2208    -2191    -2173    -2157 
   -2130    -2114    -2135    -2154    -2126    -2088    -2079    -2106 
   -2120    -2092    -2061    -2068    -2081    -2083    -2088    -2093 
   -2066    -2033    -2038    -2047    -2033    -2012    -1993    -1987 
   -1996    -2007    -1992    -1965    -1971    -2010    -2034    -2023 
   -2016    -2022    -2029    -2045    -2050    -2042    -2045    -2057 
   -2079    -2087    -2066    -2046    -2041    -2045    -2049    -2043 
   -2033    -2025    -2030    -2038    -2020    -1992    -1988    -1980 
   -1972    -1988    -1977    -1926    -1894    -1876    -1859    -1844 
   -1806    -1783    -1783    -1765    -1733    -1705    -1674    -1645 
   -1642    -1669    -1691    -1690    -1694    -1710    -1717    -1725 
   -1745    -1779    -1826    -1873    -1906    -1930    -1948    -1979 
   -2027    -2081    -2128    -2154    -2184    -2239    -2273    -2289 
   -2330    -2373    -2412    -2475    -2519    -2501    -2479    -2506 
   -2565    -2605    -2604    -2574    -2550    -2562    -2594    -2597 
   -2562    -2515    -2485    -2479    -2465    -2423    -2377    -2338 
   -2308    -2299    -2280    -2228    -2191    -2166    -2123    -2058 
   -1992    -1964    -1973    -1956    -1903    -1856    -1807    -1765 
   -1746    -1718    -1690    -1688    -1680    -1661    -1645    -1632 
   -1632    -1656    -1672    -1683    -1703    -1710    -1711    -1742 
   -1792    -1838    -1863    -1850    -1848    -1878    -1908    -1922 
   -1934    -1942    -1952    -1961    -1956    -1942    -1923    -1917 
   -1930    -1922    -1891    -1883    -1869    -1852    -1846    -1803 
   -1780    -1813    -1791    -1736    -1738    -1742    -1707    -1675 
   -1664    -1655    -1645    -1671    -1706    -1701    -1695    -1707 
   -1713    -1729    -1765    -1781    -1772    -1807    -1890    -1946 
   -1952    -1941    -1942    -1966    -2010    -2058    -2097    -2124 
   -2150    -2162    -2166    -2177    -2193    -2203    -2203    -2205 
   -2222    -2238    -2235    -2227    -2224    -2219    -2212    -2188 
   -2134    -2097    -2098    -2088    -2050    -2015    -1985    -1952 
   -1904    -1833    -1763    -1713    -1687    -1661    -1603    -1522 
   -1457    -1398    -1328    -1256    -1196    -1147    -1096    -1046 
   -1020     -989     -929     -884     -870     -853     -826     -823 
    -838     -858     -877     -885     -903     -943     -989    -1043 
   -1107    -1140    -1144    -1182    -1254    -1320    -1379    -1429 
   -1462    -1474    -1502    -1575    -1638    -1668    -1701    -1755 
   -1822    -1868    -1871    -1872    -1918    -1996    -2068    -2095 
   -2093    -2104    -2118    -2130    -2163    -2187    -2204    -2239 
   -2243    -2212    -2201    -2203    -2203    -2222    -2238    -2232 
   -2226    -2199    -2160    -2155    -2168    -2162    -2147    -2137 
   -2153    -2172    -2139    -2098    -2100    -2107    -2110    -2116 
   -2116    -2111    -2097    -2091    -2111    -2137    -2149    -2133 
   -2095    -2097    -2133    -2123    -2083    -2079    -2092    -2089 
   -2093    -2098    -2087    -2061    -2037    -2034    -2053    -2061 
   -2041    -2015    -2007    -2010    -2012    -2018    -2016    -1998 
   -1992    -1996    -1973    -1971    -2000    -1996    -1965    -1949 
   -1956    -1960    -1939    -1902    -1895    -1925    -1925    -1884 
   -1849    -1833    -1836    -1838    -1803    -1759    -1761    -1771 
   -1726    -1675    -1672    -1669    -1638    -1618    -1613    -1594 
   -1571    -1557    -1537    -1509    -1503    -1493    -1478    -1490 
   -1494    -1467    -1460    -1485    -1509    -1532    -1543    -1530 
   -1539    -1571    -1593    -1618    -1649    -1663    -1668    -1683 
   -1717    -1759    -1773    -1763    -1763    -1787    -1822    -1850 
   -1867    -1873    -1861    -1852    -1876    -1902    -1900    -1875 
   -1861    -1881    -1930    -1988    -2014    -2000    -2004    -2053 
   -2114    -2155    -2191    -2228    -2270    -2317    -2358    -2397 
   -2446    -2485    -2519    -2578    -2647    -2681    -2690    -2731 
   -2802    -2844    -2863    -2884    -2898    -2914    -2943    -2971 
   -3001    -3022    -3015    -2986    -2979    -2992    -2992    -2986 
   -2986    -2967    -2929    -2890    -2841    -2798    -2767    -2732 
   -2674    -2612    -2556    -2484    -2409    -2343    -2276    -2209 
   -2141    -2076    -2042    -2026    -1968    -1885    -1841    -1813 
   -1788    -1779    -1759    -1745    -1764    -1781    -1775    -1771 
   -1788    -1803    -1817    -1849    -1883    -1915    -1949    -1973 
   -1991    -2014    -2027    -2042    -2074    -2111    -2147    -2191 
   -2224    -2227    -2224    -2246    -2286    -2330    -2355    -2350 
   -2336    -2344    -2367    -2380    -2376    -2380    -2390    -2382 
   -2354    -2331    -2316    -2316    -2317    -2293    -2259    -2230 
   -2204    -2178    -2144    -2116    -2107    -2069    -2012    -2007 
   -2003    -1953    -1912    -1890    -1857    -1852    -1863    -1819 
   -1753    -1725    -1725    -1703    -1664    -1640    -1621    -1611 
   -1598    -1543    -1480    -1447    -1431    -1416    -1390    -1343 
   -1285    -1230    -1182    -1143    -1112    -1073    -1031     -994 
    -957     -916     -869     -827     -796     -762     -739     -738 
    -738     -720     -704     -702     -718     -756     -803     -853 
    -890     -901     -932    -1000    -1062    -1128    -1219    -1305 
   -1374    -1444    -1518    -1588    -1675    -1779    -1868    -1958 
   -2069    -2176    -2259    -2340    -2447    -2563    -2671    -2785 
   -2899    -2988    -3068    -3161    -3260    -3357    -3439    -3514 
   -3596    -3667    -3715    -3753    -3778    -3796    -3819    -3850 
   -3867    -3842    -3807    -3811    -3824    -3794    -3736    -3701 
   -3697    -3651    -3563    -3524    -3515    -3470    -3435    -3419 
   -3343    -3223    -3146    -3122    -3080    -3011    -2991    -2978 
   -2886    -2794    -2751    -2698    -2627    -2560    -2551    -2605 
   -2556    -2381    -2286    -2307    -2316    -2309    -2304    -2238 
   -2120    -2047    -2022    -1949    -1892    -1949    -2023    -1981 
   -1867    -1733    -1629    -1624    -1667    -1703    -1768    -1773 
   -1647    -1548    -1556    -1580    -1601    -1606    -1566    -1530 
   -1539    -1559    -1556    -1530    -1498    -1445    -1389    -1372 
   -1381    -1395    -1397    -1350    -1287    -1233    -1167    -1138 
   -1158    -1156    -1125    -1086    -1023     -959     -931     -954 
    -990     -981     -963     -954     -901     -854     -853     -864 
    -911     -966     -950     -907     -901     -918     -939     -963 
    -989    -1003     -992    -1003    -1053    -1077    -1084    -1102 
   -1098    -1096    -1127    -1147    -1151    -1158    -1158    -1177 
   -1198    -1185    -1163    -1147    -1128    -1115    -1107    -1111 
   -1111    -1093    -1080    -1071    -1059    -1051    -1057    -1085 
   -1123    -1154    -1194    -1242    -1281    -1329    -1391    -1463 
   -1557    -1663    -1752    -1821    -1894    -1987    -2093    -2222 
   -2357    -2471    -2584    -2702    -2805    -2917    -3042    -3154 
   -3272    -3410    -3522    -3612    -3719    -3808    -3867    -3940 
   -4028    -4105    -4171    -4212    -4222    -4252    -4305    -4336 
   -4364    -4395    -4383    -4359    -4360    -4351    -4340    -4341 
   -4311    -4266    -4243    -4212    -4163    -4122    -4095    -4059 
   -4001    -3936    -3877    -3809    -3731    -3653    -3580    -3518 
   -3466    -3393    -3303    -3221    -3138    -3046    -2937    -2826 
   -2737    -2662    -2578    -2467    -2347    -2243    -2135    -2020 
   -1921    -1833    -1748    -1647    -1544    -1457    -1352    -1230 
   -1161    -1104    -1000     -916     -868     -774     -665     -600 
    -540     -463     -396     -344     -301     -246     -178     -121 
     -79      -39        4       32       49       99      164      172 
     159      163      156      148      170      214      244      210 
     129       79       54       14      -18      -43      -91     -170 
    -244     -337     -477     -583     -629     -707     -828     -953 
   -1092    -1248    -1395    -1522    -1641    -1763    -1899    -2034 
   -2174    -2342    -2517    -2647    -2752    -2870    -2984    -3102 
   -3244    -3369    -3468    -3584    -3708    -3789    -3839    -3919 
   -4033    -4131    -4205    -4276    -4327    -4352    -4396    -4471 
   -4540    -4599    -4668    -4716    -4715    -4699    -4719    -4752 
   -4760    -4743    -4739    -4743    -4716    -4691    -4669    -4594 
   -4515    -4484    -4452    -4407    -4340    -4233    -4139    -4055 
   -3971    -3898    -3811    -3673    -3523    -3403    -3302    -3180 
   -3057    -2938    -2790    -2614    -2452    -2304    -2165    -2056 
   -1960    -1826    -1658    -1489    -1351    -1254    -1140     -985 
    -859     -769     -653     -540     -445     -332     -229     -151 
     -65       20      105      190      255      305      324      256 
     240      411      532      468      414      400      369      367 
     359      318      305      302      263      211      197      191 
     137       98      137      135       44     -108     -305     -302 
    -112     -144     -292     -263     -289     -444     -517     -643 
    -822     -773     -664     -722     -762     -787     -949    -1139 
   -1239    -1240    -1177    -1150    -1213    -1320    -1418    -1501 
   -1594    -1688    -1719    -1699    -1722    -1811    -1956    -2096 
   -2137    -2146    -2208    -2290    -2367    -2416    -2484    -2613 
   -2682    -2678    -2721    -2803    -2895    -2976    -3011    -3055 
   -3103    -3122    -3160    -3211    -3234    -3264    -3300    -3333 
   -3369    -3387    -3393    -3400    -3377    -3366    -3431    -3514 
   -3516    -3469    -3454    -3473    -3478    -3480    -3469    -3411 
   -3375    -3423    -3461    -3443    -3426    -3375    -3303    -3292 
   -3298    -3254    -3204    -3183    -3160    -3123    -3073    -2995 
   -2928    -2886    -2813    -2724    -2636    -2543    -2473    -2431 
   -2358    -2236    -2111    -1995    -1900    -1846    -1796    -1719 
   -1599    -1459    -1359    -1278    -1201    -1177    -1129     -987 
    -861     -822     -801     -735     -631     -548     -499     -464 
    -451     -459     -418     -329     -289     -337     -399     -395 
    -338     -311     -330     -372     -451     -521     -558     -614 
    -642     -607     -622     -724     -819     -864     -908     -974 
   -1044    -1096    -1138    -1206    -1256    -1232    -1194    -1209 
   -1286    -1370    -1433    -1501    -1506    -1459    -1470    -1495 
   -1478    -1497    -1554    -1586    -1601    -1615    -1629    -1674 
   -1726    -1707    -1663    -1676    -1698    -1706    -1752    -1849 
   -1949    -1961    -1875    -1792    -1784    -1846    -1952    -2037 
   -2056    -2034    -2046    -2089    -2084    -2053    -2104    -2181 
   -2196    -2212    -2245    -2270    -2327    -2393    -2428    -2440 
   -2451    -2471    -2513    -2569    -2604    -2632    -2701    -2762 
   -2779    -2805    -2830    -2821    -2797    -2776    -2781    -2828 
   -2890    -2928    -2902    -2821    -2749    -2700    -2685    -2733 
   -2770    -2713    -2616    -2562    -2521    -2474    -2489    -2508 
   -2424    -2324    -2276    -2208    -2151    -2153    -2135    -2057 
   -1968    -1900    -1804    -1675    -1606    -1641    -1682    -1630 
   -1480    -1332    -1256    -1221    -1232    -1287    -1254    -1151 
   -1121    -1077     -984     -954     -954     -972    -1021    -1039 
   -1019     -987     -932     -858     -831     -868     -901     -938 
    -989     -997     -957     -884     -795     -750     -753     -769 
    -795     -816     -791     -746     -730     -708     -662     -625 
    -622     -660     -676     -664     -660     -643     -637     -679 
    -727     -746     -746     -758     -796     -843     -877     -901 
    -931     -966    -1008    -1011     -978     -999    -1053    -1075 
   -1105    -1144    -1144    -1105    -1081    -1102    -1147    -1206 
   -1243    -1251    -1267    -1290    -1305    -1323    -1344    -1377 
   -1425    -1479    -1494    -1486    -1509    -1572    -1660    -1722 
   -1734    -1738    -1702    -1653    -1702    -1800    -1858    -1880 
   -1896    -1935    -1968    -1958    -1944    -1956    -2004    -2088 
   -2160    -2191    -2215    -2231    -2241    -2286    -2359    -2430 
   -2521    -2627    -2666    -2652    -2716    -2787    -2781    -2863 
   -2995    -3005    -3019    -3060    -3060    -3102    -3165    -3199 
   -3215    -3202    -3188    -3180    -3145    -3136    -3175    -3200 
   -3190    -3133    -3057    -3033    -3018    -2963    -2941    -2940 
   -2902    -2890    -2866    -2762    -2701    -2700    -2628    -2540 
   -2512    -2478    -2423    -2373    -2301    -2223    -2182    -2149 
   -2057    -1968    -1954    -1944    -1888    -1821    -1749    -1699 
   -1671    -1628    -1575    -1530    -1491    -1460    -1436    -1408 
   -1374    -1359    -1347    -1312    -1282    -1278    -1279    -1277 
   -1298    -1333    -1323    -1296    -1321    -1372    -1414    -1453 
   -1498    -1548    -1557    -1570    -1648    -1701    -1709    -1744 
   -1775    -1798    -1842    -1880    -1927    -1972    -1966    -1962 
   -1985    -2012    -2045    -2033    -1975    -1949    -1971    -1981 
   -1941    -1872    -1829    -1823    -1803    -1733    -1683    -1668 
   -1636    -1574    -1514    -1475    -1429    -1372    -1339    -1314 
   -1274    -1242    -1223    -1196    -1150    -1098    -1038     -967 
    -929     -946     -958     -912     -853     -824     -773     -719 
    -714     -677     -629     -621     -595     -558     -548     -553 
    -553     -530     -521     -532     -531     -517     -533     -592 
    -612     -579     -602     -687     -731     -750     -808     -857 
    -874     -939    -1048    -1116    -1158    -1270    -1382    -1387 
   -1408    -1547    -1686    -1748    -1788    -1848    -1952    -2085 
   -2155    -2158    -2219    -2350    -2423    -2409    -2412    -2451 
   -2494    -2539    -2577    -2573    -2540    -2546    -2584    -2581 
   -2544    -2559    -2604    -2565    -2482    -2471    -2504    -2529 
   -2538    -2521    -2481    -2420    -2397    -2416    -2378    -2319 
