Origin Time       2016/04/16 01:25:00
Lat.              32.753
Long.             130.762
Depth. (km)       12
Mag.              7.3
Station Code      OSK007
Station Lat.      34.5577
Station Long.     135.6058
Station Height(m) 29
Record Time       2016/04/16 01:27:29
Sampling Freq(Hz) 100Hz
Duration Time(s)  152
Dir.              N-S
Scale Factor      7845(gal)/8223790
Max. Acc. (gal)   4.616
Last Correction   2016/04/16 01:27:30
Memo.             
[...]
   -8738    -8753    -8768    -8783    -8795    -8795    -8793    -8797 
   -8804    -8810    -8811    -8815    -8822    -8822    -8820    -8816 
   -8810    -8804    -8800    -8799    -8797    -8789    -8784    -8779 
   -8772    -8766    -8760    -8752    -8741    -8729    -8721    -8707 
   -8684    -8665    -8650    -8634    -8614    -8592    -8577    -8564 
   -8545    -8520    -8505    -8492    -8477    -8464    -8454    -8444 
   -8441    -8444    -8441    -8437    -8437    -8447    -8459    -8467 
   -8480    -8494    -8515    -8537    -8556    -8579    -8604    -8625 
   -8644    -8667    -8685    -8695    -8714    -8737    -8749    -8757 
   -8775    -8792    -8807    -8824    -8843    -8857    -8869    -8885 
   -8899    -8908    -8915    -8929    -8946    -8949    -8950    -8961 
   -8970    -8976    -8977    -8974    -8972    -8972    -8982    -8996 
   -9001    -9001    -9000    -9003    -9011    -9013    -9018    -9024 
   -9018    -9012    -9019    -9024    -9024    -9028    -9038    -9043 
   -9049    -9063    -9078    -9092    -9104    -9112    -9123    -9137 
   -9159    -9180    -9193    -9201    -9212    -9228    -9242    -9246 
   -9258    -9273    -9278    -9279    -9281    -9285    -9290    -9293 
   -9294    -9292    -9285    -9278    -9275    -9273    -9261    -9248 
   -9239    -9224    -9208    -9196    -9182    -9165    -9146    -9137 
   -9137    -9127    -9116    -9115    -9111    -9100    -9090    -9086 
   -9082    -9078    -9080    -9078    -9074    -9069    -9066    -9065 
   -9058    -9051    -9049    -9042    -9028    -9018    -9012    -9005 
   -8991    -8978    -8972    -8966    -8947    -8926    -8918    -8911 
   -8896    -8888    -8884    -8870    -8851    -8842    -8845    -8841 
   -8827    -8819    -8815    -8812    -8808    -8810    -8812    -8803 
   -8793    -8796    -8799    -8795    -8793    -8793    -8789    -8783 
   -8785    -8792    -8791    -8785    -8785    -8785    -8783    -8783 
   -8787    -8784    -8779    -8780    -8785    -8792    -8797    -8799 
   -8797    -8791    -8777    -8764    -8761    -8765    -8772    -8781 
   -8787    -8791    -8793    -8803    -8824    -8842    -8853    -8869 
   -8888    -8901    -8918    -8932    -8934    -8923    -8912    -8903 
   -8887    -8870    -8853    -8830    -8807    -8780    -8757    -8733 
   -8698    -8658    -8622    -8586    -8557    -8538    -8520    -8503 
   -8490    -8483    -8472    -8459    -8454    -8460    -8469    -8479 
   -8487    -8503    -8517    -8532    -8559    -8595    -8629    -8668 
   -8716    -8762    -8802    -8838    -8877    -8920    -8968    -9012 
   -9054    -9096    -9134    -9165    -9196    -9224    -9246    -9269 
   -9294    -9312    -9324    -9336    -9350    -9352    -9347    -9350 
   -9358    -9362    -9367    -9373    -9373    -9370    -9366    -9363 
   -9358    -9346    -9337    -9335    -9333    -9328    -9321    -9310 
   -9296    -9286    -9286    -9281    -9269    -9256    -9251    -9243 
   -9232    -9232    -9239    -9244    -9248    -9254    -9262    -9270 
   -9275    -9286    -9296    -9298    -9302    -9319    -9339    -9355 
   -9366    -9386    -9406    -9418    -9432    -9454    -9481    -9501 
   -9525    -9552    -9571    -9587    -9607    -9626    -9647    -9664 
   -9683    -9701    -9715    -9732    -9744    -9751    -9760    -9769 
   -9776    -9783    -9783    -9780    -9768    -9744    -9717    -9693 
   -9668    -9636    -9598    -9566    -9532    -9499    -9474    -9443 
   -9406    -9373    -9343    -9317    -9292    -9261    -9227    -9197 
   -9166    -9131    -9103    -9076    -9043    -9011    -8976    -8935 
   -8888    -8843    -8806    -8772    -8734    -8688    -8648    -8611 
   -8571    -8533    -8496    -8457    -8430    -8413    -8394    -8364 
   -8338    -8319    -8298    -8276    -8260    -8247    -8235    -8220 
   -8209    -8205    -8197    -8190    -8193    -8195    -8182    -8163 
   -8154    -8151    -8144    -8135    -8118    -8089    -8058    -8029 
   -8002    -7977    -7951    -7919    -7882    -7846    -7817    -7789 
   -7765    -7739    -7717    -7709    -7704    -7699    -7701    -7705 
   -7712    -7719    -7728    -7749    -7770    -7794    -7827    -7865 
   -7905    -7944    -7990    -8035    -8073    -8117    -8170    -8224 
   -8272    -8322    -8376    -8418    -8457    -8506    -8557    -8610 
   -8654    -8694    -8735    -8777    -8823    -8869    -8908    -8943 
   -8981    -9027    -9076    -9120    -9167    -9216    -9261    -9305 
   -9355    -9409    -9454    -9504    -9555    -9599    -9639    -9676 
   -9718    -9761    -9792    -9815    -9841    -9871    -9894    -9906 
   -9917    -9921    -9911    -9904    -9904    -9896    -9877    -9859 
   -9837    -9814    -9786    -9761    -9745    -9718    -9687    -9667 
   -9648    -9624    -9602    -9589    -9570    -9549    -9543    -9541 
   -9537    -9529    -9521    -9521    -9520    -9510    -9512    -9518 
   -9518    -9522    -9530    -9536    -9539    -9544    -9553    -9555 
   -9558    -9566    -9571    -9571    -9567    -9560    -9558    -9558 
   -9552    -9553    -9558    -9552    -9545    -9545    -9541    -9524 
   -9513    -9516    -9516    -9510    -9510    -9508    -9504    -9502 
   -9504    -9505    -9497    -9485    -9478    -9470    -9456    -9439 
   -9418    -9390    -9351    -9312    -9273    -9228    -9175    -9116 
   -9051    -8986    -8920    -8850    -8779    -8704    -8627    -8559 
   -8494    -8426    -8361    -8302    -8241    -8185    -8139    -8094 
   -8048    -8005    -7969    -7942    -7905    -7871    -7846    -7823 
   -7799    -7776    -7749    -7720    -7685    -7646    -7611    -7569 
   -7520    -7480    -7444    -7406    -7360    -7314    -7272    -7229 
   -7190    -7153    -7115    -7079    -7045    -7018    -6997    -6970 
   -6948    -6937    -6932    -6926    -6922    -6928    -6936    -6940 
   -6952    -6975    -6990    -7005    -7030    -7059    -7082    -7107 
   -7141    -7177    -7215    -7258    -7307    -7357    -7406    -7454 
   -7497    -7539    -7585    -7636    -7688    -7735    -7781    -7831 
   -7882    -7928    -7974    -8027    -8071    -8110    -8156    -8209 
   -8264    -8310    -8352    -8404    -8453    -8499    -8550    -8602 
   -8644    -8675    -8714    -8761    -8799    -8834    -8870    -8900 
   -8931    -8966    -9000    -9028    -9054    -9084    -9112    -9136 
   -9158    -9185    -9219    -9242    -9255    -9270    -9288    -9305 
   -9321    -9335    -9339    -9344    -9358    -9367    -9358    -9339 
   -9327    -9315    -9290    -9263    -9244    -9225    -9194    -9157 
   -9120    -9088    -9055    -9020    -8988    -8954    -8916    -8883 
   -8857    -8830    -8806    -8783    -8765    -8753    -8743    -8731 
   -8721    -8707    -8698    -8687    -8673    -8655    -8634    -8614 
   -8599    -8579    -8553    -8525    -8494    -8464    -8437    -8414 
   -8388    -8352    -8319    -8293    -8257    -8221    -8194    -8175 
   -8155    -8129    -8111    -8097    -8075    -8051    -8028    -8004 
   -7981    -7967    -7960    -7947    -7933    -7921    -7905    -7889 
   -7874    -7865    -7858    -7840    -7827    -7815    -7797    -7780 
   -7765    -7751    -7739    -7723    -7711    -7707    -7699    -7684 
   -7673    -7665    -7652    -7643    -7642    -7643    -7643    -7645 
   -7655    -7665    -7666    -7673    -7688    -7707    -7723    -7751 
   -7786    -7820    -7850    -7892    -7943    -7990    -8043    -8108 
   -8170    -8224    -8286    -8357    -8428    -8492    -8559    -8631 
   -8695    -8754    -8816    -8880    -8937    -8989    -9047    -9104 
   -9151    -9193    -9235    -9270    -9302    -9332    -9358    -9379 
   -9394    -9405    -9421    -9437    -9448    -9454    -9458    -9451 
   -9443    -9441    -9443    -9435    -9424    -9418    -9409    -9390 
   -9378    -9381    -9377    -9367    -9363    -9364    -9363    -9359 
   -9363    -9367    -9364    -9363    -9370    -9379    -9385    -9390 
   -9398    -9405    -9410    -9423    -9436    -9441    -9448    -9464 
   -9487    -9509    -9532    -9558    -9590    -9624    -9661    -9709 
   -9761    -9814    -9865    -9922    -9984   -10044   -10104   -10174 
  -10250   -10320   -10377   -10430   -10481   -10534   -10598   -10656 
  -10692   -10729   -10773   -10808   -10840   -10871   -10901   -10930 
  -10953   -10968   -10987   -11006   -11016   -11022   -11033   -11043 
  -11045   -11047   -11047   -11037   -11025   -11018   -11007   -10991 
  -10975   -10957   -10939   -10918   -10894   -10870   -10843   -10805 
  -10768   -10740   -10700   -10650   -10601   -10552   -10496   -10435 
  -10385   -10335   -10268   -10203   -10146   -10088   -10033    -9987 
   -9940    -9883    -9833    -9790    -9744    -9705    -9670    -9625 
   -9590    -9548    -9494    -9450    -9405    -9347    -9286    -9228 
   -9163    -9094    -9031    -8970    -8907    -8834    -8762    -8695 
   -8625    -8553    -8487    -8418    -8349    -8278    -8213    -8151 
   -8085    -8023    -7963    -7900    -7835    -7769    -7704    -7641 
   -7578    -7514    -7447    -7383    -7317    -7249    -7186    -7122 
   -7059    -6999    -6940    -6876    -6812    -6754    -6697    -6635 
   -6575    -6520    -6462    -6404    -6351    -6297    -6239    -6181 
   -6134    -6089    -6043    -6003    -5971    -5942    -5915    -5895 
   -5888    -5888    -5887    -5899    -5922    -5948    -5980    -6023 
   -6073    -6130    -6189    -6259    -6342    -6424    -6508    -6598 
   -6689    -6781    -6881    -6980    -7079    -7182    -7291    -7404 
   -7514    -7619    -7726    -7827    -7931    -8032    -8129    -8233 
   -8330    -8413    -8503    -8595    -8676    -8754    -8837    -8919 
   -8988    -9049    -9115    -9180    -9238    -9293    -9346    -9391 
   -9433    -9475    -9516    -9555    -9586    -9613    -9640    -9667 
   -9687    -9705    -9729    -9745    -9757    -9771    -9778    -9779 
   -9780    -9780    -9778    -9765    -9751    -9729    -9691    -9653 
   -9616    -9568    -9513    -9444    -9370    -9297    -9221    -9142 
   -9058    -8961    -8857    -8756    -8661    -8564    -8459    -8357 
   -8259    -8158    -8062    -7974    -7885    -7798    -7717    -7642 
   -7573    -7510    -7450    -7392    -7340    -7299    -7264    -7234 
   -7213    -7192    -7173    -7160    -7155    -7156    -7168    -7184 
   -7198    -7211    -7236    -7260    -7279    -7306    -7340    -7366 
   -7391    -7420    -7447    -7476    -7506    -7535    -7562    -7596 
   -7635    -7678    -7723    -7763    -7799    -7836    -7874    -7915 
   -7958    -7997    -8031    -8063    -8091    -8110    -8122    -8135 
   -8147    -8155    -8162    -8167    -8167    -8154    -8129    -8108 
   -8090    -8068    -8047    -8021    -7990    -7955    -7913    -7879 
   -7851    -7821    -7792    -7763    -7740    -7713    -7682    -7662 
   -7646    -7623    -7612    -7609    -7604    -7601    -7609    -7619 
   -7635    -7655    -7674    -7697    -7732    -7767    -7803    -7843 
   -7884    -7931    -7985    -8037    -8095    -8155    -8224    -8295 
   -8359    -8424    -8506    -8591    -8669    -8750    -8835    -8919 
   -9007    -9101    -9192    -9277    -9355    -9432    -9506    -9583 
   -9666    -9747    -9821    -9892    -9963   -10031   -10095   -10157 
  -10228   -10292   -10336   -10388   -10438   -10474   -10509   -10547 
  -10579   -10600   -10611   -10625   -10640   -10644   -10643   -10650 
  -10646   -10635   -10629   -10616   -10600   -10590   -10569   -10552 
  -10543   -10512   -10471   -10450   -10428   -10399   -10378   -10362 
  -10328   -10285   -10254   -10230   -10201   -10174   -10150   -10129 
  -10106   -10088   -10088   -10085   -10079   -10083   -10099   -10102 
  -10095   -10103   -10133   -10164   -10191   -10215   -10246   -10292 
  -10342   -10390   -10450   -10517   -10582   -10659   -10747   -10825 
  -10903   -10999   -11101   -11198   -11300   -11404   -11507   -11604 
  -11704   -11811   -11912   -12010   -12110   -12204   -12289   -12371 
  -12452   -12532   -12604   -12665   -12717   -12772   -12822   -12862 
  -12898   -12928   -12943   -12949   -12951   -12943   -12928   -12910 
  -12887   -12852   -12804   -12756   -12708   -12656   -12600   -12540 
  -12472   -12396   -12324   -12253   -12181   -12098   -12019   -11940 
  -11853   -11762   -11685   -11615   -11537   -11453   -11373   -11296 
  -11211   -11125   -11048   -10970   -10886   -10805   -10724   -10635 
  -10544   -10453   -10366   -10278   -10176   -10076    -9979    -9873 
   -9776    -9679    -9579    -9479    -9371    -9263    -9162    -9054 
   -8949    -8851    -8749    -8634    -8522    -8417    -8306    -8199 
   -8102    -8000    -7892    -7782    -7681    -7584    -7480    -7378 
   -7284    -7184    -7088    -6995    -6902    -6812    -6728    -6655 
   -6593    -6529    -6463    -6408    -6372    -6340    -6315    -6297 
   -6288    -6297    -6318    -6340    -6370    -6407    -6454    -6512 
   -6579    -6655    -6731    -6813    -6901    -6990    -7091    -7202 
   -7317    -7430    -7543    -7668    -7796    -7933    -8073    -8212 
   -8359    -8510    -8665    -8830    -8996    -9166    -9332    -9493 
   -9660    -9836   -10015   -10199   -10381   -10555   -10719   -10891 
  -11078   -11253   -11427   -11599   -11765   -11936   -12101   -12259 
  -12414   -12564   -12708   -12845   -12974   -13096   -13205   -13306 
  -13397   -13474   -13545   -13608   -13662   -13702   -13729   -13753 
  -13767   -13770   -13770   -13757   -13738   -13711   -13671   -13628 
  -13583   -13525   -13462   -13396   -13317   -13234   -13153   -13066 
  -12969   -12861   -12752   -12641   -12523   -12403   -12283   -12158 
  -12031   -11898   -11758   -11624   -11495   -11361   -11226   -11086 
  -10948   -10810   -10670   -10537   -10409   -10280   -10154   -10033 
   -9911    -9794    -9686    -9578    -9471    -9373    -9275    -9174 
   -9081    -8992    -8900    -8811    -8726    -8640    -8550    -8461 
   -8371    -8286    -8202    -8109    -8016    -7928    -7836    -7739 
   -7647    -7553    -7453    -7353    -7258    -7164    -7065    -6963 
   -6866    -6771    -6677    -6585    -6496    -6404    -6318    -6237 
   -6161    -6083    -6002    -5926    -5848    -5771    -5702    -5637 
   -5568    -5499    -5436    -5375    -5317    -5266    -5224    -5186 
   -5150    -5119    -5103    -5092    -5081    -5081    -5093    -5108 
   -5134    -5167    -5209    -5260    -5314    -5379    -5458    -5540 
   -5622    -5714    -5811    -5913    -6019    -6134    -6252    -6370 
   -6484    -6604    -6727    -6848    -6975    -7106    -7236    -7369 
   -7510    -7650    -7780    -7913    -8056    -8193    -8328    -8463 
   -8591    -8715    -8841    -8966    -9085    -9198    -9310    -9418 
   -9522    -9625    -9726    -9825    -9915   -10004   -10092   -10177 
  -10257   -10335   -10409   -10477   -10536   -10594   -10646   -10696 
  -10737   -10764   -10785   -10814   -10833   -10847   -10858   -10856 
  -10854   -10860   -10859   -10854   -10845   -10832   -10825   -10816 
  -10802   -10797   -10795   -10788   -10782   -10782   -10783   -10785 
  -10787   -10798   -10813   -10828   -10844   -10862   -10882   -10905 
  -10925   -10944   -10967   -10987   -11005   -11025   -11041   -11048 
  -11051   -11052   -11053   -11052   -11049   -11041   -11033   -11020 
  -11001   -10983   -10963   -10937   -10912   -10886   -10858   -10831 
  -10802   -10766   -10727   -10693   -10665   -10635   -10598   -10559 
  -10527   -10500   -10458   -10419   -10397   -10369   -10332   -10300 
  -10273   -10241   -10211   -10187   -10156   -10130   -10123   -10108 
  -10085   -10069   -10055   -10044   -10029   -10010   -10000    -9995 
   -9973    -9948    -9936    -9917    -9887    -9869    -9845    -9806 
   -9778    -9752    -9721    -9693    -9662    -9633    -9601    -9568 
   -9539    -9508    -9479    -9448    -9416    -9386    -9351    -9308 
   -9265    -9215    -9162    -9108    -9053    -8996    -8928    -8853 
   -8780    -8706    -8626    -8540    -8457    -8372    -8278    -8182 
   -8089    -7993    -7896    -7799    -7712    -7623    -7528    -7443 
   -7362    -7275    -7195    -7119    -7045    -6975    -6913    -6858 
   -6802    -6750    -6705    -6667    -6632    -6598    -6574    -6551 
   -6524    -6502    -6489    -6480    -6469    -6453    -6436    -6424 
   -6416    -6409    -6408    -6411    -6415    -6426    -6444    -6463 
   -6485    -6512    -6542    -6574    -6609    -6654    -6705    -6758 
   -6809    -6862    -6917    -6971    -7022    -7076    -7126    -7171 
   -7214    -7253    -7287    -7317    -7345    -7371    -7391    -7410 
   -7429    -7437    -7446    -7456    -7465    -7482    -7488    -7487 
   -7495    -7499    -7500    -7506    -7508    -7512    -7515    -7518 
   -7522    -7519    -7514    -7508    -7501    -7496    -7485    -7477 
   -7473    -7469    -7474    -7474    -7466    -7473    -7482    -7491 
   -7506    -7524    -7548    -7572    -7591    -7608    -7634    -7668 
   -7701    -7732    -7761    -7786    -7813    -7840    -7865    -7892 
   -7911    -7928    -7946    -7958    -7967    -7981    -7989    -7990 
   -7989    -7986    -7982    -7974    -7971    -7964    -7950    -7928 
   -7912    -7898    -7885    -7870    -7851    -7832    -7813    -7799 
   -7789    -7773    -7754    -7746    -7736    -7723    -7715    -7711 
   -7705    -7697    -7697    -7701    -7708    -7717    -7728    -7746 
   -7769    -7792    -7815    -7843    -7877    -7913    -7956    -8009 
   -8060    -8110    -8164    -8228    -8291    -8355    -8426    -8497 
   -8563    -8630    -8700    -8765    -8830    -8904    -8977    -9045 
   -9107    -9173    -9242    -9310    -9379    -9443    -9502    -9570 
   -9639    -9702    -9765    -9822    -9876    -9936    -9996   -10052 
  -10093   -10139   -10193   -10230   -10260   -10295   -10334   -10362 
  -10390   -10419   -10435   -10440   -10449   -10463   -10471   -10467 
  -10466   -10463   -10449   -10435   -10427   -10405   -10380   -10368 
  -10355   -10331   -10305   -10277   -10253   -10230   -10203   -10174 
  -10152   -10127   -10104   -10087   -10075   -10057   -10033   -10025 
  -10021    -9994    -9975    -9973    -9963    -9948    -9941    -9936 
   -9927    -9925    -9925    -9919    -9922    -9923    -9923    -9930 
   -9930    -9927    -9936    -9941    -9944    -9942    -9942    -9949 
   -9948    -9944    -9942    -9931    -9921    -9907    -9882    -9856 
   -9826    -9792    -9756    -9711    -9660    -9610    -9555    -9493 
   -9428    -9358    -9281    -9200    -9117    -9035    -8942    -8839 
   -8743    -8641    -8529    -8417    -8303    -8182    -8060    -7935 
   -7804    -7672    -7543    -7414    -7280    -7148    -7010    -6876 
   -6750    -6621    -6492    -6367    -6257    -6147    -6034    -5934 
   -5837    -5740    -5656    -5579    -5505    -5440    -5379    -5328 
   -5282    -5235    -5197    -5169    -5144    -5128    -5117    -5109 
   -5105    -5112    -5125    -5143    -5166    -5190    -5219    -5250 
   -5273    -5310    -5355    -5397    -5437    -5476    -5518    -5562 
   -5599    -5648    -5697    -5734    -5773    -5817    -5859    -5900 
   -5940    -5979    -6014    -6044    -6077    -6114    -6151    -6184 
   -6219    -6258    -6288    -6322    -6361    -6401    -6442    -6481 
