Origin Time       2016/04/16 01:25:00
Lat.              32.753
Long.             130.762
Depth. (km)       12
Mag.              7.3
Station Code      OSK007
Station Lat.      34.5577
Station Long.     135.6058
Station Height(m) 29
Record Time       2016/04/16 01:27:29
Sampling Freq(Hz) 100Hz
Duration Time(s)  152
Dir.              E-W
Scale Factor      7845(gal)/8223790
Max. Acc. (gal)   3.071
Last Correction   2016/04/16 01:27:30
Memo.             
[...]
   -6702    -6683    -6670    -6654    -6637    -6616    -6597    -6581 
   -6555    -6538    -6523    -6496    -6475    -6454    -6427    -6407 
   -6377    -6343    -6322    -6293    -6266    -6247    -6219    -6191 
   -6168    -6142    -6120    -6099    -6077    -6066    -6044    -6022 
   -6011    -5995    -5980    -5977    -5968    -5954    -5952    -5945 
   -5937    -5935    -5934    -5937    -5942    -5942    -5948    -5962 
   -5977    -5994    -6011    -6025    -6039    -6057    -6080    -6103 
   -6122    -6143    -6174    -6203    -6234    -6269    -6299    -6332 
   -6374    -6413    -6451    -6501    -6561    -6617    -6670    -6731 
   -6798    -6868    -6940    -7017    -7102    -7191    -7283    -7376 
   -7472    -7577    -7680    -7786    -7905    -8021    -8136    -8257 
   -8383    -8505    -8634    -8775    -8912    -9045    -9180    -9320 
   -9459    -9596    -9730    -9855    -9988   -10120   -10230   -10346 
  -10459   -10554   -10648   -10736   -10810   -10882   -10940   -10986 
  -11038   -11082   -11113   -11141   -11155   -11165   -11183   -11191 
  -11194   -11195   -11188   -11178   -11165   -11149   -11132   -11103 
  -11074   -11048   -11017   -10984   -10955   -10910   -10868   -10833 
  -10790   -10747   -10712   -10679   -10644   -10608   -10577   -10550 
  -10521   -10504   -10484   -10459   -10443   -10427   -10407   -10385 
  -10366   -10359   -10346   -10328   -10320   -10303   -10282   -10272 
  -10255   -10239   -10230   -10220   -10212   -10201   -10183   -10169 
  -10162   -10153   -10142   -10135   -10131   -10121   -10110   -10103 
  -10104   -10106   -10099   -10099   -10107   -10112   -10111   -10110 
  -10114   -10114   -10115   -10118   -10112   -10107   -10110   -10106 
  -10093   -10085   -10072   -10055   -10038   -10015    -9989    -9958 
   -9922    -9886    -9844    -9803    -9759    -9705    -9648    -9587 
   -9521    -9450    -9377    -9304    -9225    -9139    -9055    -8974 
   -8891    -8803    -8715    -8626    -8536    -8437    -8343    -8247 
   -8154    -8071    -7983    -7889    -7807    -7731    -7650    -7569 
   -7492    -7422    -7357    -7288    -7225    -7167    -7102    -7042 
   -6990    -6939    -6893    -6853    -6817    -6789    -6758    -6728 
   -6714    -6704    -6693    -6689    -6687    -6693    -6689    -6682 
   -6690    -6698    -6701    -6702    -6702    -6709    -6717    -6720 
   -6725    -6725    -6721    -6739    -6751    -6755    -6772    -6785 
   -6793    -6812    -6825    -6837    -6856    -6879    -6905    -6930 
   -6959    -6988    -7020    -7055    -7083    -7117    -7160    -7196 
   -7233    -7269    -7306    -7349    -7387    -7423    -7464    -7500 
   -7541    -7585    -7624    -7665    -7707    -7756    -7811    -7857 
   -7909    -7964    -8014    -8073    -8133    -8190    -8248    -8310 
   -8375    -8431    -8484    -8548    -8608    -8672    -8746    -8804 
   -8857    -8926    -8992    -9049    -9108    -9178    -9236    -9288 
   -9347    -9394    -9437    -9489    -9533    -9571    -9609    -9633 
   -9652    -9670    -9686    -9703    -9709    -9705    -9709    -9707 
   -9699    -9690    -9674    -9657    -9640    -9621    -9601    -9578 
   -9553    -9530    -9510    -9493    -9475    -9459    -9440    -9423 
   -9414    -9404    -9391    -9382    -9374    -9366    -9355    -9347 
   -9350    -9351    -9343    -9333    -9329    -9325    -9315    -9309 
   -9309    -9296    -9274    -9255    -9232    -9209    -9186    -9155 
   -9120    -9089    -9058    -9028    -8995    -8962    -8928    -8895 
   -8860    -8827    -8804    -8783    -8756    -8734    -8708    -8691 
   -8694    -8684    -8669    -8668    -8657    -8655    -8667    -8657 
   -8661    -8679    -8669    -8673    -8704    -8712    -8715    -8727 
   -8729    -8739    -8764    -8766    -8768    -8783    -8797    -8808 
   -8811    -8824    -8853    -8868    -8869    -8888    -8908    -8912 
   -8926    -8934    -8924    -8924    -8924    -8918    -8910    -8892 
   -8870    -8854    -8829    -8796    -8766    -8730    -8683    -8644 
   -8600    -8548    -8496    -8434    -8367    -8305    -8236    -8168 
   -8106    -8043    -7977    -7908    -7846    -7784    -7722    -7663 
   -7604    -7547    -7489    -7437    -7387    -7333    -7288    -7256 
   -7211    -7165    -7127    -7094    -7065    -7040    -7020    -7006 
   -6994    -6984    -6988    -7001    -7010    -7022    -7041    -7061 
   -7086    -7121    -7157    -7195    -7242    -7298    -7356    -7420 
   -7491    -7565    -7643    -7730    -7821    -7909    -8002    -8108 
   -8210    -8307    -8414    -8529    -8627    -8711    -8808    -8912 
   -9012    -9107    -9196    -9283    -9367    -9448    -9533    -9614 
   -9693    -9771    -9842    -9910    -9981   -10052   -10119   -10183 
  -10247   -10314   -10374   -10438   -10497   -10551   -10608   -10666 
  -10725   -10777   -10817   -10858   -10897   -10930   -10962   -10993 
  -11014   -11033   -11047   -11052   -11059   -11059   -11053   -11052 
  -11037   -11016   -10998   -10974   -10945   -10912   -10871   -10833 
  -10787   -10732   -10686   -10638   -10577   -10517   -10458   -10396 
  -10334   -10269   -10208   -10146   -10075   -10006    -9944    -9884 
   -9826    -9759    -9697    -9643    -9582    -9529    -9485    -9439 
   -9393    -9354    -9325    -9297    -9269    -9254    -9246    -9240 
   -9240    -9240    -9244    -9258    -9277    -9294    -9312    -9336 
   -9359    -9378    -9405    -9428    -9439    -9450    -9458    -9466 
   -9472    -9464    -9447    -9429    -9406    -9379    -9347    -9308 
   -9267    -9217    -9163    -9113    -9059    -9005    -8951    -8889 
   -8830    -8777    -8721    -8672    -8622    -8572    -8532    -8494 
   -8453    -8418    -8387    -8355    -8324    -8294    -8279    -8270 
   -8237    -8212    -8209    -8193    -8170    -8167    -8163    -8148 
   -8139    -8135    -8125    -8122    -8129    -8132    -8135    -8139 
   -8144    -8155    -8166    -8181    -8195    -8199    -8213    -8229 
   -8244    -8267    -8275    -8276    -8302    -8324    -8326    -8329 
   -8344    -8355    -8365    -8376    -8364    -8356    -8367    -8357 
   -8343    -8341    -8322    -8291    -8275    -8255    -8224    -8194 
   -8163    -8135    -8108    -8073    -8039    -8014    -7992    -7971 
   -7950    -7927    -7902    -7882    -7865    -7846    -7825    -7807 
   -7788    -7766    -7744    -7727    -7707    -7685    -7672    -7651 
   -7632    -7614    -7595    -7581    -7566    -7546    -7534    -7515 
   -7489    -7470    -7456    -7441    -7427    -7415    -7403    -7392 
   -7383    -7378    -7378    -7375    -7376    -7383    -7388    -7396 
   -7411    -7422    -7435    -7454    -7477    -7501    -7522    -7548 
   -7586    -7619    -7654    -7699    -7742    -7788    -7831    -7871 
   -7921    -7977    -8023    -8070    -8118    -8163    -8206    -8256 
   -8307    -8352    -8394    -8437    -8486    -8523    -8563    -8615 
   -8660    -8696    -8741    -8783    -8818    -8861    -8904    -8941 
   -8980    -9024    -9063    -9100    -9134    -9165    -9194    -9224 
   -9248    -9267    -9286    -9308    -9319    -9324    -9333    -9335 
   -9332    -9325    -9316    -9302    -9278    -9252    -9234    -9211 
   -9182    -9150    -9113    -9077    -9038    -9000    -8964    -8923 
   -8878    -8837    -8795    -8753    -8708    -8658    -8617    -8583 
   -8536    -8490    -8459    -8417    -8374    -8340    -8299    -8266 
   -8237    -8198    -8163    -8133    -8091    -8058    -8031    -7993 
   -7959    -7929    -7896    -7869    -7843    -7812    -7789    -7769 
   -7746    -7727    -7715    -7703    -7695    -7696    -7703    -7711 
   -7719    -7730    -7750    -7777    -7801    -7831    -7870    -7908 
   -7943    -7983    -8031    -8077    -8122    -8176    -8235    -8295 
   -8356    -8410    -8471    -8538    -8603    -8677    -8762    -8843 
   -8915    -8986    -9069    -9147    -9215    -9285    -9360    -9432 
   -9508    -9574    -9636    -9703    -9767    -9828    -9890    -9936 
   -9981   -10031   -10076   -10114   -10147   -10173   -10197   -10220 
  -10235   -10245   -10251   -10246   -10241   -10238   -10227   -10206 
  -10180   -10147   -10114   -10077   -10030    -9984    -9934    -9872 
   -9810    -9744    -9671    -9601    -9526    -9447    -9367    -9281 
   -9194    -9115    -9031    -8947    -8862    -8779    -8695    -8608 
   -8530    -8456    -8376    -8299    -8225    -8152    -8091    -8028 
   -7960    -7905    -7848    -7789    -7740    -7690    -7649    -7619 
   -7585    -7551    -7524    -7504    -7495    -7484    -7474    -7476 
   -7480    -7489    -7501    -7510    -7533    -7555    -7572    -7601 
   -7635    -7659    -7692    -7726    -7761    -7803    -7831    -7862 
   -7905    -7943    -7981    -8025    -8059    -8093    -8132    -8174 
   -8218    -8260    -8305    -8347    -8374    -8404    -8441    -8477 
   -8523    -8559    -8575    -8600    -8633    -8661    -8691    -8708 
   -8715    -8712    -8708    -8723    -8725    -8706    -8687    -8671 
   -8662    -8648    -8614    -8595    -8567    -8522    -8494    -8467 
   -8434    -8411    -8380    -8343    -8318    -8299    -8275    -8260 
   -8251    -8232    -8222    -8226    -8213    -8205    -8222    -8224 
   -8215    -8228    -8240    -8236    -8239    -8263    -8271    -8259 
   -8271    -8293    -8286    -8278    -8279    -8281    -8278    -8267 
   -8267    -8276    -8268    -8259    -8256    -8256    -8257    -8248 
   -8248    -8263    -8260    -8253    -8263    -8275    -8286    -8293 
   -8307    -8333    -8347    -8352    -8372    -8388    -8406    -8441 
   -8474    -8497    -8527    -8552    -8576    -8600    -8619    -8648 
   -8681    -8716    -8750    -8777    -8806    -8830    -8851    -8877 
   -8899    -8928    -8962    -8980    -9003    -9032    -9050    -9073 
   -9097    -9121    -9151    -9180    -9211    -9252    -9285    -9317 
   -9355    -9393    -9427    -9467    -9508    -9544    -9585    -9632 
   -9675    -9715    -9757    -9798    -9840    -9879    -9917    -9957 
   -9999   -10037   -10076   -10110   -10137   -10169   -10204   -10238 
  -10274   -10307   -10335   -10366   -10389   -10411   -10438   -10466 
  -10486   -10500   -10509   -10520   -10531   -10540   -10547   -10550 
  -10552   -10547   -10542   -10542   -10542   -10530   -10513   -10498 
  -10485   -10467   -10449   -10426   -10395   -10365   -10334   -10296 
  -10253   -10210   -10158   -10102   -10041    -9976    -9913    -9853 
   -9783    -9705    -9622    -9535    -9443    -9364    -9285    -9186 
   -9085    -8991    -8893    -8793    -8699    -8607    -8517    -8418 
   -8324    -8237    -8151    -8066    -7986    -7909    -7834    -7761 
   -7690    -7619    -7555    -7503    -7458    -7411    -7364    -7323 
   -7288    -7260    -7238    -7223    -7211    -7202    -7198    -7198 
   -7194    -7195    -7198    -7207    -7221    -7234    -7248    -7257 
   -7264    -7277    -7298    -7318    -7333    -7348    -7369    -7391 
   -7408    -7431    -7454    -7474    -7506    -7533    -7557    -7585 
   -7605    -7628    -7657    -7685    -7715    -7738    -7761    -7788 
   -7809    -7836    -7865    -7888    -7911    -7938    -7966    -7992 
   -8010    -8032    -8058    -8081    -8104    -8128    -8151    -8170 
   -8186    -8206    -8226    -8243    -8257    -8280    -8302    -8302 
   -8301    -8321    -8341    -8343    -8345    -8359    -8368    -8378 
   -8397    -8414    -8414    -8413    -8431    -8446    -8451    -8463 
   -8469    -8472    -8484    -8502    -8517    -8527    -8536    -8553 
   -8579    -8600    -8627    -8657    -8675    -8698    -8721    -8742 
   -8777    -8816    -8839    -8870    -8914    -8955    -8993    -9032 
   -9078    -9128    -9178    -9231    -9282    -9331    -9385    -9431 
   -9467    -9516    -9563    -9596    -9640    -9679    -9702    -9732 
   -9761    -9779    -9792    -9803    -9810    -9811    -9804    -9799 
   -9790    -9765    -9734    -9703    -9674    -9641    -9602    -9567 
   -9524    -9471    -9423    -9378    -9329    -9274    -9221    -9173 
   -9119    -9066    -9015    -8954    -8896    -8843    -8785    -8730 
   -8679    -8618    -8549    -8484    -8431    -8382    -8321    -8253 
   -8189    -8129    -8071    -8004    -7943    -7886    -7820    -7761 
   -7700    -7628    -7569    -7510    -7442    -7380    -7318    -7254 
   -7190    -7119    -7056    -6997    -6926    -6864    -6809    -6739 
   -6675    -6619    -6554    -6497    -6443    -6389    -6353    -6300 
   -6245    -6214    -6174    -6126    -6093    -6068    -6035    -6010 
   -5989    -5968    -5945    -5926    -5914    -5906    -5898    -5892 
   -5892    -5892    -5894    -5902    -5908    -5913    -5925    -5945 
   -5968    -5998    -6023    -6050    -6081    -6115    -6158    -6204 
   -6243    -6289    -6342    -6399    -6455    -6507    -6561    -6619 
   -6678    -6737    -6798    -6866    -6937    -7002    -7072    -7146 
   -7215    -7291    -7375    -7453    -7533    -7616    -7700    -7786 
   -7870    -7956    -8052    -8139    -8224    -8319    -8418    -8519 
   -8607    -8688    -8785    -8883    -8978    -9073    -9158    -9248 
   -9344    -9439    -9540    -9629    -9710    -9801    -9894    -9987 
  -10080   -10164   -10249   -10335   -10424   -10514   -10597   -10674 
  -10762   -10847   -10920   -10991   -11075   -11148   -11211   -11276 
  -11338   -11399   -11458   -11506   -11556   -11603   -11642   -11684 
  -11718   -11747   -11776   -11790   -11803   -11816   -11820   -11823 
  -11819   -11807   -11797   -11786   -11769   -11749   -11726   -11703 
  -11673   -11642   -11616   -11585   -11547   -11511   -11473   -11434 
  -11395   -11356   -11315   -11264   -11213   -11165   -11110   -11056 
  -11002   -10945   -10887   -10818   -10747   -10687   -10621   -10547 
  -10471   -10393   -10319   -10249   -10179   -10108   -10030    -9952 
   -9880    -9810    -9744    -9668    -9591    -9530    -9462    -9393 
   -9336    -9269    -9202    -9146    -9081    -9023    -8966    -8900 
   -8839    -8780    -8718    -8658    -8602    -8560    -8506    -8431 
   -8372    -8316    -8260    -8217    -8163    -8097    -8048    -8004 
   -7944    -7879    -7821    -7767    -7713    -7659    -7609    -7558 
   -7504    -7449    -7393    -7340    -7292    -7248    -7203    -7160 
   -7121    -7082    -7040    -7001    -6967    -6934    -6902    -6872 
   -6844    -6817    -6795    -6779    -6758    -6733    -6720    -6711 
   -6705    -6697    -6690    -6685    -6678    -6675    -6675    -6678 
   -6683    -6689    -6694    -6704    -6718    -6733    -6744    -6762 
   -6782    -6802    -6826    -6858    -6886    -6916    -6944    -6976 
   -7014    -7049    -7082    -7122    -7169    -7209    -7242    -7285 
   -7331    -7376    -7422    -7461    -7499    -7539    -7578    -7619 
   -7661    -7696    -7734    -7770    -7801    -7825    -7851    -7884 
   -7911    -7931    -7954    -7974    -7987    -8002    -8019    -8032 
   -8043    -8056    -8070    -8078    -8087    -8102    -8118    -8128 
   -8139    -8156    -8170    -8182    -8201    -8206    -8209    -8226 
   -8236    -8239    -8257    -8264    -8257    -8264    -8275    -8274 
   -8268    -8275    -8279    -8267    -8256    -8257    -8256    -8244 
   -8233    -8232    -8226    -8205    -8191    -8197    -8189    -8176 
   -8179    -8170    -8154    -8160    -8162    -8149    -8156    -8160 
   -8152    -8158    -8163    -8163    -8172    -8172    -8174    -8186 
   -8181    -8187    -8201    -8198    -8212    -8224    -8215    -8233 
   -8248    -8244    -8255    -8267    -8266    -8272    -8283    -8298 
   -8301    -8290    -8298    -8317    -8317    -8324    -8333    -8332 
   -8337    -8351    -8355    -8355    -8364    -8374    -8385    -8403 
   -8403    -8391    -8401    -8421    -8421    -8414    -8414    -8421 
   -8434    -8437    -8421    -8397    -8387    -8387    -8372    -8349 
   -8334    -8321    -8289    -8252    -8232    -8212    -8177    -8141 
   -8113    -8082    -8040    -8006    -7982    -7947    -7912    -7878 
   -7840    -7807    -7785    -7763    -7731    -7703    -7685    -7657 
   -7634    -7622    -7600    -7586    -7580    -7558    -7545    -7537 
   -7523    -7515    -7510    -7503    -7495    -7485    -7479    -7476 
   -7468    -7466    -7462    -7452    -7456    -7461    -7460    -7468 
   -7472    -7474    -7487    -7495    -7504    -7522    -7535    -7551 
   -7569    -7581    -7603    -7623    -7646    -7670    -7692    -7713 
   -7742    -7767    -7789    -7813    -7847    -7882    -7909    -7944 
   -7981    -8013    -8043    -8068    -8098    -8129    -8160    -8194 
   -8224    -8251    -8283    -8321    -8357    -8376    -8401    -8441 
   -8464    -8486    -8525    -8560    -8587    -8625    -8660    -8692 
   -8725    -8752    -8777    -8800    -8830    -8858    -8874    -8896 
   -8916    -8932    -8962    -8980    -8988    -9011    -9027    -9035 
   -9051    -9061    -9067    -9076    -9078    -9080    -9082    -9084 
   -9084    -9081    -9080    -9078    -9076    -9076    -9073    -9062 
   -9053    -9050    -9042    -9035    -9030    -9024    -9019    -9011 
   -9004    -9000    -8996    -8981    -8969    -8965    -8958    -8945 
   -8934    -8924    -8915    -8914    -8912    -8903    -8891    -8884 
   -8880    -8874    -8876    -8873    -8869    -8865    -8856    -8854 
   -8851    -8843    -8847    -8845    -8835    -8837    -8829    -8823 
   -8830    -8820    -8819    -8833    -8823    -8814    -8829    -8826 
   -8816    -8833    -8843    -8838    -8843    -8851    -8854    -8861 
   -8870    -8877    -8885    -8887    -8891    -8908    -8922    -8931 
   -8942    -8950    -8959    -8966    -8972    -8982    -8992    -9000 
   -9008    -9011    -9020    -9022    -9019    -9027    -9030    -9026 
   -9022    -9013    -9005    -9000    -8996    -8985    -8974    -8969 
   -8957    -8943    -8935    -8927    -8920    -8914    -8893    -8876 
   -8870    -8861    -8846    -8835    -8827    -8812    -8797    -8799 
   -8795    -8772    -8766    -8765    -8748    -8739    -8749    -8752 
   -8741    -8734    -8742    -8750    -8748    -8746    -8756    -8770 
   -8773    -8772    -8792    -8808    -8800    -8804    -8830    -8839 
   -8838    -8853    -8869    -8877    -8893    -8905    -8903    -8911 
   -8932    -8945    -8957    -8965    -8966    -8974    -8980    -8985 
   -9001    -9005    -9003    -9003    -9000    -9001    -9000    -8992 
   -8986    -8978    -8968    -8966    -8958    -8945    -8935    -8920 
   -8905    -8896    -8888    -8885    -8880    -8861    -8851    -8850 
   -8845    -8846    -8842    -8834    -8837    -8827    -8823    -8838 
   -8833    -8830    -8854    -8856    -8853    -8868    -8874    -8883 
   -8901    -8915    -8934    -8964    -8978    -8989    -9007    -9036 
   -9069    -9092    -9115    -9143    -9173    -9212    -9244    -9267 
   -9300    -9344    -9383    -9417    -9454    -9493    -9532    -9572 
   -9606    -9641    -9684    -9713    -9745    -9794    -9833    -9861 
   -9896    -9930    -9957    -9983   -10010   -10034   -10052   -10066 
  -10085   -10104   -10115   -10130   -10149   -10156   -10160   -10170 
  -10179   -10189   -10196   -10189   -10199   -10216   -10219   -10220 
  -10222   -10219   -10220   -10223   -10227   -10228   -10222   -10223 
