Origin Time       2016/04/16 01:25:00
Lat.              32.753
Long.             130.762
Depth. (km)       12
Mag.              7.3
Station Code      OSK006
Station Lat.      34.5894
Station Long.     135.4710
Station Height(m) 3
Record Time       2016/04/16 01:27:48
Sampling Freq(Hz) 100Hz
Duration Time(s)  60
Dir.              N-S
Scale Factor      7845(gal)/8223790
Max. Acc. (gal)   5.840
Last Correction   2016/04/16 01:27:50
Memo.             
  -15943   -16019   -16086   -16108   -16114   -16131   -16129   -16113 
  -16101   -16094   -16094   -16075   -16036   -16021   -16047   -16081 
  -16083   -16059   -16046   -16046   -16043   -16043   -16055   -16079 
  -16104   -16123   -16143   -16167   -16198   -16251   -16321   -16375 
  -16420   -16501   -16587   -16637   -16679   -16730   -16789   -16854 
  -16906   -16951   -17004   -17046   -17070   -17087   -17104   -17122 
  -17146   -17176   -17182   -17173   -17181   -17192   -17188   -17172 
  -17147   -17126   -17107   -17067   -17018   -17001   -16995   -16954 
  -16872   -16779   -16702   -16664   -16637   -16586   -16517   -16443 
  -16363   -16298   -16244   -16177   -16119   -16077   -16032   -15985 
  -15939   -15896   -15877   -15869   -15851   -15828   -15812   -15792 
  -15769   -15772   -15799   -15813   -15817   -15830   -15838   -15838 
  -15832   -15834   -15850   -15877   -15916   -15966   -16017   -16069 
  -16120   -16166   -16216   -16276   -16349   -16430   -16513   -16588 
  -16657   -16730   -16808   -16883   -16969   -17067   -17155   -17250 
  -17352   -17452   -17551   -17635   -17703   -17774   -17836   -17902 
  -17991   -18087   -18177   -18269   -18354   -18436   -18524   -18615 
  -18713   -18816   -18898   -18967   -19056   -19167   -19276   -19373 
  -19460   -19550   -19631   -19687   -19749   -19832   -19912   -19973 
  -20001   -20015   -20048   -20100   -20139   -20175   -20217   -20252 
  -20285   -20324   -20360   -20387   -20405   -20428   -20478   -20527 
  -20559   -20583   -20617   -20676   -20750   -20823   -20900   -20977 
  -21043   -21101   -21158   -21226   -21285   -21338   -21389   -21417 
  -21427   -21439   -21451   -21448   -21439   -21431   -21416   -21393 
  -21366   -21327   -21270   -21215   -21170   -21134   -21088   -21033 
  -20965   -20887   -20821   -20779   -20744   -20709   -20667   -20609 
  -20545   -20486   -20436   -20405   -20382   -20344   -20289   -20229 
  -20189   -20159   -20111   -20045   -19984   -19913   -19831   -19751 
  -19670   -19588   -19502   -19398   -19283   -19183   -19097   -19008 
  -18912   -18820   -18728   -18623   -18520   -18427   -18333   -18238 
  -18135   -18023   -17928   -17840   -17750   -17656   -17550   -17437 
  -17323   -17205   -17098   -17020   -16949   -16849   -16730   -16613 
  -16518   -16445   -16344   -16200   -16056   -15942   -15830   -15709 
  -15579   -15429   -15263   -15105   -14963   -14841   -14736   -14624 
  -14513   -14416   -14301   -14183   -14102   -14058   -14018   -13957 
  -13895   -13839   -13779   -13734   -13725   -13707   -13675   -13676 
  -13702   -13724   -13736   -13738   -13756   -13794   -13815   -13829 
  -13872   -13925   -13979   -14056   -14134   -14206   -14281   -14354 
  -14436   -14523   -14605   -14702   -14805   -14872   -14936   -15051 
  -15186   -15296   -15398   -15498   -15588   -15682   -15788   -15896 
  -16000   -16075   -16123   -16177   -16249   -16336   -16421   -16487 
  -16522   -16549   -16602   -16672   -16721   -16719   -16698   -16695 
  -16726   -16779   -16826   -16843   -16822   -16774   -16745   -16748 
  -16758   -16757   -16703   -16600   -16532   -16524   -16534   -16557 
  -16573   -16542   -16499   -16495   -16514   -16546   -16590   -16632 
  -16688   -16748   -16797   -16854   -16903   -16922   -16951   -17023 
  -17113   -17202   -17267   -17307   -17343   -17390   -17466   -17554 
  -17618   -17645   -17648   -17653   -17682   -17736   -17774   -17766 
  -17740   -17718   -17689   -17663   -17653   -17649   -17632   -17589 
  -17548   -17545   -17556   -17540   -17513   -17502   -17497   -17491 
  -17486   -17473   -17452   -17459   -17477   -17485   -17491   -17500 
  -17498   -17478   -17464   -17491   -17537   -17562   -17571   -17575 
  -17574   -17597   -17640   -17670   -17707   -17763   -17798   -17810 
  -17830   -17859   -17894   -17960   -18065   -18175   -18264   -18343 
  -18436   -18555   -18685   -18813   -18958   -19122   -19279   -19396 
  -19496   -19619   -19761   -19903   -20043   -20173   -20298   -20425 
  -20537   -20634   -20730   -20825   -20920   -21029   -21143   -21255 
  -21359   -21463   -21574   -21672   -21740   -21783   -21811   -21828 
  -21837   -21848   -21860   -21878   -21892   -21878   -21833   -21806 
  -21829   -21867   -21875   -21851   -21824   -21817   -21814   -21791 
  -21763   -21733   -21683   -21620   -21562   -21506   -21443   -21377 
  -21305   -21226   -21153   -21074   -20979   -20889   -20808   -20717 
  -20614   -20517   -20426   -20328   -20220   -20117   -20028   -19943 
  -19839   -19722   -19603   -19492   -19396   -19310   -19221   -19111 
  -18986   -18860   -18724   -18570   -18418   -18268   -18119   -17975 
  -17829   -17674   -17513   -17355   -17201   -17066   -16946   -16814 
  -16684   -16571   -16456   -16349   -16255   -16147   -16043   -15965 
  -15890   -15809   -15728   -15641   -15546   -15460   -15380   -15286 
  -15196   -15128   -15052   -14968   -14893   -14816   -14736   -14662 
  -14592   -14520   -14450   -14380   -14316   -14274   -14231   -14172 
  -14134   -14111   -14080   -14058   -14053   -14045   -14030   -14026 
  -14021   -14002   -13981   -13964   -13961   -13988   -14029   -14072 
  -14108   -14130   -14160   -14212   -14268   -14310   -14338   -14362 
  -14399   -14443   -14467   -14472   -14473   -14477   -14476   -14489 
  -14509   -14513   -14517   -14526   -14513   -14485   -14466   -14488 
  -14531   -14562   -14605   -14665   -14716   -14769   -14832   -14910 
  -15001   -15086   -15176   -15291   -15418   -15533   -15643   -15763 
  -15885   -16009   -16140   -16271   -16395   -16513   -16632   -16754 
  -16879   -17003   -17123   -17230   -17328   -17431   -17535   -17624 
  -17701   -17787   -17884   -17982   -18075   -18158   -18223   -18270 
  -18322   -18389   -18470   -18549   -18611   -18665   -18728   -18809 
  -18878   -18925   -18967   -19010   -19049   -19090   -19165   -19271 
  -19350   -19381   -19391   -19413   -19475   -19548   -19595   -19647 
  -19710   -19753   -19796   -19858   -19921   -19978   -20029   -20078 
  -20121   -20163   -20220   -20294   -20359   -20405   -20433   -20453 
  -20480   -20529   -20582   -20615   -20630   -20640   -20650   -20659 
  -20676   -20719   -20772   -20814   -20871   -20946   -21018   -21092 
  -21188   -21281   -21363   -21454   -21563   -21690   -21830   -21976 
  -22114   -22237   -22365   -22509   -22655   -22793   -22929   -23079 
  -23230   -23338   -23419   -23523   -23634   -23703   -23746   -23786 
  -23814   -23824   -23838   -23855   -23861   -23854   -23827   -23780 
  -23719   -23657   -23599   -23538   -23458   -23372   -23292   -23211 
  -23120   -23010   -22904   -22792   -22670   -22576   -22507   -22446 
  -22392   -22339   -22279   -22211   -22137   -22069   -22000   -21925 
  -21853   -21789   -21708   -21612   -21531   -21467   -21392   -21315 
  -21246   -21166   -21082   -21001   -20918   -20853   -20811   -20780 
  -20738   -20679   -20630   -20599   -20579   -20563   -20529   -20479 
  -20437   -20422   -20429   -20413   -20359   -20308   -20291   -20286 
  -20258   -20228   -20204   -20160   -20121   -20101   -20066   -20019 
  -19957   -19874   -19789   -19712   -19642   -19575   -19483   -19365 
  -19257   -19161   -19061   -18963   -18859   -18744   -18638   -18547 
  -18469   -18396   -18312   -18214   -18119   -18037   -17955   -17871 
  -17797   -17716   -17613   -17509   -17440   -17396   -17339   -17248 
  -17155   -17098   -17064   -17023   -16972   -16911   -16852   -16800 
  -16757   -16725   -16703   -16676   -16657   -16659   -16649   -16623 
  -16606   -16600   -16587   -16576   -16573   -16560   -16537   -16517 
  -16502   -16474   -16433   -16394   -16379   -16367   -16328   -16264 
  -16204   -16157   -16109   -16056   -16004   -15952   -15913   -15893 
  -15865   -15824   -15780   -15743   -15731   -15734   -15727   -15719 
  -15726   -15730   -15728   -15738   -15759   -15792   -15817   -15826 
  -15826   -15823   -15839   -15884   -15921   -15924   -15932   -15967 
  -16004   -16021   -16033   -16056   -16075   -16085   -16112   -16147 
  -16163   -16178   -16212   -16239   -16258   -16281   -16302   -16310 
  -16310   -16305   -16297   -16294   -16305   -16325   -16339   -16343 
  -16355   -16395   -16449   -16483   -16522   -16576   -16619   -16680 
  -16773   -16863   -16960   -17073   -17167   -17232   -17302   -17404 
  -17528   -17648   -17736   -17803   -17872   -17929   -17968   -18000 
  -18033   -18071   -18115   -18161   -18173   -18135   -18094   -18087 
  -18106   -18115   -18094   -18065   -18054   -18042   -18013   -17980 
  -17959   -17940   -17910   -17875   -17847   -17824   -17797   -17755 
  -17703   -17645   -17585   -17547   -17517   -17463   -17409   -17377 
  -17334   -17259   -17177   -17127   -17122   -17126   -17104   -17074 
  -17027   -16957   -16922   -16914   -16888   -16857   -16808   -16733 
  -16667   -16603   -16529   -16463   -16407   -16367   -16339   -16303 
  -16240   -16167   -16120   -16104   -16106   -16093   -16052   -16008 
  -15986   -16004   -16058   -16112   -16123   -16109   -16129   -16193 
  -16262   -16324   -16390   -16459   -16524   -16584   -16657   -16757 
  -16866   -16958   -17037   -17122   -17217   -17304   -17385   -17489 
  -17599   -17686   -17756   -17806   -17848   -17918   -18004   -18079 
  -18148   -18211   -18264   -18304   -18330   -18368   -18457   -18565 
  -18643   -18724   -18812   -18871   -18922   -18993   -19064   -19130 
  -19195   -19251   -19296   -19348   -19392   -19417   -19444   -19475 
  -19481   -19471   -19460   -19441   -19413   -19403   -19407   -19402 
  -19375   -19330   -19271   -19215   -19191   -19191   -19187   -19163 
  -19130   -19107   -19076   -19026   -18978   -18943   -18913   -18881 
  -18839   -18793   -18755   -18715   -18652   -18588   -18539   -18481 
  -18420   -18391   -18349   -18268   -18189   -18127   -18071   -18006 
  -17918   -17838   -17775   -17712   -17649   -17589   -17508   -17400 
  -17307   -17248   -17182   -17080   -16964   -16863   -16780   -16676 
  -16538   -16416   -16325   -16241   -16144   -16038   -15949   -15878 
  -15789   -15701   -15655   -15634   -15606   -15585   -15560   -15487 
  -15400   -15357   -15342   -15330   -15318   -15291   -15249   -15196 
  -15136   -15090   -15056   -15016   -14980   -14958   -14925   -14878 
  -14835   -14817   -14805   -14774   -14742   -14714   -14679   -14634 
  -14578   -14539   -14532   -14520   -14486   -14454   -14411   -14370 
  -14359   -14354   -14361   -14401   -14446   -14472   -14499   -14526 
  -14562   -14620   -14675   -14717   -14767   -14827   -14889   -14943 
  -14979   -15006   -15047   -15105   -15163   -15229   -15303   -15348 
  -15385   -15447   -15513   -15574   -15651   -15730   -15782   -15827 
  -15866   -15886   -15919   -15965   -16011   -16047   -16043   -16009 
  -16005   -16024   -16029   -16020   -16005   -15997   -15992   -15982 
  -15988   -16001   -15998   -15994   -15998   -15988   -15955   -15932 
  -15938   -15947   -15943   -15925   -15913   -15904   -15866   -15811 
  -15782   -15772   -15758   -15750   -15731   -15695   -15646   -15585 
  -15522   -15487   -15469   -15442   -15404   -15360   -15302   -15242 
  -15203   -15173   -15137   -15083   -15021   -14978   -14940   -14882 
  -14835   -14812   -14783   -14750   -14725   -14704   -14692   -14688 
  -14677   -14681   -14701   -14700   -14704   -14750   -14790   -14812 
  -14840   -14881   -14922   -14979   -15052   -15121   -15176   -15229 
  -15304   -15396   -15464   -15492   -15539   -15630   -15703   -15757 
  -15839   -15949   -16047   -16120   -16175   -16220   -16287   -16363 
  -16428   -16548   -16713   -16837   -16943   -17050   -17135   -17217 
  -17311   -17425   -17568   -17697   -17780   -17882   -17991   -18053 
  -18125   -18249   -18350   -18408   -18458   -18501   -18566   -18657 
  -18729   -18805   -18889   -18945   -18987   -19033   -19080   -19121 
  -19155   -19195   -19226   -19255   -19291   -19325   -19359   -19386 
  -19402   -19411   -19430   -19468   -19496   -19504   -19527   -19565 
  -19577   -19579   -19595   -19600   -19581   -19568   -19570   -19564 
  -19550   -19556   -19573   -19565   -19537   -19518   -19516   -19515 
  -19508   -19487   -19449   -19422   -19419   -19413   -19376   -19332 
  -19321   -19332   -19313   -19259   -19221   -19218   -19215   -19202 
  -19190   -19165   -19133   -19116   -19097   -19071   -19084   -19118 
  -19101   -19061   -19066   -19113   -19155   -19160   -19150   -19149 
  -19145   -19130   -19134   -19160   -19175   -19174   -19179   -19184 
  -19168   -19140   -19138   -19160   -19165   -19159   -19153   -19129 
  -19083   -19040   -19021   -19021   -19037   -19060   -19074   -19082 
  -19079   -19064   -19040   -18998   -18955   -18917   -18886   -18902 
  -18927   -18900   -18848   -18816   -18796   -18775   -18746   -18689 
  -18661   -18688   -18689   -18647   -18616   -18600   -18597   -18604 
  -18615   -18627   -18619   -18592   -18586   -18604   -18625   -18651 
  -18674   -18694   -18719   -18736   -18746   -18765   -18790   -18808 
  -18827   -18860   -18889   -18908   -18920   -18927   -18933   -18947 
  -18962   -18975   -18979   -18971   -18966   -18972   -18982   -18997 
  -19033   -19057   -19056   -19059   -19068   -19089   -19133   -19175 
  -19199   -19207   -19199   -19190   -19191   -19191   -19201   -19203 
  -19152   -19087   -19068   -19022   -18933   -18886   -18847   -18787 
  -18751   -18701   -18623   -18557   -18489   -18420   -18366   -18311 
  -18254   -18184   -18096   -18025   -17967   -17898   -17820   -17722 
  -17605   -17491   -17385   -17281   -17190   -17084   -16961   -16846 
  -16733   -16616   -16514   -16409   -16285   -16166   -16055   -15934 
  -15822   -15727   -15627   -15522   -15433   -15350   -15264   -15176 
  -15090   -15006   -14940   -14882   -14804   -14696   -14586   -14493 
  -14389   -14273   -14172   -14084   -14004   -13925   -13844   -13761 
  -13663   -13551   -13437   -13340   -13288   -13273   -13261   -13269 
  -13306   -13312   -13270   -13240   -13234   -13234   -13267   -13320 
  -13346   -13346   -13342   -13346   -13369   -13408   -13431   -13432 
  -13437   -13451   -13468   -13501   -13541   -13583   -13625   -13651 
  -13671   -13709   -13767   -13829   -13900   -13979   -14060   -14143 
  -14220   -14287   -14359   -14451   -14565   -14701   -14839   -14962 
  -15078   -15196   -15315   -15442   -15583   -15716   -15836   -15951 
  -16078   -16231   -16390   -16548   -16707   -16854   -16995   -17143 
  -17292   -17424   -17548   -17678   -17803   -17930   -18076   -18206 
  -18327   -18468   -18565   -18627   -18732   -18847   -18933   -19005 
  -19052   -19106   -19199   -19295   -19365   -19426   -19476   -19506 
  -19541   -19588   -19635   -19672   -19695   -19727   -19770   -19801 
  -19831   -19872   -19905   -19943   -20005   -20073   -20101   -20085 
  -20058   -20042   -20040   -20073   -20110   -20124   -20110   -20067 
  -19997   -19939   -19915   -19913   -19912   -19888   -19836   -19768 
  -19703   -19669   -19654   -19619   -19561   -19504   -19460   -19426 
  -19413   -19408   -19390   -19345   -19287   -19251   -19256   -19259 
  -19268   -19307   -19345   -19352   -19348   -19359   -19388   -19430 
  -19487   -19549   -19603   -19662   -19728   -19788   -19836   -19885 
  -19940   -19997   -20051   -20109   -20159   -20196   -20237   -20294 
  -20349   -20409   -20470   -20522   -20564   -20602   -20646   -20702 
  -20765   -20826   -20887   -20953   -21026   -21105   -21181   -21257 
  -21344   -21438   -21532   -21636   -21744   -21856   -21970   -22061 
  -22134   -22237   -22363   -22462   -22538   -22613   -22673   -22702 
  -22728   -22754   -22789   -22845   -22871   -22851   -22848   -22862 
  -22844   -22813   -22785   -22762   -22747   -22742   -22734   -22705 
  -22659   -22599   -22535   -22478   -22423   -22358   -22266   -22156 
  -22063   -21978   -21868   -21745   -21625   -21492   -21340   -21197 
  -21070   -20925   -20745   -20576   -20437   -20297   -20144   -20000 
  -19862   -19715   -19570   -19438   -19302   -19159   -19020   -18877 
  -18731   -18605   -18492   -18378   -18262   -18137   -17986   -17822 
  -17683   -17570   -17452   -17315   -17181   -17064   -16955   -16857 
  -16769   -16690   -16595   -16487   -16402   -16343   -16289   -16233 
  -16170   -16120   -16059   -15984   -15938   -15911   -15863   -15805 
  -15758   -15726   -15698   -15665   -15637   -15620   -15610   -15606 
  -15604   -15599   -15589   -15593   -15610   -15612   -15618   -15647 
  -15684   -15705   -15727   -15753   -15778   -15811   -15851   -15877 
  -15888   -15909   -15934   -15949   -15982   -16032   -16077   -16106 
  -16133   -16167   -16198   -16236   -16289   -16329   -16349   -16372 
  -16403   -16431   -16461   -16521   -16605   -16649   -16649   -16669 
  -16715   -16764   -16812   -16843   -16883   -16934   -16978   -17050 
  -17126   -17172   -17205   -17236   -17274   -17328   -17382   -17428 
  -17460   -17493   -17536   -17575   -17608   -17636   -17649   -17672 
  -17714   -17760   -17803   -17841   -17871   -17895   -17925   -17960 
  -17977   -17987   -18014   -18053   -18092   -18139   -18177   -18185 
  -18180   -18180   -18181   -18193   -18230   -18270   -18291   -18315 
  -18357   -18403   -18450   -18495   -18530   -18559   -18578   -18609 
  -18675   -18739   -18762   -18785   -18847   -18916   -18963   -19010 
  -19045   -19070   -19106   -19149   -19206   -19271   -19311   -19345 
  -19384   -19408   -19437   -19481   -19511   -19526   -19543   -19565 
  -19595   -19618   -19629   -19654   -19693   -19718   -19720   -19716 
  -19712   -19715   -19723   -19727   -19731   -19737   -19722   -19685 
  -19656   -19635   -19615   -19596   -19585   -19570   -19542   -19508 
  -19472   -19433   -19413   -19396   -19361   -19315   -19268   -19236 
  -19205   -19156   -19110   -19084   -19075   -19066   -19035   -19012 
  -19012   -18987   -18952   -18940   -18933   -18922   -18914   -18927 
  -18959   -18975   -18963   -18954   -18960   -18986   -19009   -18995 
  -18978   -18981   -18978   -18975   -19002   -19014   -18990   -18947 
  -18904   -18873   -18855   -18837   -18827   -18800   -18738   -18677 
  -18638   -18619   -18615   -18605   -18562   -18492   -18431   -18391 
  -18350   -18299   -18260   -18230   -18188   -18137   -18091   -18040 
  -17990   -17938   -17868   -17791   -17718   -17658   -17618   -17577 
  -17505   -17412   -17311   -17216   -17149   -17077   -16991   -16908 
  -16812   -16718   -16627   -16509   -16391   -16294   -16190   -16083 
  -15972   -15861   -15743   -15611   -15477   -15352   -15245   -15159 
  -15051   -14921   -14808   -14697   -14578   -14476   -14395   -14314 
  -14215   -14115   -14026   -13948   -13880   -13813   -13730   -13640 
  -13560   -13508   -13448   -13370   -13306   -13257   -13198   -13139 
  -13096   -13076   -13054   -13011   -12958   -12920   -12918   -12924 
  -12896   -12866   -12868   -12880   -12893   -12908   -12930   -12949 
  -12950   -12962   -13022   -13096   -13136   -13169   -13213   -13248 
  -13286   -13350   -13421   -13497   -13572   -13626   -13664   -13726 
  -13826   -13925   -13992   -14056   -14119   -14175   -14255   -14366 
  -14461   -14515   -14562   -14629   -14709   -14787   -14862   -14935 
