Origin Time       2016/04/16 01:25:00
Lat.              32.753
Long.             130.762
Depth. (km)       12
Mag.              7.3
Station Code      OSK004
Station Lat.      34.7405
Station Long.     135.6394
Station Height(m) 15
Record Time       2016/04/16 01:27:39
Sampling Freq(Hz) 100Hz
Duration Time(s)  142
Dir.              N-S
Scale Factor      7845(gal)/8223790
Max. Acc. (gal)   4.028
Last Correction   2016/04/16 01:27:40
Memo.             
[...]
   -2419    -2386    -2362    -2335    -2313    -2290    -2247    -2205 
   -2188    -2184    -2172    -2144    -2110    -2073    -2034    -1998 
   -1969    -1948    -1929    -1914    -1895    -1868    -1845    -1837 
   -1846    -1867    -1887    -1895    -1898    -1912    -1949    -1995 
   -2030    -2050    -2070    -2097    -2115    -2124    -2147    -2180 
   -2205    -2222    -2236    -2247    -2258    -2273    -2289    -2308 
   -2334    -2338    -2315    -2301    -2311    -2326    -2349    -2373 
   -2376    -2358    -2340    -2334    -2342    -2363    -2389    -2407 
   -2423    -2442    -2478    -2531    -2583    -2632    -2693    -2759 
   -2820    -2882    -2940    -2994    -3065    -3146    -3204    -3249 
   -3296    -3345    -3393    -3439    -3472    -3504    -3535    -3557 
   -3581    -3611    -3642    -3674    -3699    -3709    -3723    -3746 
   -3767    -3792    -3825    -3856    -3871    -3889    -3906    -3899 
   -3885    -3883    -3889    -3894    -3889    -3861    -3835    -3816 
   -3788    -3769    -3765    -3748    -3721    -3699    -3676    -3650 
   -3628    -3615    -3608    -3582    -3534    -3480    -3424    -3369 
   -3321    -3272    -3206    -3123    -3038    -2963    -2911    -2867 
   -2799    -2725    -2667    -2624    -2581    -2536    -2506    -2496 
   -2493    -2479    -2458    -2439    -2420    -2398    -2390    -2389 
   -2374    -2353    -2330    -2316    -2315    -2311    -2289    -2259 
   -2234    -2215    -2191    -2139    -2091    -2079    -2084    -2091 
   -2083    -2049    -2019    -2018    -2031    -2053    -2069    -2076 
   -2092    -2121    -2147    -2161    -2176    -2195    -2214    -2236 
   -2262    -2286    -2309    -2330    -2357    -2385    -2412    -2451 
   -2493    -2512    -2519    -2536    -2565    -2605    -2659    -2709 
   -2729    -2727    -2735    -2770    -2825    -2889    -2938    -2953 
   -2957    -2988    -3040    -3096    -3153    -3194    -3213    -3225 
   -3245    -3273    -3308    -3339    -3352    -3354    -3366    -3372 
   -3376    -3388    -3396    -3393    -3384    -3372    -3369    -3373 
   -3369    -3361    -3352    -3346    -3354    -3369    -3360    -3331 
   -3315    -3312    -3319    -3333    -3350    -3360    -3353    -3350 
   -3369    -3397    -3414    -3419    -3422    -3426    -3424    -3431 
   -3446    -3457    -3457    -3442    -3424    -3410    -3397    -3402 
   -3410    -3395    -3349    -3295    -3287    -3322    -3341    -3319 
   -3281    -3250    -3241    -3249    -3250    -3238    -3222    -3213 
   -3223    -3229    -3207    -3173    -3150    -3141    -3134    -3102 
   -3056    -3032    -3030    -3029    -3017    -2982    -2943    -2929 
   -2945    -2956    -2945    -2926    -2922    -2940    -2959    -2975 
   -3006    -3052    -3094    -3107    -3094    -3080    -3084    -3121 
   -3180    -3194    -3136    -3071    -3052    -3059    -3067    -3048 
   -2999    -2953    -2907    -2862    -2859    -2876    -2860    -2820 
   -2764    -2706    -2675    -2671    -2669    -2654    -2627    -2606 
   -2592    -2579    -2574    -2574    -2571    -2558    -2544    -2531 
   -2513    -2489    -2454    -2416    -2378    -2332    -2304    -2299 
   -2273    -2223    -2191    -2169    -2124    -2076    -2061    -2076 
   -2089    -2070    -2031    -2006    -2006    -2025    -2034    -2031 
   -2029    -2034    -2053    -2077    -2104    -2147    -2184    -2196 
   -2211    -2224    -2251    -2316    -2389    -2424    -2447    -2494 
   -2558    -2624    -2688    -2745    -2802    -2852    -2902    -2961 
   -3036    -3114    -3167    -3203    -3252    -3303    -3362    -3416 
   -3419    -3403    -3426    -3484    -3537    -3554    -3534    -3515 
   -3530    -3565    -3591    -3586    -3569    -3573    -3595    -3611 
   -3619    -3645    -3688    -3703    -3681    -3674    -3692    -3721 
   -3775    -3812    -3792    -3767    -3793    -3842    -3874    -3874 
   -3854    -3850    -3871    -3886    -3875    -3852    -3846    -3854 
   -3848    -3821    -3788    -3751    -3715    -3678    -3646    -3615 
   -3573    -3516    -3446    -3387    -3355    -3339    -3315    -3261 
   -3187    -3129    -3100    -3083    -3053    -3002    -2934    -2863 
   -2802    -2743    -2687    -2623    -2533    -2432    -2331    -2236 
   -2160    -2088    -1988    -1872    -1781    -1705    -1615    -1520 
   -1429    -1352    -1287    -1224    -1161    -1092    -1023     -969 
    -926     -886     -859     -838     -807     -765     -734     -715 
    -702     -700     -697     -661     -623     -619     -625     -633 
    -656     -664     -662     -679     -714     -757     -804     -857 
    -912     -969    -1031    -1093    -1156    -1239    -1332    -1418 
   -1482    -1514    -1540    -1598    -1679    -1759    -1831    -1878 
   -1899    -1935    -2004    -2084    -2168    -2254    -2324    -2380 
   -2461    -2567    -2652    -2720    -2810    -2915    -3013    -3106 
   -3192    -3257    -3334    -3453    -3551    -3601    -3649    -3713 
   -3775    -3817    -3847    -3886    -3932    -3970    -4002    -4020 
   -4010    -4017    -4072    -4126    -4136    -4132    -4152    -4162 
   -4168    -4214    -4252    -4255    -4283    -4327    -4327    -4309 
   -4314    -4336    -4371    -4409    -4401    -4376    -4363    -4345 
   -4355    -4374    -4336    -4258    -4202    -4168    -4149    -4148 
   -4125    -4048    -3960    -3885    -3820    -3778    -3731    -3673 
   -3615    -3532    -3445    -3402    -3375    -3317    -3252    -3177 
   -3080    -3014    -2990    -2940    -2878    -2818    -2752    -2705 
   -2658    -2602    -2535    -2457    -2400    -2344    -2281    -2215 
   -2133    -2053    -1991    -1937    -1878    -1800    -1723    -1649 
   -1567    -1501    -1463    -1441    -1383    -1297    -1247    -1223 
   -1205    -1198    -1201    -1188    -1136    -1104    -1117    -1138 
   -1163    -1181    -1181    -1179    -1179    -1192    -1210    -1228 
   -1242    -1240    -1256    -1273    -1263    -1259    -1250    -1229 
   -1224    -1239    -1264    -1263    -1243    -1221    -1206    -1230 
   -1260    -1281    -1313    -1331    -1347    -1385    -1424    -1466 
   -1520    -1586    -1652    -1726    -1792    -1833    -1911    -2023 
   -2087    -2130    -2223    -2313    -2370    -2439    -2519    -2560 
   -2616    -2706    -2772    -2826    -2899    -2967    -3018    -3059 
   -3103    -3163    -3215    -3246    -3277    -3327    -3369    -3396 
   -3418    -3422    -3439    -3496    -3547    -3576    -3572    -3547 
   -3574    -3667    -3719    -3705    -3701    -3715    -3723    -3734 
   -3757    -3780    -3757    -3712    -3704    -3693    -3663    -3657 
   -3655    -3626    -3572    -3538    -3526    -3492    -3459    -3446 
   -3430    -3403    -3362    -3329    -3299    -3264    -3262    -3268 
   -3217    -3159    -3133    -3127    -3115    -3096    -3063    -2988 
   -2929    -2907    -2876    -2839    -2771    -2678    -2612    -2555 
   -2493    -2421    -2340    -2288    -2249    -2214    -2161    -2092 
   -2053    -2030    -2029    -2034    -1988    -1948    -1941    -1952 
   -1985    -1996    -1999    -1998    -1993    -2029    -2049    -2053 
   -2074    -2087    -2128    -2177    -2188    -2231    -2307    -2354 
   -2393    -2440    -2458    -2481    -2556    -2596    -2594    -2636 
   -2658    -2662    -2700    -2705    -2693    -2698    -2695    -2687 
   -2668    -2667    -2691    -2669    -2590    -2519    -2488    -2481 
   -2501    -2523    -2466    -2377    -2338    -2332    -2366    -2432 
   -2446    -2416    -2432    -2477    -2521    -2586    -2623    -2616 
   -2648    -2700    -2731    -2771    -2806    -2826    -2839    -2843 
   -2844    -2841    -2833    -2832    -2821    -2783    -2721    -2695 
   -2727    -2781    -2830    -2840    -2806    -2802    -2853    -2929 
   -3011    -3094    -3153    -3183    -3242    -3338    -3402    -3446 
   -3508    -3565    -3595    -3618    -3653    -3703    -3715    -3688 
   -3707    -3757    -3736    -3699    -3705    -3657    -3601    -3645 
   -3657    -3562    -3466    -3426    -3406    -3379    -3355    -3317 
   -3221    -3118    -3067    -3013    -2918    -2836    -2786    -2735 
   -2683    -2627    -2535    -2407    -2266    -2176    -2161    -2168 
   -2137    -2046    -1922    -1829    -1790    -1776    -1783    -1776 
   -1723    -1668    -1624    -1553    -1474    -1426    -1416    -1437 
   -1460    -1433    -1339    -1215    -1132    -1133    -1170    -1185 
   -1147    -1048     -955     -916     -923     -949     -955     -927 
    -888     -861     -850     -853     -881     -919     -955    -1017 
   -1102    -1165    -1183    -1182    -1197    -1260    -1391    -1554 
   -1680    -1740    -1768    -1811    -1895    -2034    -2196    -2330 
   -2427    -2520    -2621    -2731    -2837    -2930    -3024    -3145 
   -3291    -3415    -3495    -3539    -3563    -3607    -3701    -3842 
   -3996    -4105    -4143    -4132    -4125    -4170    -4256    -4360 
   -4463    -4530    -4564    -4588    -4604    -4606    -4606    -4626 
   -4654    -4687    -4720    -4726    -4707    -4681    -4646    -4621 
   -4614    -4606    -4590    -4564    -4523    -4446    -4378    -4360 
   -4352    -4318    -4263    -4192    -4122    -4064    -4010    -3950 
   -3893    -3852    -3801    -3738    -3677    -3607    -3532    -3466 
   -3418    -3376    -3314    -3250    -3203    -3173    -3160    -3145 
   -3105    -3046    -2995    -2953    -2922    -2893    -2863    -2837 
   -2824    -2808    -2774    -2740    -2721    -2691    -2654    -2631 
   -2621    -2609    -2583    -2554    -2532    -2521    -2515    -2504 
   -2490    -2482    -2481    -2489    -2509    -2524    -2531    -2546 
   -2575    -2592    -2601    -2620    -2647    -2671    -2693    -2716 
   -2731    -2731    -2743    -2756    -2737    -2704    -2675    -2636 
   -2601    -2575    -2529    -2459    -2398    -2354    -2304    -2245 
   -2188    -2139    -2089    -2034    -1980    -1927    -1868    -1814 
   -1768    -1711    -1648    -1594    -1535    -1463    -1391    -1336 
   -1282    -1235    -1192    -1143    -1094    -1059    -1015     -958 
    -920     -903     -885     -861     -838     -815     -795     -792 
    -795     -788     -781     -785     -801     -818     -830     -845 
    -869     -890     -920     -969    -1021    -1067    -1109    -1142 
   -1179    -1236    -1302    -1362    -1410    -1451    -1506    -1575 
   -1629    -1667    -1706    -1749    -1800    -1868    -1938    -2001 
   -2062    -2116    -2161    -2219    -2285    -2349    -2425    -2502 
   -2563    -2635    -2728    -2809    -2875    -2951    -3040    -3122 
   -3202    -3298    -3392    -3474    -3559    -3651    -3738    -3827 
   -3908    -3967    -4014    -4055    -4097    -4139    -4163    -4164 
   -4163    -4152    -4120    -4077    -4047    -4039    -4024    -3967 
   -3894    -3856    -3836    -3808    -3778    -3735    -3690    -3662 
   -3631    -3596    -3565    -3514    -3464    -3442    -3420    -3396 
   -3384    -3361    -3334    -3325    -3317    -3307    -3300    -3304 
   -3323    -3334    -3325    -3322    -3346    -3357    -3335    -3329 
   -3342    -3348    -3352    -3355    -3357    -3353    -3343    -3354 
   -3377    -3388    -3406    -3433    -3453    -3465    -3487    -3523 
   -3559    -3585    -3615    -3670    -3726    -3776    -3828    -3877 
   -3920    -3977    -4035    -4086    -4143    -4202    -4251    -4298 
   -4348    -4388    -4418    -4455    -4495    -4511    -4506    -4504 
   -4517    -4531    -4525    -4502    -4495    -4491    -4469    -4457 
   -4448    -4413    -4367    -4341    -4344    -4341    -4324    -4309 
   -4289    -4256    -4223    -4197    -4166    -4125    -4090    -4068 
   -4055    -4051    -4039    -4016    -3996    -3970    -3947    -3947 
   -3955    -3964    -3978    -3986    -3991    -3989    -3970    -3970 
   -3981    -3970    -3964    -3979    -3989    -3998    -4009    -4002 
   -3994    -3997    -4009    -4033    -4068    -4094    -4110    -4135 
   -4155    -4164    -4185    -4215    -4241    -4274    -4315    -4353 
   -4380    -4410    -4441    -4464    -4496    -4535    -4577    -4622 
   -4657    -4681    -4699    -4715    -4735    -4768    -4810    -4852 
   -4884    -4907    -4932    -4953    -4968    -4993    -5011    -5015 
   -5024    -5027    -5011    -4976    -4931    -4880    -4830    -4779 
   -4710    -4635    -4567    -4488    -4401    -4321    -4247    -4162 
   -4078    -4008    -3942    -3867    -3793    -3730    -3674    -3618 
   -3561    -3515    -3472    -3424    -3385    -3361    -3326    -3284 
   -3248    -3211    -3172    -3140    -3109    -3071    -3014    -2951 
   -2898    -2844    -2779    -2720    -2669    -2612    -2543    -2485 
   -2432    -2369    -2307    -2259    -2209    -2150    -2102    -2070 
   -2031    -1993    -1968    -1949    -1942    -1935    -1927    -1926 
   -1939    -1960    -1989    -2031    -2091    -2157    -2215    -2277 
   -2359    -2444    -2524    -2614    -2728    -2841    -2928    -3002 
   -3099    -3204    -3295    -3388    -3496    -3592    -3684    -3781 
   -3870    -3960    -4055    -4155    -4268    -4383    -4473    -4563 
   -4660    -4747    -4843    -4959    -5076    -5174    -5267    -5355 
   -5429    -5506    -5598    -5694    -5798    -5911    -6008    -6088 
   -6174    -6265    -6347    -6424    -6496    -6575    -6664    -6744 
   -6814    -6875    -6917    -6949    -6983    -7010    -7036    -7069 
   -7098    -7099    -7079    -7056    -7034    -6999    -6966    -6937 
   -6901    -6860    -6820    -6775    -6728    -6678    -6631    -6583 
   -6531    -6474    -6427    -6388    -6343    -6297    -6252    -6196 
   -6126    -6057    -5989    -5922    -5857    -5786    -5702    -5609 
   -5503    -5394    -5289    -5182    -5071    -4955    -4838    -4715 
   -4588    -4457    -4325    -4190    -4055    -3929    -3807    -3681 
   -3555    -3434    -3307    -3179    -3061    -2949    -2843    -2752 
   -2668    -2577    -2486    -2407    -2332    -2266    -2212    -2161 
   -2115    -2074    -2029    -1991    -1969    -1941    -1908    -1892 
   -1875    -1848    -1829    -1823    -1815    -1814    -1822    -1833 
   -1842    -1844    -1845    -1867    -1891    -1900    -1914    -1939 
   -1962    -1977    -1987    -1991    -2003    -2015    -2015    -2018 
   -2026    -2019    -2004    -1998    -1989    -1980    -1975    -1973 
   -1968    -1960    -1944    -1925    -1917    -1902    -1881    -1872 
   -1867    -1846    -1823    -1811    -1794    -1767    -1745    -1725 
   -1696    -1665    -1630    -1597    -1574    -1540    -1505    -1485 
   -1457    -1413    -1372    -1332    -1287    -1243    -1206    -1179 
   -1161    -1133    -1088    -1050    -1019     -984     -955     -936 
    -916     -897     -877     -853     -828     -814     -807     -812 
    -818     -814     -818     -834     -850     -873     -897     -919 
    -955     -994    -1026    -1059    -1100    -1146    -1193    -1240 
   -1291    -1341    -1387    -1439    -1490    -1528    -1563    -1603 
   -1648    -1691    -1729    -1759    -1781    -1813    -1838    -1846 
   -1850    -1858    -1856    -1840    -1815    -1781    -1741    -1698 
   -1652    -1595    -1521    -1448    -1377    -1290    -1198    -1120 
   -1035     -942     -861     -778     -691     -603     -518     -453 
    -399     -330     -255     -183     -114      -51        1       45 
      91      140      187      236      284      325      356      376 
     394      415      429      434      436      433      429      423 
     409      388      364      338      317      291      252      216 
     180      140       98       51       -1      -55     -114     -176 
    -241     -313     -383     -457     -526     -594     -670     -757 
    -838     -924    -1013    -1101    -1192    -1282    -1379    -1489 
   -1605    -1722    -1840    -1960    -2083    -2199    -2311    -2431 
   -2554    -2673    -2795    -2925    -3045    -3152    -3257    -3369 
   -3484    -3591    -3692    -3790    -3882    -3974    -4069    -4158 
   -4240    -4321    -4392    -4461    -4529    -4577    -4619    -4666 
   -4710    -4747    -4779    -4804    -4814    -4816    -4814    -4814 
   -4807    -4797    -4784    -4762    -4735    -4704    -4673    -4648 
   -4621    -4585    -4550    -4518    -4482    -4441    -4409    -4380 
   -4347    -4314    -4283    -4245    -4209    -4180    -4149    -4120 
   -4094    -4063    -4035    -4012    -3979    -3948    -3929    -3916 
   -3904    -3894    -3888    -3883    -3882    -3883    -3885    -3885 
   -3897    -3909    -3910    -3916    -3923    -3917    -3915    -3921 
   -3927    -3923    -3913    -3905    -3902    -3896    -3879    -3870 
   -3861    -3842    -3832    -3827    -3805    -3785    -3770    -3746 
   -3723    -3700    -3673    -3650    -3628    -3593    -3554    -3511 
   -3461    -3410    -3362    -3311    -3257    -3202    -3138    -3071 
   -3018    -2963    -2903    -2844    -2774    -2714    -2671    -2614 
   -2552    -2508    -2459    -2408    -2371    -2335    -2289    -2254 
   -2232    -2214    -2201    -2180    -2149    -2134    -2118    -2087 
   -2074    -2079    -2074    -2068    -2066    -2058    -2050    -2049 
   -2057    -2073    -2088    -2104    -2138    -2178    -2204    -2224 
   -2261    -2295    -2322    -2363    -2404    -2424    -2440    -2454 
   -2469    -2489    -2490    -2471    -2463    -2455    -2427    -2407 
   -2393    -2353    -2309    -2282    -2249    -2201    -2146    -2085 
   -2034    -1992    -1934    -1877    -1833    -1776    -1702    -1634 
   -1575    -1501    -1416    -1350    -1305    -1266    -1220    -1158 
   -1085    -1021     -969     -922     -885     -851     -814     -776 
    -743     -715     -687     -649     -606     -564     -533     -519 
    -506     -484     -456     -430     -409     -394     -383     -383 
    -392     -399     -411     -434     -459     -486     -513     -535 
    -568     -616     -672     -734     -804     -874     -950    -1032 
   -1109    -1190    -1287    -1389    -1485    -1590    -1702    -1815 
   -1937    -2053    -2151    -2253    -2351    -2439    -2539    -2644 
   -2728    -2798    -2862    -2917    -2970    -3028    -3086    -3140 
   -3187    -3232    -3280    -3327    -3369    -3400    -3410    -3416 
   -3426    -3435    -3458    -3492    -3511    -3518    -3522    -3515 
   -3501    -3496    -3492    -3487    -3473    -3440    -3407    -3388 
   -3358    -3326    -3296    -3254    -3206    -3159    -3115    -3082 
   -3037    -2980    -2937    -2882    -2811    -2759    -2710    -2656 
   -2623    -2584    -2533    -2502    -2473    -2438    -2420    -2397 
   -2359    -2338    -2323    -2295    -2281    -2284    -2277    -2270 
   -2269    -2258    -2246    -2241    -2230    -2215    -2201    -2187 
   -2170    -2160    -2158    -2165    -2170    -2168    -2161    -2149 
   -2135    -2142    -2155    -2162    -2165    -2155    -2149    -2166 
   -2185    -2182    -2170    -2168    -2172    -2174    -2180    -2182 
   -2177    -2173    -2157    -2126    -2107    -2093    -2069    -2053 
   -2047    -2031    -2022    -2014    -1985    -1956    -1942    -1923 
   -1902    -1891    -1888    -1890    -1898    -1903    -1902    -1904 
   -1917    -1926    -1938    -1960    -1984    -2018    -2060    -2097 
