Origin Time       2016/04/16 01:25:00
Lat.              32.753
Long.             130.762
Depth. (km)       12
Mag.              7.3
Station Code      OSK002
Station Lat.      34.8573
Station Long.     135.5958
Station Height(m) 34
Record Time       2016/04/16 01:27:34
Sampling Freq(Hz) 100Hz
Duration Time(s)  112
Dir.              N-S
Scale Factor      7845(gal)/8223790
Max. Acc. (gal)   2.861
Last Correction   2016/04/16 01:27:35
Memo.             
[...]
   13421    13454    13483    13591    13697    13740    13795    13896 
   13968    13960    13986    14133    14237    14241    14312    14447 
   14496    14477    14501    14543    14535    14532    14609    14696 
   14728    14782    14821    14717    14612    14706    14872    14872 
   14694    14619    14747    14805    14742    14747    14827    14870 
   14798    14692    14708    14790    14845    14862    14831    14805 
   14832    14845    14790    14766    14820    14856    14874    14921 
   14947    14916    14886    14951    15041    15044    15060    15110 
   15102    15097    15130    15160    15192    15222    15223    15209 
   15202    15186    15173    15206    15245    15246    15229    15209 
   15202    15206    15234    15264    15244    15184    15152    15191 
   15267    15326    15373    15380    15330    15307    15345    15412 
   15487    15550    15584    15601    15641    15685    15730    15823 
   15934    15994    16035    16074    16093    16133    16233    16347 
   16428    16479    16517    16545    16584    16656    16729    16771 
   16814    16877    16914    16920    16958    17020    17054    17077 
   17093    17080    17058    17067    17084    17061    17034    17031 
   16997    16912    16829    16774    16731    16696    16644    16557 
   16457    16376    16309    16222    16129    16066    15986    15888 
   15820    15769    15703    15604    15489    15392    15307    15226 
   15156    15090    15014    14908    14760    14624    14546    14493 
   14427    14345    14247    14152    14073    14010    13961    13927 
   13902    13849    13775    13740    13747    13747    13738    13744 
   13765    13794    13818    13841    13867    13899    13940    14002 
   14084    14154    14197    14237    14287    14350    14416    14488 
   14555    14586    14607    14648    14688    14740    14802    14832 
   14859    14883    14867    14851    14909    14982    14965    14941 
   14948    14920    14894    14899    14902    14901    14845    14760 
   14757    14775    14697    14600    14563    14546    14516    14482 
   14435    14364    14297    14277    14278    14233    14142    14065 
   14011    13979    13979    13969    13921    13869    13832    13790 
   13759    13768    13792    13782    13737    13689    13675    13697 
   13711    13697    13689    13693    13695    13684    13678    13690 
   13701    13707    13713    13714    13710    13697    13703    13721 
   13740    13768    13772    13763    13770    13759    13763    13829 
   13887    13880    13879    13932    13965    13975    14014    14060 
   14087    14126    14168    14176    14192    14284    14381    14404 
   14432    14492    14524    14569    14658    14771    14898    14964 
   14952    14995    15134    15271    15354    15399    15442    15523 
   15653    15782    15842    15903    16043    16119    16093    16157 
   16299    16379    16429    16460    16490    16569    16622    16641 
   16671    16675    16680    16717    16741    16742    16721    16696 
   16714    16718    16649    16621    16682    16659    16532    16482 
   16502    16482    16449    16421    16360    16270    16156    16073 
   16110    16167    16087    15939    15893    15951    15942    15832 
   15800    15823    15763    15693    15651    15626    15664    15664 
   15554    15480    15510    15560    15537    15424    15348    15367 
   15412    15435    15367    15268    15253    15241    15138    15057 
   15079    15109    15053    14939    14835    14762    14713    14688 
   14644    14562    14499    14442    14345    14264    14234    14192 
   14115    14027    13952    13900    13856    13799    13748    13716 
   13703    13668    13598    13574    13594    13587    13558    13544 
   13568    13610    13629    13643    13680    13721    13760    13818 
   13869    13909    13959    14037    14142    14224    14272    14341 
   14434    14503    14534    14593    14710    14812    14860    14898 
   14948    14991    15021    15059    15106    15163    15211    15206 
   15165    15186    15260    15260    15195    15163    15152    15114 
   15057    14998    14971    14971    14928    14823    14725    14669 
   14615    14548    14477    14400    14326    14262    14193    14115 
   14029    13953    13902    13848    13784    13736    13693    13645 
   13608    13579    13554    13543    13537    13501    13471    13497 
   13535    13549    13568    13601    13635    13670    13710    13756 
   13803    13844    13883    13940    14014    14077    14121    14149 
   14188    14254    14330    14378    14407    14459    14512    14534 
   14565    14635    14729    14800    14825    14852    14902    14953 
   15006    15054    15088    15140    15199    15226    15272    15340 
   15360    15368    15392    15396    15408    15465    15495    15476 
   15471    15465    15437    15426    15429    15398    15341    15287 
   15215    15137    15090    15060    15016    14953    14882    14794 
   14713    14652    14584    14534    14512    14438    14341    14284 
   14245    14202    14141    14064    13998    13969    13964    13886 
   13765    13722    13720    13699    13647    13563    13525    13536 
   13525    13477    13423    13431    13471    13456    13417    13413 
   13456    13522    13549    13535    13521    13537    13620    13701 
   13689    13664    13699    13736    13747    13771    13811    13817 
   13782    13755    13761    13787    13818    13828    13805    13772 
   13763    13792    13822    13792    13745    13749    13775    13782 
   13778    13783    13813    13849    13852    13834    13833    13857 
   13895    13933    13954    13950    13971    14023    14045    14045 
   14069    14115    14156    14181    14211    14234    14237    14234 
   14260    14311    14347    14364    14384    14378    14364    14378 
   14401    14415    14459    14505    14488    14453    14467    14505 
   14523    14506    14480    14501    14554    14542    14501    14511 
   14548    14580    14585    14554    14534    14551    14593    14619 
   14594    14563    14563    14553    14534    14527    14516    14496 
   14457    14401    14376    14397    14393    14320    14269    14280 
   14246    14161    14121    14123    14096    14040    14006    13988 
   13959    13915    13860    13811    13778    13748    13721    13687 
   13645    13617    13610    13598    13560    13513    13481    13475 
   13471    13440    13408    13396    13389    13383    13383    13382 
   13367    13343    13332    13352    13379    13378    13365    13367 
   13383    13413    13448    13467    13468    13491    13539    13574 
   13608    13666    13724    13752    13773    13817    13875    13926 
   13964    14000    14047    14107    14149    14156    14179    14226 
   14262    14296    14320    14314    14315    14347    14372    14389 
   14418    14428    14407    14399    14434    14492    14536    14512 
   14449    14467    14539    14561    14534    14462    14427    14512 
   14596    14594    14550    14494    14467    14496    14532    14527 
   14486    14488    14543    14571    14523    14436    14401    14420 
   14434    14409    14353    14304    14274    14254    14250    14230 
   14165    14102    14076    14077    14053    13996    13961    13923 
   13868    13841    13818    13749    13670    13626    13625    13606 
   13541    13489    13477    13451    13419    13431    13444    13408 
   13385    13410    13420    13406    13423    13466    13468    13460 
   13489    13501    13495    13516    13517    13509    13514    13525 
   13543    13540    13508    13497    13505    13483    13470    13506 
   13494    13405    13366    13383    13371    13340    13297    13248 
   13251    13288    13257    13166    13117    13105    13092    13084 
   13058    13011    12982    12976    12973    12960    12935    12923 
   12943    12964    12972    12978    12968    12978    13041    13084 
   13088    13101    13138    13184    13232    13292    13367    13423 
   13455    13512    13594    13682    13775    13832    13868    13969 
   14084    14129    14165    14238    14345    14467    14539    14570 
   14652    14762    14843    14925    15025    15095    15102    15109 
   15199    15325    15399    15446    15479    15504    15561    15632 
   15704    15772    15784    15807    15903    15948    15942    16000 
   16073    16079    16083    16117    16147    16156    16152    16168 
   16204    16225    16204    16124    16074    16121    16170    16137 
   16077    16028    15975    15912    15863    15834    15772    15657 
   15569    15538    15480    15373    15268    15186    15088    14988 
   14920    14846    14746    14650    14566    14494    14438    14343 
   14235    14165    14098    14040    14010    13952    13876    13819 
   13765    13724    13695    13667    13653    13657    13651    13620 
   13593    13583    13581    13593    13616    13620    13601    13595 
   13620    13643    13648    13666    13671    13653    13660    13672 
   13670    13689    13690    13644    13624    13616    13581    13576 
   13578    13536    13522    13518    13468    13440    13435    13398 
   13380    13378    13350    13323    13309    13301    13313    13308 
   13257    13228    13247    13267    13270    13246    13223    13232 
   13250    13259    13258    13228    13216    13250    13270    13269 
   13274    13246    13227    13284    13309    13278    13306    13331 
   13289    13302    13347    13344    13393    13463    13431    13400 
   13470    13541    13591    13656    13680    13694    13802    13940 
   13999    14037    14100    14166    14268    14392    14492    14590 
   14686    14760    14856    14968    15064    15153    15229    15294 
   15384    15490    15579    15627    15647    15700    15781    15840 
   15894    15928    15934    15969    16023    16048    16040    16033 
   16065    16092    16092    16097    16081    16054    16055    16056 
   16054    16047    16015    15984    15963    15943    15917    15865 
   15805    15772    15743    15695    15638    15579    15520    15468 
   15433    15392    15311    15233    15210    15199    15147    15063 
   14993    14955    14937    14918    14887    14844    14808    14806 
   14813    14787    14756    14750    14760    14778    14787    14780 
   14774    14767    14771    14785    14779    14762    14747    14740 
   14737    14729    14706    14692    14683    14650    14608    14589 
   14585    14569    14531    14493    14481    14478    14466    14451 
   14426    14396    14399    14418    14413    14397    14401    14423 
   14446    14458    14470    14485    14493    14501    14527    14571 
   14625    14663    14671    14681    14728    14793    14845    14879 
   14897    14932    15002    15049    15057    15086    15140    15163 
   15183    15223    15242    15237    15260    15304    15327    15325 
   15327    15342    15340    15315    15298    15295    15299    15291 
   15267    15257    15248    15210    15163    15124    15102    15093 
   15074    15047    15012    14976    14959    14944    14910    14871 
   14858    14860    14858    14848    14825    14798    14796    14810 
   14813    14794    14762    14759    14770    14742    14714    14716 
   14708    14678    14638    14609    14615    14612    14571    14532 
   14508    14481    14450    14424    14405    14373    14346    14345 
   14330    14283    14246    14239    14238    14227    14207    14193 
   14200    14206    14188    14170    14170    14184    14220    14257 
   14249    14222    14239    14283    14297    14292    14292    14311 
   14353    14373    14345    14324    14354    14407    14422    14381 
   14341    14342    14374    14386    14362    14331    14318    14328 
   14331    14300    14274    14270    14268    14278    14300    14292 
   14254    14238    14276    14300    14273    14268    14287    14291 
   14314    14343    14330    14321    14357    14376    14369    14392 
   14430    14432    14412    14411    14438    14455    14434    14407 
   14420    14463    14482    14450    14407    14413    14472    14493 
   14450    14435    14455    14462    14446    14391    14404    14494 
   14463    14377    14416    14463    14436    14436    14449    14435 
   14455    14505    14513    14501    14529    14546    14546    14608 
   14656    14643    14686    14756    14775    14790    14823    14872 
   14944    14988    14994    15016    15051    15078    15147    15214 
   15211    15226    15248    15217    15238    15290    15277    15265 
   15253    15229    15239    15226    15183    15186    15180    15126 
   15083    15068    15057    15033    15002    14995    14976    14936 
   14922    14909    14897    14910    14895    14867    14889    14910 
   14893    14894    14899    14894    14928    14948    14909    14894 
   14935    14975    14985    14958    14914    14897    14929    14941 
   14878    14828    14813    14774    14721    14685    14651    14601 
   14539    14477    14400    14315    14258    14215    14145    14034 
   13937    13872    13783    13686    13613    13514    13410    13340 
   13262    13167    13084    13003    12898    12806    12745    12671 
   12596    12548    12475    12363    12276    12239    12198    12127 
   12042    11969    11934    11919    11863    11793    11761    11726 
   11663    11630    11630    11596    11531    11484    11468    11488 
   11514    11465    11394    11383    11396    11418    11475    11497 
   11469    11477    11511    11535    11599    11670    11691    11736 
   11851    11942    11980    12052    12147    12206    12297    12448 
   12569    12642    12721    12835    12950    13030    13139    13277 
   13379    13486    13613    13722    13825    13925    14022    14134 
   14239    14331    14438    14569    14685    14757    14823    14905 
   14998    15103    15190    15257    15323    15383    15442    15507 
   15585    15697    15782    15778    15770    15834    15908    15954 
   15992    16013    16021    16062    16112    16110    16081    16079 
   16102    16133    16139    16108    16066    16038    16027    16009 
   15955    15896    15881    15877    15815    15705    15612    15573 
   15568    15526    15402    15245    15126    15063    15013    14940 
   14844    14728    14600    14482    14391    14319    14233    14116 
   14007    13933    13865    13767    13652    13565    13512    13450 
   13370    13304    13273    13254    13215    13154    13109    13089 
   13077    13072    13076    13072    13061    13085    13126    13146 
   13169    13186    13196    13238    13308    13387    13464    13498 
   13505    13547    13631    13706    13757    13815    13896    13995 
   14069    14118    14197    14293    14350    14388    14465    14567 
   14667    14778    14850    14868    14902    14983    15095    15209 
   15287    15315    15325    15379    15461    15513    15546    15579 
   15604    15622    15642    15638    15607    15622    15650    15620 
   15592    15562    15516    15500    15484    15434    15380    15354 
   15354    15310    15206    15128    15102    15090    15068    15020 
   14935    14868    14856    14854    14829    14786    14743    14725 
   14732    14737    14728    14696    14638    14593    14593    14609 
   14628    14638    14598    14563    14582    14592    14570    14567 
   14588    14596    14585    14563    14527    14516    14553    14574 
   14550    14509    14489    14492    14488    14477    14454    14416 
   14413    14427    14401    14362    14343    14335    14320    14287 
   14239    14200    14187    14191    14177    14133    14069    14011 
   13983    13960    13930    13895    13838    13787    13773    13743 
   13683    13631    13583    13551    13536    13489    13432    13389 
   13359    13352    13332    13273    13219    13205    13200    13185 
   13166    13128    13089    13066    13028    13001    13011    13015 
   13000    12984    12984    13005    13032    13028    13001    13001 
   13038    13078    13109    13136    13176    13224    13266    13304 
   13362    13446    13514    13562    13641    13713    13760    13859 
   13971    14031    14107    14200    14278    14397    14516    14571 
   14632    14747    14864    14921    14974    15071    15165    15238 
   15292    15334    15396    15461    15495    15512    15531    15545 
   15565    15603    15619    15599    15581    15556    15518    15488 
   15457    15426    15391    15348    15304    15259    15194    15111 
   15053    15034    15024    14991    14913    14829    14786    14760 
   14723    14693    14669    14624    14571    14550    14557    14538 
   14482    14449    14459    14454    14428    14430    14445    14454 
   14469    14455    14419    14424    14461    14489    14526    14580 
   14608    14604    14612    14628    14647    14698    14744    14762 
   14779    14798    14832    14875    14894    14898    14918    14939 
   14959    14993    15013    15007    15006    15020    15052    15097 
   15120    15088    15063    15093    15134    15161    15178    15161 
   15137    15147    15160    15179    15217    15229    15214    15218 
   15253    15304    15341    15350    15352    15376    15431    15460 
   15461    15502    15546    15562    15591    15639    15665    15655 
   15635    15649    15688    15719    15718    15698    15672    15634 
   15615    15627    15620    15607    15596    15542    15461    15383 
   15326    15341    15363    15261    15118    15074    15044    14980 
   14968    14922    14800    14723    14673    14635    14590    14482 
   14453    14472    14400    14369    14345    14250    14207    14177 
   14090    14054    14138    14208    14134    14080    14119    14062 
   14034    14150    14146    14092    14173    14168    14153    14276 
   14272    14237    14320    14368    14494    14559    14418    14473 
   14600    14596    14766    14901    14862    14889    14870    14843 
   15018    15233    15271    15210    15238    15314    15345    15423 
   15490    15496    15562    15610    15558    15614    15758    15757 
   15665    15650    15741    15854    15866    15826    15797    15774 
   15811    15849    15842    15882    15896    15836    15815    15797 
   15777    15781    15731    15696    15727    15714    15655    15611 
   15569    15556    15581    15577    15531    15499    15456    15404 
   15379    15344    15358    15430    15437    15388    15345    15322 
   15325    15296    15257    15298    15365    15371    15305    15222 
   15241    15348    15360    15267    15213    15206    15184    15191 
   15206    15159    15117    15090    15024    14983    14978    14941 
   14875    14790    14724    14674    14601    14532    14470    14372 
   14273    14216    14158    14094    14037    13915    13743    13654 
   13666    13682    13595    13398    13258    13198    13144    13134 
   13120    13034    12927    12831    12772    12771    12773    12719 
   12622    12557    12592    12646    12586    12515    12571    12602 
   12540    12519    12540    12564    12584    12577    12598    12652 
   12721    12754    12695    12672    12779    12896    12928    12874 
   12864    13028    13167    13122    13051    13073    13198    13346 
