Origin Time       2016/04/16 01:25:00
Lat.              32.753
Long.             130.762
Depth. (km)       12
Mag.              7.3
Station Code      SAG004
Station Lat.      33.2646
Station Long.     129.8813
Station Height(m) 32
Record Time       2016/04/16 01:25:23
Sampling Freq(Hz) 100Hz
Duration Time(s)  130
Dir.              N-S
Scale Factor      3920(gal)/6182761
Max. Acc. (gal)   37.794
Last Correction   2016/04/16 01:25:24
Memo.             
[...]
    1588     3425     5133     6350     6661     6000     4631     3205 
    2572     2976     3838     4366     4731     6008     7626     7499 
    5570     3723     2951     3021     3286     3012     2161     1735 
    2679     4785     6951     8228     8265     7071     4969     2542 
     644      406     2201     4717     5876     4970     3490     3123 
    3521     3176     2196     2509     4769     7063     7627     6992 
    6690     7264     7681     6387     3586     1237      504     1088 
    2251     3466     4926     6691     7574     6871     5805     5280 
    4694     3895     3566     3851     4118     3578     1959       -7 
    -833      430     2854     4744     6240     8521    10789    11103 
    9546     7648     5548     2575     -251     -986      835     4136 
    7181     8159     6852     5228     4355     3018     1234      861 
    1993     3407     4994     6658     7684     7863     7176     5692 
    4161     2836     1098     -883    -2250    -2341     -478     3030 
    6353     8150     8527     7799     6321     4984     4242     3805 
    3580     3477     3544     4383     5746     6529     6399     5384 
    3392     1178       52      715     3145     6492     8785     8373 
    5592     2101     -417     -850      791     3226     4896     5407 
    5443     5490     5893     7156     8583     8596     7321     5892 
    4145     2277     2065     3952     6238     7807     8172     6280 
    2196    -2105    -4552    -4235    -1379     2885     6742     8867 
    9357     8724     7549     7021     7502     7648     6604     4858 
    2858     1404     1770     3554     4834     5354     6555     8376 
    9577     9813     8826     6657     4825     4288     3857     2661 
    1897     2406     2915     2182      970      640      762       59 
    -907     -252     2485     5637     7516     7855     6967     5535 
    4604     4165     3563     3155     3414     3951     4432     4593 
    4176     3849     4057     3933     3585     4327     5752     5931 
    4105     1699      740     1622     3010     3317     2089      759 
    1017     2336     3195     3766     5120     7246     9214    10088 
    9277     6804     3598      803    -1554    -3714    -4077     -888 
    4243     7958     9129     8721     7812     6691     4797     1912 
    -757    -1206     1160     4214     5892     6502     6570     6328 
    6839     7962     7920     6024     3135      596     -252      961 
    3523     6330     7869     7485     6575     6508     6840     6551 
    5587     4456     3048     1298      384     1629     4693     7510 
    8010     6266     4504     4130     3686     1295    -1672    -1776 
    1732     6269     9517    11166    11864    11667     9572     5101 
    -127    -3745    -5401    -5986    -4226     1817     9909    15080 
   15500    13605    11899     9896     5677     -905    -6990    -8990 
   -6449    -1813     3467     9625    15230    16570    12196     5147 
    -669    -3743    -4607    -4276    -2881      734     6698    12250 
   14155    11379     5495      261    -1388     -430      631     1405 
    2900     5626     8894    11027    11248    10575     9624     7408 
    3701      731      473     1728     1778      168     -727      799 
    4093     7850    10429    10210     7438     3955     1400      475 
     925     2134     4204     7229     9654     9673     7407     3939 
     195    -2074    -1184     1732     4048     4878     4532     3631 
    3441     4630     6554     8295     9045     8252     6352     4125 
    1460    -1329    -2432     -951     2098     5766     9352    11507 
   11372     9792     7985     6130     4302     2358     -513    -3347 
   -3592     -913     3029     7129    10533    12551    12931    10737 
    6007     1692      486     1888     3203     2157     -618    -2834 
   -3779    -3791    -2794     -721     2517     6568     9611     9938 
    8501     7308     6393     5156     4396     4949     6137     6581 
    6249     6462     7027     5697     1965    -1748    -3728    -3756 
   -1336     2477     5225     7244     9999    11673    10499     7782 
    4321      398    -2288    -3306    -3503    -2332      825     4699 
    7797    10435    13023    13444     9374     2820    -1451    -1362 
    2162     7610    12413    14136    12875     9289     4037     -198 
   -1744    -2225    -2493     -759     3790     8597    10809    10307 
    8167     6065     5713     5704     3503       80    -2169    -2683 
    -668     5246    13166    18615    19332    16308    11385     5738 
     340    -3612    -5519    -5715    -4805    -3652    -2693     -473 
    3786     7572     9052     9754    11323    12993    12521     9428 
    6156     4270     3109     2651     3069     3022     1360    -1254 
   -2778    -1643     1368     3753     3380      650    -1293     -378 
    2060     3501     3465     4009     5801     6589     5270     3177 
    1676     1410     2300     3358     4483     7102    10914    13352 
   13062    11133     9188     7088     3680     -109    -1887    -1303 
    -170     -219    -2079    -4213    -4021    -1713      445     2199 
    5127     9578    13206    13782    12313    10497     8510     6684 
    5437     4696     4436     3741     1023    -3351    -6909    -7934 
   -6320    -2517     2181     6418    10402    14297    16819    16670 
   13756     9079     3672    -1897    -6550    -8154    -5032     1653 
    8103    11402    11782    10355     7295     3179    -1142    -4548 
   -5128    -3192    -1248     1085     6166    12765    16872    16183 
   11067     3699    -2871    -6323    -6213    -3329     1572     7337 
   11791    13368    12856    12134    11540    10348     8226     4694 
     251    -2705    -3048    -1905      558     4781     9033    10904 
    9495     5411      793    -1753     -649     3414     7367     9440 
   10504    10706     9531     7793     6579     5725     4326     2473 
     876     -434     -896      521     3151     5392     6530     5505 
    1306    -3675    -5389    -3172      741     4553     7579    10084 
   12772    14975    14920    12639     9886     6804     2946        6 
   -1276    -2153    -2251     -671     1898     4601     6152     4715 
     688    -3166    -4796    -3586      387     5829    10377    12213 
   11679    10875    11111    11945    11738     8698     3881      705 
      10     -189     -891    -1598    -1614     -192     2126     3335 
    3547     4884     7054     8001     7874     8770    11478    13905 
   12940     7858     1060    -4813    -8724    -9683    -6541     -385 
    5615     9107     9811     8697     7627     8277     9776     9976 
    8551     6114     3050      539     -364      -77      692     1291 
     641    -1560    -4362    -6113    -5228    -1424     4362    10320 
   14405    16184    16533    15635    13080     9746     7709     7260 
    6505     4253      672    -3416    -6148    -5606    -2353      792 
    2541     4170     5794     5233     2291      243      980     3160 
    5979     9511    12317    13112    12809    12648    12028     9745 
    6284     2858     -175    -2730    -4810    -6096    -5378    -2307 
    1504     4160     4907     4362     4411     6519     9841    12567 
   14261    15160    14511    11972     8997     6979     6094     5599 
    4448     2702      839    -1181    -1955      300     3591     4423 
    3365     3092     4148     6109     8422     9884    10468    11064 
   10848     8390     4559     1770     1139     1843     2540     2312 
    1203       -9    -1305    -3028    -4118    -3065     -161     3107 
    6322     9266    10677    10569     9903     7750     3660       18 
   -1202     -618      625     3052     7442    11708    12634    10035 
    6204     3101     1205       28     -512      476     3894     8467 
   10584     8804     6215     5552     5622     4731     3247     2386 
    3612     7062    10323    11325    10317     8309     6013     4371 
    3954     3759     3139     3259     4390     5034     4641     4240 
    4278     4306     4127     3398     1991      496    -1073    -2829 
   -3693    -2458      743     4709     8350    10563    10033     7072 
    3871     1726      110     -786     1083     6483    12855    16943 
   16716    11698     4871      259    -2591    -5619    -6784    -4470 
   -1328     1323     4838     8325    10066    10047     7714     3281 
     146     1105     4908     8672    10945    11340     9641     6807 
    4515     2792      371    -2944    -5693    -5953    -3037     2275 
    8650    13942    16508    17351    17145    14238     8859     3615 
    -377    -3048    -3464    -1037     3201     6977     7588     4414 
     637     -800     -669    -1009    -2148    -2209      362     4136 
    7296    10365    13454    14344    11740     8073     6628     7080 
    6910     5771     4814     4304     4517     5361     4889     2012 
   -1174    -2578    -2305     -625     2719     7075    10441    11221 
    9959     8165     6904     6589     6656     6080     3747     -332 
   -3390    -3507    -2450    -1276     1083     4204     6742     8632 
    9606     9008     8001     7912     7982     7751     8057     8924 
    9444     8946     7328     5297     3698     1922    -1272    -5160 
   -7323    -5855     -678     5940    11070    13739    15108    16201 
   15635    11977     7069     3446     1925     2307     3139     3382 
    4343     6798     8784     8421     6063     2590    -1532    -4497 
   -3881      502     7331    14790    19920    21197    19933    17121 
   12593     7116     2452     -117     -742     -553      106     1533 
    2877     3030     1967     -328    -3545    -5469    -4528    -3023 
   -3402    -3909    -1783     2878     7655     9769     8311     4820 
    1530      -96      149     1371     2833     5064     8663    12379 
   13888    12355     9250     6310     3532      -20    -3743    -5095 
   -3052      725     4777     7557     7555     6367     5893     4112 
    -970    -7257   -11483   -11531    -6614     1567    10166    17054 
   20732    21425    20592    17950    12423     5444     -477    -4724 
   -8057   -11106   -13085   -11920    -7275    -1667     2153     3046 
    1809      201    -1001    -1066     1795     7963    15820    23161 
   27488    27489    23659    17428    10999     6117     3235     2262 
    2893     4940     7632     9465     9845     8339     4574      353 
   -1982    -1936     -111     2452     5078     8467    13103    17301 
   18783    17213    13738     9354     4079    -2415    -8397   -10993 
  -10491    -9683    -9857   -10201    -9028    -5954    -3185    -1895 
    -288     3073     7835    13001    17744    21695    24739    26478 
   25615    21059    13455     4454    -4386   -11032   -13283   -11318 
   -7543    -3876     -560     3551     8339    12452    16801    22170 
   25723    24045    17316     9286     2998    -1395    -4636    -8159 
  -13463   -19512   -24462   -27586   -27216   -21712   -12000     -551 
   10508    20967    31757    41822    47868    47254    39902    27231 
   11977     -943    -8140   -10311    -8724    -4005     1900     7170 
   11844    15649    16494    12176     3799    -3209    -4819    -2068 
    3468    11653    20156    24251    21858    15914    10238     6762 
    6909    10022    12432    11998     9491     5441       72    -5271 
   -8823    -9874    -9780    -9801    -7843    -1046     9714    20721 
   28665    31391    28063    20839    12633     3395    -6552   -13956 
  -16084   -13275    -8484    -4048     -848     -645    -3380    -6295 
   -7296    -3790     5785    18453    29874    37374    39779    37337 
   31276    22547    12304     3245    -3741   -11676   -21453   -28750 
  -29748   -24009   -12586     1391    13924    23401    29040    29812 
   27146    23782    20279    17418    17237    18134    17637    16693 
   14234     8030      255    -5851    -8366    -5739     1719    11609 
   20426    25565    27029    25745    22130    16496     9970     4091 
   -1033    -5537    -9216   -12999   -15799   -14321    -9068    -3828 
    -824      450     2255     5749     9509    11568    10603     7309 
    4919     5089     7578    12887    18655    20377    17626    11976 
    3921    -3659    -6868    -6342    -5723    -7530   -11851   -16362 
  -18262   -14873    -5108     7857    20892    33060    41531    43854 
   40888    33400    21109     5792    -8512   -18389   -21803   -18429 
  -10468      114    12530    23487    29065    29282    24634    14670 
    2281    -8268   -13906   -12438    -5894      833     4408     1760 
   -8575   -23312   -36907   -45190   -46444   -40550   -27819    -9829 
    9244    24824    34914    38416    34309    24736    13432     2091 
   -7037   -10990   -11537   -13021   -16148   -19431   -21667   -21453 
  -18171   -13228    -9731    -9592   -10713    -9292    -3378     5685 
   12667    13273     9200     3726    -1551    -4313    -3725    -2235 
   -1858    -3370    -7201   -11704   -14567   -15832   -16234   -15568 
  -14502   -14408   -15708   -18550   -22421   -24178   -19517    -7139 
    9834    26586    40040    49300    53612    52089    44893    33023 
   18509     3895    -9918   -21908   -27945   -23715    -9872     8172 
   24910    36669    41894    41746    37133    28323    18687    12587 
   11751    16375    24822    33279    37906    35223    24558     9923 
   -4752   -16529   -22231   -21969   -16707    -5105    12206    31622 
   48833    60146    63987    59367    45341    24553     2678   -15266 
  -25023   -23753   -12445     4248    20115    29650    29279    19461 
    6004    -5132   -11733   -12928    -8328     1664    15586    30111 
   41353    46445    45055    38638    27762    13679    -1238   -15809 
  -29021   -39558   -46320   -48151   -44488   -35581   -22646    -7066 
   10023    26217    38909    46387    48356    48022    47768    45528 
   41091    36649    32394    27596    19981     7914    -5626   -17011 
  -24664   -28007   -27750   -24447   -18155   -10739    -4400      709 
    5217    10010    15368    20034    22534    20646    12598      -89 
  -14146   -26558   -35034   -37758   -33271   -22441    -8895     3815 
   14369    22350    26211    25314    23151    23759    25044    21626 
   12491      192   -13672   -28131   -41036   -50239   -55175   -54626 
  -45684   -28225    -6808    12565    25602    31024    29739    25197 
   22239    20770    16955    11444     7381     5158     4603     5112 
    4934     4604     4373      484    -8635   -19415   -27985   -31415 
  -29274   -25739   -24847   -26980   -30218   -31156   -27414   -19400 
   -8462     3414    13524    19650    20335    15989     9156     2201 
   -3084    -4239      279     8563    16010    18101    13307     4454 
   -4636   -12142   -16308   -15714   -11805    -6751    -1098     5026 
   11557    18533    25109    29699    30713    27545    20736    10832 
    -387    -9012   -11790    -8127     -287     7781    14107    19569 
   24852    29431    31958    31356    27811    21022    11241     1255 
   -6197    -9397    -7668    -3519     -996    -1209    -2431    -3580 
   -4675    -5450    -4991    -1780     5224    15031    23716    27338 
   26514    23145    15972     4747    -6727   -14476   -17029   -14508 
   -7955      786     9125    14941    17793    17809    15377    11552 
    8248     8151    11387    15109    17240    17051    15182    12143 
    5827    -4840   -16959   -26093   -28486   -23572   -14607    -5025 
    2313     4474     2361      952     3107     7820    13490    18050 
   18829    15383     8859      104    -9435   -18548   -26552   -31355 
  -30983   -26011   -18732   -11746    -5855     1260    11874    23894 
   31628    32041    27327    20205    11701     3279    -3168    -7235 
  -10047   -12027   -13048   -14373   -16359   -16063   -10459     -597 
    9382    16436    18875    15847     9873     4310     -500    -4562 
   -7010    -8177    -9500   -12393   -16853   -21058   -22887   -20979 
  -16029   -10563    -6453    -4434    -3610    -1396     3262     9301 
   15653    20921    23483    22823    19452    14398     8718     3363 
    -826    -4172    -7306    -8852    -6952    -2035     3404     6641 
    7424     8131    10434    14186    18038    19959    18604    14019 
    8598     6338     8897    14805    21955    28431    32621    33490 
   30945    26755    23179    20536    17628    12959     5890    -1967 
   -7747    -9745    -8613    -6649    -5200    -3985    -2921    -1829 
    -579      198      799     1210     -146    -3262    -6098    -6649 
   -3249     4192    12762    19425    23882    25719    23133    17216 
   12164    10124    10014    10696    11911    12940    13221    12508 
    9022     1263    -8702   -17438   -23806   -27879   -28907   -26412 
  -20966   -13423    -5073     2708    10165    18006    24886    28843 
   29443    27379    23951    20598    17905    15760    13483     9860 
    5626     3003     2063     1896     2324     3002     3431     2422 
   -1613    -7752   -11513    -9107    -1418     7738    13941    14041 
    8918     1825    -4120    -6460    -6012    -5693    -7018   -10605 
  -15176   -18651   -20917   -21011   -17982   -12825    -5060     5742 
   16939    24985    27488    23889    15772     6148    -2711   -10603 
  -17057   -20266   -20256   -18873   -16249   -11328    -4155     4288 
   12452    18629    22355    24527    25372    24281    21808    18905 
   14882     8355     -532    -9745   -16468   -18405   -15742   -10776 
   -4905     1102     5651     7293     5770     3050     2050     3080 
    3682     1057    -5873   -14712   -20981   -22498   -20182   -15374 
   -9829    -5803    -3594    -1950     -214     2085     5060     7283 
    7106     4300     -887    -8016   -14761   -17971   -16858   -12287 
   -4560     5119    13305    17075    16450    13040     8789     5955 
    5726     7769    11132    13886    13988    11144     6466     1588 
   -1684    -2460    -1633     -154     3108     8764    14741    19508 
   23162    25630    26902    26885    24995    21905    19764    19818 
   21866    24911    26746    25508    21754    16254     8720      690 
   -5706   -10773   -14062   -12865    -6390     3156    12318    17903 
   19797    19842    17922    13622     8475     4645     3697     5227 
    7571     9719    10481     8159     2637    -3301    -6395    -5493 
    -684     6610    14008    20619    25506    25899    20062     9078 
   -4641   -18505   -29111   -32819   -29342   -22178   -14141    -6457 
   -1313     -566    -3347    -7636   -12133   -15095   -14129    -8733 
    -652     8360    17107    24499    29771    32340    30965    24427 
   13167     -719   -13448   -20678   -20588   -14095    -4065     5226 
   11044    12859    11058     7949     6680     8784    14257    21624 
   29096    36001    41163    42869    39910    31793    21013    11346 
    3705    -2102    -5621    -7139    -7374    -6930    -7331   -10285 
  -14764   -17474   -16726   -13125    -7429      -18     8508    17051 
   23620    25510    21193    11984     1222    -7541   -12026   -12078 
   -8846    -3622     1699     5260     7519     9921    12202    13339 
   12183     7951     2018    -3205    -5944    -4924    -1041     2351 
    3336     2746     1734     1458     3438     7658    12422    16743 
