Origin Time       2016/04/16 01:25:00
Lat.              32.753
Long.             130.762
Depth. (km)       12
Mag.              7.3
Station Code      SAG008
Station Lat.      33.1038
Station Long.     130.0996
Station Height(m) 7
Record Time       2016/04/16 01:25:18
Sampling Freq(Hz) 100Hz
Duration Time(s)  177
Dir.              N-S
Scale Factor      3920(gal)/6182761
Max. Acc. (gal)   73.851
Last Correction   2016/04/16 01:25:18
Memo.             
[...]
  -35254   -35238   -35225   -35235   -35231   -35233   -35237   -35217 
  -35218   -35245   -35250   -35237   -35228   -35219   -35222   -35232 
  -35233   -35242   -35245   -35221   -35216   -35237   -35244   -35240 
  -35231   -35217   -35227   -35248   -35239   -35224   -35231   -35237 
  -35230   -35221   -35217   -35227   -35244   -35248   -35246   -35232 
  -35204   -35205   -35241   -35249   -35233   -35233   -35232   -35217 
  -35219   -35224   -35213   -35219   -35223   -35202   -35190   -35192 
  -35185   -35173   -35159   -35136   -35125   -35138   -35136   -35107 
  -35081   -35062   -35045   -35034   -35022   -35003   -34984   -34971 
  -34965   -34966   -34976   -34993   -34997   -34977   -34965   -34963 
  -34955   -34982   -35052   -35117   -35178   -35237   -35261   -35248 
  -35216   -35189   -35210   -35292   -35392   -35440   -35411   -35369 
  -35405   -35546   -35739   -35911   -36069   -36254   -36414   -36453 
  -36319   -36096   -35991   -36064   -36143   -36048   -35783   -35565 
  -35543   -35529   -35219   -34605   -33970   -33600   -33549   -33629 
  -33663   -33715   -33979   -34455   -34882   -35088   -35292   -35756 
  -36274   -36425   -36081   -35506   -35204   -35437   -35815   -35747 
  -35138   -34398   -33979   -33979   -34208   -34549   -34863   -34852 
  -34483   -34043   -33768   -33872   -34527   -35539   -36317   -36416 
  -36135   -36205   -36922   -37933   -38621   -38594   -38019   -37426 
  -37074   -36684   -35928   -34978   -34298   -33983   -33658   -33016 
  -32187   -31595   -31548   -31910   -32282   -32473   -32649   -33047 
  -33483   -33514   -33363   -33848   -35045   -36164   -36643   -36531 
  -36384   -36891   -37789   -37897   -36817   -35519   -35039   -35493 
  -36327   -36930   -36945   -36315   -35318   -34445   -33943   -33702 
  -33712   -33991   -34199   -33981   -33477   -33209   -33429   -33897 
  -34354   -34706   -35046   -35638   -36422   -36936   -36870   -36286 
  -35503   -35073   -35459   -36560   -37738   -38311   -38218   -38077 
  -38081   -37701   -36775   -35705   -34968   -34912   -35396   -35989 
  -36385   -36260   -35597   -34945   -34487   -33783   -32934   -32834 
  -33974   -35942   -38032   -39490   -39542   -37963   -35356   -32887 
  -31831   -32798   -35121   -37016   -36926   -35086   -32989   -31673 
  -31327   -31636   -32000   -31961   -31525   -31052   -30833   -30788 
  -30815   -31195   -32204   -33730   -35698   -37808   -39083   -38951 
  -37962   -37079   -36993   -38047   -40057   -41936   -42652   -42438 
  -41808   -40955   -40689   -41534   -42449   -42193   -40633   -38386 
  -36375   -35140   -33996   -31881   -28918   -25994   -23579   -21842 
  -21249   -22331   -24812   -27511   -29438   -30441   -31023   -32253 
  -34806   -37723   -39564   -40416   -41317   -42532   -43200   -42265 
  -40048   -38176   -37266   -36547   -35588   -34229   -32380   -31124 
  -31508   -32791   -33831   -34293   -34378   -34649   -35323   -36281 
  -37744   -39735   -41439   -41730   -40521   -39579   -40831   -43438 
  -44446   -42821   -40095   -37450   -35330   -34133   -33310   -32041 
  -30801   -30569   -31431   -32525   -32718   -31679   -30319   -29882 
  -30870   -32452   -33451   -34099   -34671   -34059   -32070   -30310 
  -30340   -32331   -34642   -35311   -33694   -30540   -28178   -28772 
  -31456   -33854   -35352   -36200   -36140   -36337   -38905   -43365 
  -47065   -48180   -46505   -42993   -39094   -35984   -34046   -32694 
  -31185   -29494   -27855   -26672   -26843   -28044   -28546   -28200 
  -28306   -29695   -32903   -37346   -41216   -43754   -45640   -47389 
  -48353   -47444   -44934   -42839   -42918   -44315   -44637   -42705 
  -38547   -33430   -29532   -27034   -24929   -23919   -24706   -26375 
  -28048   -29816   -31512   -31964   -30581   -28367   -27051   -28180 
  -31961   -36744   -40136   -40743   -39376   -37705   -36193   -34881 
  -34658   -36038   -37817   -38812   -39238   -39142   -38603   -38420 
  -38114   -36445   -34171   -33775   -36663   -41215   -44639   -46048 
  -45838   -43893   -40406   -36895   -35167   -35539   -36395   -35833 
  -33576   -30818   -28741   -27821   -27861   -28206   -28509   -29148 
  -30159   -31108   -32187   -33254   -33608   -33804   -34444   -35026 
  -35738   -36999   -38019   -38132   -37879   -37654   -36524   -33863 
  -30392   -26981   -25120   -26323   -29372   -31513   -31851   -31771 
  -32768   -34891   -37467   -39598   -40481   -40387   -40111   -40039 
  -39947   -39466   -39210   -39902   -41086   -42019   -42283   -41948 
  -41364   -40185   -37806   -34313   -30701   -28647   -28834   -29782 
  -29671   -28739   -28605   -29622   -30378   -29410   -26419   -22772 
  -20997   -22789   -27362   -32855   -39200   -46700   -53137   -56472 
  -57450   -57182   -55539   -52336   -48280   -44393   -41015   -38034 
  -35520   -33319   -30779   -28434   -28132   -29510   -30284   -29597 
  -26772   -21311   -15916   -14469   -18154   -25534   -34385   -42620 
  -48740   -52311   -53055   -51163   -48661   -46856   -45103   -43395 
  -41485   -37864   -33010   -29557   -28407   -28766   -30863   -34359 
  -36419   -35200   -32399   -30226   -29187   -28927   -28654   -27904 
  -27442   -28255   -30591   -34013   -37599   -40698   -42968   -43815 
  -43858   -45078   -46752   -45054   -38949   -31659   -26329   -24957 
  -28941   -36539   -42288   -42101   -37343   -31903   -28414   -28073 
  -30375   -33839   -38071   -42670   -45657   -45261   -41862   -37567 
  -34207   -32753   -33891   -36147   -36028   -32322   -26800   -22098 
  -20919   -23935   -29134   -34829   -40814   -46050   -47945   -45314 
  -40298   -35881   -32825   -30715   -30523   -33241   -37570   -41036 
  -41963   -40423   -37593   -33750   -28934   -24652   -22271   -22165 
  -24629   -28857   -33218   -37733   -43046   -47814   -50458   -51244 
  -50416   -47221   -41994   -37158   -35104   -36215   -39283   -41532 
  -39761   -33894   -26958   -21936   -20641   -23482   -28441   -31732 
  -31285   -28395   -25154   -22818   -22724   -25965   -32557   -41316 
  -48652   -50376   -46938   -42525   -39595   -38192   -38600   -41574 
  -45852   -47993   -45900   -40473   -33981   -28572   -25950   -27275 
  -32533   -39379   -43603   -43103   -39880   -36061   -32163   -29709 
  -29493   -29695   -29943   -31584   -33461   -33823   -33973   -35634 
  -38070   -39847   -40618   -40486   -39846   -39547   -39909   -40598 
  -41284   -41451   -40692   -39212   -37374   -34689   -29691   -22844 
  -17747   -17024   -20262   -25824   -31788   -35949   -36855   -35749 
  -35092   -34746   -33573   -32681   -33289   -34976   -37236   -39566 
  -41237   -42725   -45477   -48578   -47806   -41198   -32869   -28440 
  -29687   -34321   -38604   -40549   -41949   -45247   -48210   -47065 
  -42962   -39325   -37419   -36479   -33474   -26185   -18722   -17746 
  -23551   -30694   -34807   -34589   -31814   -30721   -32779   -34488 
  -33098   -30164   -28072   -27795   -29420   -31271   -32383   -35283 
  -41581   -48895   -53552   -53276   -48224   -40219   -32175   -27833 
  -28633   -31977   -34501   -35160   -34484   -33247   -32111   -30583 
  -27844   -25275   -25991   -31806   -40737   -47697   -48969   -45574 
  -41570   -40219   -41677   -43357   -43993   -45319   -46458   -43723 
  -38125   -34094   -33219   -34546   -36237   -36177   -33327   -28703 
  -25803   -27630   -31891   -33522   -31361   -27991   -25511   -23651 
  -21365   -19780   -20896   -24119   -27166   -29505   -32675   -37391 
  -42022   -44286   -43923   -42815   -43023   -45199   -47245   -46414 
  -42970   -38322   -33514   -31024   -32019   -34177   -35795   -37596 
  -39535   -39538   -36214   -31339   -28225   -27690   -27975   -28111 
  -28801   -31129   -34356   -35400   -33246   -30598   -29366   -29478 
  -31130   -33898   -36356   -38629   -41902   -45257   -46449   -45602 
  -45252   -46531   -47700   -46709   -43174   -38675   -35793   -35190 
  -35760   -37275   -38595   -37399   -34796   -34540   -36775   -37622 
  -35350   -32057   -30182   -31122   -33819   -34836   -33201   -31618 
  -31938   -33209   -33927   -33579   -32210   -30627   -30708   -33366 
  -37301   -41242   -44611   -46731   -47800   -47849   -45939   -42527 
  -39335   -36853   -34601   -33216   -33469   -33505   -31228   -28299 
  -27438   -28663   -30949   -33571   -35031   -34032   -30975   -27015 
  -23502   -22740   -25904   -30855   -34806   -35980   -33814   -31743 
  -33973   -38543   -41150   -42044   -42839   -42353   -39875   -37046 
  -34914   -34177   -36028   -39004   -39172   -35206   -30622   -29482 
  -30921   -30769   -27552   -23800   -22448   -24613   -29441   -33628 
  -35047   -36849   -41806   -47032   -48438   -44655   -37517   -31545 
  -30159   -32948   -36900   -39043   -39430   -39801   -39356   -36427 
  -31787   -27513   -25589   -26651   -29533   -33361   -37134   -38660 
  -37846   -36713   -35523   -34365   -35560   -39873   -44428   -46882 
  -47784   -47857   -46468   -43240   -38809   -34064   -30191   -28636 
  -29268   -30104   -30326   -30834   -31446   -31343   -31516   -33965 
  -39268   -45990   -52034   -55718   -56486   -55399   -53514   -50848 
  -47548   -43921   -39916   -35597   -31846   -29967   -29375   -27636 
  -24129   -20580   -18373   -18358   -20925   -24589   -28056   -31875 
  -35145   -36077   -35675   -35376   -34271   -31245   -27203   -24550 
  -24236   -24926   -26251   -28898   -32109   -34750   -35961   -35212 
  -34358   -35272   -36541   -37078   -38401   -40925   -42947   -43734 
  -43740   -42470   -39307   -34814   -29580   -24221   -20471   -19943 
  -21722   -22541   -20627   -17838   -16471   -17113   -19887   -24015 
  -27657   -30337   -32983   -35987   -39139   -41681   -42535   -41468 
  -39101   -36692   -35612   -35876   -36613   -36963   -35959   -33681 
  -31326   -29347   -27672   -26509   -25411   -23952   -23142   -23711 
  -24815   -26224   -28961   -32551   -34379   -32594   -28797   -27293 
  -30026   -33943   -35580   -34353   -31325   -28821   -28812   -30793 
  -33634   -36193   -36998   -37196   -38729   -40442   -41363   -42396 
  -43140   -41784   -37869   -33941   -33272   -36034   -40027   -43275 
  -44141   -41982   -37694   -32561   -28336   -27060   -29598   -35317 
  -42202   -47688   -50216   -49789   -47616   -44980   -42440   -40764 
  -41944   -47091   -53388   -56502   -55922   -54952   -56274   -59380 
  -61639   -60932   -57113   -50978   -42988   -34461   -28024   -24821 
  -23620   -22858   -21097   -17118   -11971    -8511    -7626    -7834 
   -7885    -8167   -10076   -13342   -17239   -23532   -32572   -42051 
  -51605   -61164   -68311   -72144   -73601   -70869   -61759   -49735 
  -40868   -37588   -38975   -42313   -43661   -40743   -35224   -31154 
  -30388   -30491   -28582   -24323   -19018   -14548   -12579   -14218 
  -18802   -22964   -24259   -23371   -20862   -16537   -12133   -10040 
  -10552   -13148   -17318   -21552   -25301   -29585   -35170   -42279 
  -48882   -51533   -49642   -44780   -38384   -31465   -24866   -20465 
  -19786   -21795   -24706   -28210   -31665   -32823   -31988   -32894 
  -36655   -39799   -38632   -33563   -29156   -29622   -35481   -44056 
  -51971   -58252   -63675   -66744   -65046   -60122   -55478   -51630 
  -47052   -41689   -37673   -36557   -36968   -36252   -32677   -26842 
  -22144   -21474   -24843   -30271   -34995   -37604   -38396   -37832 
  -36726   -36928   -40898   -48374   -53920   -52465   -44364   -32290 
  -19401   -10038    -6649    -8463   -13198   -17565   -19255   -18032 
  -14553   -11494   -12659   -19154   -29086   -39332   -47841   -54996 
  -60612   -62020   -57638   -49712   -41415   -33025   -23482   -13578 
   -5489     -966      896     3386     7299    10503    12367    12741 
    9801     2728    -7185   -18343   -30068   -41859   -51421   -56662 
  -59762   -64255   -68757   -68562   -62294   -52551   -42234   -32885 
  -24287   -15873    -8280    -2730    -1109    -3986    -7398    -7123 
   -4519    -3678    -5988    -9794   -13543   -17220   -20886   -25194 
  -31755   -39989   -48451   -58043   -68300   -76018   -79875   -80249 
  -76757   -70504   -63847   -56091   -45295   -34062   -27446   -26212 
  -26948   -26470   -24830   -25710   -30537   -34512   -33134   -26640 
  -17682   -10788    -9795   -13022   -15760   -16315   -15855   -14549 
  -11615    -7261    -1954     2880     4495     3036     1802     2026 
    2075     1034     -659    -3227    -7726   -15426   -27376   -42681 
  -57901   -69708   -77335   -81441   -82189   -80032   -76179   -71089 
  -64770   -57903   -51104   -45233   -41483   -39191   -36303   -32119 
  -27649   -24488   -24232   -28202   -36002   -44666   -51077   -54598 
  -57036   -60773   -66493   -71768   -71461   -61957   -45439   -27283 
  -11055     1582     8423     7732     1857    -4353    -8447   -10600 
  -11789   -12648   -12141    -9247    -5879    -4260    -3634    -3426 
   -4360    -5060    -4651    -6295   -12704   -23354   -36912   -51054 
  -62723   -70676   -75322   -78543   -84348   -95183  -107594  -115565 
 -117448  -116431  -115944  -116273  -114159  -106036   -91820   -75100 
  -59977   -47881   -38154   -30462   -24804   -21216   -20338   -21605 
  -22965   -24480   -26519   -26743   -24630   -22053   -19333   -17362 
  -19045   -24946   -30649   -30973   -25978   -20639   -20678   -29803 
  -47773   -70120   -90545  -105041  -114173  -121123  -128906  -138032 
 -146211  -151265  -151713  -146138  -134508  -118319  -100801   -86742 
  -79759   -80365   -85274   -88205   -84676   -75522   -63221   -48347 
  -31969   -16060    -1472    10560    18249    21665    22355    22631 
   24798    28600    32854    37805    42539    44832    43572    39569 
   34706    28922    21527    15454    13946    16109    19377    22449 
   24113    22177    17361    13684    10026      748   -14674   -33070 
  -52521   -70146   -82841   -90661   -93929   -90758   -81104   -67404 
  -50400   -29985    -8908     8303    19671    27341    34310    40725 
   45198    47382    46147    40653    34020    28419    20507     7248 
   -9549   -26554   -42275   -56662   -69362   -78481   -82229   -80623 
  -74091   -64610   -56125   -50274   -45780   -41123   -36530   -34258 
  -34558   -34771   -33985   -33397   -34150   -36748   -39955   -43358 
  -48751   -55071   -60104   -65842   -73342   -79349   -81474   -78651 
  -69995   -58084   -47140   -38420   -31699   -27183   -23611   -18789 
  -13135    -9400    -9879   -15366   -24547   -34786   -44186   -51105 
  -53606   -51658   -47359   -43313   -41776   -43217   -46871   -52802 
  -60277   -65133   -62874   -53570   -40134   -25143   -11818    -3486 
   -1596    -6681   -18537   -34092   -49276   -62644   -73217   -78215 
  -75832   -67515   -56973   -48482   -44827   -44433   -43356   -41426 
  -40813   -40198   -37590   -34477   -31669   -27248   -20812   -14069 
   -8402    -5085    -4735    -6582   -10663   -17213   -24539   -31559 
  -37986   -41565   -40987   -37897   -34206   -31160   -29333   -28721 
  -28486   -26345   -20824   -12807    -5009    -1704    -5525   -14721 
  -26472   -38786   -47680   -48639   -41927   -32216   -24198   -21009 
  -23564   -29976   -38498   -49750   -62959   -73154   -74913   -66146 
  -49362   -32097   -21649   -18206   -18406   -22019   -29046   -36202 
  -40779   -42452   -40784   -36108   -30694   -26796   -26689   -31546 
  -38732   -44592   -47492   -47671   -47458   -49203   -53562   -59911 
  -65452   -67177   -65592   -63119   -61319   -61044   -61463   -60443 
  -58195   -56823   -56993   -57536   -56655   -53872   -50141   -46159 
  -43213   -43090   -45949   -51422   -59017   -66075   -70501   -72805 
  -71989   -66064   -56300   -45655   -36306   -30245   -28870   -32244 
  -39010   -45655   -49016   -49738   -49599   -49619   -51389   -54500 
  -55856   -53599   -48133   -40565   -32059   -23740   -17522   -15966 
  -19060   -23362   -25353   -23486   -18954   -15813   -17755   -24773 
  -35054   -48707   -65644   -82208   -95213  -105235  -112549  -115875 
 -115277  -110867  -102249   -90993   -78578   -64462   -48941   -33991 
  -21334   -11978    -6556    -4971    -5978    -7835   -10130   -13657 
  -18417   -23836   -28645   -30346   -28171   -24423   -22256   -24003 
  -29474   -35701   -38523   -34901   -26421   -17924   -12843   -13737 
  -22130   -34880   -45756   -50571   -49037   -42886   -33654   -23391 
  -15218   -10689    -8400    -6145    -2920      592     2375      568 
   -5362   -13946   -22136   -27933   -31611   -33672   -33928   -33803 
  -36159   -41230   -46060   -48700   -50243   -51462   -50401   -45413 
  -36920   -25959   -14271    -4572     1159     3433     4140     4005 
    2803      208    -5011   -13895   -24436   -32424   -35865   -36211 
  -35789   -36372   -38427   -40336   -40021   -37396   -33957   -29889 
  -23639   -15269    -7281    -1186     3424     6073     5298     1463 
   -3966   -10737   -18150   -24806   -31417   -39345   -47647   -54001 
  -56176   -53290   -46704   -39053   -33036   -29574   -27116   -24033 
  -19330   -12138    -3518     3085     5322     4644     3575     2420 
     296    -3897   -10991   -20354   -30975   -42339   -53397   -63254 
  -72331   -80438   -85318   -85312   -80797   -73496   -67415   -65678 
  -65739   -63456   -58073   -49915   -39460   -28780   -19931   -14080 
  -12219   -14498   -19313   -23900   -26538   -27406   -27667   -29585 
  -35215   -43724   -52755   -60902   -67152   -70568   -70658   -67617 
  -63022   -58821   -55907   -54494   -53922   -52925   -51492   -50274 
  -49210   -48569   -48618   -48002   -45310   -41614   -39079   -38396 
  -39781   -43569   -48396   -52746   -57133   -61684   -64962   -65826 
  -63578   -58084   -50869   -43328   -34759   -24953   -16221   -10352 
   -6609    -4170    -2988    -2426    -1742     -759      -37    -1016 
   -4925   -12047   -21512   -31227   -39178   -44317   -46793   -49034 
  -54188   -61801   -68478   -71786   -70308   -64253   -56713   -50641 
  -46870   -44866   -42687   -38189   -31068   -23004   -16723   -14464 
  -16286   -19648   -20979   -18479   -13600    -9046    -5959    -4202 
   -3696    -4517    -6970   -11118   -15646   -18437   -18796   -17636 
  -15397   -12523   -11421   -14540   -21241   -28618   -34448   -38390 
  -41290   -44402   -48256   -51561   -52469   -50662   -47146   -43084 
  -40045   -40195   -44422   -50917   -56817   -60848   -63438   -64655 
  -64268   -63324   -62943   -62981   -62958   -62253   -59971   -55946 
  -50845   -45417   -40759   -38127   -37874   -39211   -40610   -41165 
  -41570   -42846   -45513   -49494   -53360   -55616   -56280   -55719 
  -54096   -52406   -52126   -53334   -54574   -54481   -52294   -48268 
  -43656   -39476   -36850   -36772   -37949   -37898   -36439   -35699 
  -36900   -38690   -39410   -39572   -40545   -42377   -44188   -44956 
  -43419   -39332   -34436   -30593   -28408   -27881   -28800   -30742 
  -33277   -36283   -39641   -42765   -45498   -48078   -49981   -50608 
  -49772   -47302   -43570   -39453   -35628   -32328   -29076   -25247 
  -21282   -17692   -13821    -9856    -7301    -6122    -4693    -2084 
    1517     5602     9340    10741     7446     -171    -8074   -12530 
  -13599   -13240   -12708   -13360   -16253   -20512   -25331   -30536 
