Origin Time       2016/04/16 01:25:00
Lat.              32.753
Long.             130.762
Depth. (km)       12
Mag.              7.3
Station Code      SAG006
Station Lat.      33.1916
Station Long.     130.0340
Station Height(m) 8
Record Time       2016/04/16 01:25:20
Sampling Freq(Hz) 100Hz
Duration Time(s)  135
Dir.              E-W
Scale Factor      3920(gal)/6182761
Max. Acc. (gal)   36.666
Last Correction   2016/04/16 01:25:20
Memo.             
[...]
   -3182    -3121    -3169    -3287    -3416    -3515    -3447    -3329 
   -3364    -3258    -2773    -2540    -3320    -4730    -5936    -6752 
   -6991    -6536    -6125    -6397    -7134    -7782    -7784    -6947 
   -5465    -3311     -602     1689     2499     1773      298    -1035 
   -1874    -2628    -3652    -4584    -4878    -4320    -3271    -2384 
   -1767    -1409    -1734    -2840    -4367    -5605    -5512    -3931 
   -1835      107     1693     2291     1568      430     -319     -869 
   -1438    -2096    -2672    -2692    -2803    -4071    -5926    -7397 
   -8144    -7603    -5885    -4313    -3728    -3822    -4187    -4818 
   -5469    -5547    -4963    -4068    -3105    -2551    -2794    -3327 
   -3349    -2751    -1977    -1239     -318      960     2308     2972 
    2662     2247     2311     2153     1305      230     -753    -1599 
   -2002    -1637     -890     -809    -1903    -3795    -5808    -7324 
   -8480    -9716   -10502   -10503   -10365   -10119    -9259    -7914 
   -6509    -5527    -5240    -5197    -4852    -4135    -3095    -1776 
    -498      194       27     -720    -1302    -1214     -854     -412 
     709     2005     2162     1592     1592     1982     1710      455 
   -1224    -2588    -3289    -3370    -3045    -2825    -3450    -5159 
   -7454    -9755   -11529   -12094   -11179    -9357    -7480    -6042 
   -5154    -4696    -4533    -4804    -5593    -6475    -6781    -5988 
   -4096    -1920     -330      701     1539     1956     1548      401 
   -1158    -2737    -3803    -4096    -3660    -2646    -1679    -1220 
   -1058    -1318    -2218    -3324    -4197    -4478    -3788    -2565 
   -2068    -2852    -4154    -5275    -6119    -6454    -6333    -6382 
   -6632    -6180    -4558    -2491    -1023     -580    -1067    -2427 
   -4324    -5726    -5991    -5313    -3826    -1760      372     2166 
    3134     2811     1310     -786    -2734    -3783    -3795    -3377 
   -2808    -2009    -1476    -1467    -1283     -574      190      651 
     691      292     -387    -1214    -1956    -2160    -2011    -2663 
   -4632    -7096    -9347   -10850   -10875    -9595    -7843    -6380 
   -5923    -6183    -6127    -5881    -6291    -7142    -7495    -7102 
   -6478    -5956    -5202    -3754    -1890     -432      469     1247 
    2006     2719     3287     3468     3426     3288     2632     1216 
    -845    -3252    -5259    -6034    -4863    -1635     1736     2690 
    1229    -1054    -3513    -6025    -8342   -10100   -10440    -8894 
   -6074    -2510     1502     4439     4465     2228     -418    -3485 
   -7130    -9787   -10348    -9063    -6278    -2667      355     1869 
    1750      -39    -2594    -4194    -4325    -3443    -1756     -149 
     242      -57     -368    -1176    -2158    -2811    -3946    -5466 
   -6027    -5230    -3579    -1811     -628     -479    -1716    -3997 
   -6380    -8127    -8868    -8878    -8494    -7398    -5598    -4063 
   -3345    -2959    -3134    -4236    -4871    -4193    -3137    -2155 
   -1438    -1546    -1876    -1190      427     1724     1455     -597 
   -3010    -3945    -3076    -1494     -256      -11    -1152    -3012 
   -4146    -4361    -4686    -5409    -5828    -5413    -4644    -4454 
   -4736    -4624    -4214    -4171    -4232    -3674    -2728    -2491 
   -3364    -4520    -5268    -5902    -6910    -8248    -9522   -10034 
   -9006    -6706    -4174    -1930     -315       93     -765    -1961 
   -2294    -1470       -9     1289     1782     2147     3311     4599 
    5120     4792     3836     2626      976    -1524    -4487    -7209 
   -9124    -9682    -8594    -6268    -3777    -2337    -2236    -2422 
   -2245    -2160    -1905     -658      782      638     -944    -2471 
   -3579    -3966    -3040    -1727    -1237    -1695    -2780    -3657 
   -3453    -2290     -944      253     1105      649    -1245    -3001 
   -3926    -4632    -5040    -4811    -4369    -3966    -2922     -934 
     611       88    -2243    -4862    -6679    -7567    -8236    -8891 
   -8233    -5823    -3433    -2561    -3190    -4508    -5267    -4690 
   -3123    -1280      305     1050     1047     1063      826     -134 
    -870     -775     -521     -785    -1442    -1432     -324      580 
     382     -494    -1851    -3683    -5862    -8294   -10039    -9714 
   -7062    -3419     -856       13      260     -134    -2314    -5885 
   -8655    -8897    -6758    -3306       49     1466      626     -975 
   -2249    -2975    -3806    -5417    -6631    -6239    -4796    -2674 
    -443     -160    -2116    -3785    -4311    -5360    -7195    -8380 
   -8504    -8355    -8058    -6631    -3954    -1299      949     3002 
    3667     2091     -289    -1799    -2159    -1489     -393       -8 
    -324     -895    -2094    -3401    -3859    -4106    -5162    -6736 
   -7674    -7607    -7363    -7317    -7270    -7372    -7529    -7296 
   -6584    -5527    -4170    -2454     -452      932      838      302 
     371      156     -709    -1361    -1748    -2198    -2148     -985 
     706     1826     2067     1222    -1206    -4227    -5534    -4427 
   -2386     -760       37      -97     -396      337     1609     1748 
     144    -2490    -4885    -6214    -6478    -5604    -3716    -2015 
   -1734    -2434    -2523    -1739    -1504    -2374    -3064    -2828 
   -2785    -3683    -4705    -4998    -4233    -2509     -601      685 
     938      215     -619     -600      135      380     -641    -2400 
   -4409    -6288    -6815    -5562    -3646    -2413    -2566    -3037 
   -2405    -1659    -2185    -3362    -3933    -3404    -2228     -936 
     373     1375     2183     3155     3454     2646     1530      222 
   -1171    -1620    -1303    -1748    -3130    -4341    -4935    -4826 
   -4329    -4520    -5301    -5391    -4373    -2673    -1014      -20 
    -166    -2049    -5018    -7319    -8553    -9358    -9609    -8813 
   -6909    -4309    -2444    -2687    -3991    -4925    -6390    -8820 
  -10491   -10187    -8262    -5580    -3194    -2118    -2396    -3147 
   -3692    -3714    -3292    -3025    -3010    -2628    -1572      100 
    1877     2481     1491      267      -86     -263    -1482    -3032 
   -3123    -2158    -1417     -404      566     -551    -3664    -6598 
   -8440    -9389    -9406    -8282    -5912    -3016     -836      366 
    1004     1019      480        7     -202     -607    -1588    -2652 
   -2638    -1252      703     2024     1400     -743    -2479    -3698 
   -4821    -4693    -3524    -2901    -3271    -4571    -6174    -7318 
   -8443    -9510    -9546    -8434    -7035    -6281    -6633    -8070 
   -9802   -10182    -8554    -6195    -4003    -1324     1696     3694 
    4589     5087     5071     4816     4797     4656     4637     4947 
    3912      579    -3242    -5427    -5066    -2600      -43      810 
    -245    -2203    -3440    -3717    -4495    -6089    -7425    -7769 
   -6796    -5076    -4013    -3854    -3880    -4208    -5289    -6987 
   -8762    -9394    -7656    -4400    -1873     -586      317      538 
    -203    -1067    -1890    -2570    -2160     -809      541     1573 
    1530     -158    -2093    -3085    -4249    -6413    -8639   -10216 
  -10639    -9217    -6942    -5491    -5005    -5382    -6606    -8058 
   -9672   -11116   -11144    -9575    -6963    -3498       54     2538 
    3434     2954     1748      190    -1581    -3001    -3766    -4111 
   -3632    -1792      655     2443     2509       21    -4246    -8052 
   -9759    -9121    -7065    -4934    -3624    -3519    -4446    -5417 
   -5549    -5416    -5813    -6061    -5261    -3629    -2093    -1137 
    -117     1120     1286       36    -1240    -1689    -1322     -197 
    1203     2630     4024     4423     3689     2742     1056    -1616 
   -3454    -4034    -5114    -6959    -7792    -6426    -3570    -1056 
     -32     -136     -773    -1966    -3185    -3322    -2730    -2653 
   -2791    -2226    -1539    -2026    -3805    -5749    -6997    -7400 
   -6712    -4694    -2060     -479     -866    -2002    -2034     -959 
     144     1221     2419     3354     3802     3459     2701     2390 
    2317     2688     3842     3977     1968     -776    -3144    -4829 
   -5462    -5589    -6092    -6642    -6530    -6159    -6450    -7427 
   -8504    -9429   -10356   -11790   -13895   -15674   -15873   -14268 
  -11674    -9041    -6970    -5985    -6416    -7864    -8959    -8772 
   -8033    -7042    -5316    -3867    -3722    -4384    -5427    -6446 
   -6634    -5822    -4000     -787     3012     5274     4788     2196 
    -635    -1996    -2375    -3624    -5881    -7982    -9737   -11261 
  -11961   -11479    -9898    -7547    -5730    -5674    -6610    -6841 
   -5472    -2415     1572     5286     8211    10478    11970    12133 
   11070    10101    10022     9922     8998     8164     8607     9753 
    9604     6994     2810    -1034    -3121    -3768    -4454    -5686 
   -7102    -8220    -8418    -8104    -8258    -9056   -10609   -12664 
  -14090   -14485   -14088   -12502    -9551    -6365    -4551    -4356 
   -4658    -4725    -4180    -2483       29     2354     4036     5246 
    6485     7774     7845     5354     1077    -2306    -2783     -721 
    1677     2591     2126     1404     1040      522     -791    -2473 
   -4289    -6538    -8337    -8567    -7697    -6731    -6095    -5952 
   -6449    -7445    -8344    -8934    -9496    -9449    -7892    -5610 
   -4576    -5440    -7272    -9399   -11386   -12598   -12951   -12364 
  -10671    -8482    -6145    -3000     1110     4784     6512     6385 
    5421     4278     2695      134    -2388    -3305    -3039    -2857 
   -2900    -2549    -1573     -523      496     2222     4555     6621 
    8187     9839    12396    15500    17690    18288    17283    14714 
   11396     8683     7402     7316     7557     7547     6973     5456 
    2917     -284    -3386    -5654    -7312    -8878   -10004   -10401 
  -10475   -10340    -9874    -9565    -9963   -10838   -11342   -10958 
  -10308    -9658    -8014    -5406    -2722       -1     2173     2851 
    2397     1566     1028     1303     1651     1136      -78    -2198 
   -5606    -8915   -10525   -10479    -9377    -7878    -6329    -4285 
   -1864      204     1873     3418     4944     6373     6990     6217 
    4997     4882     6082     8171    11373    15360    18825    20752 
   20607    18287    14381     9808     5395     2105     1027     2082 
    4005     5565     5351     2959      206    -1807    -3824    -5402 
   -5146    -3428    -1248     1151     2708     2168      -85    -3233 
   -6691    -9224    -9793    -8190    -4359      914     5602     8174 
    8522     7652     7256     8462    11117    13773    14709    14262 
   13967    14101    14494    14520    12240     6885      386    -5249 
   -9891   -13952   -17333   -19732   -20688   -20396   -20159   -20884 
  -22032   -22286   -21307   -19833   -17789   -15323   -13977   -13857 
  -13661   -13133   -11751    -8753    -5673    -5078    -7365   -10357 
  -11539    -9686    -4638     2245     8414    12354    13954    13836 
   13074    12469    12149    11539    10275     8738     7001     5160 
    3463      944    -3100    -7339   -10837   -14258   -17605   -20463 
  -23485   -26720   -28891   -29734   -30461   -32296   -35668   -39402 
  -41838   -42775   -42308   -40456   -38573   -38020   -38485   -38743 
  -37806   -35638   -32920   -29983   -26935   -24534   -23555   -23478 
  -23175   -22001   -19343   -14807    -8637    -1218     6439    12339 
   14846    14166    12073     9844     7781     6117     4391     2061 
    -226    -1735    -2185    -1741    -1479    -2683    -5696    -9299 
  -11457   -11175    -8925    -5579    -1799     2079     5710     7654 
    5755      -87    -6943   -12046   -14675   -14489   -11540    -6893 
   -1039     5808    12063    15557    15259    11854     7262     3516 
    1640     1382     1762     1977     2091     2407     2440     1366 
    -981    -4186    -7761   -10651   -11017    -7482       20    10014 
   19421    25718    29270    31559    32840    32935    31943    30362 
   29439    29777    30048    27896    21632    11803      819    -9235 
  -17209   -22201   -23650   -21934   -18556   -15276   -13230   -12969 
  -14347   -16280   -17212   -16158   -13562   -10826    -8754    -6838 
   -4349    -1808     -441     -349     -635     -913    -1457    -2017 
   -1575      444     3955     8826    14160    18052    19692    20699 
   22688    24949    26349    27305    28600    29807    29489    26994 
   22745    16709     9476     3430      523      637     1962     2258 
     555    -2926    -7639   -12713   -17354   -20917   -22922   -23716 
  -23686   -22734   -21690   -21646   -22624   -24716   -27638   -29504 
  -28815   -26176   -22884   -19016   -13688    -6911     -212     4796 
    7547     8103     7164     6266     6471     7693     9290    10336 
   10915    12487    14995    16272    14982    11486     6934     2728 
     -72    -1116    -1421    -2743    -5266    -7590    -8465    -7615 
   -6165    -5981    -7954   -11224   -14031   -15046   -13474    -8820 
   -1950     4514     8195     9008     8706     8803     9429    10013 
   10200     9944     9369     8813     8675     8690     7633     4261 
   -1878    -9734   -16620   -20782   -23216   -25478   -27891   -30391 
  -33085   -36111   -39677   -43496   -46813   -49817   -53357   -57157 
  -60046   -60847   -58574   -53207   -45681   -36908   -27644   -18824 
  -11744    -7569    -6113    -5730    -4610    -1721     2964     8645 
   14047    17810    19437    19469    17842    13920     8708     4036 
    -111    -4423    -8279   -11193   -13779   -16782   -20962   -26619 
  -32618   -37407   -40697   -43099   -44921   -45605   -43449   -37053 
  -27764   -18908   -12867    -9881    -8656    -7612    -5505    -1352 
    4966    12641    20464    26496    29410    30488    31951    34341 
   36514    37526    38032    38960    39910    40012    38789    35888 
   31511    26803    22696    19029    15241    10869     5810      777 
   -3487    -6975    -9839   -12046   -13801   -15789   -18275   -20690 
  -22410   -22626   -21105   -19340   -18529   -18244   -17625   -15755 
  -12598    -9670    -7788    -6268    -5039    -5218    -7711   -11930 
  -15909   -17632   -16188   -12516    -8630    -5597    -3467    -1950 
    -163     1959     2412     -507    -5730   -10295   -11902   -10609 
   -8256    -6318    -4487    -1552     2365     5489     6314     5091 
    3742     3908     5390     7363     8971     9208     8252     6691 
    3930     -498    -5837   -10558   -13218   -13795   -13922   -14923 
  -16412   -17845   -19702   -22231   -25177   -28097   -29844   -29738 
  -28633   -27364   -25748   -23255   -19471   -14676   -10462    -8006 
   -6187    -3890    -1364     2150     7658    14455    21369    27099 
   30305    30724    29170    27373    26916    27472    27182    24772 
   21322    19224    19392    20886    22020    21037    17352    12368 
    8220     5646     3634     1137    -1428    -2359     -507     3037 
    5812     6182     3707    -1537    -8260   -13777   -15811   -13496 
   -7640    -1576      872     -436    -2544    -3518    -3084    -1597 
    -605    -1280    -2329    -1797      850     4685     7962     9581 
    9562     8294     6842     6602     7718     9298    10351     9915 
    8081     6073     4263     1988    -1237    -5737   -11359   -16895 
  -20831   -22467   -22333   -21575   -20992   -20573   -19857   -18707 
  -17108   -15320   -14733   -15963   -17163   -16436   -13708    -9964 
   -6553    -4495    -3498    -2509    -1605    -1982    -3924    -6049 
   -6483    -4539    -1203     2084     4034     4022     3113     2558 
    1749     -594    -4710    -9605   -13577   -15588   -16113   -16215 
  -16456   -16803   -17141   -17495   -17854   -18353   -18591   -17063 
  -13250    -8941    -6131    -4856    -3727    -2132     -634      585 
    1867     3195     4276     4851     4594     3444     2159     1766 
    2535     3831     4822     4941     3692     1235    -1445    -3773 
   -5611    -6890    -8357   -11188   -15497   -20010   -23118   -23958 
  -22822   -21270   -20918   -21495   -21690   -21031   -19527   -17703 
  -16955   -17790   -19060   -19665   -19474   -18634   -17094   -14851 
  -12111    -8954    -5097     -665     3179     5674     7449     9011 
   10191    11158    11917    11922    11542    11927    12840    12638 
   10375     6244      714    -5330   -10644   -14266   -15763   -15861 
  -16185   -17419   -19075   -20912   -22978   -24823   -25829   -25633 
  -23907   -21072   -18716   -17695   -16903   -14456    -9280    -2164 
    4217     7466     7920     7566     7553     8286     9813    11639 
   13805    17090    21438    25448    27411    26547    23623    19921 
   15741    11179     7218     4472     2315     -292    -4064    -8693 
  -13116   -17188   -21594   -26095   -29521   -30785   -29453   -26452 
  -23627   -21680   -19610   -16637   -13067    -9397    -6162    -4057 
   -3470    -3996    -4156    -2688      -92     2490     4502     5192 
    4057     2492     2856     6012    10759    15228    18507    21040 
   23343    25033    25537    24552    21886    17980    13667     9274 
    5076     1851       -2    -1037    -1727    -1897    -1713    -2268 
   -4925    -9907   -15336   -18717   -19478   -19290   -20341   -23230 
  -26383   -28132   -28155   -26271   -22099   -16413   -11244    -8048 
   -6352    -4673    -1911     2505     8296    14044    18278    20788 
   22413    23538    23673    22706    21195    19509    17882    16629 
   15738    14851    13645    12288    11214    10109     8319     6095 
    3882     1355    -1860    -5479    -8943   -12207   -15729   -19685 
  -23673   -27088   -29712   -31733   -32847   -32490   -30994   -29006 
  -26626   -24184   -22540   -21978   -21634   -20267   -17284   -13191 
   -9488    -7306    -5997    -4179    -1319     2548     7048    11375 
   14961    17550    18628    17699    15452    13950    14538    16321 
   17638    17522    15578    12014     7578     3097     -772    -3826 
   -6358    -8605   -10274   -11075   -11445   -11849   -12140   -12271 
  -12409   -12331   -11757   -10754    -9298    -7464    -6145    -6396 
   -8187   -10700   -13207   -15131   -16331   -17261   -18157   -19040 
  -19966   -20161   -18307   -14499   -10842    -9173    -8960    -8450 
   -6497    -2993     1056     4653     7817    10690    13306    15923 
   18162    19040    18227    16146    13304    10273     7652     5650 
    4322     3742     3332     2099     -115    -2914    -6353   -10383 
  -14250   -17331   -19882   -22430   -24800   -26292   -26753   -26880 
  -27168   -27126   -25920   -23352   -20126   -17107   -14455   -11723 
   -8383    -4311      -79     3406     5787     7761    10354    13880 
   17979    21998    25168    27044    27771    27759    27320    26745 
   26265    25517    23849    21377    18639    15753    12847    10094 
    7073     3415     -442    -4119    -7893   -11859   -15605   -18793 
  -21012   -21758   -21280   -20291   -19348   -18972   -19015   -18785 
  -18194   -17453   -16672   -15786   -13943   -10050    -4224     1903 
    6338     8209     8109     7439     7721    10019    14124    18237 
