Origin Time       2016/04/16 01:25:00
Lat.              32.753
Long.             130.762
Depth. (km)       12
Mag.              7.3
Station Code      SAG007
Station Lat.      33.2627
Station Long.     130.3004
Station Height(m) 4
Record Time       2016/04/16 01:25:18
Sampling Freq(Hz) 100Hz
Duration Time(s)  250
Dir.              E-W
Scale Factor      3920(gal)/6182761
Max. Acc. (gal)   125.903
Last Correction   2016/04/16 01:25:18
Memo.             
[...]
    -146      -88     -103     -145     -151     -161     -145     -104 
    -125     -163     -137     -125     -156     -147     -140     -164 
    -143     -110     -124     -128     -112     -125     -143     -123 
    -111     -129     -113      -89     -107     -114     -115     -144 
    -142     -117     -134     -149     -128     -119     -122     -105 
     -99     -133     -150     -138     -137     -117      -87     -113 
    -159     -143     -120     -138     -133     -118     -135     -134 
    -125     -159     -178     -143     -135     -150     -128     -118 
    -124      -95      -80     -125     -161     -163     -178     -159 
     -95      -99     -136     -112     -108     -130     -105     -118 
    -193     -183     -126     -133     -108      -70     -149     -181 
     -94      -98     -141     -110     -132     -162     -119     -114 
    -131     -100     -101     -138     -126     -110     -138     -128 
     -90     -129     -167     -126     -127     -171     -150     -128 
    -159     -144      -91      -88     -101     -119     -176     -179 
    -104      -79     -108     -121     -162     -210     -181     -144 
    -136      -88      -71     -107      -99      -90     -139     -173 
    -171     -186     -186     -150     -136     -127      -81      -62 
    -100     -144     -223     -339     -351     -191       30      126 
     -40     -367     -504     -269       83      158     -131     -483 
    -547     -280       54      166      -21     -361     -589     -507 
    -105      327      318     -133     -528     -613     -280      246 
     314       32     -118     -206     -166      -85     -286     -454 
    -357     -226       98      673      995      728     -406    -1891 
   -1709      405     1956     1486     -223    -1624    -1806    -1117 
     -20     1212     1766      822    -1302    -2506     -986     1554 
    1832     -637    -3134    -2739      320     2904     2599      158 
   -1306     -488      277     -790    -2333    -2179       25     2289 
    2597     1480      471     -710    -1991    -1480      581     1808 
    1019    -1549    -3354    -1369     2506     3336      170    -3570 
   -4905    -2857     1670     4666     2496    -2424    -4867    -3329 
      47     1585     -689    -4035    -4989    -3191     -428      897 
     308     -869    -2034    -2982    -3621    -4401    -4714    -3208 
    -710      809      737     -127     -344     -692    -2073    -1480 
    1668     3631     2985      623    -1089      765     5221     8785 
    9008     5920     2972     3556     6722     7941     5229     2526 
    2383     3072     3644     2938      682     -676     -440       67 
    -960    -4003    -6277    -5958    -4018    -1890    -1156    -2453 
   -4466    -5585    -5522    -5131    -5209    -5548    -5369    -3115 
    2515     7815     6764      611    -3765    -3493     -923     1538 
    2508     1290      -80      544     1923     2322     1565     -537 
   -4492    -8136    -7358    -3723    -1947     -471     2050     1500 
   -1154     -926     1514     4071     5223     1213    -5866    -8021 
   -3549     2819     6718     6597     4337     2552     1462     -331 
   -1584     1033     5366     5699      795    -6114    -9381    -6419 
   -2602    -3673    -8026    -9498    -6200    -2744     -791     1531 
    2780     2187     2074     3093     3953     3459      750    -3842 
   -7715    -6820     -259     5151     2171    -5543    -9050    -5731 
     349     3160     -802    -9579   -16688   -16398   -10468    -6357 
   -6524    -6697    -4727    -2949    -3576    -3888      765     7647 
   11814    13699    13578    12322    13617    17575    19018    15657 
   13084    14657    15277    11018     4504      457     1318     5398 
    7569     3955    -2179    -4273    -2285     -840    -1514    -1097 
    3492     7435     4609    -2423    -9201   -13150   -12576   -10212 
  -10545   -14488   -18380   -17791   -12223    -5706    -3990    -7197 
   -9331    -7314    -2413     1618      553    -2581     -960     5053 
   10227    10236     5460     3862     8209     7910    -1145    -8198 
   -5399     3579     8114     1739    -8495   -10977    -2591    10542 
   17229    10464     -661     -104    11155    16406     7883    -3773 
   -4950     3577     8445     2214    -7821   -11320    -6213     1078 
    2652    -2700   -10026   -14050   -11987    -5577     -765     -773 
   -2988    -5676    -8715    -9696    -9295   -11545   -13661    -9243 
   -1731     1375     1661     2969     4900     7709     9627     6873 
    2517     1800     2410      554    -2247    -1644     4512    11385 
   11849     7366     6224    10527    13487    10140     3121    -1433 
   -1997    -2701    -5376   -10548   -17539   -18259   -10168    -3562 
   -3516    -5829    -5044     1212     6292     4082     -496     -535 
    4793     9258     6196     -892    -5293    -8090   -11346   -14643 
  -19004   -20808   -14250    -5334    -3508    -3749     2458    10414 
   11981     7871     4791     8739    17074    20554    18006    16769 
   19766    22329    19586    14649    14883    19477    19791    12218 
    4045     2478     3268    -1071   -10670   -20390   -24237   -20685 
  -15926   -16838   -22634   -28139   -30276   -29591   -27020   -18829 
   -6512    -1719    -7270   -14383   -16513   -10701      933     7386 
     570   -12405   -17967    -9422     7663    18410    14699     7125 
    8394    13076    13034    11148     8520     5508     7861    15681 
   20412    16372     5095    -5756    -7102    -2036     -178     -847 
    -110     1570     3553     4303     2934     1236    -1240    -6116 
  -11455   -13880   -10600    -5279    -8461   -17738   -18984   -12397 
   -8716   -11497   -18141   -22770   -19708   -11801    -8030   -11221 
  -16155   -17897   -12462      245    10054    10178     7719    10703 
   18138    22417    19162    11673     2975    -2726      662     8162 
    9924     6775     4114     5163    10111    12208     7666     3829 
    8260    21806    32531    23716     5809     3420    13062    15295 
    2888   -18020   -31215   -26089   -13348   -10344   -20448   -31044 
  -27764   -15496   -11372   -16757   -21789   -21611   -14702    -6066 
   -2465    -2059    -3085    -5063    -3514     -166       83      506 
    2462     1548    -1284    -2975    -3045      596     6833    12410 
   15965    11962     1831     -495     9266    22131    30870    30735 
   21893    15074    14483     9854      764    -1278     1998     1737 
    1127     2882     -753   -11099   -16329   -11801    -7335    -7963 
  -10128   -11095   -10989   -11955   -11199    -7899   -11660   -21733 
  -25824   -21814   -13909    -5848     -983       73     -946     4587 
   18021    20967     7663    -2075     5412    21972    27994    15741 
    -865    -7279    -2378     4247     3879     -901    -6058    -9110 
   -6699    -1342     3781     5507     2646     3097     6411     3949 
   -1086    -3619    -3792    -2676    -4791    -8510    -7338     -678 
   10332    19964    22237    23230    28693    33471    31033    20973 
    8593     3240    11226    24259    24870     7801   -11745   -16104 
   -5158     7994    12133     6220      459     8710    29239    40200 
   31853    20187    16777    15032     9080     3844     2921     2553 
    -109    -5464   -13664   -20567   -20351   -16084   -16920   -23695 
  -27983   -23233   -12499    -7867   -14323   -19901   -17748   -14049 
   -8172       26      703    -7990   -17121   -18952   -15150   -14587 
  -18729   -20536   -14859    -3500     7627    13734    11714     8397 
   14529    22377    19244     9589     4464     7013     8708     1890 
   -4245     -270     6191     7180     2205    -9336   -21081   -21695 
  -11683    -1339     3266     3530     4099     6563     6958     3395 
   -1309    -6425    -9648    -7783    -8216   -16244   -22205   -20214 
  -16562   -14230    -9107    -1486     3093     4397     6768    10778 
   13672    14912    17019    16874     7242    -5747    -9977    -6180 
   -1367     -633    -2048     1601     4865    -2894   -14174   -16145 
  -10656    -4633    -1781    -4359    -8430    -7638    -1775     4776 
    7843     6641     1964    -4364    -8551    -7707    -2500     2186 
    2902     1336     2628     7320     4739    -5031    -4071     8817 
   15903    10620    -1954   -14637   -20986   -24434   -28477   -27329 
  -20990   -14534    -7556      270     7273    16410    28103    33887 
   32625    32761    38151    47523    52693    43474    25380    14797 
   16380    19900    15987     3132   -11716   -16629   -11959    -8497 
  -10140   -14396   -14826    -9323    -5778    -6171    -3845     4590 
   16301    23582    18607     2975   -10850   -16355   -18336   -19326 
  -23293   -34147   -41146   -35509   -22620    -6144     8671    13189 
   11883    13846    16140    13708     9659     7453     6476     5697 
    5345     7022     9871    12641    16566    18278    16186    15198 
   14656    13727    16080    17218    12407     5858     -283    -4031 
   -2932     -903      273      592     -908     -859      255    -1481 
   -6356   -14497   -22335   -24001   -19501   -13581   -13565   -20851 
  -24542   -17868    -9957   -10150   -14894   -17283   -17186   -17855 
  -18027   -13381    -6293    -1359     4129    10381    11676    12621 
   22704    33381    32483    27090    23235    16033     8173     2225 
   -4820    -6753      -32     5607     3400    -3714    -6284     2292 
   14386    18678    14832    10445    11245    14901    13904     7228 
    2780     2904     4080     7328    11419    12520    10903     5039 
   -7179   -20343   -27225   -27618   -26210   -28026   -33059   -33972 
  -25699   -10454     5196    10363     -203   -15856   -23682   -24724 
  -26489   -29494   -31592   -32357   -27344   -16871    -9062    -4498 
    -110     5895    19117    34363    35634    22545     9423     4594 
    6987     8758     3717    -1832     -803     4594    10637    16781 
   25221    33863    37134    36784    35730    32623    26284    14068 
   -1090    -7970    -3414     4589     7017    -1627   -15335   -19383 
  -12454    -6908    -7746   -13539   -22473   -26491   -20479   -11324 
   -4527     2318     8556    10880     9728     4866     -678     -281 
    2915     4245     9221    19222    26501    28225    25435    18022 
   12980    12500     5371    -8430   -19742   -28364   -33477   -31776 
  -22988    -8588     2806     1203   -10942   -23009   -25384   -17187 
  -11713   -19331   -30587   -29177   -14692     -604     6532     8998 
   13195    25621    39304    45302    46603    44779    39684    35109 
   32228    29851    25493    15305      338   -13417   -21953   -24425 
  -24014   -29541   -43614   -56472   -59502   -51392   -35419   -18229 
   -4293     8521    24950    44018    57631    59826    53222    39243 
   14395   -12429   -24602   -20992   -13889   -16331   -28916   -36915 
  -32682   -21524   -10858    -7261    -5116     4338    10532     3179 
  -10719   -24517   -36099   -44636   -54224   -65012   -71129   -72157 
  -68292   -50161   -13064    28313    53311    54317    40999    30906 
   32050    35154    28793    16481     8022     7910    17670    29680 
   30755    23560    20043    20439    19334    13312    -1917   -23078 
  -35555   -29266    -8977    14793    34688    48607    59752    69373 
   76162    81819    83902    77188    63694    47123    29250    10785 
  -11434   -37708   -61049   -73872   -73630   -66260   -62632   -65284 
  -64378   -52727   -36437   -24588   -21524   -30075   -45389   -55393 
  -53705   -38145   -11644    12436    26300    35775    47473    63919 
   81020    84804    66728    38503    16577     1111   -14543   -30022 
  -44712   -54034   -46542   -21723     9243    34643    45828    44335 
   40489    39964    37872    27579    10140    -7297   -17721   -19396 
  -15776   -11451   -12357   -21018   -28768   -27842   -23739   -25272 
  -34349   -43277   -39602   -21697    -2855     5600     5806     7072 
   15827    27833    33106    28769    17672     3148   -13489   -32048 
  -48345   -56749   -53991   -42464   -28046   -14086    -2555    10119 
   27726    41652    40694    25207     9898     9479    16111    13189 
    3915    -1163    -1200     4392    14353    23656    35884    55006 
   72718    80411    79615    76776    78998    88636    96488    93132 
   82520    74881    74868    79241    80120    71101    55072    39202 
   23870     5212   -19333   -47195   -72100   -92929  -111808  -126029 
 -130584  -123791  -105460   -77118   -46537   -21978    -2146    17021 
   28985    25304     9109    -8656   -17435   -18170   -21420   -29624 
  -35728   -33197   -20106     1742    23853    33749    32478    26852 
   14788     1417    -6091   -15533   -30563   -38677   -31284   -15401 
   -1907     6875    17295    35583    58594    75215    78885    74320 
   72345    80502    87958    74787    44964    13668   -17899   -46199 
  -64870   -76724   -81674   -77635   -72365   -73873   -78380   -76068 
  -62887   -43629   -26255   -14755    -5584     5376    14715    17871 
   17021    20032    29099    30068    11762   -15461   -36322   -42942 
  -36343   -29310   -31189   -36115   -33397   -18023     5210    26515 
   41968    53516    63675    74232    83066    86027    85084    82199 
   73045    58476    43687    29304    16297     5036    -5512    -9505 
   -3225     5820    13700    21287    22675    13835    -5398   -37897 
  -77552  -111486  -138630  -162354  -179582  -189769  -196120  -198694 
 -193465  -177135  -154339  -134827  -121681  -107474   -84754   -54881 
  -23255     5636    30719    56013    81976    99545   104218   108780 
  123930   141197   153847   163316   165664   163868   167793   176345 
  182011   175778   152620   122148    96032    75863    62179    55858 
   53586    56709    71189    92763   112182   127438   134467   126573 
  108432    89971    71981    49535    20613   -11462   -38734   -53611 
  -53964   -45889   -42691   -49055   -53868   -52569   -53068   -57442 
  -62701   -68833   -73910   -75370   -77179   -81214   -78261   -62530 
  -41730   -23331    -8675      303     3552     1937    -8744   -30377 
  -56160   -77596   -92786  -105506  -115729  -118715  -114954  -110027 
 -104076   -94301   -86641   -86209   -88930   -95740  -107209  -112661 
 -107591   -96525   -77216   -46754   -12461    13590    25550    29266 
   30154    30149    39632    57954    66935    61240    43530    12050 
  -25951   -60349   -88803  -110817  -126370  -137649  -145473  -145925 
 -132895  -105046   -69397   -37831   -17885    -5276     8460    22725 
   31813    34531    32452    26428    16611     4793    -3638    -5589 
   -5976   -10596   -18946   -29526   -39971   -44724   -44611   -45685 
  -48951   -48085   -31993     1684    41622    76182    99953   117498 
  138503   161201   176558   182519   182993   183257   185828   188091 
  187197   182567   175690   169566   161685   145988   122061    90599 
   51135     9341   -25013   -49584   -71712   -93998  -110542  -118898 
 -119649  -112287   -98713   -83415   -70654   -61480   -55433   -53361 
  -53690   -53280   -50496   -41835   -24806    -4134    14647    32066 
   50151    70063    90957   106892   114977   118659   117506   110849 
  104614   100744    94665    85933    76595    64548    48090    30029 
   13927     -271   -16093   -34741   -51490   -63453   -74742   -85366 
  -90074   -92412   -99273  -108395  -113559  -110188   -97237   -80571 
  -66612   -54687   -45418   -43147   -45825   -52508   -65725   -78511 
  -85591   -90569   -92861   -91030   -85007   -73106   -59783   -49897 
  -39769   -24316    -1830    25887    53683    75598    86222    84936 
   79846    81199    90660    99104    98255    91958    87438    85454 
   85916    86999    81587    66650    47804    32396    20798     7684 
   -5760   -15004   -21670   -27338   -33587   -45134   -61521   -74844 
  -81710   -89980  -101692  -108233  -110554  -110484   -98862   -77951 
  -59373   -42307   -23245    -3843    17863    40510    56811    67344 
   77513    86967    93302    94671    90697    85027    79162    70251 
   56695    39920    25984    20795    24741    38180    59636    82279 
  100618   112726   120533   129120   139259   145816   142206   122547 
   85823    36989   -16034   -61579   -94583  -125453  -157384  -179684 
 -192061  -198169  -194679  -184382  -169056  -145784  -122299  -106907 
  -96042   -88064   -86848   -88955   -85954   -77267   -69451   -65847 
  -64428   -64015   -65784   -68682   -68582   -62661   -50571   -31909 
  -10841      576    -2508    -8424    -4534    11098    32755    51506 
   61187    63834    68577    81832    98141   107946   108690   100818 
   87709    80510    83787    86742    82088    73468    64555    60561 
   67191    78988    82847    72317    53088    36519    29861    32945 
   37902    34894    23043     7132    -8312   -16854   -18971   -22684 
  -28541   -32991   -36845   -38901   -35281   -25349   -10810     6297 
   25737    49791    72278    81481    78743    70574    61481    59571 
   62534    59478    48647    33392    16096     -304   -12484   -20050 
  -26215   -29788   -25790   -14564     -279    13570    25370    34961 
   38285    31458    19731     8442    -3383   -16019   -29868   -45627 
  -61657   -77896   -94682  -109559  -120793  -128529  -131685  -127942 
 -113547   -85220   -48468   -14698    10061    26783    40153    51328 
   55117    49082    35425    15665    -8813   -35766   -62489   -85952 
 -104178  -116987  -125751  -133802  -145157  -158996  -168845  -170605 
 -166260  -160108  -156429  -156988  -156620  -145131  -116127   -72597 
  -26280     7020    20451    24173    30431    40125    49336    54306 
   52353    46417    42915    46304    56832    68783    76638    81714 
   84389    82402    79267    78163    78096    79089    78728    77060 
   79633    83656    81130    72648    62369    52514    47068    47617 
   48050    43040    36943    36035    39730    45014    50108    55290 
   63624    75263    85123    89908    90591    86511    76104    61202 
   43530    24637     6757   -11324   -30610   -48960   -64425   -75019 
  -80700   -82657   -77648   -63092   -43855   -25812   -10010     2950 
   11745    18279    25540    33304    37936    36013    28430    19814 
   16179    18755    20122    14753     3816   -11684   -29694   -45605 
  -57658   -67599   -75145   -77098   -74224   -71638   -71067   -70831 
  -69075   -64075   -57779   -55060   -58265   -66022   -73079   -73542 
  -67117   -59626   -58037   -62080   -64138   -60595   -53323   -45697 
  -43179   -45441   -44621   -38091   -29124   -18826    -7696     3135 
   14096    24405    30781    30981    24390    10136   -10683   -31301 
  -43585   -46733   -45780   -43063   -37955   -30597   -19679    -4030 
   11735    21960    25700    24933    24290    28205    36199    44873 
   50882    52236    50434    47970    44742    40222    34057    25916 
   17624    11464     8635    10898    20520    36194    51077    59895 
   63801    64835    63936    63198    61287    54847    46955    40163 
   28903    11430    -5768   -19259   -27700   -27127   -18684    -7949 
    3644    17706    33794    48884    62041    74079    83102    88662 
   92971    95117    91835    82334    70243    58873    47057    34716 
