Origin Time       2016/04/16 01:25:00
Lat.              32.753
Long.             130.762
Depth. (km)       12
Mag.              7.3
Station Code      SAG002
Station Lat.      33.4247
Station Long.     129.9195
Station Height(m) 205
Record Time       2016/04/16 01:25:23
Sampling Freq(Hz) 100Hz
Duration Time(s)  180
Dir.              N-S
Scale Factor      3920(gal)/6182761
Max. Acc. (gal)   45.835
Last Correction   2016/04/16 01:25:24
Memo.             
[...]
  -14444   -17082   -18105   -17651   -17831   -20055   -22070   -18825 
   -9173      284     2515    -2197    -8779   -13857   -17049   -18354 
  -18138   -17051   -13767    -7640    -2100     -699    -3492    -8190 
  -12382   -15872   -18888   -19607   -18200   -17196   -15644   -11504 
   -7393    -6682    -9224   -13650   -18132   -20052   -18990   -18203 
  -20865   -25114   -24989   -17588    -6842     1359     5243     6588 
    5916     1285    -7530   -16416   -20740   -19499   -14313    -7920 
   -2924      173     1095    -1627    -8194   -16175   -20990   -19709 
  -14905   -10977    -9476    -9352    -8185    -5889    -6696   -12169 
  -17956   -20182   -18980   -17681   -19125   -21067   -19694   -15472 
  -11165    -7945    -5943    -5582    -6925    -9454   -11802   -11057 
   -5892     -252     1083     -970    -2462    -2156    -2158    -5196 
   -9968   -11669    -9219    -6830    -9637   -19042   -29577   -33997 
  -31119   -24797   -18566   -13790   -11128   -12143   -18242   -26631 
  -30331   -26359   -18563   -10379    -3221     -194    -2843    -6958 
   -7193    -2753     4780    13180    17763    13804      814   -15122 
  -24842   -25564   -20661   -12517    -4897    -2825    -7189   -16915 
  -28025   -33726   -32762   -28236   -22462   -17999   -16004   -15453 
  -14674   -10719    -3233     2951     3972      345    -5095    -8788 
   -8234    -5057    -3358    -3797    -5737   -10460   -17427   -23988 
  -27596   -27428   -25534   -23138   -18585   -12340    -8245    -6789 
   -4826    -3266    -4866    -7747    -9210    -8429    -4930     -640 
     353    -3707    -9821   -14043   -16991   -21329   -26328   -29675 
  -30400   -27800   -22835   -19531   -20276   -22224   -20519   -14325 
   -9057    -9224   -11383   -10550    -6601     -213     7553    12854 
   12532     7048     -607    -8371   -15583   -20066   -19479   -13638 
   -5567    -1120    -2883    -8421   -15969   -24519   -31262   -33813 
  -31112   -23654   -16456   -15864   -21739   -28983   -33264   -31290 
  -21798    -7263     6286    11861     9348     5498     3225      586 
   -2433    -3693    -2536     -842      688     3396     4874      668 
   -7899   -15878   -22136   -28597   -33699   -33565   -30174   -30342 
  -34775   -36085   -29886   -18906    -7012     1941     4386     -210 
   -9668   -18403   -19449   -10800     3661    15504    15636     3816 
  -10390   -16905   -12663    -3710      875    -2418   -10844   -19576 
  -24181   -21658   -12268     -342     8390    10134     3752    -8176 
  -19400   -27733   -35904   -40597   -35209   -21181    -6151     1580 
   -2730   -14593   -23571   -22955   -14766    -7123    -6209   -11343 
  -16086   -15045    -9366    -1905     4915     6541     2745      193 
    1498     2045     -761    -5657   -10793   -14370   -16738   -18269 
  -17602   -15719   -13494   -10958   -12419   -19283   -25585   -27545 
  -24557   -17244   -11606   -12236   -15077   -15651   -14328   -12267 
  -11042   -11484   -10402    -5980    -2299    -3158    -7718   -11704 
  -10530    -4536     1521     4892     5967     4872     1779    -3586 
  -13128   -24173   -30555   -31857   -29907   -25146   -21411   -22917 
  -28238   -31109   -26368   -15846    -6572    -3900    -7041   -10832 
  -11934   -10310    -6411    -1219     2433     1008    -5841   -14286 
  -19859   -19829   -14888    -8481    -3964    -3664    -7003   -11549 
  -15899   -17890   -16398   -14010   -11544    -6665     -613     1832 
   -2086   -11617   -21915   -26842   -24682   -17128    -8410    -4837 
   -7703   -13275   -18050   -17717   -11091    -4349    -3735    -9665 
  -17494   -21354   -20739   -19240   -17835   -15787   -12610    -8323 
   -4991    -4239    -6703   -13297   -21400   -25369   -21760   -11979 
   -1890     3349     3972     3128      978    -5314   -14381   -19617 
  -17617   -11363    -6432    -8018   -16156   -25074   -30603   -30799 
  -24250   -15693   -12277   -13134   -14126   -16126   -18750   -17406 
  -10869    -1352     8029    13124    11990     4028    -9200   -20616 
  -26555   -29122   -25429   -13289     -382     6005     5549     -441 
   -9421   -16972   -21273   -22894   -21676   -19535   -19758   -21455 
  -22320   -23239   -25488   -26643   -21467    -9917     -798       30 
   -3239    -5920    -6936    -5613    -4003    -4973    -6761    -6703 
   -5078    -1840     3230     7260     6430     -676   -12690   -24916 
  -31281   -30000   -24299   -18596   -17619   -23227   -30717   -34172 
  -31986   -26210   -20216   -15328   -10729    -6572    -4127    -3855 
   -5347    -7242    -6122     -519     5124     5410     -604    -9467 
  -15917   -17138   -14265    -9659    -5553    -2846      612     4654 
    3223    -5737   -16338   -23835   -26775   -25435   -23069   -21617 
  -19816   -17564   -15832   -14556   -13255   -11607    -9925    -8982 
   -9138    -9875    -9390    -6943    -4905    -3918    -1453     1053 
    -615    -6478   -14412   -21893   -25253   -24014   -21026   -19324 
  -21788   -27189   -29092   -23286   -12743    -4377    -2050    -4593 
   -9688   -15400   -19221   -18516   -12324    -3363     2763     2465 
   -2847    -9215   -12615   -11457    -8999    -9257   -11678   -13239 
  -13068   -12445   -12615   -13850   -14475   -13083   -11738   -12146 
  -12903   -12813   -12204   -13145   -17532   -22206   -21688   -16143 
  -10680    -8002    -7009    -6934    -7589    -8089    -9138   -11346 
  -10702    -4465     1563      499    -6452   -13664   -18714   -22724 
  -25301   -22534   -13126    -4106    -2976    -8533   -15790   -20321 
  -18322   -12650    -9986   -10288   -11444   -14893   -20149   -25708 
  -29633   -26723   -16493    -5545     1443     2308    -2838    -8426 
   -9904    -8930    -8800    -9607    -8582    -5970    -5253    -6117 
   -5833    -4859    -5008    -5707    -5357    -5458    -8855   -13584 
  -15781   -16782   -18842   -20346   -21345   -23170   -22760   -18482 
  -15236   -16295   -18637   -19335   -18446   -15400    -8906     -495 
    5872     7121     1669    -7989   -14410   -15157   -14598   -13609 
  -11319    -9409    -8506    -9568   -12384   -12251    -8389    -6531 
   -8881   -12089   -12971   -10961    -8851    -9942   -12301   -12065 
  -11022   -12198   -13599   -13010   -11390   -10271   -11156   -15155 
  -20590   -22178   -16331    -7534    -3509    -6232   -11794   -14988 
  -13636    -8200      415     6577     2921    -7916   -15291   -12473 
   -4124    -3332   -15881   -32265   -38686   -30129   -14489    -4135 
   -4115   -11590   -19935   -23200   -21634   -18240   -12512    -5444 
   -2989    -8325   -17954   -24922   -23654   -14662    -2639     6945 
    9426     4377    -5606   -16035   -20514   -17369   -10792    -5765 
   -5665    -9243   -12474   -13947   -14338   -14406   -14569   -13989 
  -10805    -5253    -1775    -4900   -13610   -21920   -24476   -19799 
   -9928     -297     3215     -780    -8740   -15437   -18109   -17301 
  -14033    -9826    -7166    -7786   -12074   -17587   -19808   -17356 
  -13002   -10123   -10235   -12340   -14027   -12698    -8130    -4150 
   -3091    -2963    -3755    -8463   -16041   -20436   -19281   -16928 
  -16033   -14701   -12643   -12507   -15354   -18020   -15856    -8252 
    -202     2669    -1480   -10032   -15972   -14308    -8687    -4301 
   -1528     -502    -2607    -7702   -13415   -16270   -16128   -16615 
  -17690   -16138   -12637   -10047    -9715   -11302   -12743   -12221 
   -9263    -5878    -6383   -10570   -13462   -14029   -14073   -12002 
   -6992    -2820    -1853    -1909     -603      767    -1997    -9448 
  -15346   -14757   -10580    -9167   -13237   -19504   -23285   -23974 
  -23050   -21623   -21746   -23360   -22589   -18493   -14561   -11192 
   -5101     3249     8624     7751     2200    -4527    -8953    -9932 
  -10501   -13745   -19578   -25163   -25880   -21273   -15611   -11118 
   -9815   -12915   -15991   -15909   -14036   -11062    -7816    -5481 
   -4027    -3909    -6128   -10971   -16609   -19539   -18208   -13492 
   -7452    -3730    -5302   -11108   -15964   -15863   -12926   -10271 
   -7704    -6595    -9677   -17468   -28140   -35139   -31010   -16393 
     130     8005     4038    -2859    -4655    -4799    -8233   -11717 
  -10014    -4183     -555    -3199    -7897    -8613    -7646   -10847 
  -17744   -21740   -17872    -9960    -7083   -12336   -20966   -28173 
  -31458   -29417   -23517   -16584   -10763    -8050    -8604   -10532 
  -11021    -6845     1852     9558    10817     5742    -2128   -10038 
  -16175   -19446   -19410   -16856   -15716   -18315   -20496   -19333 
  -18788   -22305   -27004   -27803   -22853   -13392    -2719     4316 
    4943     -459    -9514   -16558   -17274   -14255   -11444   -10623 
  -12561   -13167    -8367    -1180     4977     7302     1852    -8946 
  -18725   -23419   -19615    -9088    -1681    -4382   -12921   -17345 
  -13254    -7525    -9878   -19174   -27142   -30261   -28865   -24401 
  -19783   -16110   -12669    -9327    -5961    -3490    -4880   -10384 
  -14690   -13547    -8821    -4419    -2620    -5379   -12666   -18453 
  -16450    -8439     -347     3788     2191    -3151    -7662    -9691 
  -11238   -13852   -17064   -20305   -23397   -25060   -23218   -17974 
  -13855   -14841   -17697   -16225    -9034     -158     4263     1288 
   -5966   -12165   -13992   -11764    -8605    -6389    -4653    -3734 
   -5577   -11001   -16703   -17804   -14235   -10663   -10306   -10840 
   -7651    -1586     1005    -3997   -13235   -18293   -16419   -13714 
  -13770   -14216   -14229   -14854   -15613   -15367   -12515    -6122 
    1499     5274      529   -11133   -21763   -25189   -20448   -11312 
   -3766       29      708    -3826   -15448   -29286   -36695   -34425 
  -25838   -16223    -9730    -6341    -4158    -4291    -7236   -10117 
  -11512   -12909   -15430   -17482   -15872   -11035    -8216   -10530 
  -14315   -13513    -7356    -1659    -2422    -9664   -17484   -20825 
  -19785   -15477    -8510    -1113     5041     8146     4930    -2067 
   -4625    -1341     2465     4351     3669     -746    -8806   -20080 
  -31734   -37227   -33378   -24248   -15888   -12636   -16679   -25486 
  -32319   -33083   -29986   -27294   -26154   -24398   -20396   -14644 
   -8807    -6580    -9170   -10011    -2982    10190    23346    29145 
   23294     8334    -8736   -19260   -17814    -8997    -1688     1704 
    1622    -2437    -6768    -6658    -3965    -5280   -14207   -26754 
  -36107   -39928   -39581   -35879   -28525   -19374   -14021   -14951 
  -17822   -19187   -18395   -14685   -11136   -12231   -15975   -17260 
  -14574    -9013    -1759     5289     8724     6991     3141      543 
     451     3569     7540     7672     2228    -7444   -16842   -19858 
  -16864   -13478   -12125   -12894   -15265   -16591   -15929   -15885 
  -18429   -24833   -35709   -45799   -46680   -36713   -22996   -14771 
  -14685   -17142   -16408   -10514      112    12236    22409    29629 
   34015    35049    31049    22289    13337     8463     7012     5718 
    2924    -1322    -7005   -13621   -19420   -23781   -28600   -35320 
  -42953   -48376   -47547   -40259   -31628   -27365   -31063   -39892 
  -43782   -37618   -25739   -13361    -4772    -1497     2130    10515 
   20463    28678    33699    32731    26111    19272    15859    15220 
   15977    15701    10134    -3691   -22566   -37498   -43632   -42802 
  -38718   -38533   -46429   -55752   -57966   -50118   -33883   -15549 
   -2441     2642     2601     3754    10046    18482    23711    24097 
   20598    15153    10136     6361     3907     3312     3814     3561 
    1099    -4617   -12024   -16123   -14669   -11633   -12310   -18936 
  -29927   -41316   -47574   -43229   -29270   -14515    -8161   -11772 
  -18014   -19930   -17441   -14081   -14314   -19660   -24500   -22538 
  -14618    -5582      734     2636     1251     -871    -2845    -5421 
   -7778    -8277    -7444    -6889    -9672   -19651   -35498   -50148 
  -56357   -49511   -29634    -5609     8567     8704     3386      501 
    1828     4668     4187      919    -1230    -2970    -6448   -12081 
  -19310   -25332   -27156   -24022   -17181    -9701    -4232    -1289 
      13     1051      948    -3236    -9863   -12074    -6781      496 
     658   -10295   -27696   -43843   -53929   -56048   -51063   -42230 
  -33638   -28860   -27012   -21958    -9400     6550    16540    16577 
   11600     8780    11637    17436    20272    19577    19533    20412 
   16831     4043   -15276   -30662   -32746   -24935   -20275   -24327 
  -32238   -39741   -45397   -46541   -40246   -29010   -20921   -20413 
  -23451   -23401   -16903    -5237     5792     9945     6947     2951 
    3605     7265     8279     4781    -1609    -7881    -9579    -5607 
   -1479    -3446   -11833   -22041   -29517   -33232   -35637   -37809 
  -37962   -36128   -34006   -32093   -29422   -23761   -15927   -11346 
  -12479   -16688   -20701   -19677    -8354    10522    26289    31294 
   25412    13767     4031      125     1518     8374    17080    18231 
    7146   -12035   -30977   -42055   -44174   -42194   -41321   -45646 
  -54134   -57608   -49942   -38120   -33650   -36764   -33817   -17343 
   -2562    -5975   -20467   -29863   -26251    -8879    14185    33090 
   43051    39309    23554     7508     1533     6645    17321    28418 
   31651    19869      557   -14736   -20286   -14216    -6218   -11471 
  -33473   -61057   -79337   -83860   -79059   -70489   -60789   -47426 
  -31210   -17351    -7130      413     6554    12062    15416    17576 
   23154    33603    45172    52519    50665    37319    16184    -3193 
  -10160    -3056     6030     6742     1670    -6548   -17925   -27325 
  -32139   -34574   -36154   -39377   -44836   -46843   -40908   -32650 
  -29445   -28222   -24226   -20773   -21355   -26050   -31310   -27448 
  -12078     3924    13221    17108    19772    25968    34443    38797 
   37058    30904    21236    10097     -298   -10365   -20063   -25989 
  -26404   -25363   -25107   -21917   -15488   -10702   -10331   -14360 
  -20828   -26037   -26512   -21699   -15829   -12278    -9107    -3645 
    3926    11396    17017    18722    12588     -872   -13927   -20635 
  -21894   -20029   -15720    -9886    -4041     -402      598       59 
   -5388   -17728   -32022   -45074   -56278   -63594   -65470   -61047 
  -50245   -34181   -16216    -2222     4719     6377     6231     7067 
    7347     2215   -10307   -28269   -46806   -59353   -63306   -62000 
  -59232   -54517   -45616   -34701   -25816   -17844    -7800     3639 
   15131    26268    34198    35567    31602    26192    20648    12741 
    -191   -18072   -37065   -49760   -51122   -45388   -39744   -36506 
  -35327   -36464   -41478   -49154   -54160   -53810   -50005   -45493 
  -40611   -32505   -19321    -3831     8449    13280     9886       80 
  -12431   -21305   -21911   -16901   -12237   -10235    -9408    -8587 
   -6927    -1733     6651    12603    12153     7050     2188       78 
   -1466    -5881   -14749   -25390   -32170   -33218   -30781   -25430 
  -15520    -1090    14780    27764    34359    34753    31320    22757 
    9277     -607      396    10373    20343    20063     7941    -9072 
  -23919   -30432   -24986   -10626     3550     7043    -3190   -20499 
  -35436   -39019   -28857   -14242    -4930    -2635    -4266    -3231 
    3855    11189    12982     9546     3597    -2171    -7157   -12649 
  -18279   -20669   -18765   -19140   -28524   -43871   -55000   -53986 
  -41613   -26002   -15217   -10853    -9487    -8980    -8366    -6722 
   -5740    -6168    -5587    -3562    -1840    -1405    -2834    -6721 
  -13487   -21315   -25104   -22056   -16834   -15730   -17765   -18271 
  -16509   -13988   -12123   -12370   -13761   -13548   -12352   -14367 
  -20185   -25406   -28475   -31092   -32624   -31950   -29129   -22632 
  -10748     4624    18154    23414    16694     1790   -12033   -17823 
  -15415   -10510    -8448    -7868    -3455     5426    12982    14475 
   12024    11339    14537    18266    19087    17436    14655    10965 
    5753    -2963   -15358   -28492   -39927   -48112   -51570   -49155 
  -40244   -27544   -16903   -12400   -15213   -24121   -34796   -42331 
  -43058   -33853   -15937     2373    15005    25067    34914    40701 
   39426    29657    10548   -13724   -34926   -47614   -50784   -44694 
  -34067   -27222   -25206   -23816   -22612   -22326   -22439   -21652 
  -18101   -14390   -14586   -15468   -11898    -3786     6692    15101 
   15696     8295    -1907    -9506   -11008    -8115    -6337    -8397 
  -13581   -20429   -26874   -30463   -30409   -28073   -24964   -22079 
  -19712   -15998    -8597     1294     9460    13086    13383    12965 
   12115    10231     7500     3235    -4127   -14096   -23194   -29413 
  -33769   -35421   -32051   -24831   -18069   -16035   -19970   -26097 
  -28573   -24933   -19254   -17774   -20539   -23949   -26454   -27137 
  -27062   -28083   -28459   -26546   -22453   -15846    -8135    -1358 
    4334     7218     4073    -3363    -8627    -8872    -6663    -4345 
   -3558    -7328   -16715   -28955   -39668   -44157   -41858   -37713 
  -34313   -31529   -31678   -35367   -38561   -37497   -32241   -26402 
  -24751   -28199   -31892   -32363   -32212   -34339   -37715   -38501 
  -32313   -19573    -6106     4833    14642    24955    36592    48318 
   55775    55153    45786    31136    19746    17258    18111    14086 
    4692    -6981   -19566   -30455   -35714   -34899   -30790   -27779 
  -31135   -41249   -51677   -56619   -56068   -52864   -48536   -43166 
  -35747   -24580   -11081     -216     5125     7019     9297    13414 
   18410    22929    25514    24137    17153     5679    -6288   -14501 
  -16339   -12607    -6840    -1474     1427    -1506   -10723   -21692 
  -29682   -33562   -34675   -34518   -33834   -33142   -32398   -30285 
  -25793   -20089   -16375   -16104   -15842   -11654    -4169     3060 
    7107     6925     3419    -1544    -6543    -9910    -9397    -4668 
    1413     5277     5564     3554     2316     4380     8190     8808 
    3824    -3509    -7214    -4154     1569     2097    -5410   -16991 
  -25918   -27292   -22198   -16524   -15401   -18800   -22130   -21332 
  -15619    -6848     1615     6647     7350     6083     5464     4545 
    1468    -3199    -7558    -9983   -10488   -10641   -12093   -16076 
  -22899   -31189   -38125   -41411   -41498   -40504   -38211   -31919 
  -20679    -6393     7771    18305    22699    20768    14938     8591 
    4156     2753     2430    -1905   -12159   -24423   -34823   -40963 
  -39029   -28627   -16399    -8429    -5431    -5729    -6513    -5274 
   -2169     1438     4069     3702     -481    -8018   -17547   -25336 
  -28113   -25882   -20186   -14101   -11342   -13445   -19726   -26348 
  -27158   -19624    -6364     7308    14749    13128     6297     -115 
   -2686    -1248     1803     2738    -3324   -17818   -34370   -44398 
  -45188   -39400   -29939   -19637   -12501   -10585   -12099   -13483 
  -12441   -10095    -9299   -11906   -17226   -20941   -19499   -15083 
  -12991   -16932   -25817   -34106   -37295   -35082   -29164   -20164 
   -7992     5273    16466    23336    23606    17395     9502     5389 
