Origin Time       2016/04/16 01:25:00
Lat.              32.753
Long.             130.762
Depth. (km)       12
Mag.              7.3
Station Code      SAG007
Station Lat.      33.2627
Station Long.     130.3004
Station Height(m) 4
Record Time       2016/04/16 01:25:18
Sampling Freq(Hz) 100Hz
Duration Time(s)  250
Dir.              N-S
Scale Factor      3920(gal)/6182761
Max. Acc. (gal)   90.065
Last Correction   2016/04/16 01:25:18
Memo.             
[...]
   16914    16953    16999    17036    17073    17071    16996    16925 
   16951    17031    17059    17012    16945    16909    16943    17036 
   17105    17108    17072    17019    16992    17047    17139    17144 
   17016    16833    16682    16639    16707    16774    16868    16979 
   16919    16879    17006    16987    16874    16860    16775    16600 
   16471    16539    16780    16751    16417    16406    16843    17236 
   17408    17338    16986    16613    16336    16274    16718    17285 
   17327    16961    16815    17153    17590    17855    17799    17025 
   16069    16041    16748    17231    17151    16958    17031    16944 
   16621    16758    17324    17609    17414    17110    16914    16528 
   15999    15986    16471    16615    16403    16632    17186    17667 
   18184    18172    17341    16482    15764    15185    15611    16935 
   17782    17980    18117    17694    16985    17293    17749    16856 
   15852    16176    17357    18710    19673    19861    19315    18103 
   16970    16536    16337    16615    18240    20469    21542    21225 
   20497    19438    17859    16587    16019    15141    14171    15082 
   17461    19023    19377    18840    17532    15828    13720    12028 
   11714    12041    12285    12738    13630    14401    14649    15014 
   14801    13148    12142    12752    13814    14984    15372    14964 
   15545    17750    20716    22741    23210    22971    21937    20136 
   18505    17404    16785    16614    17448    19709    21674    22028 
   21968    21487    19585    17554    16332    15138    14278    14443 
   14689    14323    14626    15384    14214    11884    11203    12232 
   13789    16132    19771    22733    22798    21427    19769    17095 
   15610    16777    17565    17115    17755    19658    21935    23938 
   24023    21976    19418    17106    15032    13489    13119    13795 
   14355    14168    13716    14247    15355    14922    14159    15044 
   15727    16168    18763    22354    23490    21096    17942    16394 
   15422    14919    15438    14765    11788     9094     9393    12272 
   15174    17243    19266    19942    17878    15810    16458    18120 
   18877    19664    21356    23314    25634    28863    31494    31654 
   29967    28001    25760    23385    22741    24622    26668    25155 
   20337    16649    14626    11457     7107     2207    -3569    -8480 
   -9057    -5382     -678     4743    11171    15799    17177    16847 
   15889    13912    10911     8515     7681     7789     9363    13600 
   19623    24323    26540    28623    30867    31214    28956    24032 
   18072    14581    15894    21584    28257    31884    31525    30538 
   31550    31365    27026    22176    21125    21535    17805    10485 
    5888     5219     4061     2225     2462     3284     3150     4440 
    7747    10321    10967    12681    18270    23998    24829    22945 
   23163    24698    23789    20329    15588     9590     5257     5573 
    8405    11516    15686    22294    30561    35601    34373    29999 
   26087    23770    22763    21931    20692    18449    14642    11541 
   11588    12115    10010     8026     9587    13379    16494    17179 
   14846    11497    10083     9405     7092     5900     8597    12704 
   15838    18534    21217    23112    22614    20030    18645    18300 
   15202    11085    11076    13729    14727    15242    17712    20237 
   20219    19462    22308    28482    33438    35705    35389    31330 
   26016    23084    22075    21194    18754    15724    15827    17871 
   16988    12796     9483     9618    10142     8207     7019     8958 
   11536    14378    20033    26225    26679    21267    15375    10531 
    6251     4533     5820     8262    10795    13608    17517    21232 
   22500    22473    22173    20267    16948    12901     8057     3753 
    1457      465      146     2760     8689    13721    17430    22733 
   27070    27664    27845    30235    33341    35212    35303    35550 
   36432    34886    32070    30618    26801    18585    10426     5644 
    4757     7946    13044    17347    20565    21873    20897    20139 
   19461    15988    12672    13782    15756    14766    13207    13328 
   13320    11382     8694     7657     8592     8943     9529    14306 
   19286    17535    13055    13056    16364    19436    22191    25203 
   27735    28332    27486    26931    24362    17573     9846     3722 
    1075     6037    17561    29159    37123    41330    41922    39455 
   34934    28889    23171    18249    11412     5795     7242    11240 
   10645     7642     8254    12440    13618    10439     9322    10342 
    9349     9181    11132     9618     4171     2426     8261    15959 
   18867    19124    21219    22259    19506    14107     5141    -2832 
    -411    10360    21451    31791    40650    44436    43134    40278 
   39271    39036    34766    28526    26218    25660    24427    24180 
   23678    22241    19083    11526     1415    -8105   -14444   -12984 
   -5334     1095     4275     6577    10127    16493    22308    23619 
   24993    29587    33286    34043    31293    23824    13021     2266 
   -2231     3854    12643    15217    17849    24104    21534     9242 
    4761    11277    15066    13202    15952    25326    31794    33417 
   35633    36020    28296    15144     8424    10420     8156     1541 
    2761     7547     7318     6345    10289    18380    23236    21228 
   18243    16894    15341    13188     9318     4712     2289     2753 
    6611    13052    18226    19178    18001    19387    21082    19733 
   20951    26720    32385    35844    36792    37922    38455    33362 
   27645    25639    21007    12991     7979     8768    11125     9186 
    4710      941    -3018    -6014    -6773    -6150    -4453    -2622 
   -2500    -3756    -4142    -3971    -3953    -1005     6379    12749 
   11682     6125     3729     3490      297    -2317      900     4867 
    6299    12247    21748    24849    23598    27320    33553    33700 
   29855    29574    30216    26412    22587    22374    22268    22732 
   28565    38594    45220    42532    33400    26378    22330    14504 
    3784    -2960    -4581    -2609     2119     7810    13154    17331 
   20832    24188    25235    22697    19736    20293    20917    15661 
    7848     2446     -405     -114     2566     5720     8659    11874 
   17950    24206    23359    17753    14501    13544    15608    24542 
   35884    40773    39194    37132    35144    28501    16938     6331 
     987      206     2240     7668    15457    22694    29804    34519 
   31891    26821    26124    25507    20765    16527    16626    18033 
   16985    14822    14847    15219    11492     7189     7467     7179 
    2184    -2999    -4602    -3644    -3978    -5161    -1162     6983 
   12236    16279    25762    38466    46620    48057    46347    44054 
   40952    37517    35139    33726    31001    26990    26998    30490 
   29942    25654    23208    23093    22862    22752    23849    22650 
   17918    16063    18690    19550    15992     9929     4431     1596 
    -132     -508     2923     7245     7680     6637     9034    12616 
   14182    14789    12843     6487    -1937    -9264   -12309   -11968 
  -14513   -19853   -19519   -10137     4030    18899    29093    29767 
   24535    19019    15664    16662    20213    22498    23812    24889 
   24130    21859    20941    22462    25389    26926    24025    19863 
   19084    20545    23584    26770    27601    30771    38156    43152 
   44357    44385    40929    32686    24121    17514    10286     2178 
   -5147   -10851   -14084   -15729   -16683   -16538   -15061   -11509 
   -6625    -2977    -2166    -2713     1030    10423    18616    24342 
   31832    37481    36614    32250    29029    28466    27430    22667 
   17099    14307    13904    15072    18423    24161    28862    30315 
   32608    36394    35621    29950    25819    23850    19218    13675 
   13972    19890    23948    23844    25558    29684    29084    23821 
   19380    12963     1593    -7041    -8154    -8075   -10097   -10631 
   -9006    -6671    -4630    -3583     -488     6449    13486    17760 
   19300    19013    17586    14655    11267    10715    13913    17301 
   19507    22860    26690    29196    31707    36078    41068    42807 
   40606    37276    33105    26999    20803    17370    17366    19642 
   22559    25110    27002    26596    23029    20569    23085    27464 
   28970    28552    28921    27368    21728    15112     9279     5174 
    3385     1517     -611    -2827    -5719    -3993     3548     6871 
    3209     2194     8671    19685    30880    39227    46625    54129 
   56378    50846    42423    34318    22587     6080    -6053    -7931 
   -5132    -3792    -5013    -6204    -4701    -1814     2938    12417 
   21945    25017    25861    30112    34272    35156    33893    29932 
   23812    18744    15703    14896    17256    20370    22613    25414 
   24527    16976    10616     9797    10143    10328    10906    10127 
    8819     8388     8041    10468    15822    17076    14869    14997 
   12750     2545   -10274   -18160   -19924   -18547   -14620    -5659 
    6200    14038    16033    17847    22964    28667    34456    41581 
   47834    52943    57550    60318    62247    62634    58223    49887 
   40043    30511    23471    18292    12426     4628    -4613   -13069 
  -18548   -21409   -22636   -21420   -17043    -9492      253     9432 
   15682    18421    19322    20285    20134    18128    17504    20416 
   23970    26182    28917    31559    32067    32008    32501    30670 
   23784    15290    11189    11620    15190    22646    31849    39659 
   44767    47074    48026    47814    45020    40635    37523    36542 
   36238    34832    29948    22383    20409    27523    34478    35208 
   32006    25495    18828    17891    19033    15540    10065     5414 
     -51    -2157     2023     5725     7025    10166    12994    12642 
   10986     8390     3521    -1052      526     9945    22298    31899 
   37423    41099    43542    42549    36641    24778     7537    -8453 
  -15823   -15057   -10917    -4250     5544    14634    20041    24522 
   30442    34969    33956    27910    20008    10041    -1031    -7140 
   -6772    -3448     3063    12379    20362    23441    19042     8466 
   -3801   -17723   -34310   -47790   -52415   -50283   -42190   -23291 
    1245    17131    21235    20705    21035    22791    23285    23596 
   26269    27707    26070    26310    31943    41933    50981    51860 
   44239    35028    27909    21061    15866    16436    21612    29984 
   42825    54447    55582    45364    29420    14464     4999    -1944 
  -10431   -17331   -17818    -8771     9778    30968    45806    51051 
   49551    43604    34839    26660    19603    13227     9553    10137 
   15003    21870    28335    35377    45144    57347    67145    70149 
   68395    61512    44102    20758     5036     1839     5845    13355 
   23932    33970    39940    43091    44178    41231    32625    20255 
   10107     5702     4698     4705     5841     6649     5987     5074 
    3232      653    -1059    -3527    -7189    -9422    -8851    -4828 
    3604    16408    32619    49124    60576    64698    64017    59995 
   50611    38159    31484    34491    43727    55164    65721    75478 
   85308    92386    95186    95171    91452    82592    71393    58860 
   41100    20262     4445    -4814   -12288   -19957   -24988   -25388 
  -22194   -16702   -12080   -12655   -17693   -22273   -22801   -19005 
  -12823    -5745     -473      456     1383     4674     3936    -1531 
   -6113    -9030    -9168    -3538     6314    17549    28424    36798 
   41585    40750    31130    16476     6648     4146     3828     5596 
   13464    25729    35135    36789    33703    32397    33124    29914 
   18687      116   -20801   -36079   -41159   -38947   -34746   -29891 
  -22502   -12279    -1872     6834    14066    17655    15055     8365 
      48    -8457   -15147   -19684   -21563   -20696   -18543   -12203 
    1806    18808    32126    39971    42958    42891    42366    43428 
   46593    49039    46822    40300    32538    24073    14628     4243 
  -10234   -29720   -46071   -52024   -48402   -37346   -22908   -10300 
    1616    13112    19004    18737    14622     5836    -5612   -13826 
  -16933   -18833   -19382   -13093    -1857     9824    24752    43704 
   64252    85678   104498   116791   120141   111483    93907    75214 
   56035    34346    16906    12534    19778    29704    36975    43299 
   52006    61768    68619    74999    86181    97521   101453    99759 
   97316    96536    95656    88761    77208    68636    64120    61649 
   60962    59205    51936    36958    16391    -2429   -13010   -17444 
  -21075   -23385   -23803   -27048   -33043   -33610   -24092    -7923 
    9956    27016    41049    49607    52529    49757    39591    23391 
    5307   -12309   -29744   -48285   -66513   -80815   -89646   -93358 
  -93187   -89756   -79311   -54539   -13618    29915    57598    71752 
   87441   103060   109863   108432    98953    81444    58215    30297 
    3833   -13506   -22495   -27255   -29200   -29326   -29622   -31921 
  -37222   -44155   -48942   -51051   -53781   -56443   -56237   -56690 
  -61712   -67041   -68372   -67360   -64797   -59387   -51823   -45314 
  -43933   -48043   -53893   -60659   -70729   -82985   -94506  -105120 
 -114496  -121171  -124947  -125114  -116844   -93906   -58580   -22271 
    7067    29282    45156    54019    55941    53125    50219    50186 
   50951    50076    49116    51508    59211    72983    93913   119564 
  140853   149045   144109   133094   120670   105745    87911    70915 
   60195    58545    64084    74470    89027   105818   120808   130056 
  133462   132757   125475   109385    88243    68157    54828    49111 
   43665    33862    23304    14169     6817     4419     9172    20102 
   33609    45470    54584    62512    69236    70531    63396    51935 
   40350    27025    11234    -2487    -9699   -11555   -11619    -8537 
     206    10357    18433    28799    45280    65051    82375    94178 
  101072   103568    99658    87955    73448    62829    55501    49992 
   48030    47264    45121    42276    36539    26738    15867     4600 
   -6894   -16408   -24667   -33155   -40347   -45111   -48766   -53511 
  -59506   -64807   -69229   -74284   -79729   -83367   -84537   -86674 
  -92623   -99639  -104916  -109489  -112782  -112216  -107960  -101450 
  -91753   -77164   -57936   -35860   -15063     -438     9032    17183 
   23003    25798    29404    36303    45053    54205    64485    74908 
   82167    86748    92077    97558    99738    97227    88847    74592 
   58079    40169    19943      217   -18245   -37079   -54483   -67499 
  -74040   -73288   -67085   -58377   -49367   -40329   -31279   -22977 
  -13292      847    18881    38049    55700    71403    86969   101319 
  108433   100931    75604    41063    12623    -6803   -23101   -32008 
  -28600   -18881    -5153    16416    43942    71634    94187   108637 
  117649   123502   121960   109549    89632    68911    52559    41246 
   32779    26081    21309    17975    14483     9449     2232    -7199 
  -16409   -22381   -25045   -23792   -18030   -12621   -11840   -13142 
  -13256   -13187   -16499   -24956   -36721   -49357   -59490   -62972 
  -59040   -48887   -35651   -23875   -10722     8418    27120    37752 
   41443    40246    34642    28381    26007    27145    27495    25014 
   22284    23979    32634    44856    54804    61884    69215    77507 
   87238    99209   109787   115089   115176   108570    91852    64660 
   30818      256   -16694   -23479   -28226   -26431   -14147     3512 
   24759    46722    60191    61445    53838    41276    29234    23535 
   23763    25781    30101    36709    40805    42237    45235    50741 
   54588    49428    33681    15156     2736    -1805    -4614    -9135 
  -11908   -12522   -13792   -15107   -13782    -8187     1249    11610 
   18679    19605    13569     2967    -5191    -5654     1357    14806 
   30615    40025    39129    31898    22399    11870     1198    -8904 
  -18458   -27853   -36564   -41817   -41144   -34097   -20386    -1844 
   16234    29897    38905    44770    49210    52537    52136    42905 
   23338     1343   -14178   -24051   -32651   -39605   -44380   -49134 
  -53980   -57787   -61343   -64975   -67761   -69096   -67587   -61056 
  -49924   -37341   -25529   -16332   -12485   -15044   -22938   -32914 
  -40062   -42680   -42049   -37171   -26484   -12509     -113     8130 
   13200    17815    24380    32937    41105    47097    50896    52902 
   53409    52574    50660    49247    51603    59161    69864    81900 
   93544   102206   107444   109575   108176   104268    99726    96434 
   96352    99359   102754   103626    98744    84805    62592    37626 
   16336     1787    -8816   -19039   -28357   -35798   -40485   -38675 
  -27433    -9765     7379    20528    31556    41599    49285    53390 
   52210    44521    32330    19080     7877     2740     6873    18725 
   32785    44095    50278    51509    50298    48854    46805    43050 
   37318    30144    23158    17883    14573    12086     9672     9874 
   14951    22754    30554    37401    43208    48881    53833    55517 
   53242    47274    36957    23604    10154    -2233   -13142   -21091 
  -26379   -32046   -38838   -44035   -46061   -45738   -43232   -37158 
  -27906   -18241   -10831    -7747    -8900   -12191   -16209   -19632 
  -21717   -23675   -26126   -28362   -30622   -33667   -36456   -36201 
  -30811   -20211    -5845    10250    25924    39264    50173    60557 
   71825    83371    93631   101326   104687   101909    93273    79700 
   61304    40302    20878     5654    -2395     -703     6972    16537 
   29286    44645    59224    70779    78709    84795    89624    90382 
   85399    76858    68427    61740    56407    52317    49322    46845 
   44587    41130    35424    29430    25004    23062    24388    27085 
   28493    27875    25190    20657    14240     6630      795    -1666 
   -3496    -7146   -10916   -11907    -9034    -3733     1231     4430 
    5357     3881      939    -2991    -8420   -15359   -22130   -26910 
  -29936   -30305   -24566   -11706     6610    28112    48024    62112 
   70263    72867    69839    62873    53713    42772    30688    19403 
   11548     8340     8573    10259    12179    14143    16552    19692 
   23180    25867    27494    29426    31922    33683    34648    36110 
   38526    40708    41319    39507    33763    24474    16547    13874 
   14637    15861    16478    15043    10921     6484     4208     3141 
     470    -4515    -9833   -12096    -9338    -5244    -5810   -11678 
  -18978   -24821   -28864   -31712   -33366   -33136   -30026   -23323 
  -14115    -5105     2786    11349    21143    30379    37677    42160 
   43644    43346    41182    36771    32398    29580    27082    23576 
   18961    14713    12942    13459    13314    11463    10723    12820 
   17446    25315    35767    45914    54382    60638    63303    61728 
   54941    40879    20914     1405   -12523   -21206   -26928   -31001 
  -34365   -36788   -37502   -36760   -33882   -28239   -22593   -19670 
