Origin Time       2016/04/16 01:25:00
Lat.              32.753
Long.             130.762
Depth. (km)       12
Mag.              7.3
Station Code      SAG006
Station Lat.      33.1916
Station Long.     130.0340
Station Height(m) 8
Record Time       2016/04/16 01:25:20
Sampling Freq(Hz) 100Hz
Duration Time(s)  135
Dir.              N-S
Scale Factor      3920(gal)/6182761
Max. Acc. (gal)   47.645
Last Correction   2016/04/16 01:25:20
Memo.             
[...]
  -31196   -31250   -31450   -31819   -32213   -32228   -31721   -31074 
  -30624   -30314   -30120   -30125   -30135   -29955   -29759   -29683 
  -29565   -29331   -29121   -28962   -28840   -28996   -29573   -30293 
  -30909   -31431   -31801   -31952   -32050   -32336   -32838   -33392 
  -33818   -33914   -33525   -32827   -32172   -31700   -31352   -31002 
  -30634   -30396   -30274   -30093   -29860   -29611   -29270   -28907 
  -28672   -28637   -28895   -29436   -30023   -30368   -30309   -30010 
  -29918   -30263   -30856   -31481   -32093   -32488   -32306   -31581 
  -30741   -30055   -29700   -29858   -30227   -30182   -29668   -29111 
  -28705   -28470   -28441   -28387   -28091   -27857   -28101   -28802 
  -29528   -29840   -29841   -29942   -30246   -30871   -32004   -33380 
  -34787   -36459   -38226   -39334   -39575   -39504   -39439   -39409 
  -39488   -39323   -38375   -36768   -35058   -33521   -31996   -30311 
  -28722   -27621   -27094   -27026   -27143   -27093   -26721   -25990 
  -25043   -24430   -24613   -25483   -26525   -27185   -27287   -27034 
  -26628   -26373   -26643   -27337   -28379   -30047   -31768   -32606 
  -32980   -33588   -34179   -34593   -34802   -34259   -32879   -31575 
  -30977   -30746   -30530   -30310   -29869   -29201   -28657   -28255 
  -28232   -29144   -30561   -31571   -32029   -32160   -32412   -33286 
  -34533   -35511   -35631   -34564   -33082   -32133   -31427   -30790 
  -30807   -31220   -31314   -31228   -31216   -31136   -31146   -31623 
  -32446   -32979   -32829   -32208   -31467   -30743   -30014   -29299 
  -28758   -28359   -27859   -27364   -27085   -26819   -26609   -26907 
  -27582   -28365   -29783   -31877   -33372   -33589   -33098   -32111 
  -30723   -29864   -29913   -30153   -30272   -30367   -30126   -29356 
  -28422   -27772   -27668   -28277   -29505   -30701   -30967   -30213 
  -29518   -30022   -31825   -33990   -35524   -36071   -35585   -34481 
  -33833   -34039   -34629   -35526   -36440   -36483   -35828   -35234 
  -34537   -33989   -34419   -35039   -34607   -33598   -32415   -30556 
  -28637   -27261   -25603   -24056   -23847   -24082   -23821   -23464 
  -22335   -20086   -18508   -18552   -19531   -21564   -24745   -27463 
  -28550   -28853   -29285   -30152   -32056   -34869   -37585   -39884 
  -41610   -42098   -41627   -41470   -41828   -41689   -40722   -39295 
  -37344   -35118   -33514   -32885   -33066   -33734   -33964   -32962 
  -31198   -29830   -29200   -28761   -28565   -28895   -28733   -27348 
  -25800   -24984   -24757   -24948   -25246   -25109   -24391   -23716 
  -24068   -25605   -27765   -30228   -32201   -32688   -32431   -32772 
  -33339   -33621   -34221   -34472   -32750   -30000   -28418   -27749 
  -27183   -27536   -28507   -28480   -27679   -27546   -28550   -30699 
  -33832   -36813   -38370   -38557   -38279   -38046   -37874   -37743 
  -37608   -37171   -36039   -34144   -31903   -29921   -28625   -27837 
  -26459   -23837   -21303   -20361   -20744   -21889   -23724   -25505 
  -26541   -27101   -27170   -26703   -26851   -28377   -30472   -32201 
  -33092   -33262   -33718   -34867   -36040   -36897   -37198   -36739 
  -36101   -35317   -33901   -32997   -33683   -34348   -33252   -31122 
  -28946   -26792   -25495   -25745   -26460   -26576   -26275   -25813 
  -25248   -24967   -25497   -26857   -28204   -28996   -29897   -31164 
  -32129   -32968   -34427   -36503   -38880   -41065   -42458   -43251 
  -43766   -43549   -42494   -41153   -39691   -37988   -36122   -34247 
  -32700   -31870   -31556   -31084   -29792   -27285   -24553   -23883 
  -25711   -27691   -28267   -27887   -26657   -24696   -23230   -22666 
  -22665   -23560   -24595   -24344   -23693   -24137   -25477   -27437 
  -29786   -31338   -31577   -31558   -32257   -33539   -34973   -36584 
  -38209   -38719   -37393   -35465   -34340   -34029   -34590   -35977 
  -36642   -35444   -33377   -31431   -29666   -29055   -30600   -32767 
  -33255   -32411   -31925   -31911   -32018   -32440   -32208   -30392 
  -28310   -26802   -24774   -22704   -22623   -24150   -25283   -25818 
  -26243   -26291   -26753   -28537   -30270   -30807   -31324   -32527 
  -33658   -34779   -36334   -37711   -38713   -39532   -39018   -36624 
  -34101   -32901   -32910   -33605   -33964   -33537   -33551   -34122 
  -33647   -32261   -31172   -30103   -29082   -29078   -29599   -29799 
  -30461   -31973   -33410   -34486   -35020   -33691   -30537   -27791 
  -26484   -26085   -26887   -28815   -30139   -30342   -30807   -31308 
  -30370   -28718   -27876   -27586   -27422   -27390   -27076   -27126 
  -28583   -30395   -31097   -30857   -29986   -28371   -26703   -26041 
  -26780   -28926   -31721   -33547   -33747   -33190   -32953   -33572 
  -34632   -34985   -34405   -33710   -32824   -31405   -30548   -30928 
  -31542   -31722   -31432   -30239   -28496   -27546   -27568   -27646 
  -27718   -28099   -28457   -28933   -30255   -31940   -32513   -31622 
  -30331   -29584   -29311   -29012   -28819   -29422   -30764   -31810 
  -31672   -30259   -28820   -29098   -30844   -32788   -34816   -36410 
  -36828   -36839   -36489   -34735   -32788   -32840   -34113   -34158 
  -32960   -32414   -32496   -31852   -31046   -31005   -30774   -30301 
  -31428   -33785   -34674   -33758   -32734   -31946   -31823   -33514 
  -35559   -35482   -34039   -32879   -31806   -31339   -32540   -33925 
  -33627   -32254   -30443   -27999   -26038   -25645   -25919   -25761 
  -25469   -25810   -26757   -27678   -28159   -27793   -26675   -26286 
  -27365   -28529   -29022   -29423   -29488   -28973   -28857   -29433 
  -29851   -30149   -31102   -32454   -33117   -32591   -31891   -32627 
  -34570   -36278   -37495   -38117   -37632   -36892   -36743   -36304 
  -35318   -35108   -36350   -38229   -38991   -37470   -34613   -32053 
  -30606   -30775   -32337   -33752   -33538   -32192   -31324   -30938 
  -30096   -28859   -27271   -25253   -23967   -24323   -25188   -25003 
  -23751   -22369   -21616   -22021   -23434   -25190   -27366   -29610 
  -30534   -30411   -30261   -29496   -28716   -29788   -31570   -31854 
  -31587   -32097   -32416   -32149   -32396   -33311   -34125   -34645 
  -35289   -36243   -37064   -37763   -38748   -38949   -37695   -37125 
  -38199   -38680   -37777   -36285   -33402   -29661   -27855   -28022 
  -28100   -28050   -27977   -26551   -24109   -22827   -23241   -24199 
  -25350   -26467   -26501   -25885   -26595   -29066   -31911   -33645 
  -33781   -33217   -32294   -30667   -30197   -32295   -34426   -34698 
  -34199   -33132   -31299   -30227   -30402   -30136   -28832   -27945 
  -28018   -27913   -27544   -27894   -28750   -29446   -30237   -31531 
  -33274   -35373   -37708   -39393   -39384   -38520   -38744   -40205 
  -41764   -42768   -42153   -39147   -35576   -33685   -33162   -33258 
  -34137   -34660   -33403   -31249   -29209   -26956   -25325   -25267 
  -25050   -23249   -21321   -20438   -20522   -22140   -24789   -26208 
  -25920   -25711   -26247   -26590   -26466   -26717   -28238   -30702 
  -32505   -33319   -34372   -35587   -36448   -37596   -38485   -37785 
  -36421   -35957   -36068   -36219   -36748   -36903   -35383   -33333 
  -32596   -32536   -32879   -34501   -35564   -34202   -32034   -29693 
  -26373   -24275   -25241   -27109   -28313   -29192   -28839   -27168 
  -26496   -27929   -30400   -32846   -34569   -34934   -33878   -32528 
  -32513   -33764   -34573   -34243   -32985   -30967   -29773   -30446 
  -30587   -28763   -27282   -26816   -25771   -24917   -25096   -24688 
  -23672   -23808   -24833   -25810   -27124   -28859   -30762   -32716 
  -33612   -33011   -32459   -32620   -33055   -34203   -35781   -36516 
  -36524   -36662   -36581   -35260   -33016   -31779   -32381   -33599 
  -34488   -34642   -33343   -31072   -29249   -28034   -27214   -27479 
  -28787   -29843   -29919   -29368   -28787   -28525   -28773   -29947 
  -31765   -32598   -31757   -30420   -29449   -28770   -28314   -28210 
  -28473   -28803   -29691   -32074   -34011   -32607   -29135   -26239 
  -24380   -24090   -25832   -28573   -31086   -32410   -32306   -32035 
  -32622   -33173   -32501   -31428   -31396   -32056   -32948   -34317 
  -35040   -34867   -35741   -36927   -35831   -33640   -32888   -33483 
  -34986   -36737   -36466   -34001   -31799   -30141   -28169   -27228 
  -28240   -30137   -31503   -30687   -27341   -23762   -21813   -21573 
  -22863   -24938   -26963   -28796   -29824   -29707   -29148   -28544 
  -28397   -29431   -31000   -31972   -32557   -33284   -33727   -33906 
  -34680   -35382   -34775   -34044   -34343   -34640   -34617   -34646 
  -34078   -32889   -31517   -29854   -28523   -27731   -26468   -25321 
  -25441   -25451   -24194   -22920   -22191   -21566   -22045   -24170 
  -26265   -27260   -27847   -28541   -29521   -31049   -32429   -32815 
  -33118   -34769   -37671   -40758   -43147   -44261   -43881   -42393 
  -40539   -38908   -37702   -36588   -35299   -34366   -33801   -32657 
  -30901   -28891   -26470   -24453   -23784   -24076   -24554   -24194 
  -22436   -20699   -20747   -22667   -25643   -28573   -29997   -29659 
  -29010   -28850   -29119   -30190   -31469   -32041   -32799   -34013 
  -34247   -33390   -32896   -33554   -34307   -33628   -32296   -31895 
  -31830   -31588   -31970   -32017   -30092   -27433   -26138   -26231 
  -26968   -28219   -29712   -30708   -30907   -30518   -29726   -29202 
  -29659   -30423   -30383   -29654   -28879   -28355   -28375   -29054 
  -29637   -29020   -27207   -25681   -25671   -26377   -26443   -26180 
  -26088   -25379   -24025   -23324   -23273   -23171   -23893   -25520 
  -26221   -25420   -24275   -24194   -25924   -28142   -29031   -28771 
  -27760   -26198   -25573   -26194   -26624   -26643   -26561   -26027 
  -25661   -26718   -28902   -30658   -31408   -31605   -31215   -30536 
  -30800   -31949   -32686   -33332   -35248   -38049   -40029   -40585 
  -40646   -40625   -40001   -39775   -41171   -42507   -42842   -44113 
  -45835   -45505   -43679   -41725   -39568   -38393   -39210   -39984 
  -38446   -34886   -30757   -27208   -25155   -24999   -25863   -25652 
  -23055   -19165   -15837   -14159   -14758   -17236   -19825   -20939 
  -20716   -19775   -17984   -16968   -19245   -23429   -26730   -29601 
  -32286   -33050   -32941   -34951   -38513   -41423   -44162   -47016 
  -47792   -45873   -43548   -42243   -41666   -42221   -44469   -46304 
  -44865   -41354   -38822   -36936   -34548   -32845   -32018   -30584 
  -28614   -27216   -26136   -24439   -22751   -22498   -23101   -22822 
  -21585   -20456   -19972   -20193   -20996   -21897   -22074   -21438 
  -21046   -21226   -21280   -21424   -22391   -24143   -26175   -27435 
  -27189   -26882   -28187   -30339   -32110   -33460   -34277   -34543 
  -35129   -36578   -37952   -38423   -38794   -39106   -37758   -35307 
  -34391   -35284   -36113   -36084   -35434   -34195   -33231   -34303 
  -36943   -38459   -38289   -38129   -38351   -38563   -39472   -40812 
  -40698   -38876   -36588   -33727   -30254   -27715   -26562   -25595 
  -24496   -23760   -23281   -22944   -22983   -23059   -22665   -22046 
  -21408   -20511   -19820   -20347   -21935   -23276   -23992   -24865 
  -25501   -24777   -23517   -23246   -23935   -25059   -26607   -28335 
  -29384   -29215   -28101   -26103   -23351   -20911   -19223   -17935 
  -17636   -18308   -18414   -17635   -17029   -16779   -16161   -14900 
  -13584   -12499   -11523   -11588   -13359   -15603   -17515   -19605 
  -21559   -22518   -22505   -22014   -21436   -21034   -21364   -22997 
  -25425   -28185   -31495   -34431   -36372   -38322   -39614   -38840 
  -37446   -37118   -37849   -39715   -41585   -41049   -38224   -35478 
  -34048   -33514   -32552   -30285   -27741   -26463   -27021   -29085 
  -31153   -32207   -33213   -34500   -34700   -33676   -33012   -33761 
  -36144   -39948   -43804   -45950   -46305   -46348   -46863   -47207 
  -47007   -46807   -46989   -47206   -46616   -44829   -42112   -38426 
  -34585   -32720   -32700   -31986   -30035   -27922   -25401   -22671 
  -21021   -19622   -17112   -15240   -15518   -16476   -17247   -18049 
  -17350   -14088   -10140    -7276    -5538    -5390    -7584   -11333 
  -15087   -18005   -19474   -19428   -19941   -22928   -27154   -31082 
  -34919   -38337   -41252   -45169   -49911   -53070   -54299   -55012 
  -54522   -51909   -49041   -47423   -46289   -45618   -45576   -43545 
  -37342   -29433   -23435   -20069   -19495   -21518   -23344   -23553 
  -24227   -25769   -26007   -24447   -22701   -21880   -21963   -23157 
  -25474   -27339   -27340   -26217   -24943   -22962   -20555   -19950 
  -21766   -24369   -26991   -29022   -29306   -28725   -28846   -29889 
  -33002   -38979   -45072   -47995   -47326   -44399   -41274   -40717 
  -44489   -51371   -57973   -61609   -61794   -59327   -55421   -51502 
  -48669   -47273   -46768   -45637   -42570   -38231   -34510   -32382 
  -31600   -30876   -28414   -24181   -20104   -17312   -16157   -17711 
  -21678   -25961   -30094   -35035   -40447   -45866   -52360   -60201 
  -67503   -73704   -80380   -87003   -92023   -96190   -99054   -99133 
  -97695   -94982   -89246   -81227   -73243   -66370   -59795   -52512 
  -45546   -39620   -33351   -26044   -18155    -9394     -108     7473 
   12555    17378    22831    27352    31171    35548    39592    42281 
   43890    44249    42751    39389    34836    29926    24790    19180 
   13178     6548    -1073    -9117   -16778   -24018   -30868   -36794 
  -41673   -45983   -49287   -50730   -50935   -50626   -49446   -48290 
  -48558   -48730   -46479   -42254   -37453   -32787   -29150   -26586 
  -24460   -23539   -24580   -26458   -27598   -27172   -24938   -21736 
  -19415   -19029   -20008   -21296   -22304   -22752   -22230   -20652 
  -19027   -18555   -18767   -18062   -16532   -15974   -16436   -16233 
  -15637   -16252   -17746   -18762   -19378   -20634   -22612   -24574 
  -26904   -30674   -35026   -37914   -39197   -39908   -39995   -39374 
  -38783   -38301   -37315   -35496   -32553   -28408   -23872   -20369 
  -18878   -18626   -17826   -15788   -12521    -8475    -5795    -6055 
   -7970    -9958   -11880   -13266   -13128   -12500   -13718   -16396 
  -19079   -22972   -28111   -31383   -32266   -33316   -35114   -37260 
  -41302   -47912   -54296   -57477   -57704   -56502   -54603   -53402 
  -53730   -53462   -51135   -48386   -45702   -41994   -38039   -34368 
  -30069   -25905   -23041   -20765   -18514   -16817   -16143   -16331 
  -17026   -18413   -20730   -24052   -28905   -35150   -40818   -43621 
  -43272   -41686   -40974   -41884   -44456   -48555   -52890   -55772 
  -57311   -58778   -60525   -62089   -63237   -63779   -63097   -61102 
  -59197   -58556   -58380   -57842   -57700   -58010   -57581   -56777 
  -56948   -57749   -58049   -57699   -57382   -58221   -60785   -64152 
  -66840   -67719   -66161   -62934   -60028   -58218   -56314   -53538 
  -50594   -48000   -45386   -42670   -40135   -37285   -33379   -29030 
  -25468   -22838   -20610   -18679   -17713   -18526   -20637   -22729 
  -24309   -25046   -24407   -23405   -23525   -24225   -24849   -25968 
  -27222   -28574   -31808   -37048   -42098   -45997   -49013   -50621 
  -50351   -48714   -46616   -45123   -44583   -43593   -40678   -36388 
  -32250   -28807   -25743   -23071   -21142   -19514   -17411   -15348 
  -14155   -13641   -13644   -14450   -15773   -16135   -14301   -11621 
  -10097    -9281    -8590    -9098   -10980   -13319   -16113   -19539 
  -22634   -24407   -25645   -28143   -32084   -36184   -39790   -42798 
  -45019   -46512   -47640   -48848   -49934   -50318   -50623   -51630 
  -52323   -51320   -48448   -44346   -40573   -38709   -38550   -38940 
  -38718   -36163   -30835   -24843   -19531   -13888    -7752    -2708 
     834     3750     5618     5551     4436     3188     1238    -1466 
   -4290    -7626   -11987   -16836   -21691   -26565   -31113   -35148 
  -39161   -43364   -47666   -51759   -54471   -55156   -54815   -54315 
  -53416   -51954   -50555   -49680   -48590   -46778   -45058   -43339 
  -40403   -36530   -32531   -28170   -24285   -22325   -21483   -20187 
  -18568   -16876   -14397   -11752   -10686   -11007   -11689   -13098 
  -15243   -17274   -19092   -20890   -22742   -24802   -26088   -25468 
  -24307   -24740   -26776   -29399   -31909   -33667   -34233   -33394 
  -30939   -27198   -23547   -20950   -18526   -15473   -12134    -8252 
   -3995    -1181     -594    -1371    -2779    -3925    -4282    -4883 
   -6819   -10241   -15539   -23213   -32239   -40215   -45653   -49109 
  -52121   -55941   -60752   -65480   -68586   -68855   -65526   -58977 
  -51462   -45816   -43568   -44194   -45045   -43534   -39698   -35153 
  -31314   -28891   -27463   -26377   -25648   -25142   -24705   -25547 
  -29158   -34650   -39855   -43659   -45227   -44867   -45485   -48809 
  -53354   -58149   -63214   -66822   -67316   -66206   -66145   -67536 
  -69057   -69584   -68434   -65053   -59324   -52795   -47997   -44673 
  -40236   -34436   -28467   -22246   -16687   -13653   -12302   -10371 
   -8034    -6837    -6928    -7713    -9105   -10799   -11899   -12141 
  -12508   -13726   -15459   -17447   -19676   -22044   -24774   -27779 
  -30403   -32678   -34872   -36024   -35014   -32342   -29442   -27077 
  -25463   -24912   -25125   -25058   -24337   -23490   -22730   -21874 
  -21389   -22246   -24268   -25960   -26644   -26990   -27266   -27377 
  -27871   -28581   -28435   -27799   -27676   -27173   -25313   -23169 
  -21514   -19799   -18466   -18325   -18622   -18628   -18595   -18381 
  -18014   -18616   -20727   -23327   -25356   -26507   -26586   -25985 
  -26186   -27889   -30024   -31931   -34105   -36517   -38839   -41295 
  -43705   -45424   -46491   -47576   -48930   -49922   -50340   -51522 
  -54223   -56867   -58122   -58365   -57283   -54404   -51851   -51575 
  -51899   -50979   -49729   -48592   -46106   -42047   -37938   -34292 
  -30225   -25299   -20119   -15485   -11771    -9090    -7276    -5592 
   -3273     -238     2946     5276     5845     4461     1732    -1458 
   -4897    -8750   -12509   -16239   -21283   -27534   -33396   -38932 
  -44745   -49345   -51071   -50625   -50037   -50247   -50497   -49965 
  -48867   -47201   -44323   -41032   -38942   -37556   -35629   -33328 
  -30626   -27126   -23707   -21354   -19736   -18214   -16560   -14562 
  -11751    -7578    -2640     1245     3377     4397     4509     4031 
    3896     4039     3306      845    -3720   -10109   -17099   -23932 
  -30846   -37455   -42873   -47298   -51394   -54830   -56793   -57502 
  -58296   -59977   -62190   -64642   -67076   -68329   -67768   -66735 
  -66196   -65277   -63903   -63146   -62691   -61723   -60736   -59673 
  -56826   -51508   -45146   -39001   -33195   -27803   -23018   -18654 
  -14707   -11828   -10207    -8904    -7395    -6382    -6106    -5634 
   -4508    -3428    -3130    -4216    -7411   -12314   -16978   -20053 
  -22155   -24542   -27693   -31178   -34608   -38671   -43834   -48806 
  -52655   -56470   -61011   -65264   -68384   -70948   -73102   -73341 
  -71129   -68457   -66938   -66024   -64802   -63117   -60698   -56775 
