Origin Time       2016/04/16 01:25:00
Lat.              32.753
Long.             130.762
Depth. (km)       12
Mag.              7.3
Station Code      SAG008
Station Lat.      33.1038
Station Long.     130.0996
Station Height(m) 7
Record Time       2016/04/16 01:25:18
Sampling Freq(Hz) 100Hz
Duration Time(s)  177
Dir.              E-W
Scale Factor      3920(gal)/6182761
Max. Acc. (gal)   69.315
Last Correction   2016/04/16 01:25:18
Memo.             
[...]
  -18518   -18540   -18539   -18515   -18490   -18502   -18533   -18538 
  -18520   -18503   -18507   -18529   -18536   -18520   -18505   -18506 
  -18515   -18527   -18535   -18528   -18520   -18510   -18496   -18507 
  -18536   -18543   -18532   -18512   -18496   -18505   -18526   -18534 
  -18525   -18504   -18495   -18521   -18554   -18544   -18504   -18481 
  -18493   -18532   -18560   -18540   -18503   -18503   -18523   -18524 
  -18503   -18505   -18541   -18545   -18508   -18496   -18510   -18524 
  -18535   -18529   -18518   -18516   -18516   -18518   -18518   -18512 
  -18513   -18533   -18544   -18513   -18487   -18511   -18539   -18534 
  -18515   -18499   -18504   -18537   -18549   -18520   -18499   -18507 
  -18520   -18529   -18530   -18524   -18512   -18501   -18511   -18529 
  -18531   -18530   -18525   -18507   -18504   -18521   -18525   -18521 
  -18518   -18513   -18519   -18531   -18523   -18511   -18510   -18516 
  -18534   -18537   -18502   -18493   -18525   -18535   -18526   -18516 
  -18507   -18519   -18527   -18515   -18512   -18520   -18525   -18520 
  -18508   -18512   -18524   -18523   -18526   -18530   -18509   -18502 
  -18526   -18530   -18519   -18523   -18519   -18514   -18525   -18531 
  -18526   -18538   -18558   -18554   -18544   -18565   -18595   -18602 
  -18608   -18635   -18661   -18677   -18696   -18714   -18734   -18762 
  -18787   -18816   -18855   -18883   -18896   -18921   -18964   -18998 
  -19008   -19006   -18991   -18944   -18912   -18957   -19019   -19022 
  -18977   -18884   -18732   -18569   -18454   -18396   -18388   -18437 
  -18517   -18556   -18486   -18330   -18211   -18219   -18329   -18412 
  -18324   -18055   -17723   -17415   -17144   -16911   -16773   -16818 
  -16967   -16976   -16770   -16587   -16717   -17169   -17635   -17884 
  -18077   -18593   -19575   -20721   -21616   -22083   -22080   -21649 
  -21054   -20530   -19938   -19017   -17836   -16713   -15891   -15558 
  -15914   -16861   -17795   -18000   -17227   -16116   -15961   -17375 
  -19367   -20457   -20219   -19293   -18561   -18587   -19581   -21289 
  -22556   -22231   -20840   -19804   -19615   -19959   -20388   -20458 
  -19913   -18696   -17166   -16086   -15898   -16450   -17112   -17363 
  -17555   -18030   -18257   -17779   -16932   -16529   -17047   -18015 
  -18745   -18907   -18229   -17107   -16833   -18065   -20139   -21961 
  -22823   -22819   -22553   -22332   -22106   -21790   -21190   -20110 
  -18706   -17491   -17155   -17864   -18497   -17869   -16508   -15781 
  -15954   -16253   -16135   -15818   -15806   -16347   -17500   -19343 
  -21456   -22698   -22662   -22435   -22935   -23978   -25068   -25608 
  -25112   -23841   -22112   -19781   -17480   -16352   -16051   -15396 
  -14476   -14038   -14213   -14656   -14764   -14199   -13134   -11743 
  -10676   -11082   -12793   -14228   -14574   -14494   -15015   -16106 
  -16528   -15929   -15655   -16908   -19869   -23820   -26945   -27454 
  -25106   -21052   -17190   -15627   -17300   -20855   -23583   -23473 
  -20701   -17478   -15934   -16473   -18086   -19097   -18423   -16836 
  -15858   -15774   -15959   -16177   -16614   -17329   -18238   -19404 
  -20553   -21042   -20988   -20763   -20240   -19930   -20680   -22172 
  -23339   -23631   -23205   -22308   -21492   -21863   -23461   -24432 
  -22986   -19081   -14130   -10414   -10022   -12258   -13533   -11885 
   -9317    -8896   -11924   -17261   -22154   -24494   -24204   -22818 
  -22275   -23217   -24292   -23802   -21768   -19881   -19539   -20305 
  -20474   -18953   -16029   -12818   -11336   -13366   -17643   -20998 
  -21778   -20385   -19633   -22536   -27044   -28469   -25884   -21070 
  -15981   -12965   -13058   -15031   -16847   -16392   -13089    -9440 
   -8349    -9799   -12154   -14958   -18436   -21583   -22751   -22363 
  -23132   -26033   -29090   -30929   -31203   -29457   -26868   -24901 
  -22417   -18014   -12494    -7529    -4250    -3203    -4582    -7227 
   -8748    -8617    -8391    -8962   -11285   -16815   -23632   -26832 
  -25126   -22405   -22868   -27463   -33238   -36021   -33859   -27387 
  -20400   -17290   -16899   -16033   -15693   -15863   -13789   -10916 
  -10720   -12336   -13660   -15050   -17230   -20147   -23530   -26094 
  -26111   -24377   -23615   -23682   -22009   -18909   -16263   -13313 
   -9490    -6984    -7021    -8236    -9376   -10084   -10591   -12059 
  -15146   -19369   -23820   -26954   -28616   -30871   -33712   -34823 
  -33640   -30782   -27025   -24269   -23301   -22245   -19156   -14241 
   -9482    -6268    -4082    -3007    -5237   -11263   -17189   -19229 
  -18463   -18714   -22034   -27009   -30346   -30162   -27141   -22688 
  -18240   -16202   -17919   -20718   -20825   -18168   -15193   -13603 
  -13820   -14577   -13635   -10580    -7273    -6359    -9514   -14985 
  -19079   -20619   -20584   -19673   -18610   -18182   -18477   -18859 
  -18858   -19674   -22564   -25544   -25562   -22451   -18279   -15579 
  -15782   -17217   -17179   -16213   -17022   -20131   -23799   -26895 
  -28309   -25979   -20814   -17614   -19175   -23422   -26559   -26762 
  -25051   -23080   -20804   -17435   -14207   -13200   -13847   -14709 
  -16251   -18746   -20986   -21126   -17973   -14162   -14600   -19704 
  -25123   -27536   -26614   -22876   -17853   -15221   -17116   -20921 
  -22204   -19251   -14424   -11264   -10920   -12010   -12628   -12056 
  -10399    -7572    -5214    -6958   -13795   -22734   -30538   -35340 
  -36055   -33083   -28846   -25341   -21398   -15562   -10363    -9113 
  -10712   -11807   -11404   -10125    -7770    -5271    -6571   -13774 
  -22126   -25443   -24267   -22840   -22687   -23960   -26949   -30843 
  -35111   -39161   -40067   -35533   -27321   -17656    -6403     5063 
   12458    12524     5984    -2417    -8125   -11021   -13249   -15838 
  -19734   -26795   -35207   -38141   -33083   -25296   -20071   -18643 
  -19171   -19030   -17513   -16032   -15902   -16287   -15969   -15768 
  -16775   -18889   -21417   -24475   -29341   -33636   -31695   -24112 
  -16769   -12757   -13888   -20989   -28719   -28702   -19709    -8854 
    -746     5337     7846     6102     4043     1250    -5772   -13220 
  -15587   -15186   -17611   -24908   -35193   -44376   -47901   -42944 
  -32970   -27076   -29068   -34367   -37268   -34005   -26373   -21568 
  -21286   -19849   -13429    -2954     6614     8343       11   -13327 
  -23165   -23232   -14981    -6499    -5643   -14387   -27434   -36974 
  -38006   -30649   -21613   -18941   -23365   -28875   -30351   -27797 
  -22929   -16788   -12096   -10667   -10322    -9163    -8322    -9632 
  -14164   -20832   -25149   -23753   -18656   -13639   -11081   -12952 
  -19370   -26373   -28820   -25541   -18853   -10682    -3424     -194 
    -869    -3466    -7454   -11424   -13428   -13983   -13855   -13339 
  -15979   -25098   -35947   -40470   -38529   -35259   -32375   -30245 
  -30765   -33168   -34107   -31678   -25770   -18171   -11842    -7765 
   -4929    -2688    -1221      115     2868     5753     4236    -2523 
   -9020   -11801   -13848   -18079   -24313   -30445   -32912   -31157 
  -28701   -28033   -29418   -32542   -35887   -35420   -28513   -19933 
  -16349   -17285   -18025   -15735   -11560   -10282   -13796   -16665 
  -14001    -7905    -2734     -885    -2593    -5952    -8528    -9108 
   -9143   -12731   -22119   -33465   -39738   -37803   -30817   -24698 
  -22480   -21102   -16791   -12416   -14028   -21476   -27380   -26353 
  -20909   -16344   -15889   -20299   -24872   -22852   -15928   -10722 
   -8535    -8786   -12349   -17128   -20438   -22617   -23188   -20801 
  -17496   -16131   -15665   -14600   -14681   -15631   -13533    -8110 
   -3981    -4893   -10663   -17904   -24161   -30229   -34914   -33502 
  -26329   -20919   -21503   -24162   -25540   -27943   -32888   -36761 
  -35006   -27856   -19578   -13090    -9207    -8360    -9872   -11829 
  -11586    -7371    -1546      340    -4129   -11386   -16458   -17690 
  -16247   -13135    -8920    -5868    -6177    -9823   -17787   -29317 
  -36960   -36013   -30104   -22620   -16585   -15887   -17903   -17408 
  -14630   -12471   -13644   -17693   -19950   -18891   -17188   -17254 
  -20947   -26485   -30004   -31492   -31207   -27930   -22984   -19313 
  -19075   -22019   -25599   -27464   -26246   -22507   -17447   -10241 
   -3595    -4704   -13232   -20842   -24173   -26156   -27685   -27019 
  -25031   -24717   -26250   -26847   -25075   -22389   -19843   -17199 
  -16151   -17792   -19341   -19108   -16723    -9594      534     6711 
    7242     4525    -1522   -10065   -18509   -24939   -26164   -20166 
  -11293    -6935   -10050   -18336   -27559   -31758   -27045   -18322 
  -12664    -9843    -8898   -12750   -20417   -26239   -26979   -23056 
  -16344   -10359    -8601   -10860   -14538   -18294   -20844   -19795 
  -16309   -16420   -23289   -32762   -37730   -34484   -26046   -18609 
  -15370   -14989   -14273   -12334   -10906   -11372   -14480   -19683 
  -24069   -25601   -24146   -19392   -13344   -10840   -13092   -15385 
  -13828   -10874   -11282   -16055   -23003   -29118   -31569   -29338 
  -23488   -16236   -10906   -10186   -12937   -15134   -14344   -10788 
   -6825    -7246   -13013   -17745   -18685   -20549   -24069   -25961 
  -28680   -34274   -35208   -26159   -15109   -12051   -17224   -23489 
  -23439   -16952   -11227   -10857   -13712   -16864   -20053   -22761 
  -21956   -15753    -8727    -8189   -14060   -19770   -22778   -25364 
  -27264   -25612   -20502   -15861   -13667   -11039    -7089    -6534 
  -11570   -17741   -21220   -22852   -24071   -25094   -25818   -25142 
  -22643   -20715   -21184   -21894   -20000   -16430   -14270   -14373 
  -15234   -16885   -20659   -24285   -23845   -19779   -15075   -12322 
  -13622   -17526   -20185   -20921   -20776   -19610   -18296   -18512 
  -20247   -22260   -23642   -24305   -24392   -23417   -20241   -14683 
   -9080    -6211    -6554    -9147   -12561   -14602   -13608    -9997 
   -5947    -4518    -7852   -13987   -18300   -19292   -18744   -18288 
  -19581   -23502   -27559   -28686   -27332   -24786   -21650   -20541 
  -23393   -28087   -31181   -30998   -28522   -26061   -25094   -25139 
  -23133   -18006   -14770   -16284   -17180   -13446    -8959    -7663 
   -8029    -8487   -10910   -15603   -18468   -16452   -12375   -11136 
  -13963   -18863   -22594   -22466   -19544   -15693    -9969    -4299 
   -4882   -13646   -25117   -32629   -34544   -33642   -31896   -29519 
  -27812   -28017   -28852   -27877   -24616   -20990   -17382   -11737 
   -4767    -1097    -3467    -9662   -16081   -20158   -20470   -19597 
  -22528   -29708   -37412   -43179   -45856   -43605   -34838   -21116 
   -8884    -3288    -1630     -120      632     1360     3728     5034 
    1842    -6079   -17332   -28179   -33007   -30333   -25044   -22509 
  -23486   -26752   -32488   -38932   -41255   -37922   -31646   -24474 
  -18171   -14092   -11430   -10771   -13808   -18453   -19948   -15938 
   -9254    -4031     -647     1763     2633      103    -8467   -21346 
  -31465   -35391   -36575   -38906   -43255   -47924   -49773   -47838 
  -44176   -40522   -37477   -36153   -36896   -34832   -23723    -6943 
    6362    13030    15107    16155    19608    24557    26740    23767 
   15998     4752    -8076   -19917   -28399   -32280   -33158   -35218 
  -38235   -37023   -31740   -26371   -21123   -16576   -14214   -12321 
   -9702    -7703    -7564    -9473   -13018   -17328   -19166   -15396 
  -10089    -9873   -14279   -20511   -28872   -37665   -42913   -43779 
  -42564   -41264   -39866   -37912   -36431   -35644   -33994   -31234 
  -27665   -22815   -18331   -16828   -16511   -12222    -2285    10000 
   20517    26558    26783    20865    10457      810    -2705     -391 
    3046     2973    -3173   -13221   -22440   -28803   -30605   -26692 
  -22094   -24228   -34778   -49074   -60535   -64739   -60287   -48378 
  -33447   -20916   -14091   -14838   -20719   -22759   -16197    -7942 
   -5123    -5571    -5350    -6017   -11711   -23762   -37241   -45828 
  -49251   -49933   -48769   -46525   -43842   -42305   -43272   -43055 
  -37029   -25966   -11676     3919    14082    14357    10194     9611 
   15412    25604    35987    42790    42821    33483    16604    -1204 
  -15817   -29317   -42475   -50975   -53553   -53177   -51758   -52220 
  -56879   -62183   -61996   -53348   -39544   -28524   -24634   -24303 
  -21348   -12953    -1145     8606    12798    12757     9311     2529 
   -3230    -4308    -3552    -4412    -6093    -7467   -10469   -16965 
  -23354   -24056   -20003   -14416    -6090     3801     9496     9515 
    6590     1194    -6737   -13861   -16728   -16877   -18811   -23518 
  -26754   -24306   -17874   -13347   -12576   -11435    -7265    -1401 
    5309    11667    14227    12635    10441     8304     3775    -4996 
  -18552   -32480   -37706   -31529   -21620   -15209   -13486   -16583 
  -24058   -31156   -30998   -23081   -16798   -21452   -35162   -47529 
  -50114   -40357   -20125     3595    22727    34938    40235    38225 
   34242    33909    31858    20894     3716   -13775   -29186   -40645 
  -45936   -47051   -48946   -52830   -57096   -59757   -57461   -49878 
  -40863   -31562   -18928    -1654    16630    31267    39696    39727 
   30939    15979    -3055   -24427   -45240   -64696   -84068  -103030 
 -118982  -127845  -125891  -112075   -88099   -59172   -33294   -13527 
    4295    22137    37860    50360    56256    51148    37260    19037 
   -2149   -23613   -41525   -54079   -60068   -59700   -56119   -51522 
  -42795   -25389    -1864    20751    38972    50305    51053    40682 
   21994     -844   -21944   -36419   -44911   -50675   -52951   -49662 
  -44228   -42179   -45415   -53902   -63883   -67165   -61870   -54770 
  -50708   -49552   -49414   -48311   -44720   -35770   -19387      852 
   18861    30143    32604    29833    28802    32764    41174    50962 
   55773    50868    37819    21182     3847   -13463   -29848   -42048 
  -46940   -46943   -48830   -55387   -62423   -65552   -64403   -58493 
  -46247   -32609   -28904   -38370   -52177   -60120   -54655   -32898 
   -1338    27326    42571    42120    29461     7755   -16739   -34464 
  -43084   -47933   -53977   -62408   -69343   -70757   -69100   -68923 
  -71647   -77273   -85231   -93152   -96565   -92178   -80664   -63763 
  -43764   -24251    -7151     5914    12713    15484    19795    26886 
   33804    39464    43874    45314    44042    43604    44866    43048 
   32827    13330   -12698   -39912   -61007   -72369   -77512   -80240 
  -77717   -66372   -49837   -34198   -21156    -8809     4564    17575 
   26376    27326    19715     8294     -523    -5395    -8047    -8035 
   -3976     3578    12872    20801    21059     9360   -10626   -32364 
  -52180   -68262   -77106   -73829   -59892   -43523   -29804   -19192 
  -11453    -4469     3882    12078    17481    18767    15984    11926 
   10367    11250    12194    12640     9913    -1064   -18426   -34103 
  -43843   -49240   -50739   -44409   -31070   -18679   -12062   -12374 
  -18326   -23267   -24690   -28690   -37239   -46278   -55117   -62934 
  -64370   -57340   -44824   -29687   -13798     3234    21825    36494 
   40642    33828    19203     2050   -10401   -15928   -19509   -24837 
  -32235   -43250   -56023   -65169   -71608   -80111   -89839   -94806 
  -90544   -76665   -55302   -31647    -9491    13983    38742    57834 
   68293    69864    61071    46910    35013    26898    20788    14517 
    6166    -5651   -20508   -33185   -39503   -42625   -47625   -56574 
  -67311   -75291   -79283   -78775   -71042   -58505   -48393   -41877 
  -34176   -24897   -17698   -12127    -6124    -1662     -279     -110 
    1180     4936     9123    10398    10776    14069    18563    18968 
   12391      915   -13460   -31569   -49137   -57725   -57172   -54226 
  -51526   -47379   -41010   -33238   -25202   -17880   -12904   -12848 
  -18861   -29302   -41986   -54853   -63766   -65024   -60310   -54370 
  -50546   -50064   -51605   -52383   -50775   -46443   -39470   -31027 
  -22259   -11877     1555    16019    26885    29403    22443    11884 
    6112     7794    12601    14310     9918      520   -11116   -22398 
  -31697   -38187   -42060   -45368   -48511   -47949   -42351   -34606 
  -26058   -16930    -9586    -5704    -5081    -6537    -6374    -2078 
    2366     1789    -2934    -8734   -16334   -27143   -39184   -48860 
  -53895   -54481   -50743   -41460   -28071   -14658    -4879    -1259 
   -2555    -5073    -9198   -18433   -32694   -47048   -55581   -54429 
  -44203   -31087   -21152   -15801   -14527   -13596    -6735     5201 
   16827    28915    42585    52685    55673    53048    46726    37939 
   27412    15312     2013   -12101   -26028   -37406   -43082   -41377 
  -34625   -26015   -16681    -9925   -10989   -19722   -29415   -34398 
  -35035   -34833   -36458   -40693   -47114   -54173   -59146   -59717 
  -55047   -47949   -45311   -50113   -56842   -59748   -58167   -51325 
  -37645   -20777    -7392      568     4182     2643    -3479    -9500 
  -11627   -11861   -15008   -22614   -32245   -40187   -43855   -43461 
  -40358   -35083   -29235   -25220   -23135   -21208   -17577   -11351 
   -3268     5198    11632    13990    12674     7557    -2125   -13277 
  -21675   -27749   -33973   -40340   -46526   -53586   -59654   -59051 
  -49630   -35182   -18302      -21    14422    20077    18276    12684 
    6376     1994    -1149    -7170   -17988   -29966   -37168   -37165 
  -33779   -32608   -33650   -32586   -27585   -19317    -9002     -280 
    3355     3657     4473     6089     8081    12020    16536    16892 
   11997     5088    -2597   -11475   -18547   -21405   -22952   -25304 
  -27146   -28500   -30536   -33423   -37226   -41974   -46169   -47547 
  -46046   -43086   -38933   -33186   -26219   -19212   -12577    -5278 
    3075    10691    14980    15607    14909    14801    15761    17124 
   16926    15004    13343    10753     4329    -4534   -13151   -22149 
  -31994   -40421   -45492   -47473   -48250   -50764   -56659   -62972 
  -64277   -58358   -46699   -33377   -24474   -22173   -22568   -21933 
  -19358   -15909   -14993   -18556   -23808   -27204   -27444   -25074 
  -22767   -22677   -24465   -27909   -32495   -35971   -37980   -40803 
  -44932   -48941   -51582   -50202   -42455   -31093   -21567   -16374 
  -14500   -13105    -8903     -330    10658    20085    25456    25661 
   20349    12670     6945     3384      383    -2399    -5013    -6839 
   -6884    -5713    -4621    -3890    -4354    -7776   -12651   -13855 
   -9512    -4288    -3676    -8495   -16236   -23803   -28744   -31495 
  -34830   -39466   -44147   -48713   -52511   -53679   -51726   -46796 
  -38254   -26201   -13007    -2047     5887    12100    16485    18180 
   16486    10431     1524    -6222   -11899   -17813   -23711   -27484 
  -29210   -29127   -25655   -18560   -11014    -6802    -5901    -4614 
    -494     5148     8850     7364      153    -9839   -19159   -26641 
  -32424   -35866   -36606   -36819   -38542   -40152   -40042   -39825 
  -39989   -38249   -34971   -34190   -37843   -43002   -44551   -39471 
