Origin Time       2016/04/16 01:25:00
Lat.              32.753
Long.             130.762
Depth. (km)       12
Mag.              7.3
Station Code      SAG005
Station Lat.      33.3213
Station Long.     130.0643
Station Height(m) 48
Record Time       2016/04/16 01:25:21
Sampling Freq(Hz) 100Hz
Duration Time(s)  107
Dir.              N-S
Scale Factor      3920(gal)/6182761
Max. Acc. (gal)   55.013
Last Correction   2016/04/16 01:25:21
Memo.             
[...]
   31037    35379    36517    31843    22941    17093    18887    26194 
   32282    32356    29596    27452    26599    28176    29468    29079 
   29354    26874    19911    16435    20667    27086    31064    33209 
   32746    28521    25976    27527    27527    25745    24705    23525 
   24697    28537    30572    30381    29995    29285    27331    26848 
   30681    32250    25998    18004    15315    21863    33976    36651 
   26914    20939    26273    33641    33647    28670    27698    29297 
   26611    23067    22062    23424    29911    35699    32330    25605 
   23215    23188    23638    27830    33630    31433    23572    23012 
   27329    27380    28560    33034    31624    25982    25327    27431 
   26824    27009    31118    35282    35722    31675    24595    19154 
   20344    26958    30497    26965    22573    22227    26691    33919 
   35164    28542    23438    22133    22625    25702    27567    25945 
   24212    25141    29045    33114    34456    31160    24888    22574 
   23460    22934    25060    29572    30934    31613    34783    35445 
   28801    21541    23001    29476    32419    29888    24354    20923 
   22918    27752    30822    30450    29408    29113    25458    19757 
   21291    30355    36326    33596    27558    25542    26476    25568 
   22770    20949    23354    28121    27990    24055    25020    32153 
   39528    40962    34329    25144    18556    14950    15879    21259 
   27314    30478    29937    29343    31664    34729    35076    32427 
   29390    25846    20871    18842    21857    26500    31303    34425 
   32976    28634    25123    24072    24470    26125    30250    33224 
   31900    28815    25405    24250    28535    34640    37203    33723 
   24415    15927    17498    28583    38388    39224    31506    20408 
   13790    15569    21401    25282    27497    31027    33288    30772 
   26327    25539    29611    32745    30272    25879    23602    21862 
   20948    24720    31777    34603    30046    24722    24581    27006 
   27339    23003    17296    19424    29261    35325    32559    27796 
   28357    31929    31504    28460    29490    32531    29521    20776 
   15846    19738    26419    30366    32642    31950    26634    21438 
   20128    22459    28582    36286    38810    31858    21863    19129 
   22205    25465    32155    38811    34371    23506    17534    17219 
   21513    29457    35993    34512    24668    18747    22302    25624 
   27480    32089    34348    30898    24603    18677    15990    18487 
   26882    37480    41141    33275    20409    13793    19075    31821 
   42254    42059    30065    15329     9994    16801    27391    34183 
   35103    29612    22138    20222    26354    35740    39129    34102 
   27405    23427    21993    21661    22634    26365    28819    25412 
   20829    23275    31510    34184    28369    24882    26786    26976 
   24690    24138    26680    31340    36530    37704    30677    23425 
   26478    33347    32409    24482    16485    13711    19392    28956 
   32376    29993    30770    36129    37220    26183    10475     5808 
   15400    30419    38817    34737    26732    23354    25058    32027 
   37474    32502    22990    18867    19282    21106    26785    35486 
   39567    36134    27961    17797    13172    21042    35200    41440 
   34559    26076    26916    31894    34494    33049    25511    21037 
   27558    32711    28767    23580    20994    20966    25036    31782 
   33763    24664    15083    19506    31133    36005    31907    25279 
   23103    24290    25282    28595    36093    41650    36452    25033 
   19576    19786    22041    26578    28529    25394    22357    24050 
   29323    33342    35699    36817    30735    20849    19267    23385 
   26684    30672    32604    31389    29464    25660    23108    24760 
   26556    26105    24589    25356    28716    27001    21011    22598 
   31866    38554    36283    25723    18535    24585    36158    41465 
   36683    24702    15090    14777    20366    25885    31108    34896 
   30276    21254    21273    26360    23993    19252    23143    33586 
   40110    33975    19745    15155    25745    35167    30169    19046 
   17167    24692    31683    34026    33678    33903    33863    29568 
   24291    23487    25162    26811    27722    26647    24967    23643 
   22005    23097    29616    35841    33727    25970    22969    26680 
   28327    23618    18892    19359    22669    26060    30193    33669 
   32944    30518    29167    25002    20646    23091    27790    28335 
   27284    27220    28390    31264    32831    31422    30623    29843 
   24896    18233    16804    23650    32718    32645    21959    13298 
   17091    28556    35157    32827    28227    28700    34087    35363 
   25994    13795    12966    26618    40123    36679    22227    15738 
   19515    25908    33133    38569    37644    27923    13702     9829 
   22588    38384    43290    33562    16679     8947    16912    30465 
   36679    34125    30344    26212    21480    23121    30512    34856 
   33073    27743    21920    18843    21642    28170    32078    31266 
   27303    24122    23511    20875    19231    26930    40021    45434 
   34063    16981    16470    30800    40172    35120    21187    14004 
   18192    21965    24015    28428    30636    30802    30087    26075 
   23038    26015    33061    35616    27070    16533    16151    25620 
   37382    39435    30453    23660    24100    30185    35457    28851 
   19403    21093    25724    25747    25000    25163    26839    31188 
   34137    27692    17297    21508    36384    38488    27510    19965 
   19425    21849    26066    29606    28508    24503    24939    30102 
   33230    35170    37162    33992    27979    24021    21557    21588 
   22140    20520    23030    32195    36943    26975     9572     6620 
   24921    42491    43139    34432    23509    17281    25376    36558 
   35600    27635    19927    15628    16597    22659    33164    36857 
   27138    19349    22799    28430    28708    25558    25948    30217 
   29294    23429    23786    30720    33944    29677    24658    26545 
   31135    28928    22864    23815    33366    38699    31278    21663 
   18289    18188    22136    28831    32722    33319    30760    26409 
   25048    29326    36124    37275    31406    26069    24571    24649 
   21999    17579    21241    31494    33235    24743    20191    25883 
   31655    30223    28126    29340    29697    27822    26017    25281 
   25595    27948    29781    25932    19596    17975    21996    28639 
   34187    36642    35281    30160    25749    25040    26984    31142 
   30900    21764    17521    27870    38778    36197    26716    23303 
   25750    28156    28729    25369    20010    17836    18823    19786 
   20670    27649    37767    36594    28000    26993    32741    37210 
   34261    25187    20794    22667    22888    22436    27028    33563 
   34512    29857    25595    25066    27003    26688    22856    23561 
   30743    32758    26676    23494    28186    32265    26583    17223 
   17127    27586    38896    38864    27803    22483    30029    39399 
   40925    31336    16808    13222    22352    33549    42743    42204 
   27874    12547     9013    21550    38919    40946    29445    20206 
   17417    20047    27922    36123    36092    26767    19901    23127 
   28270    26704    21549    21201    28269    33308    28128    20727 
   20280    26623    35622    38073    32521    28586    25819    20440 
   19898    27700    35061    33363    26242    23973    26644    28617 
   29252    27214    23231    22599    24535    24673    23749    22859 
   24259    34810    48482    45115    23660     8440    15753    32755 
   35641    24347    19605    26888    31496    26064    22352    31248 
   41451    38153    28782    25442    26903    28830    27782    22827 
   21678    28714    32500    22621    11118    15342    29397    39134 
   41343    36060    29253    28259    29080    27395    24672    22844 
   22770    20915    16225    16772    25487    33680    35003    30703 
   27906    34472    43079    40611    30429    20616    16894    23949 
   31449    29229    24430    25318    31163    32320    27016    27675 
   30857    26013    22259    25573    27335    23430    18974    21040 
   30791    40750    41063    30330    20387    23362    36925    46750 
   39742    20400    11049    21932    33628    27984    16635    16609 
   23542    29326    35120    39229    39024    36441    31993    24611 
   17202    19890    34528    40179    23894     6905    13074    36003 
   51424    45564    26535    15265    21431    32021    31660    22486 
   20343    31487    38788    29658    19627    24632    34545    35009 
   28635    22492    21260    25172    27229    27358    30428    34538 
   37940    35634    22972    13019    18517    33748    44634    39165 
   26584    26262    34188    39439    35205    15847     -490     5831 
   24979    38873    38416    32771    36485    40921    39337    40388 
   34296    11716    -4846    -1181     7196    12196    19096    27045 
   32563    35998    40885    45440    39001    21500     8772    11674 
   26321    38610    37253    27779    27387    45306    62736    49324 
   13539    -7901    -3845    12328    26486    31038    29438    29692 
   33418    36491    36411    33558    30478    29797    28674    26108 
   26597    30561    34296    32648    23267    11325     4652    10588 
   24925    29887    22688    17615    20326    27715    35657    36831 
   27129    15880    17770    35040    50916    45231    27137    23605 
   33428    38667    34270    23259    17404    28522    46666    49793 
   31492    10954     8691    17809    22733    22911    21256    20184 
   22198    23915    25905    34266    43638    41457    28790    16069 
    6713     1607     6199    21759    41384    59902    72685    68664 
   49683    34457    25573    14035     6340    10278    23207    40527 
   51706    48227    37932    29255    20517    12881    11335    15373 
   16253     6237    -7104    -6321    17978    50580    54487    21934 
   -3711     3434    22639    40402    57274    65710    63832    56464 
   48983    41425    25198     8805     7075     7595     1361     5558 
   28612    55926    69540    62250    42098    26863    27193    32855 
   27712    17367    18407    31412    43149    45328    42415    37451 
   28574    19611    12312     8754    16606    30571    35447    28992 
   22696    27046    38096    39397    26863    21665    41722    72954 
   83698    60615    24216     5263     9591    16527     6975    -9900 
   -5082    22050    39163    38209    36650    35555    32803    34968 
   38306    36433    31092    27361    27213    19926     1423    -4229 
   20919    58641    76577    61251    29658    10227    20187    52865 
   69141    41818     6849     9338    35442    48346    41760    32427 
   33607    43078    44142    20223   -19143   -36790   -14360    23946 
   49966    59234    55788    37775    10237    -1907    16826    42533 
   45812    28693     8853      625    13612    48475    80628    71557 
   27255    -7991   -19873   -16052     3603    32258    59117    71342 
   60147    43003    35125    33213    41160    50278    37506     2029 
  -37288   -53878   -32376    12696    52802    62761    44752    31720 
   35328    41175    52244    67743    64731    41238    22157    24223 
   38253    37252    12846   -14651   -27182   -14911    16747    32084 
    8725   -23218   -19598    19634    51565    48959    27529    22469 
   53802    96988   108705    78697    31303    -3096    -7714    16947 
   50977    65497    54553    35789    22503    20328    31448    41333 
   29829     8774     9085    31093    47809    42935    23262     8062 
    9598    20955    27473    27359    30154    36926    43066    52529 
   62077    53335    23956    -5439   -16936    -5090    21850    45138 
   45081    18325    -6809      858    32421    49558    35284    17339 
   23195    40059    51452    56530    46858    24062     2853   -16975 
  -35220   -40345   -30640   -15327    -1191    15635    40394    56708 
   43381    14395     6686    33033    67564    75394    45509     2151 
  -12229    17507    63302    89379    80923    47991    11130   -17335 
  -30669   -21295     9021    38506    43902    30200    23032    39815 
   67883    71763    38580    -3063   -16002     3067    17465     4727 
   -5800    18424    58486    68238    37833     8181    19300    61340 
   79207    40494    -4294     6806    50095    68654    51961    25928 
   19041    33830    46716    37480    13640     9701    31978    40531 
   22506     8619    12824    19954    21195    23742    27460    21399 
    9658    11580    33239    54948    49715    18788    -2399    15751 
   56859    70847    38880    -2194   -15670     1359    40053    76999 
   79132    56800    49639    60138    62615    45354    16340    -7771 
  -14979    -6999     4550    12136    21590    36877    48106    52645 
   56724    55527    42976    26390    23437    34387    34804    27266 
   31570    36364    36998    42133    35239    12845     3016    15846 
   32149    34901    30736    33464    34680    23486    15345    21503 
   24367    17579    22347    43266    59122    59720    54473    45230 
   20618    -4736     3676    29506    24795    -1049    -6810     1466 
     378     4012    29059    64161    91739    99642    86154    58150 
   29985    27643    50645    57905    25617   -26202   -59395   -50782 
  -16540    12270    24903    17885    -4283   -12126     9447    30631 
   26416    13487    12217    13786     5004    -1518     9893    23529 
   16101    -2711      412    38781    81900    85083    42732    -5373 
  -22296       29    41156    52397    19588      -93    22754    46923 
   47622    39083    29749    21231    18220    17298    14214    19958 
   34128    30409    13139    21046    47110    47794    20239    -4650 
   -6053    17226    45226    46908    15261   -12672    -2575    28828 
   50516    55499    46825    30297    13248     5869    19380    42448 
   49376    36526    18464     3339    -5439     3078    31481    46047 
    9201   -50130   -58210     2683    70064    80989    42398    12891 
   25264    53240    59646    43467    28206    27632    29837    13409 
  -14502   -19318     9643    45650    61544    53533    39828    34403 
   30935    27640    31585    40827    46465    40393    27837    20642 
   16712    14487    21349    33509    39412    40334    40911    35999 
   33112    43882    48515    25542    -9672   -19234    16779    58320 
   49728    10605     2796    41217    91727   108033    70153    14117 
   -7801    15983    51443    51228    17991     2473    17698    34691 
   40753    40036    36575    30648    19766    13315    23557    43809 
   62902    74036    62238    24102   -10160    -9214    20714    46517 
   42223    12849   -13564   -18673     4105    54887    97743    81053 
   18372   -19782    -7702    21357    43593    51012    36819    11927 
   -5128    -7003     8707    30859    29942     2145   -18899   -12693 
   14658    49241    67516    50067    13885     1075    23321    45163 
   31287    -8181   -28477   -13545     5561     7436     2050     9518 
   36595    56640    40431     1930   -19898    -3974    38344    67615 
   58085    41709    56705    79270    67073    26295    -4002      839 
   27006    37383    18831    -3181     1656    33587    68820    89807 
   82483    41953    -4312   -20785     -917    28867    36685    18086 
     669    11951    39721    51274    37847    15251     3576     5886 
   11898    14681    12786    18318    38711    57780    62994    56085 
   45567    44825    50509    42057    18175      818      686     3293 
   -7517   -19157     -330    46742    74964    58541    29238    21023 
   32358    52541    64312    43905     2978   -18573    -4839    25864 
   44846    41418    23301     3070     2141    28096    50808    39414 
   10170     2368    14460    22390    28898    34365    23627     1622 
  -12294   -11702      810    18116    26895    28833    31100    21802 
     404   -10029     2755    23039    25365     6630   -11458    -6047 
   28382    70989    85865    60866    27499    14895    17337    25420 
   33266    29378    15306     3543     1145    12135    36161    56406 
   52403    32198    21270    28237    45995    60777    61259    51540 
   37665    19104      820    -6893     -256    10802    19149    30252 
   38351    28394     6378    -1796    18067    45306    48000    27999 
   15563    25885    45926    59507    59299    44180    30802    38489 
   54879    53232    30593     6181    -4317    -2128     6823    19822 
   30618    36488    38106    31526    20719    18048    26660    36718 
   38165    33781    29256    22543    17328    21683    31599    38199 
   40825    43569    49763    57818    56788    40176    25186    32325 
   50017    47502    19320    -3783     7935    46694    72108    56702 
   24241    14113    27261    44709    54766    48565    27710     7071 
    5782    31386    59951    57254    23287    -3992     5894    35454 
   45746    28012     7738    12930    38386    47680    25420     1454 
    5271    28375    46932    48634    36851    25424    22341    26724 
   31769    26675    12616     2030     5263    20490    28794    21993 
   18879    29055    35619    25611     6662    -3029    10623    37085 
   49736    41572    25468    15876    26604    53442    62745    40090 
   20588    29885    45577    42163    26849    17939    19170    22063 
   16888     4882     1138    15278    37859    49665    39785    20171 
   12994    22522    33464    27190     4940    -6218     6585    28385 
   43587    42015    32327    34309    37837    28528    21270    27863 
   37765    33421    12612    -6524    -4851    20126    46820    52429 
   39787    24408    18231    23450    32179    37130    34137    24600 
   17453    17432    19677    19812    20493    23950    26233    24967 
   27656    40783    53020    49057    34057    27131    35852    46237 
   42494    25390    10248    16760    42247    55338    39451    16106 
   14300    32598    42004    29105    11528     8092    22293    43595 
   53305    45570    33482    29915    32247    25583     9079     2070 
   13558    32075    39700    31970    27638    39320    53225    53597 
   40657    25957    21588    26466    29708    25770    19134    18287 
   22523    27162    35736    42320    33262    18859    19618    30632 
   32944    23853    18714    26986    40617    50041    49974    38377 
   25243    20693    22441    26000    29059    29477    24496    14935 
   11700    21030    32765    38938    42960    44897    37136    20810 
   13624    27343    49050    53471    30459     5924    12290    34783 
   37227    22972    16540    18575    17306    13482    14328    22976 
   34437    38405    34792    31122    26874    21947    23379    32109 
   40469    40968    30789    17875    18203    36029    54366    52225 
   31123    15669    18591    25523    24793    21809    23012    28284 
   34609    41083    44233    35966    19521     8533    11082    25807 
   41881    47667    41193    28618    21051    25252    31599    25720 
   11561     6357    16344    29437    31498    27527    31752    36468 
