Origin Time       2016/04/16 01:25:00
Lat.              32.753
Long.             130.762
Depth. (km)       12
Mag.              7.3
Station Code      SAG003
Station Lat.      33.3730
Station Long.     130.2074
Station Height(m) 191
Record Time       2016/04/16 01:25:20
Sampling Freq(Hz) 100Hz
Duration Time(s)  181
Dir.              N-S
Scale Factor      3920(gal)/6182761
Max. Acc. (gal)   65.137
Last Correction   2016/04/16 01:25:20
Memo.             
[...]
     773      785      813      819      824      853      872      906 
     967      975      952      936      846      688      538      387 
     202      -22     -235     -352     -380     -388     -319     -117 
       0      -99     -188     -305     -622     -846     -972    -1358 
   -1726    -1605    -1100     -562     -210      147      866     1662 
    2174     2744     3188     2825     2188     2060     1971     1546 
    1268     1275     1247     1210     1351     1611     1470      387 
    -921    -1517    -1861    -2127    -1874    -1536    -1451    -1564 
   -2015    -2149    -1168      473     2043     3108     3350     3392 
    3785     3385     1648      144      122     1417     2918     3004 
    1517      263      215      391       98      -64       12     -566 
   -1501    -1621    -1945    -3812    -5342    -5041    -4261    -3060 
    -204     3257     5117     4958     4227     3812     3231     3115 
    4663     6046     5076     3760     3858     2813     -700    -3645 
   -3697    -2211    -1014       78      759     -477    -2300    -1756 
     240      532    -1148    -2438    -2201    -1757    -1755    -1004 
     296      736     1159     2939     5034     6885     9090     9737 
    7321     4809     4632     4745     2313    -2364    -6189    -7617 
   -8380    -8599    -6977    -5869    -6642    -6081    -3792    -2362 
    -821     2335     4779     4192     1742     -296    -1313    -1689 
   -1053     1798     5876     7208     4940     2584     1365      493 
    1025     2898     4044     4297     4719     4782     3873     2873 
    2106      914     -507    -2135    -4294    -5593    -5026    -3694 
   -2789    -3707    -6225    -6734    -4095     -640     3155     6846 
    9081    10349     9591     4805     -571    -2014     -957     -331 
    -103      175      299      741     1543     1468      750     1011 
    1422      637       14      281      337     -458    -2423    -4800 
   -5345    -3389     -602     1130      395    -1820    -2150     -312 
    1265     1587      171    -1196      527     3236     3788     3635 
    4579     6676     8875     9378     8210     6531     4878     3774 
    2215    -1497    -5659    -7697    -8262    -7944    -6696    -6833 
   -8496    -7839    -4347     -953     1198     1482      550     1644 
    4399     5495     5183     4420     2835     1062    -1333    -4007 
   -3716     -310     2822     4292     4882     5340     5595     5623 
    5667     4089     -689    -6318    -9641    -9448    -5378     -962 
   -1506    -4559    -4628    -3086     -428     5411     8866     6261 
    4359     5818     6362     5247     3598     2482     3729     4987 
    3309      977      -45       44      542     -581    -2604    -3675 
   -6405   -11192   -13630   -13048   -10857    -5623     1193     4973 
    5423     5363     5682     5612     4497     4167     6446     6804 
    1951    -1437      787     4010     6130     7545     6986     5400 
    3750     2030     2238     2855       51    -3296    -4116    -5231 
   -6791    -5993    -3046      135     1137      -13      904     3550 
    2681      148      797     2413     2999     3554     2358     -696 
   -2766    -2906    -1342     1320     3957     5331     4842     3963 
    3190      892    -2298    -4112    -3923    -2900    -3574    -6745 
   -8788    -6633    -2076     1866     4476     6854     9439    10349 
    8625     5662     2130     -174      311    -1081    -6094    -7219 
   -2854      312     1511     3690     5274     5565     7815    11064 
    9392     3348     -149     -557    -2009    -2366      805     1297 
   -3825    -7221    -6760    -7068    -6323    -2327      204    -1322 
   -3292    -2297    -1400    -5415   -10730   -10841    -6368     -710 
    4149     7148     9790    13010    14878    15061    14872    14317 
   12746     9826     5852      783    -4628    -6159    -2348      940 
    -834    -6339   -10894    -8455      -36     5483     5262     2792 
   -1318    -5442    -5498    -2033      461     1135     4615    10561 
    9856     1427    -3865    -3049    -1733      681     4703     5033 
    1363    -1838    -3643    -5106    -3810     3029     9269     5787 
   -3806    -9072    -8856    -8155    -9023   -11686   -14429   -13024 
   -5774     5029    13884    15918    16098    20349    20959    13623 
    7417     4317     1603     4114     9074     7288     2171     -464 
   -4533   -10232   -10322    -2392     6989     7568    -1516    -7472 
   -3557     2240     2474    -2267    -6778    -7278    -5561    -3515 
   -2297    -5364   -10081    -9484    -5660    -4713    -5239    -1390 
    6364     8263     1040    -3848       25     4967     4928     2160 
    -104    -1701    -3071    -2259      810     1371    -1665    -5311 
   -9295   -10124    -4379      908      120    -2876    -5040    -6043 
   -5350    -3839    -1419     3483    10655    17313    20858    22704 
   21403    10854    -4100   -12565   -14760   -13764    -8692    -2296 
    1843     3197      665    -4155    -5003      720     7266     6777 
    -176    -5835    -8298   -11218   -15237   -19270   -20219   -13212 
    -230     9876    12514    11209    10491     8750     3001     -497 
    4374     8567     3156    -4571    -5581     -240     8269    16570 
   22043    22713    13789    -1909   -10090    -8114    -7782   -11455 
  -13717   -14951   -15416   -13410   -10788    -7279      879    12267 
   21259    23432    16674     5231    -1940    -2304    -1315    -1328 
      11     1672     2071     2715     2664      783      -96       23 
   -2235    -4727    -4936    -9028   -17474   -16921    -5752     -995 
   -7015   -10196    -3866     5425     7418     1966     1995     8703 
    7173    -2772    -6469    -1408     3602     3784     1253     2190 
    9126    17339    23234    24872    21076    19356    23944    21868 
    5129   -12894   -19731   -21341   -25711   -26415   -18437   -11183 
  -10766   -12726   -13909   -12552    -4981     8197    19409    23087 
   21344    15854     5349    -4067    -1124    11404    17421    13078 
    8861     6336     -369    -5178     -169     6829     8734     9671 
    9012     3163    -4917   -12612   -19601   -24743   -26132   -22131 
  -16341   -14313   -13136    -6970      648     4971    10525    18273 
   21820    22674    26434    30270    28372    21389    13092     2957 
   -7051   -10159   -10061   -13588   -12522    -3054     1357    -5212 
  -14720   -19118   -13738    -3531      787      737     2607     3144 
    -233    -5019    -7429    -2082     6604     6442     -917    -5831 
   -6587    -3606      631      962     1875    10368    18468    14894 
    5079      207    -2317    -7671   -10000    -7145    -7382   -14337 
  -21135   -19296   -10087    -2632     1836     7593     9823     4223 
   -1886    -2977    -2311     -705     6257    16529    18091     5983 
   -8356   -13394    -8519     1828    12552    18867    18370    12725 
    6604     2818     -986    -5116    -4431    -1326    -4016   -10027 
  -13432   -16891   -20552   -17575    -8422    -1290     1262     1236 
   -1534    -4968    -4378    -1274     -266      503     3529     5988 
    5874     5229     7186    10668    11119     9527     9077     5559 
   -2063    -4306      182     1885     1965     4951     3207    -3239 
   -2825     1681     -781    -8455   -15884   -21368   -20773   -14325 
   -8767    -5557     -361     7240    12572    13690    13008    11383 
    9505    10480    12445    10131     6469     6229     4852    -1008 
   -5452    -6653   -10357   -14116   -11035    -5729    -2955     1382 
    5832     5254     2135    -1397    -7948   -15336   -17587   -13996 
   -7582    -1132     1713      583      181     1109      292     -115 
    1881     3358     3610     5332     9374    12091     9700     5274 
    3747     3728     2410      783       41      452     2787     4850 
    1720    -6407   -13236   -14164    -9671    -1509     8757    15209 
   10961     -530    -8836   -10268    -8703    -7157    -4512     1977 
   10408    11770     1344   -11548   -15136   -11031    -6922     -737 
   11764    22576    21440    11874     4617     2524     1888      811 
   -2455   -10382   -18459   -18668   -13989   -13056   -14088    -9763 
    2016    16198    22217    16321     7359     2165     -746    -2044 
     274     3220      644    -5648    -9049    -8563    -4640     3980 
   13378    18016    18119    14285     7294     2787     2572     2839 
    3676     4646      551    -8555   -16307   -19944   -21235   -19000 
   -8946     4933    10128     5284      640    -2950    -7202    -3460 
    7399    11113     6739     5101     5640     1132    -6105    -9071 
   -6576    -2133     2243     7423    11184     9246     4322      865 
   -2656    -5670    -5686    -5116    -2573     5844    11949     7779 
    3169     7973    14877    12937     3580    -3086    -5768   -12758 
  -20425   -17352    -7607     -220     6931    13081    12880    10845 
   12185    13705    13439    11082     5454    -1252    -7075   -11958 
  -14102   -14120   -14068   -10353    -1336     4418      224    -7649 
   -9095    -3616     -239    -3747    -6940    -2529     6823    13903 
   13791     8799     8093    12366     9626     -552    -4082      519 
    3651     2859    -1158    -8927   -17007   -18853   -11857     -470 
    8975    13306    13748    13677    12463     7224       40    -4758 
   -6591    -7982    -9051    -7151    -4844    -6321    -6738     -807 
    7279    12450    14632    14646    13819    14576    15322    11576 
    5882     3606      733    -7928   -17089   -20230   -18239   -13245 
   -5397     2878     6233     2072    -4065    -3911     1560     5257 
    8044    13598    15144     7471     -425    -2854    -6129    -8141 
    -191     9277     6536    -2178    -3354     3023     8778     9692 
    7090     2473    -1940    -1213     2219      561    -3094    -2131 
     -34    -2125    -7940   -13979   -16844   -14868    -7430     3529 
   11670    12184     7455     3178      151    -5352   -10607    -7762 
     724     5917     7521     8414     7883     7387     8734     9849 
    7388      701    -5891    -9012   -10812   -13570   -16417   -14807 
   -6000      849    -3219    -9481    -7538    -1240     4280     9103 
   12691    14461    13996    11023     6822     4467     8980    17635 
   18562    12346     9075     4730    -5462   -11279    -8055    -2798 
    1850     5702     5808     3704     3801     3842     -764    -4981 
   -2562      946      983      756       50    -1972    -5120   -11479 
  -14622    -7840    -3006   -10187   -18319   -15971    -5111     7198 
   13385    12297    13785    23466    32364    30510    18244     2644 
   -7712    -9652    -8998   -11339   -15917   -19312   -19066   -15767 
   -9622     1194    13639    21742    25114    24763    18385     7141 
   -3574   -10776   -14996   -17353   -15625    -9066    -4397    -2792 
    3954    15064    20230    16094     8511     4182     4105     2492 
   -3457    -8490   -11545   -16505   -18810   -13483    -5802      919 
    5251      287   -10760   -13526    -5148     4742    11857    19719 
   25263    18339      443   -14461   -20698   -25910   -32088   -26494 
   -3467    21579    34637    37258    32044    19840     8865     4269 
    -694    -7675    -9452    -8293   -11063   -13934   -10454    -1249 
    8558    14429    17850    22459    24190    16043      -57   -15359 
  -26504   -36686   -42939   -35973   -15263     9745    31433    46818 
   51709    40055    14957    -6953   -13503    -8898    -2545     -658 
   -4140    -6276    -2577     2522     4084     1953      337     1119 
    -268    -2662      231     3892     1325    -2299    -1566      913 
    5202    12270    17181    17719    16789    14980    11062     5752 
    -482   -10119   -22492   -29376   -26023   -17789    -9258     -419 
    6412     9113    10778    16350    26007    32246    30213    26164 
   24494    19416     7540    -6121   -18315   -31431   -44180   -48976 
  -42746   -31551   -20006    -3481    20833    42647    52351    54837 
   55395    47895    27076     -310   -21464   -30117   -29318   -22650 
  -14022   -12792   -21828   -29505   -24594    -6686    17379    36825 
   43387    38338    25777     7896    -7960   -16373   -22747   -28076 
  -22244    -3119    16705    26384    26746    26603    33274    42105 
   41922    32084    22702    17641     9226    -6613   -23314   -35621 
  -43252   -43648   -37943   -35108   -35073   -27016   -10596     3224 
    8937    11949    20282    32275    37221    30649    19448     8898 
   -1559    -9405   -10664    -5710      900     2405    -2671    -8766 
  -11078    -7036     2145     9477    13722    22169    34222    38847 
   28318     4750   -22559   -43102   -50608   -45837   -37387   -35373 
  -36913   -29453   -17498   -18262   -26644   -23517    -9607     3106 
   12587    20247    23717    21318    12429    -3543   -22913   -36943 
  -38668   -28556   -11881     5477    17827    25551    36483    53324 
   69647    79247    79441    71196    59130    43655    22282     1478 
  -11533   -20438   -27451   -27230   -18327    -6211      478    -2612 
   -4935     5239    19358    23876    19308     9385    -4603   -18564 
  -29844   -38626   -45402   -49945   -46170   -28622    -6263     9470 
   24665    48581    71770    81015    76625    62851    41813    14822 
  -15555   -41764   -60846   -76702   -84989   -78626   -62454   -42061 
  -13638    22642    57416    84690   102002   103163    88766    70592 
   51334    22832   -11565   -39629   -58200   -69807   -74633   -75029 
  -73261   -63557   -39717    -6298    23485    38414    38559    32109 
   25603    20827    16803    11682     2254   -16086   -42604   -65811 
  -73679   -65551   -47029   -23679    -3797     6537    12559    24117 
   42497    60355    67760    55842    24931   -11306   -36947   -45513 
  -41809   -36537   -34306   -30753   -25398   -24434   -29874   -36729 
  -38508   -31437   -16183     1346    12133    12010     6055      335 
   -4770    -8369    -7359    -2018     7061    19000    26393    23395 
   15307     9149     5032     4478    13410    30419    44459    46702 
   39247    30500    21531     6577   -12060   -24011   -21413    -3342 
   18844    26371    15463     1917    -1694     3054     9459    12459 
   11577     9755     8515     8607     8984     4102    -5623    -8964 
   -2979     1108    -1322    -5073   -11001   -23319   -36515   -38220 
  -22677     -186    10658     7378     7678    18961    25621    17846 
    6602     1737       21    -3120    -7446   -11368   -13456   -13029 
  -10591    -5425     3180    11656    15823    14902     8808    -1180 
   -7583    -1289    11479    11011    -6098   -21889   -27317   -27285 
  -17958     5060    27318    33507    25028    10504    -2738   -10772 
  -13100    -8920     2892    20942    41431    56164    55184    39105 
   17291    -5531   -25869   -36768   -39340   -41563   -41421   -33870 
  -26987   -24874   -13817    10692    30092    32081    25146    19140 
   16084    13852     6865    -6255   -20350   -34119   -48181   -56705 
  -53590   -37179    -8409    21597    32759    19033    -3722   -19617 
  -26757   -27295   -19776    -6364     4540     8596     9525    11433 
   14964    21587    33358    43177    37868    17230    -5348   -21007 
  -29715   -31266   -24332    -9654    11307    33838    50451    58099 
   56080    45580    34825    28374    19267     3405   -13096   -24848 
  -31705   -32098   -23710   -10672     -476     3807     3040     -207 
   -2865    -2833     3825    19447    36745    46910    48137    38477 
   17719    -3525   -14783   -20081   -28001   -37332   -42967   -44279 
  -40442   -28981   -11550     6078    17810    20430    15263     3988 
  -11138   -21049   -18924   -12241   -11737   -18908   -30263   -38968 
  -35053   -17620      414     6699     2114    -3455    -3066     3703 
   13108    19673    21929    23600    25458    20231      570   -27026 
  -43798   -39876   -24510   -12440   -12353   -23921   -35095   -34379 
  -25854   -16864    -4369    13521    28467    31488    23144    13599 
   14019    21395    18188    -2619   -27679   -42314   -43228   -36229 
  -26354   -11822     7731    26703    37522    33603    17206     2083 
    1098    14959    31433    35114    21934       56   -21205   -36304 
  -42549   -39028   -28514   -20163   -20328   -21236   -10996     9541 
   30152    41694    38884    25349    13282    10337    11976     9804 
    3757     1603     6443    10302     6632     2712     7131    15170 
   17770    13438     7474     6772    12958    19256    18157    11285 
    7378     8592     6991       12    -3861     -502     3037     1451 
    -772     1852     7591     9799     2388   -13903   -30932   -42485 
  -47473   -43657   -28000    -4877    12890    16708    12373    11066 
   14099    15395    13206     8335     -439   -10621   -15833   -14697 
  -11838   -11379   -14303   -18905   -20921   -16416    -6162     6162 
   17270    23305    23484    20971    15376     5723    -3235    -8356 
  -10668    -8025     1025    10464    13531     9388     2753     1691 
    9372    18068    17865     7590    -5426   -12769   -11596    -5147 
    -861    -6663   -21511   -34121   -36019   -28780   -18663   -11144 
   -6171      696     7661    10906    14026    16080    11199     4405 
    2462      443    -6012   -12881   -17200   -18551   -15785   -11659 
  -10835   -11751    -8575      713    10960    15865    16498    16672 
   13347     2960    -8334   -11414    -6609    -2626    -4087    -6416 
   -6560    -8176   -13464   -20234   -22649   -15240    -2244     9020 
   19689    30936    37130    33859    22683     8844    -1643    -6802 
   -9412    -9386    -2832     8328    13886     7168    -4954   -11092 
   -9318    -4158     1671     6294     7228     3239    -5246   -15965 
  -25363   -28850   -20859    -2846    13953    24237    33148    40623 
   39865    29611    15106     1885    -7434   -13756   -18192   -20722 
  -23071   -25572   -23891   -15663    -5017     3118     8626    13866 
   19513    24563    27486    26551    19611     7033    -4348    -7397 
   -3478     1223     2910      690    -4156    -8265    -8444    -5056 
   -2153    -1187     1804     8569    14133    13209     5600    -6522 
  -20219   -30301   -33625   -32472   -28798   -21548   -13118    -8481 
   -4299     6432    18298    21256    18593    18240    17047     9306 
     797    -1542    -3601    -9060    -9099    -2349     2171     5696 
   14505    20132    11889    -1137    -4058     1093     3192       77 
   -2322    -3102    -8571   -19755   -28431   -30711   -31743   -31675 
  -23668    -7983     9811    29543    49888    62520    62610    53577 
   39576    21548     1693   -13626   -21725   -26646   -29262   -28034 
  -27232   -29398   -27135   -14012     4419    19397    30179    37963 
   37735    26171     9812    -3260   -10888   -13166   -11837   -10541 
   -9664    -7383    -6142    -9408   -14372   -15654   -11338    -2307 
    8280    16060    19953    22294    23264    19819    10645      353 
   -3134      507     2784     2285     6168    11928     9552     1893 
     926     7782    15208    22155    29530    31195    23126    11199 
    1861    -3794    -5048    -2007      110    -4441   -13317   -18141 
