Origin Time       2016/04/16 01:25:00
Lat.              32.753
Long.             130.762
Depth. (km)       12
Mag.              7.3
Station Code      SAG002
Station Lat.      33.4247
Station Long.     129.9195
Station Height(m) 205
Record Time       2016/04/16 01:25:23
Sampling Freq(Hz) 100Hz
Duration Time(s)  180
Dir.              E-W
Scale Factor      3920(gal)/6182761
Max. Acc. (gal)   51.849
Last Correction   2016/04/16 01:25:24
Memo.             
[...]
     810      780      555     -471    -1373    -1025      355     2157 
    5383    10923    16021    17128    15329    14249    14534    14137 
   13031    13977    17211    18044    13437     7226     4048     3080 
    1918       45    -3129    -7109    -8552    -4950     1791     7398 
   10537    13812    18481    21058    17635    10185     3911      588 
    -771    -1371    -1965    -1766     -275      714     -210    -1035 
     919     3587     1687    -5634   -12537   -11908    -1246    14228 
   24845    26134    22608    20524    20254    17707    11791     6201 
    3808     4072     5061     4940     2612    -2070    -8068   -12948 
  -14400   -11496    -4780     2979     8756    12202    13521    11519 
    6395     2244     4214    12048    19411    20988    16804    10172 
    5157     5075     9704    14777    17022    16793    14586     9563 
    2168    -3757    -2859     5705    16134    21632    19229     9089 
   -6062   -19117   -21019    -9617     6975    19511    23517    15852 
   -2317   -20473   -26967   -18913      323    24197    40939    39988 
   23400     4358    -5678    -4211     5043    15185    18719    13136 
    1334   -11313   -15752    -6566     7989    15446    12406     2957 
   -6083    -8792    -4340     4976    17158    28177    31962    25952 
   13622     2366     -876     4903    13842    17926    12551      -74 
  -12753   -19146   -16497    -6622     2980     6439     5647     3432 
    1549     4490    13680    23898    30123    31297    27188    18368 
    9898     7793    11260    14515    14074     9185     -210   -10137 
  -12573    -5486     2436     2594    -3304    -7188    -5621    -2380 
    1170     7952    14953    16323    13116     8731     4860     3870 
    7232    13169    17347    16795    12171     5297     -892    -1955 
    4019    13955    22168    24740    20094     7497    -8121   -15781 
  -10782     1012    12245    18752    18656    10845    -2656   -13582 
  -16663   -15301   -11803    -4099     7009    15970    18945    17574 
   15415    14741    16589    20035    21931    21209    19322    16007 
   10746     3370    -5893   -12364   -11299    -5439     -360     2920 
    5355     5186     1546    -1949    -1298     3877    10214    13540 
   11632     3813    -6084    -8633     1191    16364    23788    18110 
    5478    -7844   -16467   -11511     5600    20706    26846    25316 
   14541    -2446   -15535   -20072   -16424    -4155    13273    27556 
   31966    25485    12747      556    -6185    -5726      132     5257 
    4164     -931    -3759    -1352     4309     7545     6152     4847 
    6383     8637     9809     9162     7672     7920     9824     9709 
    6164     3441     4692     8412    13465    18063    17499    10702 
    3673     1667     2716     3126     4386     9607    16694    19256 
   14237     6288     1676      475     -394    -1440    -3026    -5979 
   -6586     -830     6461     8417     7102     6919     6686     5226 
    4282     3551     1956     2422     8221    17263    23690    23658 
   18343    11754     7884     7923     9026     9599    11572    14262 
   12332     2959    -7950   -10807    -2265    12372    22875    21903 
   11561     -986    -9861   -11506    -6514     1315     8903    13720 
   13082     7499     1834      138     2129     5224     7512     9153 
    9845     7193     2343     1877     7858    12452     9709     4795 
    3714     4130     2141     -143     3416    14167    24076    26052 
   23386    20378    14623     4867    -5460   -12887   -15831   -13640 
   -5952     4478    11661    10866      967   -12500   -19203   -14195 
   -1360    11175    16595    14478    10018     9257    13835    18628 
   19824    20583    23975    28094    28556    22930    13418     3991 
   -2792    -5223    -2983     1298     4029     3656      585    -3517 
   -6152    -5411     -800     6258    11965    12797     9020     3289 
   -2858    -9217   -13775   -11617     -803    13538    24367    28428 
   26635    22516    20204    21167    21814    16753     6432    -1492 
   -1053     4985     8932     6837     1505    -2481    -3684    -4022 
   -6320   -10295   -11478    -6903      119     5082     8069     9237 
    6845     4627     9278    18454    24106    24345    20543    11963 
    1244    -4121      539    12230    23243    26437    18650     3828 
   -7300    -7703    -1858     3701     8313    12195    14395    14238 
   10536     2991    -5395    -8832    -3790     4990     7862     1406 
   -8033   -11005    -3491     7773    11974     8941     7941    12355 
   16626    15821    10358     3622       13     3204    11000    15432 
   12666     7469     4972     3497     -907    -5703    -4179     3735 
   10983    12747     9152     2863    -1103      500     4888     8801 
   12413    14937    14204    10483     6015     2453     1305     4410 
   10638    14478    11268     2980    -2590     -205     5953     8863 
    8991    10945    14172    13891     9445     5635     6192    11130 
   18023    22667    22246    18276    14608    12501     8419     -388 
   -9630   -12308    -7597    -1043     2653     3044     1686      577 
    1366     3339     4971     6662     7857     6806     4506     2580 
    1097      758     1818     3018     4015     4784     4400     4590 
    8418    13818    17309    20502    24188    23398    15880     7367 
    2756     1383     2711     6545     9249     7299     1963    -3859 
   -9132   -11224    -5881     5310    14722    18181    17398    13568 
    6871      944     1427     9701    19867    23789    18792     9368 
    2207      554     4349    10853    13528     9068     1954    -3421 
   -6335    -6194    -1990     5740    13015    14862    11308     7653 
    6911     5952     2951      608     -915    -2639    -1289     4679 
   10236    10531     6997     4043     3095     2355      596     -445 
    2013     7309    11154    10562     6428     1874     -421       74 
    2357     5098     7161     7831     6702     4736     4626     7637 
   10592     9055     4400     2092     2635     2547     2326     5339 
   11084    14687    12615     6748     2677     4691    11120    15751 
   15507    12004     6416      377    -1922     1005     4699     4875 
    3838     5766     9880    13293    14633    13412     9493     4398 
    2489     5059     6840     5334     3479     3352     7226    14980 
   19425    15883     8957     4430     2529      781      -20     2485 
    6349     7434     3719    -3386    -8912    -8855    -3691     4490 
   13887    21172    21533    13806     3923    -1804    -3304    -1526 
    5564    16979    25701    24566    14025     2142    -4748    -6152 
   -2867     3274     8101     8803     5877     1630    -1437    -2745 
   -3239    -1908     3067     9376    11372     7411     3761     5909 
    9776     9376     5721     2598     1594     2887     5673     8122 
   10639    15493    19524    16883     9484     3614     1429     2479 
    7011    13562    16237    11076     1858    -7674   -17096   -22247 
  -18325    -7593     3707    11305    12390     6356      -92     1660 
   10882    20168    24034    21424    15129     8850     5247     5721 
    8920    12477    14849    13818     7612    -2135    -8605    -5373 
    3791    10069    10832     8151     3975      -42     -910     3481 
    9235    11484    11007     7913       60    -8178    -8655    -1241 
    7227    12667    14671    12781     7604     2058    -1260    -2241 
   -1371     2718    10851    19750    23972    20962    14159    10946 
   13910    16816    14407     9239     4656     -343    -5904    -8278 
   -6169    -2151     4003    12110    15607    10283     2840     2380 
    8013    12143    11650     8054     3374      967     2899     6558 
    7570     4158     -826    -3120    -1647     2480     7435    10592 
   11290    12288    14398    13262     7596     3765     5384     8885 
   12651    17501    19358    12532    -2311   -16572   -19160    -7788 
    8328    21191    29877    31893    21822     2378   -12964   -14049 
   -4640     4630     8141     7286     3839    -1391    -3764    -1366 
     121     -507     1070     2911     1198     -571     1880     7350 
   13060    16209    14649    11226    11777    15652    15581    10497 
    6890     6800     7559     8462     9970    11054     9977     7274 
    4994     3286     1835     2438     7052    13905    17629    14230 
    4644    -5362    -8686    -4454     1751     8124    16295    22871 
   23825    20624    15672    10035     6022     4922     4879     4959 
    5113     2553    -3826    -9309    -8762    -3268     1194     2776 
    6162    12217    14492    10354     5875     5537     6945     9280 
   13985    16000     9978      909    -3086     -642     3182     2660 
   -1485    -3161      544     6634    10808    11993    12305    12775 
    9592     -931   -12198   -12601    -2117     8978    14698    14608 
    7813    -2136    -5420      741     7377     8463     8378    10227 
   10369     8733    10448    15972    20352    20511    17261    12015 
    6079     1940      768     1763     5498    11684    15818    14080 
    9186     7095     8238     8542     8260    10255    12739    11887 
    8818     8203    10252    10520     6818      424    -4331    -1928 
    6130    12131    12120     7729     3198     2657     6478    10905 
   11816     9480     6989     4749     1020    -4977    -9921    -7750 
     973     8043     7565     1825    -2124    -1415      592     2253 
    6415    14456    22602    25068    20243    11952     4947     2403 
    5209    11069    15619    15524    11984     9839    11303    13278 
   12178     8236     4123      440    -5229   -11910   -14037   -10523 
   -5846    -1290     4514     8150     6084     3233     5478    10456 
   13415    13060    10734    10238    12932    14134    12006    11303 
   12294     8856     1714     -236     4856     8415     6200     3754 
    4495     3810    -2225    -9804   -12501    -8699     -722     8066 
   14581    17185    15419    12143    12405    15477    15524    10422 
    1691    -9601   -19262   -21013   -15551    -8081      189     9043 
   16688    24041    30930    30857    20729     8714     3432     4149 
    5228     1928    -5969   -12939   -15063   -13818   -10792    -7633 
   -7386    -8828    -5133     6843    20169    26530    27937    31653 
   37487    39378    33708    19613     -726   -19375   -27192   -23030 
  -13614    -3391     5945     9001     5256     4906    14546    29100 
   40093    42783    36906    25299    13137     4383    -3537   -13524 
  -20340   -19286   -13446    -6806     -788     4826    11118    16167 
   16314    11952     5770     -715    -4474    -1758     6718    15797 
   19826    16203     7539      773     1714    10008    22379    35440 
   42424    37176    22870     9809     4468     4628     4316     -587 
   -8626   -14704   -17878   -19503   -16905    -8835     -514     2835 
    2349     1670     1638     3950    12037    24060    33427    35573 
   30644    23284    19149    20046    22823    20920     9246    -9767 
  -27435   -36064   -33040   -20637    -5699     4712     8760     7962 
    6312     8014    10698    10079     7845     7702     9628    11530 
   12420    10817     6866     6035    11663    19722    25708    28271 
   26489    20941    15943    15528    18097    19105    18391    18978 
   19993    18426    14491     8951      313   -10497   -18592   -22531 
  -26090   -29970   -29841   -24972   -21143   -21422   -22653   -22347 
  -18848    -8522     8675    26973    42293    54095    58876    52771 
   39029    24872    16080    14883    17797    19003    16208    10923 
    5650     1906     1388     7313    19503    30740    33581    27683 
   17971     8870     1682    -3289    -5472    -7170   -11800   -17201 
  -18005   -13367    -6895    -1594     2421     5594     6489     4613 
    3720     9019    21142    34299    41417    39884    32381    24183 
   18690    15166    11018     4504    -3753    -9904    -9505    -2931 
    5106    10568     9951     1920    -8247   -14317   -15262   -10376 
    2159    17384    23959    17610     5558    -4398    -7581     -221 
   13381    21403    19278    12936     8515     7542     6531     -594 
  -13225   -24366   -31754   -36361   -34995   -23745    -4321    15093 
   26079    28404    29878    35991    43628    48242    48099    40400 
   25456    10041      591       97     6617    12831    15596    18086 
   19662    16220     8814     4381     6999    12231    15407    16236 
   12541     3506    -5730   -11653   -16147   -22244   -30200   -37303 
  -43089   -49436   -55218   -57866   -54796   -42698   -21665     2511 
   21265    28960    26519    19522    14479    13791    14998    15382 
   12488     6020     1278     4584    17499    35146    48082    49239 
   41069    33458    32019    34915    40842    48334    51241    43410 
   25180     3977   -11658   -17875   -16773   -15832   -21221   -30632 
  -38385   -41351   -36189   -19442     5106    24693    31393    30730 
   29508    27493    22291    13880     6363     3829     4036     3307 
    5395    12675    16513    11436     1756    -7921   -12992   -11793 
   -8466    -6201    -5782    -4999     1058    13028    26286    36281 
   40214    35830    23005     5876    -9493   -17181   -14857    -9072 
   -7867   -11326   -16793   -20498   -15928    -3878     7162    13500 
   16873    19089    21144    23407    28091    39186    57510    77145 
   87926    84383    69046    46361    23151     9275     5941     3399 
   -5079   -17854   -30853   -40140   -42135   -35093   -20544    -3140 
   12706    24383    31955    39417    46510    46908    40533    31930 
   24612    23977    29220    30279    18972    -4198   -29244   -45339 
  -50527   -48341   -43777   -42454   -44965   -44930   -36036   -19483 
   -3031     7834    13214    14226    14218    19194    29368    38869 
   43648    44055    43440    41761    34171    21831    12153     7923 
    6865     6265     2837    -4282    -9172    -5898     3282    11864 
   15070    10055    -2445   -15392   -21259   -19710   -14972   -10542 
   -7553    -5492    -6725   -13262   -18106   -14380    -7111    -4102 
   -4714    -2823     5183    17479    30599    43335    54806    61707 
   59823    47524    27401     5634    -9271   -12429    -8644    -6109 
   -8647   -17005   -29007   -41216   -51288   -55954   -55590   -55042 
  -55245   -55402   -57050   -58210   -52394   -36681   -16951    -1193 
   10324    21322    30911    35021    30203    15537    -3970   -18751 
  -22068   -16702   -11308    -6631     3585    19177    35140    47250 
   51872    49432    44397    40830    40769    43489    45245    40930 
   27519     6681   -16236   -34418   -41815   -36277   -20730     -829 
   17231    28795    34888    39780    43085    41180    32237    17114 
    1914    -5417    -4383       72     5419    10098    11308     9225 
    7482     7888     9117    11133    16711    26004    33133    32077 
   23268    12599     7578    12402    22904    29385    24965    10367 
   -7148   -18187   -15701     -843    15253    21103    12565    -8696 
  -33942   -49780   -51184   -43173   -30432   -16397    -6529    -5581 
  -11871   -17146   -16999   -13505    -7484      522     8044    12890 
   14306    14970    18222    24074    31174    36507    34133    21193 
    3100   -10576   -13639    -7239     2271     8589     8982     7818 
   12691    21265    22892    15196     7067     5543     7709     7167 
    3382      371     -652    -1506    -1798     -201     1395     1026 
     -59      291     4176    13898    28905    44085    54847    61053 
   62343    56089    42105    22936     2365   -14118   -23034   -25766 
  -25467   -25126   -26967   -29932   -30944   -28960   -24850   -19066 
   -9899     4748    21693    33204    34434    26886    16858    10534 
    8376     6233     2159     -615      959     5245    10590    18096 
   27232    36275    45988    56406    61975    55257    35739    10515 
  -11197   -19880   -12596     1185    12524    20131    20265    10916 
      46    -6246   -10337   -13844   -14218    -9893    -2979     3305 
    7673     9661     6694    -3733   -18689   -31262   -36569   -33462 
  -23694   -11275       67     9192    16007    19455    19601    17976 
   14412     9732     8052    10390    12797    12216     9196     7147 
    8170     9646    10139    11444    12803    12380     9668     5361 
    2077      447     -150     2382     8203    13082    12730     6209 
   -3062    -9734   -10232    -4614     3235     7425     3824    -5608 
  -13927   -16423   -12548    -3142     7543    12461     9424     3215 
    -215     2204    10704    23227    36748    48423    53400    46285 
   28024     6614    -8000   -10145    -3824     2639     4982     1381 
   -5891    -9651    -9154    -9479    -9959    -7756    -5340    -6326 
   -8783    -7855    -4113    -2148    -3185    -5743    -9362   -14206 
  -20158   -26793   -30780   -25600    -9212    10347    21665    21109 
   12731     1049    -8104    -7610     1512     9515    10015     4397 
   -5372   -18833   -31210   -36420   -35261   -29967   -17827      205 
   15431    21604    20506    17641    17163    19509    23430    27984 
   31413    32797    33520    33869    32074    28424    26835    29582 
   33837    36389    36520    33142    25293    15187     6170    -1488 
   -9681   -18825   -26940   -30377   -25928   -13941     1575    15067 
   21914    21352    16861    12205     8221     4584     1014    -3433 
   -7380    -6190     1723    12098    19352    20732    17807    13949 
   10941     8953     7042     4656     1489    -5115   -16184   -26836 
  -31913   -30922   -25734   -18117    -9386    -1506     2620     2113 
     101     1934    10524    21695    27447    24618    16153     6842 
     957       50     2992     8963    17434    26214    32114    32815 
   27656    18480     9703     5324     5828     8278     8293     2939 
   -5486   -10659    -9971    -6390    -1930     3648     8114     7540 
    2329    -1738     -288     5296    12705    20858    25799    24590 
   21138    20733    24321    30258    37166    44886    53273    60008 
   60289    49643    29124     7842    -4006    -5490    -2582      476 
    -853   -11486   -27832   -39597   -40712   -33832   -26677   -23962 
  -24799   -26518   -25326   -18225    -6937     5422    17248    25859 
   30048    32591    35279    36775    35441    31819    28914    28211 
   27446    24351    18885    11612     2614    -7539   -16578   -22220 
  -24731   -26133   -27521   -27649   -24360   -17606    -9730    -3209 
     764     3471     8448    17712    28961    37624    40794    39650 
   38373    40171    44990    49825    50174    44003    33485    20776 
    6500    -6687   -15139   -19413   -23052   -26568   -28100   -27715 
  -25701   -20898   -14551   -11286   -12553   -13115    -8369      -82 
    7557    11485     9575     2136    -6119    -8805    -4044     4196 
   12043    19194    25229    28543    30193    31989    32030    28688 
   24385    21233    18413    15195    12191     7972     -376   -10928 
  -17871   -18648   -15308   -11733   -10961   -13416   -17420   -19678 
  -15777    -4063    11102    22645    27233    26371    22293    17529 
   16195    19735    24403    25880    23832    20990    18597    14989 
