Origin Time       2016/04/16 01:25:00
Lat.              32.753
Long.             130.762
Depth. (km)       12
Mag.              7.3
Station Code      SAG005
Station Lat.      33.3213
Station Long.     130.0643
Station Height(m) 48
Record Time       2016/04/16 01:25:21
Sampling Freq(Hz) 100Hz
Duration Time(s)  107
Dir.              E-W
Scale Factor      3920(gal)/6182761
Max. Acc. (gal)   31.867
Last Correction   2016/04/16 01:25:21
Memo.             
[...]
  -28856   -29567   -29163   -27806   -27691   -29848   -32834   -34124 
  -32662   -30418   -29255   -29402   -31048   -31878   -29074   -25469 
  -25248   -28597   -33904   -38088   -38473   -36559   -34295   -30813 
  -26306   -24073   -26039   -28474   -27524   -25932   -26815   -28130 
  -28336   -29128   -30963   -31211   -28756   -26194   -24267   -21675 
  -20826   -24009   -28388   -31638   -34080   -34022   -30673   -27986 
  -28779   -30857   -32029   -33527   -35272   -33235   -26971   -23368 
  -26183   -29126   -27553   -27164   -30954   -33030   -33182   -36849 
  -40251   -35859   -26675   -21579   -22976   -25807   -27232   -30560 
  -35514   -35682   -30170   -25354   -24998   -28080   -32555   -35143 
  -32714   -26906   -22856   -24163   -29604   -34255   -36376   -37420 
  -35765   -30318   -25641   -26844   -32340   -35078   -31720   -26118 
  -23671   -26262   -30373   -31675   -31380   -30887   -29149   -28433 
  -28729   -26880   -25170   -25894   -28610   -32823   -34145   -31110 
  -28155   -26810   -27649   -31426   -36624   -41071   -39560   -30397 
  -21425   -18142   -20201   -26604   -33421   -35904   -32844   -27242 
  -24387   -26348   -31568   -36331   -36150   -32872   -31409   -30255 
  -27982   -28182   -30467   -30735   -30028   -30568   -30128   -28494 
  -27912   -27338   -25689   -24096   -24936   -30369   -34272   -28630 
  -21431   -23885   -31135   -35426   -36634   -36026   -33642   -29722 
  -28682   -31919   -29391   -17916   -11322   -18600   -31627   -39188 
  -41155   -42830   -42965   -37545   -26830   -16853   -18099   -29009 
  -33311   -28863   -26592   -26217   -27519   -35185   -41331   -37269 
  -29480   -27468   -29516   -27433   -23101   -24912   -29527   -30096 
  -30538   -31413   -25746   -19516   -23850   -33040   -37362   -36685 
  -33401   -29174   -24771   -22365   -25767   -32724   -37645   -39194 
  -37946   -37074   -39297   -39021   -32816   -25706   -20776   -18837 
  -19324   -20934   -26325   -32431   -32094   -30458   -33389   -36164 
  -36015   -33027   -27888   -25254   -26862   -30250   -32846   -32166 
  -28994   -26778   -27803   -31344   -34854   -35553   -30570   -25579 
  -28752   -32301   -28801   -24694   -22805   -23773   -30378   -36963 
  -38643   -38438   -36326   -32128   -30953   -33559   -33428   -24994 
  -12035    -7312   -15716   -27040   -33675   -38439   -42037   -40091 
  -33849   -30232   -31647   -34324   -34656   -33344   -32048   -28441 
  -21418   -16959   -19717   -26009   -31614   -35724   -36493   -32370 
  -26555   -26517   -32936   -33989   -25194   -18157   -18991   -24322 
  -34908   -47474   -50133   -40996   -30319   -26144   -29985   -35210 
  -32995   -26062   -23463   -25431   -25393   -20008   -14090   -16138 
  -26653   -38651   -45882   -45221   -39176   -32941   -29836   -31413 
  -34829   -36132   -35842   -34050   -28522   -22552   -23772   -31193 
  -35998   -34668   -31098   -29798   -30006   -27935   -24925   -24600 
  -23231   -17590   -17328   -27751   -37651   -41758   -44898   -44938 
  -37195   -25398   -17869   -17258   -20100   -25620   -34311   -40068 
  -35574   -24032   -15931   -16100   -22089   -30818   -39426   -43317 
  -40408   -35418   -32030   -27037   -21742   -24547   -35354   -43311 
  -39942   -28264   -19734   -20420   -26711   -32963   -35501   -34664 
  -32710   -29031   -22455   -17483   -22260   -33814   -38937   -36391 
  -33033   -26260   -17197   -16807   -26349   -36301   -39710   -36616 
  -31025   -25243   -24142   -32549   -38902   -31564   -23163   -24850 
  -27143   -24262   -23111   -28906   -35818   -32621   -23246   -21791 
  -27160   -32115   -38581   -44543   -41235   -28157   -13626    -4768 
   -5363   -17402   -38066   -55201   -54397   -35992   -17212   -13826 
  -24958   -37683   -42186   -37630   -27951   -18474   -14237   -18972 
  -31122   -40623   -41251   -39290   -39208   -38311   -35672   -30238 
  -19160    -7348    -8784   -25034   -37606   -35130   -24191   -15766 
  -18594   -32179   -44600   -46422   -40635   -35153   -31124   -25113 
  -19778   -19663   -22610   -28251   -38615   -46392   -42618   -31486 
  -24585   -26185   -29831   -29417   -28306   -27313   -19824   -10592 
  -12541   -26842   -42558   -48637   -46788   -42474   -33175   -24729 
  -24066   -21810   -15804   -17760   -28306   -34224   -27357   -18028 
  -20012   -28276   -34884   -43935   -51385   -46558   -34079   -23198 
  -14215   -10839   -17811   -25628   -26588   -30707   -43621   -54349 
  -52768   -41929   -33374   -30515   -25267   -17924   -17690   -24073 
  -30631   -33227   -30702   -30102   -35117   -37358   -33799   -30704 
  -29961   -27707   -21901   -15195   -13179   -20810   -34910   -44447 
  -41614   -27303   -14434   -17921   -32303   -42750   -44551   -37138 
  -27518   -24850   -25471   -28886   -36332   -36751   -30731   -30054 
  -35035   -43616   -49442   -42173   -27527   -14372    -4151    -3027 
  -13901   -30948   -43712   -41631   -30324   -24134   -23918   -25419 
  -29926   -36553   -37630   -30479   -27310   -32876   -34149   -30625 
  -32093   -31852   -25657   -26814   -36018   -35586   -24599   -21706 
  -29945   -34473   -29519   -22176   -21133   -27358   -33036   -36053 
  -41054   -44111   -38858   -29050   -20352   -15180   -14826   -16553 
  -20916   -31801   -40120   -36961   -32494   -34133   -34934   -32976 
  -32764   -33001   -28703   -20846   -18643   -24999   -28966   -25458 
  -23473   -28344   -33684   -33850   -33033   -32729   -28637   -26890 
  -33016   -36477   -29857   -21688   -22657   -30143   -32940   -30435 
  -29951   -30454   -28592   -27299   -28702   -31844   -34258   -33151 
  -31017   -29292   -24011   -19219   -23209   -34285   -44890   -45589 
  -32098   -17169   -13315   -16937   -25704   -36682   -38658   -34641 
  -34238   -32948   -29989   -29176   -27365   -26662   -29487   -30928 
  -31278   -31266   -28735   -30147   -37310   -37954   -29115   -23902 
  -29573   -36584   -32722   -22691   -22194   -32351   -36855   -29938 
  -23649   -19323   -14267   -23401   -43170   -47169   -34903   -22854 
  -18122   -22616   -30091   -33435   -31817   -26073   -22868   -27357 
  -33194   -32096   -26549   -25464   -27999   -28628   -29541   -32901 
  -37112   -37146   -26814   -14693   -16992   -28928   -34974   -36375 
  -37940   -32691   -20399   -13690   -18063   -26499   -32013   -35292 
  -39321   -38225   -27010   -15845   -14902   -23796   -37329   -44361 
  -36555   -22567   -16926   -21390   -28159   -32690   -38131   -43349 
  -37460   -23811   -20840   -27386   -25456   -17331   -20298   -28909 
  -29335   -30414   -37300   -38863   -32745   -26784   -30032   -41825 
  -47790   -41709   -28845   -14021    -6953   -13999   -25920   -32588 
  -35384   -37351   -35771   -31279   -29671   -30250   -27809   -24719 
  -25977   -28884   -30732   -31884   -29645   -24784   -22210   -25329 
  -34967   -41226   -32909   -18364   -14657   -24654   -33169   -29526 
  -27621   -36838   -41652   -35273   -28191   -25272   -27321   -32729 
  -34960   -33920   -32766   -31248   -27530   -16802    -9195   -22823 
  -41361   -41582   -35731   -32829   -24742   -17568   -20335   -26224 
  -25385   -21917   -25968   -30264   -26083   -25871   -34352   -39162 
  -39380   -41025   -40915   -34731   -27267   -25372   -23142   -15421 
  -13467   -23124   -33319   -33141   -25583   -24198   -32565   -41741 
  -48054   -49123   -39945   -26214   -19051   -20584   -24223   -24220 
  -23606   -24464   -26278   -37378   -56170   -61494   -42472   -16964 
  -12288   -27203   -36182   -31696   -24555   -19119   -15230   -16757 
  -24792   -32554   -35760   -37443   -40110   -43467   -43704   -35176 
  -23558   -20074   -21787   -23791   -28567   -30957   -25357   -19188 
  -22165   -32999   -42194   -43594   -37419   -28075   -20434   -16293 
  -17103   -21762   -28006   -35613   -37084   -27565   -20012   -24850 
  -33225   -34089   -31348   -31906   -32283   -30210   -28728   -28303 
  -26559   -20695   -17354   -26335   -38444   -41930   -41681   -39530 
  -33109   -28460   -27994   -26521   -21199   -16626   -21838   -34597 
  -40969   -36682   -31636   -33273   -36686   -37993   -40072   -37348 
  -25728   -16212   -16037   -20997   -26665   -32543   -39046   -42985 
  -41683   -36127   -28846   -26337   -29436   -28465   -24583   -26777 
  -30442   -30479   -27620   -23089   -27746   -41435   -48056   -46689 
  -39863   -23849    -8643    -7253   -17468   -27434   -29682   -28458 
  -31037   -34271   -29547   -22271   -26592   -38967   -43596   -37453 
  -26642   -16461   -11489   -10259   -16716   -38515   -56358   -47417 
  -26764   -17660   -20266   -29692   -42514   -46618   -34773   -17386 
   -9896   -15687   -23692   -26217   -28100   -33672   -42914   -51434 
  -47765   -31455   -20655   -24207   -30592   -29565   -25160   -25790 
  -27376   -22612   -22796   -36549   -47757   -44853   -36295   -31847 
  -32040   -29757   -26004   -28016   -29821   -27582   -27771   -29150 
  -28493   -30160   -36797   -42070   -38239   -27184   -17509   -17346 
  -28453   -40139   -41993   -38033   -32145   -23754   -20121   -24784 
  -32931   -40430   -38695   -25332   -14322   -13605   -17742   -23680 
  -29521   -33565   -38374   -39648   -34774   -34172   -35594   -28409 
  -22575   -28637   -37208   -35845   -25504   -17399   -14684   -13984 
  -18133   -25563   -31186   -34446   -33957   -32603   -31753   -26586 
  -24428   -34335   -45412   -45709   -38399   -26747   -13586    -9075 
  -15100   -23613   -29644   -30523   -28187   -25503   -18931   -14738 
  -26948   -44644   -45728   -35765   -31733   -35091   -39522   -41283 
  -38029   -29454   -24705   -31724   -41268   -42155   -33351   -20596 
  -15534   -20800   -28447   -37629   -45722   -43655   -34220   -24365 
  -15541   -16256   -28126   -36804   -39524   -41182   -38313   -33598 
  -29487   -21604   -16691   -19820   -23494   -31125   -45780   -47218 
  -28380   -15879   -23176   -32643   -30947   -27111   -35792   -47800 
  -40936   -25152   -19723   -14058    -5146    -5437   -11606   -19872 
  -31471   -41446   -44826   -38349   -29755   -31273   -39631   -45955 
  -41164   -21922    -4897    -5581   -18801   -30636   -34522   -37782 
  -44884   -42856   -26622   -17082   -22907   -23274   -16204   -21880 
  -36053   -40500   -32719   -23708   -25980   -35017   -38547   -39997 
  -44731   -49294   -49667   -39688   -17678      940    -1484   -18004 
  -27560   -28139   -29586   -31852   -37460   -49376   -53826   -42310 
  -27975   -21875   -20031   -15623   -10759   -14486   -24803   -30167 
  -33189   -38471   -37169   -27579   -17090   -12682   -20026   -32663 
  -40364   -41010   -32413   -24874   -34482   -47181   -44655   -36532 
  -28853   -18678   -18662   -34713   -46832   -43359   -34905   -27644 
  -19042    -9790    -6657   -13432   -19750   -23024   -37038   -57343 
  -64918   -55536   -37877   -24925   -21544   -20135   -19591   -23229 
  -23963   -17702   -12829   -14989   -21610   -30731   -41142   -45067 
  -33648   -16083   -12556   -23794   -33641   -32688   -24595   -21482 
  -27637   -31936   -31686   -35590   -38366   -31608   -24979   -31332 
  -47356   -52305   -34980   -16795   -16813   -23366   -21994   -16299 
  -17351   -27861   -42141   -52295   -47478   -27756   -10638    -9137 
  -20530   -32116   -31629   -23673   -25849   -39206   -48559   -49802 
  -43910   -29787   -15452    -8408    -9844   -18987   -31335   -42501 
  -50348   -55544   -55267   -39923   -14253     3775     7332     -590 
  -15230   -36481   -62897   -72620   -51229   -21897    -7518    -3608 
   -3065    -6976   -13512   -16975   -16941   -23998   -40733   -49459 
  -43787   -38186   -38176   -35863   -24988   -12324   -15576   -35885 
  -53279   -56650   -44427   -19003    -1679    -6545   -18568   -26343 
  -29814   -31785   -40505   -46551   -35191   -19179    -8339    -1365 
   -7774   -23720   -33374   -31784   -23158   -28621   -58117   -77278 
  -54780    -9850    12676    -2224   -25337   -31454   -29409   -31039 
  -34606   -39915   -43454   -40705   -36156   -27364   -17263   -24043 
  -39591   -41993   -37552   -32442   -22805   -16344   -17992   -29011 
  -45768   -48370   -32110   -17061   -14145   -21245   -34688   -43763 
  -36616   -22136   -20640   -31070   -36758   -27420    -3590    14701 
    3175   -32519   -61229   -56303   -27994   -15677   -28817   -43096 
  -44919   -35034   -22423   -20853   -32186   -48495   -60063   -58822 
  -47355   -32138   -22023   -26239   -32026   -24316   -14752   -15022 
  -19622   -21155   -20966   -28013   -42418   -51707   -53948   -52258 
  -35851    -8170     6687     3903    -4301   -15184   -30211   -43554 
  -47039   -37199   -20800   -13472   -18766   -27371   -34634   -32714 
  -19327   -12226   -20554   -32897   -38840   -35099   -24243   -17813 
  -24725   -38135   -49247   -57135   -59701   -58665   -55913   -47037 
  -41187   -50510   -67407   -79972   -76543   -51786   -24579   -11919 
   -5003     1465    -7508   -34142   -52847   -45052   -19504     1287 
     767   -12179   -19250   -23012   -24856   -13149      182    -9445 
  -32225   -41804   -35195   -22607   -13615   -14136   -16848   -18036 
  -30652   -54723   -67323   -58491   -45471   -43420   -50672   -55684 
  -43049   -19876   -10613    -9794    -1468     1480   -14396   -37729 
  -48606   -41639   -29836   -26916   -29519   -28546   -33404   -45608 
  -38125   -11651    -4685   -25856   -47842   -55724   -60316   -72871 
  -76901   -47218     1232    20541    -6581   -43683   -51216   -26546 
    3639    10723    -2971   -18342   -36565   -58609   -71215   -67855 
  -42987    -4375    15054     7170    -8709   -29981   -47146   -35612 
   -6383      918   -23080   -48673   -57072   -60711   -62348   -44265 
   -9023    14656    10139    -8842   -21700   -24315   -18055    -2393 
    7479   -10614   -48018   -69366   -59278   -38362   -33436   -43486 
  -46180   -36000   -25204   -17397   -12253   -14840   -26257   -44414 
  -60278   -55312   -29854    -4539     7198     -537   -18566   -22174 
  -11752   -18068   -49424   -69494   -51282   -17798      713      153 
  -14353   -32025   -39749   -37076   -34516   -41636   -53797   -55712 
  -41747   -16924      637   -16441   -53539   -60337   -31788    -4922 
   -4003   -24681   -32724   -13622     -780    -4077    -4823    -8633 
  -18240   -29200   -47920   -63454   -66391   -65922   -59127   -43077 
  -28407   -20425   -19644   -23966   -25348   -23679   -26318   -26301 
  -12874     2482     3471   -10711   -32912   -50666   -56258   -51403 
  -36581   -26976   -44037   -67959   -65255   -50415   -51454   -57741 
  -46797   -18930     6417     7391   -18684   -47234   -48946   -20119 
    9037     2652   -36251   -66534   -62122   -43214   -40217   -46982 
  -41613   -25777   -15644   -21470   -33874   -31903   -13677     6819 
   14815    -1307   -30711   -46355   -42636   -39204   -40094   -25748 
   -5410   -13403   -46639   -70251   -61562   -28448    -2261     -711 
  -15728   -33072   -37142   -26883   -23783   -36391   -49394   -53446 
  -48795   -33615   -13048    -5200   -20651   -39986   -42199   -42414 
  -55773   -64213   -55716   -43211   -35686   -30437   -25602   -20610 
  -13425    -8816   -19730   -44036   -55454   -45018   -38349   -46733 
  -54040   -52754   -47488   -40565   -29572   -12317     1785      355 
  -11147   -19987   -27520   -39743   -48576   -44686   -37546   -35899 
  -31231   -23607   -25230   -35441   -42089   -34265   -18444   -16579 
  -29195   -34703   -23249    -9534   -18933   -48524   -63292   -45996 
  -14648     3077    -4462   -24657   -41342   -46762   -35074   -15473 
   -8833   -18033   -29820   -34463   -31383   -24728   -18917   -20367 
  -24577   -15606     3389    13765     4293   -19633   -29839   -18795 
  -18496   -37765   -60175   -73740   -61040   -27958      244    16368 
    7235   -29323   -56989   -60241   -54574   -44024   -30836   -23664 
  -26785   -33853   -29367   -17353   -20469   -36758   -42596   -34959 
  -32235   -38748   -41086   -30499    -9652     5733     -892   -26691 
  -55365   -67697   -53527   -26092    -8858   -11529   -23344   -34012 
  -44945   -45064   -25989   -15541   -37050   -67183   -69443   -42573 
  -20991   -22094   -19685    -6149   -14176   -42968   -54472   -42379 
  -33366   -40055   -47905   -42358   -32309   -32851   -39912   -40503 
  -32774   -22609   -13069    -8908   -15702   -28053   -36608   -34096 
  -18375   -10930   -28725   -45293   -36402   -18529   -16541   -33980 
  -50456   -46767   -31038   -18591    -8660     -479    -3715   -24905 
  -56904   -74920   -61220   -36105   -24396   -20925   -18488   -22230 
  -33035   -43686   -41975   -24394    -7330    -1856    -4985   -25463 
  -62309   -79645   -53581    -7769    13905    -4043   -30732   -35608 
  -30971   -41948   -59023   -54691   -36892   -31283   -34466   -34832 
  -32649   -30203   -30927   -34281   -35081   -33623   -36757   -43429 
  -40612   -25053   -11165   -13924   -31647   -42433   -29443   -10153 
  -14097   -37440   -53195   -47252   -27530   -17939   -27010   -36409 
  -37887   -34839   -25789   -19334   -28126   -46800   -54583   -40582 
  -24514   -27661   -37589   -37639   -36392   -42132   -44793   -36339 
  -30092   -41122   -50852   -36709   -17772   -16002   -24968   -33568 
  -35879   -34914   -34811   -31884   -29988   -36608   -47493   -50228 
  -37827   -20910   -17091   -26772   -32614   -25449   -14115    -8776 
  -14367   -27751   -37315   -39683   -37266   -26758   -14253   -17263 
  -36011   -47165   -39836   -30065   -30074   -37770   -47636   -50488 
  -41171   -24279   -11103   -12787   -23898   -29901   -30707   -35210 
  -44080   -48589   -38984   -17208    -2425    -7763   -24682   -42350 
  -50970   -38935   -16382   -11207   -30502   -50969   -51272   -37604 
  -25381   -17777   -18521   -31515   -43235   -39614   -27473   -20507 
  -20644   -19162   -13860   -14384   -22167   -28038   -28167   -25330 
  -24627   -24273   -20145   -23304   -38306   -45098   -32661   -18200 
  -21409   -38027   -46097   -37855   -31465   -36368   -32912   -12904 
    -815   -13329   -36321   -46687   -35919   -17420   -13791   -28767 
  -44210   -49336   -47542   -41919   -37830   -41442   -48094   -49451 
  -43973   -35760   -29840   -25468   -21227   -17640   -12366   -10934 
  -21946   -38778   -49696   -51131   -42507   -26270   -12863   -10320 
  -12571   -11259   -14184   -33089   -54199   -49916   -20332     3138 
   -1484   -21216   -33846   -35234   -31575   -29310   -33645   -42990 
  -46576   -39024   -29970   -29079   -36567   -41909   -31761   -18245 
  -26488   -48424   -54454   -37257   -17200   -16029   -31526   -44027 
  -44948   -40116   -33658   -28249   -28646   -34069   -36626   -30714 
  -23127   -23622   -25344   -18209   -12418   -22488   -41362   -51316 
  -47521   -35640   -23371   -19775   -24672   -26740   -23087   -22156 
  -25077   -24322   -17987   -13271   -16811   -23938   -25503   -23254 
  -23168   -24961   -28681   -32988   -31874   -27382   -26771   -27201 
  -25273   -24413   -23751   -25141   -32711   -35844   -27108   -18346 
  -20628   -30615   -32781   -17480    -1118    -7638   -32974   -48947 
  -43271   -35595   -42733   -52045   -47229   -33244   -23254   -23167 
  -27264   -27471   -27255   -29003   -28440   -26849   -26469   -32013 
