Origin Time       2016/04/16 01:25:00
Lat.              32.753
Long.             130.762
Depth. (km)       12
Mag.              7.3
Station Code      SAG001
Station Lat.      33.5274
Station Long.     129.8771
Station Height(m) 49
Record Time       2016/04/16 01:25:25
Sampling Freq(Hz) 100Hz
Duration Time(s)  134
Dir.              E-W
Scale Factor      3920(gal)/6182761
Max. Acc. (gal)   20.757
Last Correction   2016/04/16 01:25:25
Memo.             
[...]
   -2537    -1031    -1176    -2402    -2969    -2646    -1950    -2153 
   -4139    -5469    -3875    -1190      325      259    -1033    -2099 
   -2251    -2655    -3331    -3054    -1877    -1058    -1562    -2824 
   -3508    -3612    -3766    -3751    -3649    -3733    -3365    -2848 
   -3356    -4011    -3582    -3126    -3517    -3821    -3336    -2637 
   -2753    -3715    -4178    -3740    -3684    -4376    -4973    -5049 
   -4241    -2667    -1796    -2549    -4043    -5057    -5073    -4405 
   -3852    -3405    -2274     -752     -220     -931    -1946    -3005 
   -3924    -3845    -2855    -1982    -1771    -2354    -3629    -5139 
   -6805    -8724    -9735    -8770    -6857    -5136    -3864    -3443 
   -3299    -2330    -1004     -556    -1536    -3359    -4442    -3869 
   -2319    -1105    -1308    -2853    -4515    -5609    -6007    -5279 
   -3644    -1864     -568    -1002    -3616    -6451    -7460    -6252 
   -3940    -2838    -3850    -5300    -5659    -4904    -4155    -4652 
   -5680    -5425    -4087    -3214    -2895    -2417    -1663     -183 
    1952     3181     2810     1424     -428    -1869    -2358    -2365 
   -2309    -2102    -1844    -2394    -4199    -5950    -5892    -3977 
   -2034    -1713    -2547    -2856    -2096    -1530    -2519    -4261 
   -5040    -5045    -5004    -4969    -5404    -6132    -6454    -6106 
   -4658    -3175    -3644    -5253    -5872    -5062    -3625    -2727 
   -2677    -2576    -2126    -1934    -1953    -1606    -1060    -1026 
   -1607    -1739     -577      497      -87     -953     -159     1570 
    2171     1108     -164     -823    -1807    -3239    -3865    -3622 
   -3804    -4817    -6105    -6984    -6850    -6332    -6106    -5605 
   -5553    -6743    -7213    -5834    -4594    -4860    -5779    -6547 
   -6716    -5887    -5258    -5847    -6112    -5107    -4232    -3971 
   -3179    -1935    -1391    -1294     -864     -925    -2300    -3554 
   -3202    -2215    -1506     -493      318     -217    -1839    -4014 
   -5564    -4209     -805      729     -660    -3190    -5452    -6430 
   -6302    -6512    -7277    -7257    -5896    -4710    -5235    -6590 
   -6996    -6048    -4613    -3906    -4103    -4620    -5460    -6180 
   -6097    -5839    -5842    -5668    -5463    -5295    -4705    -3820 
   -2760    -1571    -1233    -1844    -2050    -1843    -2286    -3213 
   -3603    -3399    -3910    -5277    -5994    -5890    -5724    -5850 
   -6609    -6598    -4138    -1368    -1390    -3906    -6570    -7611 
   -7261    -7032    -7125    -6550    -5216    -3984    -3152    -2168 
   -1239    -1095    -1338    -1305     -788      368     1582     1628 
     -53    -2185    -2575    -1328     -898    -2336    -4135    -4644 
   -3936    -3144    -3106    -4292    -6272    -7422    -6976    -6261 
   -6786    -7838    -7816    -7479    -8179    -9040    -8913    -7628 
   -5839    -5198    -6061    -6850    -6861    -6300    -5038    -3625 
   -2881    -2294    -1125       45      313     -522    -1940    -2586 
   -2018    -1615    -1657    -1322    -1214    -1496    -1385    -1753 
   -3070    -3967    -4533    -5473    -5665    -5022    -5021    -5267 
   -4713    -4322    -4941    -5763    -6287    -6406    -5404    -3668 
   -2678    -2501    -2564    -3128    -4240    -5299    -5587    -4950 
   -3999    -3236    -2954    -3231    -3613    -3945    -4161    -3974 
   -3865    -4052    -4196    -5089    -6994    -8200    -7581    -5986 
   -5173    -6003    -7235    -7379    -6860    -6805    -7285    -7491 
   -6879    -6172    -6235    -6274    -5476    -4578    -4018    -3677 
   -4046    -4857    -5080    -4820    -4412    -3381    -1700     -206 
     403      240     -485    -1933    -3202    -2846    -1474     -997 
   -1911    -3069    -3365    -2961    -2983    -4249    -5769    -5356 
   -3374    -2596    -3207    -3204    -2591    -2757    -4364    -6834 
   -8272    -7950    -7243    -6659    -5819    -4822    -3526    -2406 
   -2748    -4409    -5560    -4771    -2721    -1328    -1088    -1181 
   -1308    -1140     -264      680     1016      974      901      929 
     935      592     -187    -1349    -2825    -4023    -4209    -3795 
   -3869    -4500    -4838    -4587    -4357    -4529    -4959    -5706 
   -6764    -7567    -7399    -6137    -4757    -4692    -6035    -7234 
   -7369    -7001    -6402    -5471    -4513    -3410    -2329    -2512 
   -3660    -3872    -3440    -3876    -4553    -4456    -3794    -2664 
   -1528    -1512    -2555    -3215    -2545    -1209     -660    -1148 
   -1063      525     2069     2130      989     -754    -2330    -3488 
   -5091    -6632    -6527    -5356    -4913    -5615    -6923    -7951 
   -7635    -6286    -5258    -4922    -5059    -5173    -4363    -3015 
   -2447    -3017    -4029    -4199    -3147    -2428    -2950    -3266 
   -2665    -2376    -2418    -2260    -2821    -3714    -3676    -3761 
   -4962    -6169    -6174    -5250    -4833    -4820    -3624    -2038 
   -2186    -3807    -5195    -5779    -5891    -5415    -4659    -4628 
   -5059    -4832    -3828    -3054    -3347    -4018    -4073    -3673 
   -3224    -2882    -2549    -1970    -1675    -2194    -2628    -2387 
   -2377    -3146    -4227    -4648    -3715    -2489    -2120    -1926 
   -1908    -2822    -3827    -4460    -5227    -5291    -4463    -4146 
   -4092    -3584    -3311    -2772    -1789    -2415    -4562    -5993 
   -6199    -5455    -4231    -3764    -3907    -3559    -3189    -3236 
   -3113    -3257    -3810    -3677    -3524    -4665    -5942    -5818 
   -4499    -3179    -3159    -4322    -5298    -5814    -6179    -6115 
   -5802    -5126    -3642    -2647    -3359    -4706    -5185    -4474 
   -3242    -2430    -2466    -2858    -2680    -1792     -906     -903 
   -2420    -4643    -5413    -3977    -2150    -1922    -3052    -3885 
   -3781    -3682    -4440    -5213    -4746    -3381    -2049    -1348 
   -1850    -3301    -4582    -4913    -4505    -3855    -3211    -3385 
   -4535    -5291    -5431    -5591    -5274    -4636    -4450    -4250 
   -3711    -3465    -3873    -4765    -5571    -5664    -5324    -5171 
   -4834    -4089    -3782    -4329    -5300    -5995    -5875    -5338 
   -4906    -4187    -3615    -4930    -7702    -8870    -7710    -6777 
   -7346    -8309    -8414    -7385    -6339    -6462    -6980    -6379 
   -4835    -3592    -2722    -1404      153     1233     1845     1816 
    1095      471     -208    -1942    -4263    -5363    -4604    -3646 
   -3758    -4433    -5277    -5687    -5273    -5047    -4645    -3309 
   -2970    -4064    -4403    -4181    -4590    -4749    -4371    -4380 
   -4702    -4889    -5049    -5220    -5255    -5228    -5286    -5065 
   -4539    -4789    -5611    -5278    -4135    -3667    -3290    -2336 
   -1646    -2027    -3503    -4619    -3923    -2649    -2366    -2505 
   -2521    -2778    -3538    -5032    -6496    -6382    -5369    -5274 
   -5389    -4502    -3483    -2861    -2393    -2567    -2611    -1249 
     -37     -574    -1511    -1361     -500     -331    -2053    -4686 
   -5717    -4850    -3723    -2895    -2320    -2294    -2996    -4327 
   -5498    -5927    -6073    -5887    -5184    -4634    -4007    -3112 
   -3480    -5276    -6698    -7364    -7679    -7283    -6657    -6552 
   -6167    -5119    -4331    -3288    -1312     -169     -642     -977 
    -812    -1230    -1921    -2583    -3988    -5493    -5797    -5357 
   -5344    -6306    -7371    -6967    -5612    -5195    -5739    -5657 
   -4384    -3256    -3319    -3374    -1902      437     1752      826 
   -1738    -3486    -3345    -3039    -3351    -3597    -4238    -5465 
   -6138    -6103    -6227    -6575    -6835    -6995    -7257    -8135 
   -8926    -7773    -5119    -3263    -2619    -2117    -1619    -1536 
   -1854    -2741    -4087    -4788    -4635    -4405    -3851    -2767 
   -1597     -499     -302    -1526    -2886    -3802    -5195    -6818 
   -7245    -5999    -4036    -2646    -2447    -3445    -4827    -4543 
   -1701     1087     1054     -699    -1080      656     1923      953 
    -118      771     2186     2301     1463      286    -1593    -3955 
   -5521    -5849    -6137    -7263    -8303    -8245    -7740    -7797 
   -7726    -6132    -3585    -1999    -1999    -2758    -2942    -1675 
       9      716      746      279     -575     -829    -1277    -3316 
   -5723    -6791    -5656    -2354      495     1005     1090     1822 
    2346     3190     4420     4741     3984     2953     2281     1610 
     494      -62      120     -205    -1232    -2634    -4067    -4752 
   -5115    -6193    -6986    -6074    -4305    -3173    -3283    -4303 
   -5035    -5687    -7376    -8883    -8562    -6778    -4664    -3398 
   -3007    -1981      -54     1229      894     -789    -2931    -4368 
   -4591    -4562    -5470    -6959    -7677    -7367    -7255    -7664 
   -7280    -5620    -3452    -1218      899     2471     2910     2214 
    1501     1321      867      -41     -814    -1510    -2215    -2655 
   -3010    -3409    -3544    -3642    -4014    -4171    -4041    -4415 
   -5537    -6715    -6937    -5561    -3063     -425     1864     3182 
    3303     3649     4988     6118     6290     5725     4920     4540 
    4311     3696     3151     2757     1996      375    -2945    -7412 
  -10614   -11610   -11745   -12327   -13521   -14585   -14574   -13330 
  -11786   -10779    -9824    -7990    -5637    -4274    -4566    -5384 
   -5436    -4350    -1932     1539     4676     6074     5634     4448 
    3324     2216     1501     1427     1009      216      242      656 
    -105    -2390    -4890    -5569    -3879    -1478      -99     -145 
    -668     -373      940     2525     3507     3658     3546     3198 
    1838    -1065    -5098    -8596   -10746   -13101   -16142   -18359 
  -20045   -22256   -24214   -25747   -27264   -27198   -24844   -22102 
  -19288   -15000    -9729    -4725      -89     4452     9153    13806 
   17780    20848    22659    22687    21205    18764    15879    13185 
   10415     7226     4628     3072     1340    -1085    -2831    -2755 
   -1559     -697    -1006    -2188    -2950    -2397     -806     1257 
    2839     2354     -176    -2804    -4700    -6666    -9344   -12406 
  -14769   -16066   -17202   -17896   -15836   -10490    -4906    -2064 
   -2041    -2483    -1130     1129     1883     1404     1421     1890 
    2253     2563     2016       52    -2337    -4577    -6756    -8728 
  -11140   -14148   -16123   -16326   -15435   -13434   -10483    -8028 
   -7452    -8658    -9527    -8006    -4813    -1222     2991     7438 
   11368    14381    14907    12469     9119     5421       46    -6434 
  -11773   -14875   -16129   -16310   -16056   -15432   -14148   -12655 
  -12146   -13434   -16160   -18612   -18672   -16144   -13530   -13039 
  -14304   -15994   -17266   -17907   -18753   -20264   -21072   -20252 
  -18630   -16671   -14568   -13204   -12241   -10441    -8316    -6552 
   -3668     1326     6744    10622    12125    10956     8233     6035 
    5187     5434     6281     6436     4756     1568    -2390    -6615 
  -10135   -11710   -10607    -7765    -5066    -2852    -1043     -639 
   -1423    -1550       24     2812     5826     8705    11741    14586 
   16041    15721    14444    13398    13304    13028    10934     7041 
    1531    -4609    -8346    -8341    -5967    -2844     -386     1463 
    4026     6924     8775     9466     9752    10293    10539     8952 
    5285      485    -4853    -9835   -13060   -13949   -13439   -13510 
  -15288   -17890   -19942   -20964   -21029   -20282   -19239   -18659 
  -18265   -16994   -15130   -14643   -16459   -18594   -18917   -17871 
  -16619   -15579   -15319   -16070   -16911   -16796   -15396   -12906 
  -10338    -9334   -10214   -11663   -12935   -14018   -14660   -15232 
  -16278   -17336   -18122   -18791   -18693   -17427   -16113   -15919 
  -16669   -17667   -18512   -18658   -17631   -15774   -14113   -13864 
  -15141   -16475   -16996   -16650   -14264    -9269    -3707      576 
    3734     5653     6174     6499     6850     6498     6331     6640 
    5419     2183     -715    -1966    -2611    -3219    -2953    -1389 
     292      125    -2328    -5368    -7387    -8140    -7642    -5452 
   -2196      -53      354      545     1006     1311     1196      353 
     344     3071     6809     9342    11411    13677    15323    16078 
   16427    16760    16811    15318    12253    10017     9709     9891 
    9735     9647     9825     9454     7056     3075      215     -911 
   -2169    -3786    -5380    -7432    -8678    -8382    -8815   -10634 
  -11827   -11673   -10509    -8710    -7945    -9233   -10440    -9420 
   -7208    -5672    -5165    -5163    -4811    -3764    -3522    -5790 
   -9068    -9848    -7516    -4895    -4465    -6686    -9953   -11434 
  -10712   -10093    -9968    -9110    -7839    -6409    -4185    -2036 
   -1600    -2595    -3287    -2495     -654      654      971     1014 
     595     -657    -2435    -4349    -5703    -6204    -6281    -5637 
   -3676    -1506    -1243    -3148    -5619    -7443    -7996    -7170 
   -5956    -5571    -6446    -7834    -8523    -8443    -8005    -7056 
   -6038    -5735    -6208    -7440    -9174   -10451   -10528    -9160 
   -6385    -3187    -1380    -1855    -4120    -7425   -10406   -11395 
  -10669    -9449    -7333    -3509     1239     5059     7168     9128 
   12929    18394    23717    27447    28914    28126    25820    22777 
   19318    15264    10029     3616    -2915    -8658   -13285   -16617 
  -18887   -20142   -20060   -19216   -18418   -17797   -17580   -17498 
  -16249   -13433   -10110    -6923    -4039    -1899     -728     -668 
   -1502    -2289    -2281    -1195      632     2125     2161       44 
   -3152    -4473    -2986     -978     -151     -390    -1078    -1440 
   -1570    -2612    -4792    -6726    -6868    -4948    -2645    -2639 
   -5750    -9984   -13103   -14265   -14000   -14397   -16990   -20477 
  -22903   -23657   -22756   -21303   -20324   -19043   -17801   -18185 
  -19264   -19179   -17836   -15910   -14084   -12682   -11543   -10281 
   -8661    -7302    -6416    -5277    -4251    -4023    -4268    -5075 
   -6251    -6562    -6102    -5964    -5864    -5395    -5518    -6585 
   -6855    -4896    -1961      -53      507      724     1815     3905 
    5596     6056     6259     7266     9071    10956    11924    11507 
    9936     7535     4646     1826      179      326      691     -790 
   -4216    -8323   -11337   -11867   -10392    -8857    -8624    -8728 
   -7118    -4118    -2038    -1656    -1979    -2497    -3616    -5084 
   -5701    -5402    -5649    -7173    -9079   -10382   -11274   -12099 
  -12235   -11254    -9656    -8024    -6981    -6806    -6489    -5153 
   -3516    -2442    -1860    -1535    -1389    -1170     -774     -648 
   -1503    -3864    -7094    -9406    -9953    -9350    -8443    -7929 
   -8076    -8558    -9128    -9971   -10849   -10837    -9719    -8437 
   -7957    -8131    -7973    -7147    -5669    -3476    -1516     -418 
     266      379      445     1828     3589     4181     4580     6104 
    7971     8188     6082     3168      837    -1074    -3023    -4658 
   -5513    -6107    -7098    -8360   -10163   -12996   -16148   -18494 
  -19257   -18182   -16754   -16808   -17439   -16395   -13105    -8508 
   -4253    -1486      422     2266     4033     5979     7993     8947 
    8290     6915     5578     4290     3556     3681     3561     2393 
    1091      710     1129     2292     4550     6783     7496     7688 
    9010    10966    12706    14534    16359    17330    16915    15144 
   12478     9679     7549     6307     4993     2293    -1734    -5580 
   -8142    -9762   -11349   -13225   -14974   -16331   -17423   -18024 
  -17628   -16148   -14308   -13402   -13949   -14834   -14704   -13496 
  -11883   -10218    -8733    -8014    -8810   -10918   -12580   -12345 
  -10624    -8653    -7402    -7531    -9403   -12584   -15549   -16752 
  -15568   -12519    -9402    -7512    -6099    -4433    -3099    -2262 
   -1016     1483     4635     6387     5714     3721     1607     -476 
   -2658    -4707    -6180    -6963    -7288    -7494    -8005    -9080 
  -10508   -11644   -12118   -12153   -11730   -10615    -9135    -7787 
   -7017    -7599    -9660   -12195   -14402   -16186   -17974   -20220 
  -22299   -23171   -22953   -22551   -22464   -22278   -21281   -19662 
  -18013   -16249   -14396   -12755   -10887    -8285    -5071    -1713 
     637     1266     1188     1171      890      607      724      855 
     741      861     1809     3165     3897     3778     2757      753 
   -1133    -2079    -2849    -3859    -4714    -5457    -5791    -5042 
   -4012    -3916    -4330    -4618    -4807    -4374    -3096    -1776 
    -726      224      851     1121     1113      858     1040     2107 
    3544     5035     6492     7784     9027     9743     9509     9303 
    9526     8793     6545     4016     2130     1055      953     1251 
     602    -1566    -4464    -6790    -7549    -7018    -6923    -8126 
   -9158    -8652    -7347    -6420    -5905    -5499    -5002    -3996 
   -2545    -1585    -1668    -2003    -1597     -675      -73      -61 
    -220      224     1526     2803     3252     3061     2285      649 
   -1165    -2212    -2761    -3335    -3740    -3861    -3913    -4027 
   -4214    -4352    -4036    -2962    -1655     -733       58      861 
    1229     1209     1066      290    -1630    -3969    -5224    -5039 
   -4866    -5677    -6589    -7057    -8266   -11078   -14395   -16381 
  -16253   -14717   -13141   -12390   -12366   -12314   -11491    -9796 
   -7855    -6258    -4856    -3281    -1693     -478      450     1594 
    2989     4009     4495     4920     5222     4995     4575     4503 
    4639     4482     3810     3006     2857     3595     4292     3970 
    2785     1453      477       74       13     -442    -2064    -4443 
   -5698    -4579    -2232    -1018    -1844    -3504    -4497    -4640 
   -4923    -5886    -6731    -6486    -4914    -2579     -693      188 
     818     1804     2901     3641     3727     3730     4825     6960 
    8817     9487     8709     6363     2940      108     -298     1365 
    2590     2161     1039     -254    -1825    -3362    -4761    -6146 
   -7370    -8209    -8466    -7790    -5838    -3178    -1095       14 
     552      474     -709    -3201    -6273    -8392    -8924    -9012 
   -9723   -10642   -11208   -11550   -11491   -10599    -9073    -7375 
   -5461    -2916      441     4215     7348     8657     8173     7056 
    5910     4696     3442     1879     -104    -1619    -1959    -1866 
   -2531    -4256    -6531    -8392    -8816    -7881    -6862    -6445 
   -6622    -7925   -10225   -11876   -11714   -10225    -8976    -9544 
  -11652   -13349   -13759   -13249   -11968   -10155    -7981    -5551 
   -3757    -3084    -2889    -2710    -2099     -405     1935     3610 
    3892     3018     1864     1281     1328     1441     1147      235 
   -1190    -2732    -4101    -5232    -6261    -7177    -7796    -8537 
   -9647   -10387   -10842   -11763   -12328   -11451    -9703    -8206 
   -7681    -8080    -8199    -6783    -3794     -411     2015     3259 
