Origin Time       2016/04/16 01:25:00
Lat.              32.753
Long.             130.762
Depth. (km)       12
Mag.              7.3
Station Code      SAG004
Station Lat.      33.2646
Station Long.     129.8813
Station Height(m) 32
Record Time       2016/04/16 01:25:23
Sampling Freq(Hz) 100Hz
Duration Time(s)  130
Dir.              E-W
Scale Factor      3920(gal)/6182761
Max. Acc. (gal)   37.319
Last Correction   2016/04/16 01:25:24
Memo.             
[...]
  -11291    -9566    -6941    -5835    -5326    -3260        8     2869 
    4281     3750     1951      401      126     1092     1654      199 
   -2532    -5161    -6876    -6576    -4327    -1527      899     2227 
    2535     3402     4571     3703      897    -1827    -3892    -5375 
   -5628    -4582    -4176    -6196    -9359   -10579    -8007    -3370 
    -498      102     1023     3350     6292     7829     5824     1316 
   -2753    -4976    -4549    -1844       37    -1206    -4613    -7749 
   -8241    -4948     1032     6938    10494    11731    11631    10270 
    7449     3025    -2478    -6864    -8492    -8282    -7222    -4737 
   -1246     1009     1135     1042     2745     5752     7976     8451 
    8043     7647     6753     3983     -944    -6197    -8967    -7256 
   -2314     1064     -104    -3475    -5168    -3716     -524     1441 
    1341     1495     2482     2263      939       90     -847    -2929 
   -5389    -6811    -6266    -3575      302     3228     2766     -825 
   -3791    -3572    -1285      434     -288    -2765    -4428    -3884 
   -1797      -24     -486    -2632    -3710    -2758    -1419    -1783 
   -4239    -6394    -5562    -1421     3655     6287     5975     4805 
    4044     3965     3347      539    -2914    -4402    -3854    -2466 
   -1094      150      856     -273    -2562    -3116     -631     3437 
    6474     6559     3715       12    -1794    -1249     -470    -1103 
   -3702    -7768   -10764    -9667    -3780     2835     3755     -877 
   -3753     -790     4836     7439     4491     -505    -2586    -1810 
   -1850    -4519    -7342    -6879    -3293     1113     4665     6818 
    8227     8633     6790     3273     -124    -1671     -226     1755 
     327    -3050    -4216    -2769     -776     -492    -2377    -4235 
   -4673    -3219     -578     -518    -4209    -8023    -8994    -6317 
   -1439     2797     4688     3396     -299    -3718    -5335    -5319 
   -4367    -2983     -785     1802     3197     3157     1989     -572 
   -3125    -3687    -2725    -1401     -114     -522    -3689    -6781 
   -7211    -5993    -3987    -1209     1627     4572     7122     7506 
    5473     2060    -1386    -3681    -4892    -4974    -3896    -2815 
   -2401    -3083    -4913    -5108    -1719     2319     4201     4396 
    3707     3788     6256     8448     6867     2040    -3659    -7874 
   -9335    -8799    -6949    -4022     -408     3716     6569     6308 
    4740     4488     5153     4752     2069    -2444    -6576    -8602 
   -9049    -8578    -7069    -5094    -3627    -2924    -2040      424 
    4517     7730     6657     1698    -2921    -4628    -2860     2827 
    9335    10524     5245    -1731    -6587    -7159    -2506     3400 
    5769     5234     4341     4395     5563     5413     2344    -1377 
   -3958    -5114    -4356    -2971    -2513    -2833    -4374    -5849 
   -3781      906     4180     4945     4190     2755      964    -1087 
   -3284    -6079    -9308   -11655   -12256   -10158    -5375    -1285 
    -249      215     2526     6263    10477    12426     9078     2865 
   -1586    -3646    -4984    -6956    -9735   -11912   -12120    -9455 
   -3881     1280     1896    -1055    -2896    -1147     2932     6598 
    7969     7302     5747     3298     -360    -5130   -10067   -11835 
   -8273    -1795     4397     7987     7592     5283     3951     3735 
    3723     2696      124    -1676    -1531    -1877    -3316    -4421 
   -5102    -4719    -3258    -2884    -3368    -1810     2433     6967 
    8942     7082     2744    -1230    -2978    -2185      476     3986 
    7001     6927     2203    -4880   -10592   -12663   -10573    -5285 
    1497     6954     8138     5837     3707     3664     4541     3639 
     147    -3454    -4409    -2562    -1353    -4614   -10019   -10988 
   -6079      544     5585     8148     9427    11118    11886     9484 
    3874    -3510    -9392   -11128   -10225    -9053    -8069    -7281 
   -6339    -4984    -3312     -387     4036     8009     9847     9380 
    7683     6121     4478     2348      807     -215    -2523    -6518 
  -10589   -12503   -10742    -6523    -2706       78     2949     5602 
    6938     6964     6310     5470     4236     1424    -3043    -6840 
   -7763    -5319    -1171      992      127    -1028    -1423    -1329 
    -248      553      275      547     1153      119    -2509    -4497 
   -4221    -3014    -2839    -3320    -3211    -1754     1378     5613 
    9290    10211     7894     4985     3718     3187     2290      644 
   -3258    -8865   -12204   -11022    -6324     -940     1608      963 
     444     2158     5028     7355     7980     5805     1548    -2037 
   -3274    -2406     -369     1204      802     -536     -214     1451 
    2173     1880      632    -2260    -5128    -7068    -9569   -11855 
  -11884    -9322    -4521      497     3062     3256     2409     1773 
    2266     3191     4016     4700     4443     3302     1498    -1504 
   -4454    -5593    -5552    -5104    -3365      279     4640     7289 
    6474     2635    -1988    -5003    -5849    -5873    -5345    -3434 
   -1434    -1186    -2597    -4897    -6210    -3881     1674     7331 
   11210    12327     9577     4059    -1144    -4407    -6314    -7425 
   -7838    -7932    -7356    -5374    -2693    -1068    -1758    -4113 
   -5243    -3069      898     3532     3535     2059      591     -523 
   -1170    -1414    -2508    -4936    -6529    -4980    -1072     1890 
    3116     5070     7046     6798     6334     7541     9207     9741 
    7487     2376    -3583    -8798   -11658   -11537   -10302    -8735 
   -5595    -1218     2359     3910     3837     3762     4519     4732 
    3360      728    -2560    -4794    -5040    -4563    -4496    -5660 
   -7556    -7390    -4313     -482     2687     4749     5868     7594 
    9660     9281     5923     1514    -1734    -1773       90     -522 
   -5446   -12952   -19667   -21248   -15827    -6774     1401     6955 
    8970     6983     3421     2061     3818     5644     4020    -1138 
   -6563    -8922    -7674    -4518    -1482      -10      107       16 
     370     1263     1352     -260    -1659    -1676    -1249     -957 
   -1709    -4646    -9112   -12424   -12202    -9512    -6669    -3705 
    -945      613     1861     3141     3307     2586     2218     2501 
    2338      942     -271       56      664     -531    -3362    -5305 
   -4612    -2083       17      240     -129      679     2049     2784 
    2780     2404     2243     2604     2655     1290     -732    -1181 
     300     1488      793    -1454    -4388    -7085    -8902    -9525 
   -8610    -6546    -4137    -1394     1903     4836     5720     4197 
    1619     -611    -1421     -250     1492     1530      505      374 
      57    -1714    -3904    -6243    -8870   -10753   -10413    -6702 
   -1824      -32    -1341    -3236    -4261    -2660      713     1991 
     796     -472    -1797    -3667    -5314    -7073    -9072    -9542 
   -7732    -4973    -2820    -1673     -574     1068     3705     8651 
   15060    19186    17929    10939      991    -7706   -12050   -10599 
   -5018     -444       26    -1697    -3229    -3778    -3270    -2933 
   -2816    -1129     2200     6087     8974     8461     4052    -3154 
  -11694   -17983   -18460   -13677    -7174    -2035      289      486 
     781     1836     2816     3882     4924     4999     3795     1536 
    -414    -1223    -3153    -7047    -9957   -10198    -8308    -5307 
   -2919    -1732     -357     2642     7393    11820    12924    10366 
    6517     3138      483    -1683    -3756    -6168    -9000   -10672 
   -8480    -2343     4915    10157    10846     8018     5902     5402 
    4496     2534     -952    -6005   -10675   -13567   -15047   -15138 
  -13058    -8098    -1032     4167     4644     3317     2689     1553 
     656     1636     3574     5074     5089     3740     2250      -54 
   -4040    -7826    -9912   -10271    -7563    -1625     4348     7757 
    7801     4936     2105     1243      760     -622    -3224    -7759 
  -12983   -15491   -12984    -7110    -2161      513     3243     7548 
   12450    15333    13994     8290     -123    -7746   -10846    -9260 
   -6032    -2763      628     2366      736    -2828    -5948    -6761 
   -4542     -758     3267     7915    12969    16597    16961    13217 
    6359     -610    -5750   -10004   -14463   -18198   -18592   -13198 
   -2878     8179    16324    19995    19445    16728    12422     4855 
   -4892   -13196   -18628   -21670   -22226   -20472   -17269   -11847 
   -3198     6460    13698    16811    15924    13381    11522     9749 
    7220     4947     3696     3445     3243      969    -4557   -11788 
  -16601   -15068    -8208    -1175     4148    11154    21212    29756 
   31809    26204    14291     -553   -13979   -23229   -26967   -24804 
  -17773    -7128     5205    15154    19769    19462    15235     8227 
     158    -7780   -14004   -17362   -19170   -20704   -20945   -19094 
  -16537   -14825   -13986   -13980   -14925   -14564    -8869     3573 
   19653    33837    42240    45045    43192    35789    22868     5348 
  -15539   -34822   -46653   -50665   -48988   -41473   -27434    -8164 
   12008    27481    35865    38250    36529    32607    27562    20811 
   10891    -2651   -17345   -28256   -32303   -31247   -27964   -22380 
  -13985    -4231     6003    16092    23325    26119    25239    20622 
   12486     2221    -9275   -19846   -25709   -24696   -18338   -11260 
   -7109    -5385    -3937    -1268     4122    11296    16184    16581 
   13792    10506     8631     8414    10369    13674    13731     8501 
    1716    -3594    -6777    -7641    -7342    -7048    -7336    -8975 
  -11315   -13226   -15243   -17452   -18661   -18878   -18533   -16014 
   -9704     -882     7817    15013    20660    23728    21037    11460 
   -1588   -14055   -23406   -28456   -29008   -24292   -14467    -1699 
   11912    22967    27294    24949    18307     7346    -7006   -20169 
  -27495   -26360   -17327    -5261     4008     7686     7018     5141 
    3390     2289     2957     4667     6890    10019    12526    13769 
   13591     9204     -435   -11733   -21293   -28341   -31335   -27833 
  -17550    -3254    11408    23940    31086    30275    23155    12526 
    1582    -4829    -5647    -4833    -6307   -11434   -16035   -13319 
   -4261     4416     9824    11610    10253     9733    12431    14579 
   12604     7882     3288      350    -1544    -5002   -10644   -16168 
  -20858   -24402   -24402   -20414   -13648    -3665     8733    20268 
   27880    28956    21516     6845   -10488   -26147   -37103   -41311 
  -38460   -29581   -16424     -754    15639    30139    40651    46678 
   49169    49738    47229    37240    17843    -7664   -33269   -52207 
  -58974   -51802   -34118   -12786     5936    16874    18215    14422 
   11081    11241    14197    14836    11325     7599     6795    10168 
   15484    15933     8099    -5210   -19723   -30520   -34310   -32117 
  -25735   -17212   -11138   -11094   -15078   -17595   -15327    -7564 
    4889    16948    22679    21123    13308     1586    -8241   -12219 
  -11483    -9369    -9174   -12113   -17046   -22481   -26753   -29355 
  -30767   -28647   -21140   -10838      348    13246    27480    39911 
   45644    40933    26423     6615   -12549   -25012   -27523   -22420 
  -15312   -10834    -9874    -9369    -5415     4738    20466    35952 
   45199    46026    40287    32905    26268    18972     8597    -6170 
  -21526   -31425   -33207   -28411   -22091   -17508   -13742   -10572 
   -9064    -8483    -5738     2245    14788    27287    34700    34232 
   25749    10601    -8540   -27025   -39557   -42931   -38034   -28320 
  -16997    -6963     1386    10975    22221    32234    38410    38120 
   30076    16420     2203    -6801    -9491   -10858   -16549   -28115 
  -41164   -48656   -46688   -35975   -19963    -2358    13872    26340 
   32744    31315    23270    12361     2262    -4935   -10065   -13869 
  -13842    -8555     -175     9369    18208    20904    12850    -2945 
  -18792   -27722   -25844   -15193    -1421    11639    21689    26905 
   27288    24327    19112    11231       94   -12842   -23621   -27778 
  -23531   -12894     -291     9336    13093    12014     8894     4924 
     101    -5467   -10928   -13500   -10711    -3185     6729    16291 
   23480    27792    28374    23181    11330    -4396   -19012   -27968 
  -28350   -22110   -14561    -7781    -1833     2160     4813     7870 
   11087    14454    18848    22333    21825    16156     5719    -5740 
  -12027   -10474    -4817    -1337    -3622   -11160   -18969   -20759 
  -15965    -9598    -5970    -5369    -5024    -1752     6179    17760 
   28990    34602    30951    18832     3145   -11391   -21811   -24912 
  -20768   -14303    -7678      151     7519    11700    11479     6617 
   -1698   -11223   -19729   -24730   -23652   -15365    -1227    14558 
   27119    34594    36892    32628    20736     3887   -11617   -20557 
  -22877   -22521   -23542   -26321   -26528   -20066    -7737     6985 
   20283    27956    28548    25058    22049    23314    29105    34225 
   33189    25385    12972     -833   -11945   -19108   -24243   -28712 
  -33700   -39838   -43950   -42075   -33626   -19426    -1448    15941 
   28447    33448    29674    17121    -2820   -26442   -47328   -59027 
  -59569   -51343   -36635   -17269     3257    21199    33952    39606 
   38389    33370    27736    22906    18551    13196     6881     1817 
   -1781    -5608   -10034   -15058   -19708   -21603   -19871   -14834 
   -6579     4184    14985    22174    24215    22670    19529    15969 
   11615     4485    -6427   -18847   -27308   -27444   -20509   -10683 
    -171    11512    25277    39634    50459    52404    42007    22116 
     -16   -18336   -29502   -33100   -32106   -30713   -29666   -25171 
  -14357     1294    16838    25862    26666    24694    24462    24968 
   23106    15868     2442   -13473   -26156   -32173   -31506   -26287 
  -19783   -14329    -9364    -3879     1330     4890     5861     3900 
    -178    -3480    -2679     1952     6819     9444     9685     8276 
    5438       44    -7583   -14687   -19548   -21627   -21100   -20648 
  -22840   -26766   -30501   -32610   -30987   -24579   -14462    -2473 
    9400    19263    25623    27807    26560    23401    19087    13567 
    6864    -1285   -11000   -20625   -27402   -29993   -29772   -28956 
  -27745   -25331   -21166   -14438    -5793     3289    12761    22370 
   30943    36560    36397    30066    20587    10582     1396    -6200 
  -12863   -19852   -27158   -32268   -31365   -23223   -10800      250 
    5608     6354     6292     7747    11178    14813    16606    16303 
   14517    12542    10897     9012     7652     7269     6861     6594 
    6678     5980     4369     1902    -2929   -10055   -15490   -14385 
   -6092     4239     9759     7414     -138    -7296   -10532   -10209 
   -9364   -11680   -17351   -23437   -28370   -31535   -32543   -31022 
  -25135   -14308    -1387     9856    16926    18479    14724     8731 
    4482     3209     2690     -335    -6831   -14240   -18325   -16644 
  -10000     -880     8291    16877    25756    34657    42495    48718 
   51588    48824    41047    30974    20540     9939    -2843   -18491 
  -33183   -42803   -45764   -42241   -34175   -23672   -11819      737 
   12989    23170    30605    35974    38068    34770    26029    12603 
   -2658   -15633   -25946   -33799   -38455   -40653   -38862   -30889 
  -18142    -2852    12887    26516    36939    44275    46646    40315 
   25512     7880    -6772   -15247   -18663   -20660   -22125   -22381 
  -19919   -12555    -2537     5373     9226     9140     6113      846 
   -7236   -17352   -26420   -31623   -31858   -28896   -26359   -26332 
  -28461   -29897   -26900   -18373    -6303     5883    14860    18470 
   16065     8645    -1533   -11471   -18563   -21977   -22963   -24098 
  -26195   -26130   -20175    -7879     8179    23652    33546    34763 
   27342    14163      436   -10170   -17241   -20259   -19424   -16802 
  -13619   -11053   -10386   -10407    -9455    -7782    -5627    -2637 
     952     4502     6572     5554     2594      683      823     1734 
    1407    -1305    -4763    -6172    -5070    -3316    -2919    -4342 
   -6627    -8906   -10823   -12216   -12941   -11896    -7081     2097 
   13158    21568    24514    23849    23858    26260    28723    28218 
   23352    14052     2487    -7873   -15530   -20053   -19233   -10814 
    3312    17653    28066    33461    34064    30747    24610    17631 
   12768    10352     8160     5048      824    -3414    -5366    -5166 
   -5183    -6675    -9262   -11664   -12516   -11593    -9862    -7814 
   -4630     -216     3863     5941     4830     1524      -43     2165 
    5823     7461     5868     3435     2782     3283     2968      495 
   -4742   -12218   -19861   -24856   -25715   -22150   -13621     -613 
   13656    24550    29081    27264    20872    12174     3247    -4279 
   -8572    -8782    -6553    -3858    -1822    -1480    -3348    -7408 
  -12223   -14713   -13135    -7904     -309     6965    11012    11334 
    8588     2848    -5257   -14875   -24231   -28483   -24485   -15238 
   -5729      272     1204     -477    -1763    -2927    -4745    -6671 
   -7969    -6908    -2449     2851     6196     7439     6830     4195 
    -417    -6728   -13933   -20494   -23970   -22337   -15709    -5841 
    4299    11663    15220    15028    11431     6481     3023     2533 
    4466     6677     7451     6547     4145      909    -2682    -7748 
  -15374   -24845   -33654   -38877   -39444   -35424   -27105   -16634 
   -7036      356     5721    10107    14801    19258    21376    20517 
   17094    10058    -1091   -14163   -26638   -36551   -41961   -42092 
  -36701   -25349    -9233     8725    25612    38833    46705    48720 
   43810    30782    11292    -9932   -27937   -39783   -45137   -45202 
  -41644   -36137   -28699   -18626    -6939     4838    15438    23948 
   30651    35540    37447    34934    27089    14547     -219   -13451 
  -21962   -25339   -24976   -21743   -15903    -7996      447     7172 
   11091    12637    12682    12394    12238    11088     7662     1910 
   -4413    -8184    -7954    -5217    -2033     -580    -2253    -4798 
   -4923    -2890    -1199    -1765    -4579    -7207    -7532    -5706 
   -2275     1948     5115     7085     9733    12883    14310    12639 
    7821     1275    -4858    -9654   -13081   -15215   -16660   -17690 
  -17801   -16391   -12753    -7176    -1724     2301     6132    11023 
   16050    19419    19377    14468     5876    -2313    -7597   -10623 
  -12626   -14582   -16349   -16834   -15932   -13262    -7224     2385 
   13310    22841    29230    31490    29764    25716    21210    17255 
   13742     9344     3778    -1044    -3650    -3372       89     5222 
    9533    11163     9959     7762     6748     8799    14419    20785 
   23370    19206     8999    -2697   -10833   -13519   -12143    -9167 
   -6373    -4583    -3807    -3296    -2301     -935      334     1551 
    2658     2725     1437      110     -387     -226      729     2028 
