Origin Time       2016/04/16 01:25:00
Lat.              32.753
Long.             130.762
Depth. (km)       12
Mag.              7.3
Station Code      SAG001
Station Lat.      33.5274
Station Long.     129.8771
Station Height(m) 49
Record Time       2016/04/16 01:25:25
Sampling Freq(Hz) 100Hz
Duration Time(s)  134
Dir.              N-S
Scale Factor      3920(gal)/6182761
Max. Acc. (gal)   17.250
Last Correction   2016/04/16 01:25:25
Memo.             
[...]
  -22435   -22143   -22438   -22417   -22276   -22585   -23102   -23653 
  -24452   -24970   -24774   -25184   -27141   -29202   -30054   -29643 
  -27721   -24803   -22386   -21089   -20738   -20738   -20174   -19181 
  -19047   -20641   -23026   -24009   -23144   -22212   -22299   -22990 
  -23221   -22065   -20012   -18210   -16527   -14584   -13313   -13694 
  -15680   -18904   -22833   -26521   -28862   -28905   -27024   -24971 
  -23405   -21514   -19082   -16895   -16134   -17573   -20530   -23446 
  -25122   -25201   -24824   -25746   -27715   -28575   -27226   -24714 
  -22406   -20849   -20508   -21225   -21690   -21404   -21106   -21186 
  -21545   -21732   -21191   -20542   -20878   -21746   -22152   -22318 
  -22565   -22609   -22672   -22982   -23234   -24107   -26393   -28496 
  -28510   -27087   -25281   -22716   -19419   -16522   -14950   -15073 
  -16856   -19571   -22372   -25326   -28538   -30747   -30671   -28796 
  -26245   -23661   -21824   -21042   -20439   -19583   -19186   -19433 
  -20139   -22001   -24853   -26567   -26234   -26126   -27793   -29057 
  -27965   -26155   -25585   -25096   -23165   -21573   -22599   -25496 
  -28326   -29817   -29448   -27985   -26433   -24296   -20959   -18050 
  -17590   -18796   -20136   -22266   -25140   -26148   -24277   -21748 
  -20448   -20322   -20761   -21693   -23275   -24662   -24435   -22804 
  -21489   -21105   -20769   -20406   -20914   -22284   -23793   -24928 
  -25274   -24933   -24499   -24237   -24181   -24334   -24068   -22705 
  -21222   -21006   -21624   -22281   -22774   -22539   -21940   -22619 
  -24637   -25754   -24780   -23406   -22929   -22326   -21348   -21173 
  -21383   -20904   -21429   -25035   -29150   -29681   -27894   -27574 
  -27815   -25695   -22799   -22211   -22814   -22349   -21633   -21980 
  -22917   -23982   -25537   -27189   -27579   -26746   -26482   -27302 
  -27829   -26945   -24459   -21352   -19221   -18038   -16992   -16767 
  -18009   -20042   -22257   -24300   -25211   -24159   -21966   -20594 
  -20949   -22368   -23836   -24760   -24869   -24025   -22898   -22772 
  -23470   -23506   -22825   -23053   -24975   -27286   -27928   -26552 
  -24963   -24152   -23185   -22175   -22251   -22876   -23483   -25033 
  -27062   -27266   -25446   -24013   -24045   -24432   -24819   -25803 
  -26758   -26272   -24121   -21675   -20578   -20740   -20703   -20459 
  -21175   -22844   -24877   -26750   -27381   -26386   -24844   -23652 
  -22818   -22614   -23456   -24311   -23465   -21418   -20522   -21229 
  -21517   -20499   -19678   -20544   -23002   -25785   -27296   -26341 
  -23285   -20338   -19157   -19240   -19795   -21088   -23296   -25779 
  -27939   -29655   -30092   -28213   -25370   -23924   -23381   -21669 
  -19401   -19333   -21691   -23920   -25016   -25532   -25022   -23759 
  -23612   -24595   -24382   -22681   -22042   -23241   -24345   -24253 
  -23285   -21802   -20158   -18977   -19192   -21242   -23862   -24774 
  -23422   -22097   -22657   -23999   -24419   -23822   -22989   -22281 
  -21840   -22658   -24999   -26816   -26516   -24960   -24006   -24507 
  -25057   -24487   -24285   -25051   -25286   -24893   -24883   -25674 
  -27471   -29313   -29043   -26759   -25352   -25542   -25150   -24157 
  -24426   -25404   -25330   -24686   -25026   -25996   -25891   -24210 
  -22034   -20696   -20264   -19591   -19025   -20252   -22238   -22330 
  -21155   -20981   -21496   -21372   -20694   -20153   -20117   -20226 
  -19927   -19699   -20085   -20255   -19249   -18083   -18709   -20620 
  -21888   -22832   -24634   -27026   -29203   -30316   -29902   -28374 
  -26276   -24540   -24307   -25093   -25371   -24594   -23490   -23336 
  -24510   -25822   -26116   -25555   -24825   -24250   -24104   -24403 
  -24715   -25469   -26827   -26488   -23477   -20991   -20966   -21692 
  -22464   -23721   -24201   -23191   -22010   -21443   -21329   -21480 
  -21377   -20940   -20700   -20935   -21460   -21154   -19473   -17898 
  -17490   -18003   -19085   -20067   -20511   -20946   -22208   -23974 
  -24492   -23290   -22066   -21904   -22726   -24368   -25799   -25494 
  -23499   -21269   -20315   -21428   -23479   -24351   -24182   -24904 
  -26453   -26614   -24595   -21803   -19400   -17944   -18421   -20818 
  -23091   -23847   -23943   -24534   -26278   -29152   -31071   -30132 
  -28229   -27939   -28003   -26358   -23804   -21719   -20486   -20626 
  -22212   -24010   -24628   -24297   -24495   -25204   -24987   -23873 
  -23112   -22924   -22612   -22366   -23076   -23809   -22583   -20156 
  -19198   -20143   -21018   -20758   -20484   -21131   -21782   -21568 
  -21096   -20904   -20553   -20205   -21155   -23580   -25812   -26400 
  -25181   -23331   -22519   -22873   -23163   -22701   -22081   -22636 
  -24275   -25164   -25066   -25580   -26615   -26558   -25110   -23227 
  -21608   -20312   -19036   -18162   -18606   -19783   -20384   -20925 
  -22388   -24187   -25819   -27458   -28065   -26697   -24484   -22308 
  -19916   -18075   -17696   -18108   -18695   -19999   -22145   -24180 
  -25206   -25023   -24477   -24921   -25946   -25564   -23227   -20365 
  -18770   -18900   -19374   -19313   -19212   -19195   -19583   -20996 
  -22481   -22789   -22153   -21198   -20479   -20768   -22084   -23251 
  -23541   -23776   -24666   -25585   -25713   -24912   -23711   -23253 
  -24183   -25427   -25680   -25325   -25071   -24646   -24073   -23867 
  -24085   -24473   -24300   -23171   -22833   -24770   -26453   -24617 
  -21191   -20560   -22490   -23846   -24282   -24829   -25439   -26096 
  -26656   -26662   -25797   -23515   -20558   -19197   -19958   -21239 
  -21941   -22205   -22576   -23092   -23191   -22515   -21631   -21863 
  -23361   -24357   -24110   -23830   -23929   -23697   -23251   -23476 
  -24593   -25719   -26094   -26271   -26909   -27208   -26279   -24759 
  -23339   -21769   -20565   -21019   -22994   -25063   -26389   -26944 
  -26677   -25316   -22758   -20016   -19120   -20289   -21079   -20862 
  -21917   -23902   -24029   -22922   -22688   -22512   -22023   -22802 
  -24372   -24876   -24410   -23867   -23175   -21984   -20369   -18923 
  -18460   -19187   -20545   -21850   -22147   -20498   -18117   -17906 
  -20265   -22279   -22083   -21518   -22851   -25185   -26646   -27061 
  -26712   -25720   -24848   -24668   -24386   -23160   -22083   -22312 
  -22651   -21912   -21143   -21438   -21789   -20952   -20049   -20564 
  -21459   -21315   -20438   -19418   -18974   -19962   -21630   -22679 
  -23236   -23664   -23861   -23978   -24252   -24717   -24978   -24600 
  -23964   -23385   -22431   -21563   -21962   -22890   -22775   -22262 
  -22549   -23278   -23992   -24544   -24422   -23362   -21908   -21104 
  -21129   -21170   -21124   -21503   -22723   -24754   -26385   -26752 
  -26431   -26048   -25899   -25750   -25216   -24771   -24413   -23635 
  -23098   -23321   -23437   -22716   -21975   -22508   -23671   -23710 
  -22576   -21719   -22100   -23150   -23794   -24378   -25420   -25402 
  -23089   -20406   -19953   -21389   -22610   -23199   -24274   -25382 
  -25020   -23965   -24293   -25756   -25951   -24112   -22616   -23257 
  -24751   -25658   -25916   -24912   -22282   -20113   -20685   -22799 
  -23532   -23031   -23461   -24258   -23629   -22229   -21192   -20118 
  -18908   -18628   -19590   -20386   -20536   -21857   -24537   -25505 
  -23592   -21685   -21599   -22039   -22364   -23152   -23567   -22644 
  -21814   -22426   -23391   -23914   -24667   -25690   -26316   -26134 
  -25140   -23546   -21551   -19963   -20021   -21588   -22915   -23040 
  -23043   -23690   -24525   -25860   -27495   -27621   -26247   -25331 
  -25187   -24878   -24603   -24487   -23537   -22275   -22535   -23867 
  -24569   -24428   -23859   -23252   -23138   -23476   -23666   -23270 
  -22341   -21513   -21814   -22997   -22962   -21487   -21268   -22694 
  -22902   -21275   -20545   -21843   -22880   -22162   -21229   -21212 
  -21083   -20331   -19781   -19520   -19291   -20055   -21880   -23041 
  -23550   -24669   -24765   -22158   -20034   -21358   -23514   -24312 
  -25668   -27811   -28437   -27420   -26186   -24856   -23100   -21532 
  -20834   -21012   -21881   -22919   -23507   -23847   -23983   -23571 
  -23222   -23076   -22520   -22729   -24679   -26389   -26161   -25082 
  -24340   -23423   -22209   -21646   -21638   -21577   -21719   -21805 
  -21442   -21094   -20333   -18923   -18693   -19819   -19990   -19413 
  -20014   -21037   -21194   -21630   -23216   -24558   -24542   -24118 
  -24409   -25027   -25200   -24976   -24520   -23767   -23169   -23121 
  -22672   -20891   -19232   -19632   -21094   -21312   -20045   -18540 
  -17441   -16823   -17287   -19229   -21280   -21729   -21288   -22162 
  -24424   -25695   -24723   -22690   -21093   -20775   -21727   -22575 
  -22406   -22581   -24225   -25924   -26303   -26003   -25746   -25552 
  -25580   -25702   -25688   -25545   -24757   -23071   -21528   -21263 
  -22015   -22358   -21950   -21912   -22209   -22142   -21871   -21330 
  -21104   -22128   -22777   -21329   -19575   -19477   -20082   -20515 
  -21291   -21899   -21896   -22432   -23719   -24721   -25070   -24559 
  -23154   -22111   -22000   -21253   -19768   -19303   -19328   -19169 
  -20410   -22443   -22888   -22215   -22045   -22493   -23111   -23202 
  -22145   -20541   -19928   -21254   -23452   -24250   -23222   -22539 
  -23683   -24900   -24282   -23592   -24860   -26081   -25136   -24223 
  -25489   -26766   -26120   -25055   -24703   -24173   -22759   -21248 
  -21036   -21907   -22526   -22722   -22859   -22578   -21631   -21050 
  -22187   -24324   -25500   -25119   -24010   -23488   -23763   -23481 
  -22374   -21507   -21245   -21561   -22182   -22463   -22786   -23933 
  -25309   -26188   -26796   -26786   -25431   -23552   -22884   -23561 
  -23889   -23241   -22960   -23328   -22885   -21355   -20156   -20155 
  -20787   -21219   -21107   -20224   -18899   -18473   -19542   -20934 
  -21601   -21726   -21869   -22307   -22843   -23542   -24945   -26466 
  -27142   -27457   -27514   -26646   -25797   -25972   -26109   -25289 
  -24146   -23510   -23430   -23299   -22727   -21786   -20839   -20817 
  -21737   -22140   -21856   -21815   -21836   -21768   -21707   -21024 
  -19841   -18931   -18187   -17442   -16894   -16894   -18319   -21247 
  -24091   -25395   -24933   -23340   -21978   -22064   -23333   -24631 
  -25394   -25710   -25791   -25632   -24987   -23853   -22564   -21330 
  -20069   -19060   -19029   -19652   -19767   -19534   -19939   -20995 
  -22160   -22928   -22721   -22025   -22366   -23323   -22499   -19504 
  -16550   -15180   -14990   -15049   -15112   -15602   -17077   -19405 
  -21576   -22843   -23466   -23923   -24079   -24227   -25665   -27924 
  -28624   -28013   -28484   -30007   -30755   -30202   -29294   -29050 
  -29395   -29192   -27668   -25721   -24716   -24081   -22481   -20680 
  -20190   -20542   -20520   -19996   -19141   -18009   -16869   -16065 
  -15980   -16458   -16837   -17259   -18203   -19276   -20142   -20845 
  -21004   -20761   -21201   -22641   -24263   -25578   -26744   -27291 
  -26430   -25266   -25852   -27736   -28703   -28358   -27715   -26821 
  -25884   -26001   -26599   -25818   -23920   -22694   -22648   -23484 
  -25275   -27419   -28228   -27192   -26217   -26554   -26574   -24899 
  -22922   -22242   -22197   -21631   -21085   -20999   -20284   -19165 
  -19586   -21725   -23437   -22576   -19744   -18481   -20172   -22007 
  -22069   -21499   -21483   -22181   -23752   -25485   -25188   -22366 
  -20157   -20985   -23090   -23912   -23522   -23234   -23615   -24060 
  -23216   -20244   -15533   -10516    -7264    -7033    -8863   -10900 
  -12633   -14320   -15639   -16644   -17980   -19441   -20341   -20298 
  -19156   -17796   -17269   -16994   -16266   -15252   -13754   -11974 
  -10691    -9917    -9621   -10039   -10987   -12589   -14866   -16607 
  -17345   -18442   -20378   -22127   -23268   -24145   -25218   -27239 
  -30648   -34526   -37633   -40229   -42745   -44197   -44077   -43344 
  -42400   -40589   -38203   -36804   -37020   -38009   -38747   -39024 
  -39943   -41539   -40981   -37249   -33710   -32607   -32063   -30308 
  -28542   -28078   -27849   -26383   -23498   -19828   -16875   -15595 
  -14666   -13566   -14211   -16400   -17615   -17925   -18720   -19895 
  -21786   -24975   -28968   -33206   -36777   -38788   -40007   -41214 
  -41216   -39462   -37833   -36971   -35193   -32539   -30417   -28130 
  -24005   -18190   -12541    -8934    -7956    -8348    -7696    -5220 
   -3148    -3557    -5884    -8243    -8867    -7876    -8165   -11355 
  -15588   -19478   -23046   -25728   -27320   -28052   -27907   -26949 
  -25443   -24376   -24378   -24945   -25488   -25001   -23158   -21757 
  -22073   -23241   -24570   -26109   -27211   -27345   -26907   -25904 
  -23959   -21445   -18742   -15953   -13996   -13259   -12712   -11984 
  -11713   -12296   -13791   -16318   -19951   -23163   -23192   -20048 
  -16823   -15535   -16059   -17591   -18979   -19570   -20203   -21721 
  -23448   -24548   -24776   -23473   -20078   -15962   -13936   -14180 
  -13939   -13101   -13830   -15683   -17389   -19405   -21886   -23850 
  -24553   -25108   -27788   -32476   -36633   -38746   -38774   -37257 
  -35605   -34953   -34891   -34558   -34136   -34484   -35886   -38271 
  -41825   -45540   -46917   -45427   -43718   -43984   -45987   -48413 
  -50050   -50381   -49275   -46569   -43471   -42148   -42644   -43224 
  -42741   -40533   -36832   -33010   -29650   -26779   -25093   -24371 
  -23186   -21293   -19705   -18828   -18383   -18052   -17731   -17747 
  -18282   -19212   -20527   -21979   -22897   -22932   -22641   -22615 
  -22945   -24036   -25881   -27231   -27631   -28055   -28480   -28049 
  -26924   -25131   -22267   -19561   -18467   -18076   -16743   -13997 
  -10141    -6376    -4314    -3715    -2792    -1156      266     1326 
    2186     2054      335    -2061    -4547    -7383    -9820   -12096 
  -14846   -16455   -18598   -24650   -31563   -35491   -37365   -38959 
  -40104   -39606   -38056   -36952   -35977   -33623   -29500   -25897 
  -24642   -24223   -23186   -22021   -20923   -19268   -17021   -15349 
  -15213   -15828   -15758   -15147   -15234   -16149   -17176   -17793 
  -17656   -17428   -18323   -20673   -24014   -26976   -28105   -27679 
  -26799   -25814   -25200   -25295   -24379   -20818   -16906   -15622 
  -15450   -14170   -13576   -15128   -16867   -18012   -19738   -21407 
  -22192   -23141   -24353   -24549   -24042   -24016   -24039   -23799 
  -24200   -25074   -25053   -23647   -22453   -23448   -25350   -24960 
  -22322   -20527   -20934   -21484   -20269   -18666   -18898   -20572 
  -21921   -22472   -22901   -23420   -23808   -24213   -24261   -23256 
  -21789   -20982   -20878   -21020   -21690   -22769   -22853   -21882 
  -21672   -22578   -23194   -22847   -21912   -20806   -19930   -19642 
  -19802   -20109   -20786   -22396   -25008   -27490   -28061   -26134 
  -22822   -20024   -19726   -21613   -22431   -20792   -19002   -18545 
  -18212   -17482   -17580   -18582   -19089   -18863   -19157   -20576 
  -22691   -24964   -26427   -26483   -26211   -26578   -26827   -26636 
  -27565   -30035   -32038   -32949   -33869   -34464   -34095   -33030 
  -31358   -29522   -28327   -27578   -26052   -23680   -22358   -22801 
  -23619   -24229   -25006   -25795   -26492   -27447   -28790   -29921 
  -29719   -27933   -25897   -24742   -24301   -24282   -24195   -23425 
  -23025   -24095   -25339   -25315   -24253   -23168   -22722   -22286 
  -21020   -18584   -14569   -10173    -8166    -9638   -12861   -15165 
  -15719   -15816   -16505   -17792   -18806   -18436   -17480   -17635 
  -18810   -20174   -21193   -21660   -22310   -23408   -24323   -24872 
  -24317   -22244   -20737   -21657   -24466   -27211   -28059   -28199 
  -30213   -33278   -35419   -36805   -37796   -38048   -37805   -38191 
  -39557   -40787   -41397   -41442   -40351   -38525   -37011   -35930 
  -35607   -36284   -36649   -35727   -34505   -33767   -33029   -32829 
  -34341   -36046   -35182   -31984   -28923   -27080   -25931   -25596 
  -26618   -28404   -29518   -28866   -26835   -25013   -24534   -25060 
  -25162   -24669   -25314   -27702   -30139   -30749   -29633   -28697 
  -28646   -28336   -27692   -27727   -28158   -27944   -27201   -26459 
  -25105   -22820   -20793   -20020   -20436   -21514   -22630   -23487 
  -23970   -24116   -24179   -23930   -23285   -23004   -22870   -21465 
  -19016   -17714   -18181   -18178   -16523   -15370   -16307   -18021 
  -19394   -20437   -20581   -19520   -18052   -16852   -15799   -14437 
  -12496   -10383    -9196    -9583   -10973   -11998   -11878   -11749 
  -13173   -15611   -16876   -16081   -14806   -14135   -13383   -13007 
  -14364   -17046   -19335   -20143   -20378   -21985   -25237   -28605 
  -31076   -33035   -34561   -34978   -34809   -35008   -34701   -33113 
  -31396   -30730   -31569   -33375   -33912   -32107   -30155   -30219 
  -31372   -31118   -28489   -25124   -23240   -22994   -23354   -24086 
  -25126   -26099   -26942   -27917   -29376   -31116   -32138   -31660 
  -29770   -27311   -25143   -22905   -19836   -17150   -16626   -17304 
  -17370   -17132   -17317   -17781   -18468   -19116   -19220   -19213 
  -19600   -19200   -17320   -15911   -16279   -16900   -16576   -16222 
  -16975   -19104   -22125   -24728   -26026   -26624   -27480   -29064 
  -31337   -33024   -32635   -31087   -30415   -30698   -31071   -31108 
  -30080   -27666   -24978   -23545   -23502   -23547   -23144   -23242 
  -24121   -24440   -23274   -21019   -18200   -15371   -13057   -11510 
  -10948   -10719    -9661    -8308    -8423   -10439   -13029   -14807 
  -15687   -16453   -17863   -20580   -23994   -25967   -25780   -24710 
  -23574   -22665   -22232   -21714   -20879   -20572   -20976   -21497 
  -22219   -23554   -24806   -24548   -22720   -20835   -19758   -18882 
  -17947   -18016   -19394   -20415   -19991   -19261   -19570   -20785 
  -21827   -21805   -21147   -21144   -21836   -22062   -21385   -20399 
  -19955   -20379   -20780   -20137   -19062   -18754   -18882   -18592 
  -18436   -19124   -20237   -21617   -23661   -26092   -28027   -28888 
  -29133   -29937   -31444   -32428   -32181   -31050   -29544   -28185 
  -27259   -26663   -26424   -26625   -27194   -28074   -28987   -29331 
  -28914   -28406   -28299   -28130   -27493   -26438   -25160   -24399 
  -24595   -25001   -25334   -26120   -27068   -27677   -28136   -28413 
  -28161   -27507   -26772   -26114   -26051   -26728   -27419   -28230 
  -29955   -32016   -33026   -32857   -32298   -31346   -29569   -27406 
  -25631   -24382   -23600   -23199   -22787   -22335   -21942   -20994 
  -19153   -17126   -15627   -14745   -14090   -13064   -11905   -11457 
  -11556   -11431   -10564    -8724    -6748    -6004    -6520    -7244 
   -7494    -7284    -7383    -8889   -11863   -14990   -16670   -16540 
  -16052   -16795   -18872   -21198   -22527   -22792   -23191   -23994 
  -23794   -21737   -18941   -17066   -16470   -17076   -19134   -21758 
  -23650   -24817   -25521   -25687   -25754   -26095   -26222   -25599 
  -24852   -24984   -25499   -25422   -25018   -24650   -24359   -24256 
