Origin Time       2016/04/16 01:25:00
Lat.              32.753
Long.             130.762
Depth. (km)       12
Mag.              7.3
Station Code      SAG003
Station Lat.      33.3730
Station Long.     130.2074
Station Height(m) 191
Record Time       2016/04/16 01:25:20
Sampling Freq(Hz) 100Hz
Duration Time(s)  181
Dir.              E-W
Scale Factor      3920(gal)/6182761
Max. Acc. (gal)   44.927
Last Correction   2016/04/16 01:25:20
Memo.             
[...]
   22911    22918    22908    22869    22838    22808    22790    22776 
   22712    22643    22634    22646    22689    22819    22947    22990 
   23053    23183    23293    23370    23425    23412    23274    23085 
   23073    23250    23455    23721    23956    24057    24364    24875 
   24939    24596    24401    24102    23503    23086    22851    22638 
   22608    22521    22414    22717    23068    23136    23192    22922 
   22087    21571    21672    21643    21622    21948    22008    21750 
   21906    22721    23742    24188    23948    23871    24220    24546 
   24821    24947    24667    24225    23763    23374    23307    23426 
   23764    24233    23964    22857    21779    20798    20106    20998 
   22828    22934    21633    21468    22030    21700    21456    22618 
   24305    25478    26437    26711    25546    24576    24782    24132 
   22527    22740    24545    25053    24021    22743    20854    18325 
   17041    18249    20588    22277    23768    25619    26043    24256 
   22547    21946    20868    19719    20757    22908    23325    22956 
   23815    24572    24478    25498    27577    28300    26936    24332 
   21747    20199    19072    18325    18893    19571    19891    21274 
   21936    20205    19619    21956    24360    26480    28897    29395 
   28164    26529    23189    19814    19810    21298    21807    22700 
   23971    24218    24660    26231    27524    27831    27385    25825 
   23503    22036    21974    22708    24093    25194    24708    23072 
   20959    19133    18706    18415    17491    18130    19729    19938 
   20690    23045    23867    23503    24622    24764    23144    25131 
   29755    29399    24918    22551    21620    19673    19256    21691 
   23557    23239    23802    26472    28450    28413    27076    24960 
   23499    23249    22558    21902    23667    25530    22440    16576 
   14310    14859    14787    15974    19163    21656    24007    27296 
   28593    27623    28647    31427    30676    26314    24322    25163 
   22962    18684    19102    22669    23044    22121    23947    24727 
   21398    17576    15509    15426    18732    23167    24139    22575 
   22713    23533    21643    20508    24077    27128    26154    26849 
   29775    28738    25686    24813    22366    18223    17869    19917 
   21418    24811    28695    29321    28388    27058    24409    21902 
   19177    15308    14701    18565    20037    18003    20256    27357 
   30363    27783    26706    27158    25427    24583    25956    27051 
   29280    31566    28315    20676    15775    15895    17244    16475 
   15215    17159    19838    18604    17650    21473    25079    25335 
   25757    26307    24124    21210    21614    25291    28547    28980 
   27066    23870    22214    24033    25324    24651    26508    28925 
   27687    27020    27703    24943    22663    24571    23338    16721 
   12753    13698    15445    18544    24566    28755    26557    20816 
   16899    15865    17032    21729    27516    28231    25125    23796 
   22304    18033    16191    19278    22848    24503    23672    20368 
   18764    20496    21067    19219    19144    23333    29397    32058 
   28964    25220    25310    25526    24104    24578    25293    23165 
   21138    21223    22282    24862    27090    25200    22248    21868 
   21113    20014    21632    22883    21090    19583    19692    20195 
   22218    25476    26205    23165    20483    20620    20251    19166 
   21533    24336    22917    21746    22416    20119    18731    23966 
   27783    23152    18687    21278    24484    23850    23886    25715 
   24601    21005    19767    20802    22270    24972    26357    23446 
   22330    28221    34232    34855    34317    33836    29845    24546 
   22059    20001    15484    11064     9420     9967    11599    13533 
   15143    16979    19990    23568    25480    24597    23164    23476 
   24611    25884    27671    28652    28153    25940    20337    14798 
   16381    22476    26116    29474    32262    26486    16948    17184 
   23159    21002    13471    11395    12992    14983    21185    27773 
   26777    23913    28261    33261    30630    26151    25829    26642 
   25988    26567    29857    31389    28425    24451    20944    16936 
   14780    15242    16118    17884    20846    24182    26799    23060 
   13044     8857    12945    16091    21120    31958    36171    30317 
   27243    27537    23829    19715    18329    15516    10601     7919 
    9797    13036    13812    14675    18833    24138    30312    37467 
   39244    33531    28329    28264    31052    35980    41112    40324 
   32961    25391    20286    16547    16494    20148    20620    16367 
   13495    13792    17405    26219    34941    35842    30887    26133 
   23508    23440    25172    27053    28869    28222    22034    15104 
   14918    17858    16170    13199    15216    18911    20246    23382 
   29884    32108    26967    22858    25536    28915    27748    26271 
   25417    20444    15055    16787    22147    23386    21866    21567 
   21652    24090    31563    38589    39924    37561    32893    27199 
   26261    29770    30395    27841    24358    18275    14090    16369 
   17208    11714     8750    13306    19759    23712    24570    23491 
   23766    24276    19498    11623     9077    13624    19954    24060 
   28603    37304    43057    37388    28319    26071    25062    20249 
   18362    20567    19107    12701     7274     9055    20342    32534 
   34234    29278    26688    24781    24364    28632    28696    22505 
   22510    24398    14872     8387    19819    29753    25758    23863 
   27134    25502    26193    34419    36350    28377    23318    25204 
   28802    28823    23639    21097    23713    19915     9122     4953 
    8606    10924    10771    11183    11343     9495     9168    15239 
   21316    20746    23130    32729    35674    30289    32172    41525 
   43663    36921    30320    24281    17245    14893    16986    17020 
   14042    10729    11789    21269    32325    33764    28904    27723 
   28103    26168    23648    18683    12704    10527     9776    11569 
   20989    28586    23175    15247    17326    22507    25092    31094 
   39784    42600    36866    29237    26637    26744    24253    19375 
   14006     8352     4893     9212    19650    24789    22007    22260 
   26093    22149    15067    18072    25199    26827    28255    30842 
   27826    21835    19914    21820    24136    22471    14756     9925 
   18070    33139    40795    36507    28020    25549    30118    34174 
   34542    34153    33767    30716    21423     9323     6385    12278 
   13526    11789    16562    20104    16838    17917    23495    23455 
   24433    32086    34644    32228    36960    42616    36958    25104 
   18930    22716    28815    24416    13304    12918    21575    24021 
   23904    31408    38510    35215    27942    22877    13866     2025 
     146     8562    13183    10411    11334    18598    22461    23115 
   30974    42506    43842    38009    37730    39367    34518    29401 
   29664    28295    21950    18833    23853    30953    33275    31047 
   26366    19486    13377    12544    16270    18297    14392     9197 
    9346    13490    17237    18595    18176    20434    26410    29877 
   29685    31702    34466    32174    26756    21268    16076    15274 
   20612    26555    29911    31725    31336    29646    29473    28091 
   22754    19149    18297    12185     4247     7126    18554    25586 
   26594    27447    25351    17137    11346    15285    23654    28598 
   29912    31274    35052    41139    42842    34119    23816    22300 
   22034    14938    11065    18420    27012    27555    24254    23630 
   25052    24330    21802    21341    21936    20828    21390    25174 
   25459    19134    12852    12653    17972    24979    30547    34129 
   34045    28653    25115    29699    34586    33397    29685    22460 
   11262     6458    11743    15729    11407     5480     6278    14298 
   25145    34230    37785    36045    34944    38204    40680    36544 
   29110    23929    20977    20197    20616    16447     8074     4248 
    7070    10140    10890    15129    27023    38580    41200    40597 
   42819    40941    32925    30348    33391    28167    16477    11595 
   13857    16851    17991    17627    20619    26867    25490    17097 
   17106    24777    25975    21614    18923    14947    10012    12193 
   20566    26703    28173    25626    22872    28446    38306    38471 
   30869    26170    22704    17962    19307    26222    26596    20244 
   20395    29562    37984    40884    37776    28075    19386    19657 
   21405    17145    14703    15566     8548    -1677      379    11457 
   20654    27790    32684    33127    32608    32351    28152    20490 
   14438    13317    17063    20860    21783    24909    31202    32681 
   28068    25714    28901    31807    29928    25478    19958    12897 
    9411    11592    12551    11842    13775    16123    20170    30293 
   41296    44939    38993    28490    24308    28172    28314    21507 
   16157    13252     9370     8827    15173    22866    25917    25534 
   26439    28730    27270    22273    20904    26717    34402    31957 
   16979     7559    13173    15657     5973     1509     9776    18775 
   23406    28005    33692    38369    39509    35519    28514    24396 
   25931    25077    15502     8815    14988    22325    22461    27073 
   38225    38968    27076    17946    13822     9244    10220    17279 
   19964    20689    28966    37765    36889    32677    31199    25872 
   15885    11128    12202     9759     5873    10456    19557    23913 
   26754    32634    36583    34866    31291    28603    24006    15654 
    8811    11397    20993    26534    25205    22647    20142    16215 
   15160    19416    21926    19973    20759    25709    28839    31696 
   40516    49698    48987    41878    37383    35818    34880    35144 
   35107    32434    27486    19841    11346     7802     7819     4489 
    -994    -1992     2728     9447    14554    14884    11378    11788 
   17815    21074    21132    24912    31029    37322    45956    51112 
   47755    44715    45463    39843    28415    21759    16971     9908 
   11959    24867    31566    26904    20829    15483     9751     8598 
    9748     5086    -1109      740     7019    10281    15311    25858 
   31606    29024    32043    43522    48157    43888    42105    41996 
   37978    32591    25715    16354    11497    11628     7084      128 
    2467    12878    22539    28958    31800    31597    30863    28968 
   26061    27025    32312    34834    32324    31419    32757    29398 
   24501    27609    35435    36461    30173    26407    25610    19145 
    9880     5824     2312    -3510    -1593     9190    16670    22214 
   36312    49380    47236    38750    34069    25229    11389     7259 
   13067    14404    12026    15380    19955    20233    24091    32456 
   31880    23031    22988    32901    39644    42888    47477    46304 
   34636    23151    21380    20609     8997    -6244   -11440    -7346 
     359    14322    33795    45255    40837    31736    29662    30535 
   27529    23883    22118    19894    20598    26105    28893    26553 
   24582    22923    19285    18800    25284    32885    34128    26300 
   12741     2481       61     1497     5180    12612    20600    25117 
   27013    29060    30314    25196    13120     4631     6650    12829 
   17954    23687    30451    39017    49830    57006    56476    52115 
   45077    34297    28017    33427    39860    33585    19114     6942 
    -994    -3119     5157    21372    31099    26608    22528    29846 
   36637    34486    32062    32174    27350    19786    15892    10112 
    -483    -5202    -1223     -296    -3628      535    10632    15514 
   18673    26270    29784    27266    32282    45141    48320    37580 
   26726    24523    30471    41315    50824    54055    53122    53734 
   55118    51214    43343    37301    31647    25126    25725    35883 
   41774    32846    17932     7868     -658    -9342    -9728    -3097 
   -2723    -8372    -4321    11964    26382    35023    46410    60333 
   68546    69021    64292    56457    46427    32287    15290     1857 
   -4325    -4889    -3472    -1382     1270     1648    -1322    -1574 
    6636    17997    25233    30538    34662    34467    35588    43385 
   50274    52217    55347    54899    40936    21298     8488     1453 
   -3109    -1042     8363    19299    31265    44065    50996    49784 
   43940    36699    30635    25354    19377    15985    18380    22518 
   22832    17864     9576     2850     1670     7364    18340    25603 
   18574      850   -11454    -9890     -312     8224    10822     9641 
   11510    17200    21847    24957    24371    12349    -6207   -13670 
   -4123    14273    31348    38873    39583    46885    62530    71918 
   68511    59380    48134    34661    23160    18273    19062    19198 
   14857    12650    21559    36158    41488    34209    23755    18826 
   22195    29424    34353    39845    50759    61429    65062    62646 
   53082    31971     5348   -13722   -23331   -28371   -26468   -17471 
   -8609     1178    18321    37480    49998    57747    62559    59457 
   50363    44404    40591    30811    18193    14670    21413    26782 
   27226    31839    41551    46320    42812    35532    28649    24163 
   17443     1525   -20187   -38195   -47709   -47725   -38929   -23713 
   -3305    24465    56458    77802    80674    73844    63592    49175 
   35532    29954    28627    21946    11155     5209     7341    15526 
   25683    29972    24361    16997    15615    14832    11310    11577 
   15584    19347    26441    36142    36625    21019     -567   -12394 
  -11617    -7392    -4086     4330    19453    30191    30749    32123 
   40307    42643    32281    21311    17261    12851     2592    -8961 
  -13562    -6592     8965    24605    35999    44203    46909    44259 
   41406    34197    17165     2929     7043    23339    35526    40110 
   42398    46472    54016    61225    63134    59800    48812    25114 
   -2689   -15517    -9470     1041     5233     6487    13487    28518 
   44777    52853    49471    38518    23887     8690      -28     2875 
   11952    17647    18051    15538    10640     7722    11710    18053 
   22206    29341    40198    45664    45366    47690    51622    50174 
   43423    37653    36987    36663    27930    11578    -3432   -14957 
  -26451   -36181   -40574   -37542   -24840    -5115    14977    33624 
   51667    65863    73128    74280    69618    57030    37819    20798 
   12650    10000    11757    25069    45229    53166    43567    28511 
   16942     8449     -973   -10489   -14249   -10145    -1860     8200 
   23417    43929    59059    58616    46744    36277    29742    17003 
   -3568   -18277   -18872    -9932     6570    30800    52901    64767 
   72467    77565    69262    47898    26418     8690    -6953   -17236 
  -20015   -10846    17413    53071    71179    67701    53776    31404 
    5820    -7131    -4228     2204     6470    10760    15208    22982 
   37766    54083    64341    67704    67951    68462    65128    51599 
   34508    23852    17097     9811     5128     3373    -2560   -13093 
  -17951   -11189     5713    28971    47267    47193    32828    20955 
   17188    17188    19142    21707    25085    31716    38981    42233 
   42643    43148    43772    46240    52354    58127    59150    54262 
   41164    18859    -2802    -7621     4807    16624    16717     9611 
    1551    -4202    -2423     7777    15141     9573    -1729    -5544 
   -1248     7332    22458    38586    42734    36408    29753    21866 
   11890     9827    15492    14135     5844     6099    15610    21679 
   21134    21172    26482    31846    29515    22398    17267    13376 
   11076    14672    20676    23932    28312    34552    35229    27915 
   20288    22783    35675    46879    46971    38048    26993    18054 
   14687    18205    20862    16896    11682     6792      686      433 
    7790    13857    17421    22288    22807    15131     7766     7569 
   11414    14515    15994    17112    16841    13158    10481    15342 
   24886    31177    34150    39230    43683    40671    35367    37537 
   42827    38523    23058     7899     1544     3150    11349    25251 
   36701    35314    24866    19008    19209    18344    15760    11374 
    3556    -3431    -4560      635    12013    25591    34396    41517 
   53639    65492    69911    67478    58430    43462    28256    15531 
    1302   -15432   -27046   -27014   -18209    -6806     3870    12600 
   19803    27455    38457    55491    76303    88756    79137    49898 
   18369    -2478   -11259   -12641   -12701   -13159    -8931     3188 
   18780    34085    48386    53972    41403    17298     -549    -6748 
  -11037   -16388   -16352   -13702   -13424    -5098    19337    45423 
   58077    62549    65559    62738    55444    53497    56221    50787 
   32991    13293     1650     1907    13225    27114    33981    32708 
   27525    21376    17098    16332    14978    10126     4370     -964 
   -5160    -5567    -1883     2619     5502     8429    13828    20806 
   28523    38729    50300    57330    56461    50855    44664    37921 
   28367    15103      279   -10784   -12734    -6074     1649     3518 
     497     -923     2773     8670    14411    21093    24559    17686 
    4050    -5077    -4162     4027    13722    21341    26968    33070 
   41669    50284    53228    49065    43821    43395    45922    46257 
   41292    29208    12569    -2164   -12000   -16613   -14771    -8574 
   -3584    -1490     2050    11813    25538    35244    38589    39839 
   39262    33665    26651    26940    35411    44847    50435    50323 
   44428    35336    23723    11704     8250    16684    25362    24365 
   19312    18611    21540    23767    22421    16769    11823    13355 
   16964    15913    13978    15964    16595    11487     8000    12262 
   16892    14373     8477     3104    -3280    -8923    -9748    -4881 
    5293    18238    28250    32167    32512    33085    34505    35352 
   34192    30071    24489    21000    20899    22731    25945    30176 
   32632    31644    30154    31509    34627    36699    38331    40534 
   39255    32316    25637    23234    23252    26061    31584    35429 
   36021    33627    27178    21433    22224    25522    25713    24310 
   24622    27996    32128    31015    23533    15406     9149     4386 
    4263     9114    13726    16882    21834    27905    31002    29997 
   28035    28184    27748    21482    13036    11972    18260    24145 
   27917    31793    34676    36901    39665    40099    38226    38643 
   40677    37009    24170     9633     2010     -555    -1695     2599 
   12463    18620    19191    22837    30406    34506    35145    38460 
   44984    50017    50440    45678    37763    30149    21255     7204 
   -7001   -13600   -14586   -12155    -1030    17473    32138    38558 
   43196    49755    53695    49685    38594    26613    16971     8387 
    3711     6811    12410    14594    18138    27914    35605    30007 
   15702     6506     4785     3742     3488     8024    14435    19644 
