Origin Time       2016/04/16 01:25:00
Lat.              32.753
Long.             130.762
Depth. (km)       12
Mag.              7.3
Station Code      SIG012
Station Lat.      34.9043
Station Long.     136.2307
Station Height(m) 230
Record Time       2016/04/16 01:28:01
Sampling Freq(Hz) 100Hz
Duration Time(s)  60
Dir.              N-S
Scale Factor      7845(gal)/8223790
Max. Acc. (gal)   1.885
Last Correction   2016/04/16 01:28:02
Memo.             
[...]
  -12401   -12401   -12402   -12402   -12396   -12391   -12390   -12387 
  -12380   -12368   -12353   -12336   -12316   -12295   -12274   -12251 
  -12225   -12198   -12177   -12154   -12127   -12105   -12083   -12064 
  -12048   -12033   -12019   -12005   -11994   -11989   -11980   -11974 
  -11969   -11963   -11959   -11956   -11956   -11956   -11952   -11946 
  -11943   -11943   -11942   -11936   -11932   -11927   -11916   -11904 
  -11897   -11886   -11875   -11863   -11847   -11840   -11838   -11830 
  -11826   -11826   -11824   -11828   -11830   -11827   -11827   -11830 
  -11832   -11835   -11838   -11846   -11854   -11859   -11869   -11884 
  -11898   -11913   -11931   -11950   -11967   -11986   -12008   -12029 
  -12055   -12079   -12105   -12129   -12155   -12186   -12217   -12245 
  -12271   -12295   -12318   -12340   -12361   -12382   -12399   -12413 
  -12426   -12438   -12447   -12455   -12467   -12478   -12483   -12490 
  -12501   -12505   -12511   -12517   -12523   -12525   -12523   -12525 
  -12525   -12522   -12518   -12513   -12505   -12499   -12492   -12484 
  -12478   -12471   -12464   -12459   -12453   -12447   -12438   -12429 
  -12424   -12418   -12413   -12406   -12401   -12393   -12382   -12375 
  -12363   -12345   -12329   -12310   -12289   -12270   -12253   -12237 
  -12221   -12209   -12201   -12191   -12182   -12177   -12171   -12164 
  -12160   -12154   -12150   -12147   -12137   -12127   -12109   -12093 
  -12081   -12064   -12042   -12021   -12002   -11983   -11970   -11959 
  -11946   -11929   -11914   -11904   -11900   -11896   -11889   -11880 
  -11877   -11877   -11870   -11869   -11869   -11867   -11869   -11867 
  -11861   -11862   -11869   -11871   -11878   -11889   -11900   -11911 
  -11924   -11937   -11954   -11970   -11980   -11994   -12015   -12029 
  -12042   -12056   -12071   -12083   -12097   -12109   -12116   -12124 
  -12133   -12139   -12143   -12147   -12152   -12159   -12163   -12166 
  -12171   -12178   -12179   -12175   -12172   -12174   -12172   -12168 
  -12167   -12167   -12163   -12160   -12162   -12159   -12155   -12159 
  -12163   -12163   -12164   -12168   -12170   -12171   -12178   -12186 
  -12193   -12201   -12208   -12213   -12218   -12225   -12231   -12235 
  -12240   -12247   -12252   -12258   -12262   -12264   -12267   -12267 
  -12263   -12259   -12252   -12244   -12231   -12218   -12204   -12186 
  -12167   -12148   -12124   -12101   -12079   -12056   -12032   -12013 
  -11992   -11969   -11947   -11931   -11916   -11901   -11888   -11870 
  -11855   -11840   -11823   -11808   -11799   -11788   -11776   -11765 
  -11755   -11750   -11750   -11751   -11753   -11758   -11766   -11774 
  -11786   -11801   -11817   -11835   -11853   -11869   -11890   -11911 
  -11928   -11946   -11963   -11979   -11993   -12006   -12017   -12025 
  -12032   -12037   -12046   -12050   -12050   -12050   -12054   -12056 
  -12060   -12069   -12077   -12082   -12089   -12100   -12112   -12124 
  -12132   -12141   -12154   -12164   -12177   -12187   -12195   -12198 
  -12201   -12204   -12208   -12208   -12202   -12198   -12197   -12187 
  -12179   -12175   -12170   -12162   -12155   -12147   -12135   -12122 
  -12117   -12109   -12096   -12085   -12071   -12055   -12040   -12023 
  -12000   -11974   -11950   -11927   -11904   -11880   -11854   -11832 
  -11813   -11796   -11781   -11766   -11753   -11739   -11724   -11709 
  -11695   -11677   -11658   -11639   -11622   -11604   -11580   -11557 
  -11539   -11518   -11497   -11483   -11466   -11446   -11435   -11430 
  -11422   -11412   -11406   -11398   -11385   -11375   -11365   -11353 
  -11341   -11327   -11311   -11298   -11283   -11272   -11269   -11264 
  -11260   -11260   -11260   -11264   -11272   -11286   -11302   -11322 
  -11344   -11371   -11402   -11433   -11465   -11497   -11534   -11573 
  -11608   -11645   -11685   -11726   -11766   -11804   -11843   -11886 
  -11927   -11963   -12002   -12046   -12085   -12122   -12163   -12201 
  -12239   -12278   -12316   -12351   -12387   -12426   -12468   -12513 
  -12555   -12596   -12644   -12688   -12731   -12779   -12827   -12872 
  -12918   -12964   -13009   -13051   -13096   -13144   -13188   -13231 
  -13271   -13309   -13346   -13377   -13404   -13425   -13439   -13452 
  -13466   -13471   -13471   -13467   -13459   -13444   -13423   -13397 
  -13369   -13333   -13294   -13252   -13205   -13154   -13096   -13039 
  -12978   -12916   -12852   -12781   -12712   -12644   -12573   -12505 
  -12442   -12379   -12318   -12262   -12209   -12159   -12112   -12073 
  -12036   -12000   -11970   -11947   -11927   -11901   -11875   -11854 
  -11831   -11807   -11781   -11754   -11726   -11696   -11668   -11637 
  -11597   -11558   -11523   -11485   -11449   -11418   -11384   -11348 
  -11315   -11284   -11253   -11229   -11206   -11181   -11163   -11148 
  -11136   -11129   -11124   -11119   -11126   -11134   -11138   -11151 
  -11169   -11191   -11214   -11234   -11257   -11287   -11313   -11345 
  -11379   -11412   -11442   -11476   -11511   -11547   -11587   -11622 
  -11659   -11696   -11732   -11766   -11804   -11838   -11869   -11901 
  -11932   -11956   -11985   -12013   -12037   -12066   -12091   -12114 
  -12140   -12166   -12190   -12216   -12244   -12271   -12299   -12328 
  -12357   -12388   -12421   -12452   -12480   -12510   -12537   -12564 
  -12591   -12617   -12640   -12661   -12683   -12702   -12715   -12729 
  -12744   -12756   -12762   -12765   -12761   -12758   -12760   -12753 
  -12745   -12735   -12726   -12715   -12706   -12696   -12680   -12667 
  -12657   -12645   -12634   -12626   -12613   -12595   -12579   -12561 
  -12541   -12523   -12507   -12490   -12472   -12457   -12448   -12438 
  -12428   -12418   -12411   -12406   -12406   -12405   -12399   -12399 
  -12399   -12394   -12393   -12388   -12380   -12372   -12361   -12351 
  -12340   -12326   -12314   -12305   -12293   -12279   -12268   -12262 
  -12252   -12240   -12226   -12213   -12198   -12185   -12174   -12162 
  -12145   -12128   -12112   -12102   -12089   -12079   -12069   -12056 
  -12051   -12046   -12040   -12036   -12033   -12025   -12012   -12000 
  -11985   -11966   -11947   -11925   -11900   -11873   -11847   -11817 
  -11788   -11758   -11726   -11695   -11663   -11634   -11607   -11574 
  -11545   -11521   -11497   -11476   -11455   -11433   -11418   -11411 
  -11404   -11398   -11396   -11400   -11407   -11416   -11426   -11434 
  -11443   -11454   -11465   -11480   -11495   -11514   -11530   -11547 
  -11572   -11592   -11610   -11632   -11658   -11680   -11696   -11716 
  -11738   -11753   -11772   -11793   -11809   -11827   -11844   -11861 
  -11877   -11894   -11916   -11937   -11958   -11975   -11993   -12008 
  -12021   -12037   -12052   -12064   -12078   -12086   -12091   -12096 
  -12096   -12093   -12094   -12089   -12077   -12060   -12046   -12028 
  -12009   -11989   -11961   -11928   -11900   -11871   -11838   -11805 
  -11777   -11742   -11706   -11678   -11649   -11619   -11593   -11566 
  -11542   -11519   -11496   -11475   -11455   -11441   -11422   -11407 
  -11396   -11388   -11377   -11365   -11353   -11345   -11333   -11319 
  -11311   -11300   -11287   -11275   -11260   -11245   -11230   -11214 
  -11195   -11179   -11165   -11146   -11124   -11105   -11088   -11071 
  -11053   -11038   -11025   -11013   -11001   -10991   -10990   -10989 
  -10989   -10994   -11001   -11010   -11028   -11047   -11068   -11091 
  -11115   -11142   -11173   -11203   -11232   -11265   -11299   -11329 
  -11362   -11395   -11426   -11457   -11488   -11518   -11543   -11569 
  -11595   -11619   -11641   -11661   -11682   -11704   -11726   -11746 
  -11769   -11792   -11816   -11842   -11867   -11890   -11916   -11947 
  -11975   -12004   -12033   -12064   -12097   -12129   -12167   -12206 
  -12243   -12283   -12324   -12360   -12396   -12438   -12482   -12521 
  -12559   -12598   -12637   -12671   -12703   -12735   -12765   -12791 
  -12812   -12830   -12843   -12853   -12862   -12864   -12858   -12854 
  -12849   -12841   -12830   -12814   -12798   -12776   -12754   -12734 
  -12712   -12691   -12667   -12637   -12607   -12579   -12548   -12517 
  -12490   -12464   -12438   -12411   -12388   -12368   -12349   -12332 
  -12314   -12297   -12287   -12278   -12266   -12254   -12247   -12233 
  -12218   -12210   -12198   -12182   -12167   -12154   -12137   -12120 
  -12100   -12078   -12054   -12028   -12002   -11975   -11950   -11927 
  -11901   -11875   -11855   -11838   -11819   -11800   -11781   -11759 
  -11738   -11719   -11700   -11681   -11659   -11639   -11619   -11599 
  -11585   -11574   -11568   -11564   -11557   -11553   -11556   -11560 
  -11564   -11569   -11574   -11587   -11601   -11616   -11630   -11650 
  -11670   -11692   -11718   -11746   -11774   -11804   -11834   -11866 
  -11898   -11929   -11961   -11993   -12031   -12067   -12096   -12122 
  -12148   -12171   -12193   -12209   -12217   -12221   -12226   -12221 
  -12213   -12206   -12195   -12177   -12159   -12141   -12121   -12100 
  -12075   -12046   -12020   -11997   -11975   -11952   -11928   -11902 
  -11878   -11858   -11840   -11826   -11808   -11790   -11777   -11767 
  -11761   -11758   -11754   -11751   -11751   -11746   -11745   -11749 
  -11749   -11746   -11745   -11738   -11729   -11724   -11720   -11712 
  -11701   -11692   -11682   -11670   -11663   -11659   -11651   -11643 
  -11638   -11637   -11637   -11639   -11646   -11654   -11661   -11670 
  -11688   -11704   -11722   -11746   -11769   -11799   -11831   -11863 
  -11902   -11946   -11986   -12031   -12079   -12129   -12177   -12228 
  -12282   -12337   -12391   -12444   -12495   -12548   -12602   -12657 
  -12712   -12761   -12810   -12862   -12908   -12949   -12991   -13032 
  -13070   -13105   -13136   -13162   -13186   -13211   -13232   -13248 
  -13266   -13278   -13285   -13296   -13304   -13308   -13311   -13316 
  -13312   -13304   -13300   -13293   -13284   -13270   -13254   -13236 
  -13216   -13197   -13177   -13151   -13123   -13099   -13072   -13039 
  -13009   -12978   -12942   -12906   -12869   -12830   -12789   -12752 
  -12717   -12677   -12640   -12606   -12569   -12533   -12498   -12464 
  -12432   -12401   -12371   -12340   -12313   -12289   -12264   -12243 
  -12224   -12204   -12183   -12163   -12147   -12131   -12117   -12106 
  -12094   -12086   -12081   -12078   -12077   -12079   -12086   -12091 
  -12098   -12112   -12127   -12143   -12160   -12178   -12197   -12213 
  -12228   -12247   -12264   -12278   -12295   -12316   -12328   -12341 
  -12360   -12375   -12390   -12405   -12418   -12429   -12447   -12464 
  -12478   -12487   -12496   -12507   -12518   -12528   -12538   -12545 
  -12546   -12552   -12556   -12557   -12557   -12557   -12556   -12552 
  -12546   -12540   -12529   -12521   -12514   -12502   -12487   -12468 
  -12448   -12428   -12405   -12379   -12351   -12320   -12290   -12259 
  -12226   -12198   -12170   -12140   -12110   -12078   -12046   -12017 
  -11992   -11965   -11940   -11920   -11904   -11884   -11867   -11858 
  -11851   -11844   -11840   -11832   -11827   -11824   -11824   -11824 
  -11826   -11828   -11834   -11836   -11836   -11843   -11854   -11863 
  -11875   -11890   -11904   -11919   -11929   -11943   -11962   -11979 
  -12000   -12017   -12032   -12054   -12078   -12098   -12121   -12150 
  -12177   -12208   -12241   -12271   -12303   -12337   -12367   -12395 
  -12426   -12459   -12488   -12517   -12544   -12569   -12595   -12622 
  -12646   -12667   -12688   -12712   -12733   -12752   -12772   -12791 
  -12810   -12829   -12849   -12868   -12883   -12898   -12916   -12928 
  -12942   -12957   -12962   -12966   -12973   -12977   -12980   -12981 
  -12980   -12980   -12980   -12978   -12977   -12978   -12980   -12980 
  -12981   -12982   -12981   -12978   -12977   -12974   -12972   -12969 
  -12960   -12953   -12949   -12942   -12933   -12921   -12912   -12903 
  -12888   -12870   -12855   -12843   -12825   -12804   -12785   -12766 
  -12748   -12734   -12717   -12694   -12675   -12660   -12644   -12626 
  -12610   -12598   -12584   -12569   -12564   -12557   -12548   -12545 
  -12545   -12545   -12545   -12545   -12552   -12561   -12571   -12583 
  -12595   -12607   -12622   -12637   -12654   -12676   -12692   -12706 
  -12725   -12742   -12752   -12762   -12777   -12788   -12789   -12795 
  -12796   -12792   -12788   -12783   -12771   -12761   -12750   -12734 
  -12718   -12700   -12680   -12661   -12649   -12631   -12610   -12594 
  -12580   -12564   -12552   -12542   -12532   -12522   -12518   -12514 
  -12509   -12509   -12510   -12511   -12513   -12513   -12517   -12522 
  -12525   -12529   -12536   -12540   -12537   -12533   -12533   -12533 
  -12528   -12525   -12521   -12514   -12507   -12496   -12486   -12483 
  -12478   -12468   -12463   -12460   -12459   -12455   -12451   -12451 
  -12449   -12452   -12455   -12452   -12453   -12461   -12464   -12464 
  -12467   -12471   -12475   -12480   -12483   -12483   -12487   -12495 
  -12499   -12503   -12513   -12522   -12532   -12546   -12560   -12569 
  -12586   -12606   -12630   -12653   -12676   -12703   -12730   -12756 
  -12792   -12827   -12857   -12892   -12930   -12962   -12999   -13041 
  -13082   -13119   -13159   -13198   -13236   -13275   -13319   -13360 
  -13401   -13441   -13481   -13516   -13554   -13593   -13631   -13671 
  -13710   -13748   -13783   -13821   -13859   -13894   -13926   -13957 
  -13988   -14021   -14047   -14068   -14083   -14098   -14108   -14111 
  -14113   -14111   -14099   -14080   -14064   -14044   -14014   -13981 
  -13948   -13909   -13865   -13821   -13773   -13728   -13680   -13630 
  -13582   -13535   -13485   -13431   -13382   -13339   -13294   -13247 
  -13203   -13162   -13124   -13089   -13055   -13023   -12993   -12968 
  -12942   -12915   -12891   -12869   -12846   -12822   -12793   -12766 
  -12738   -12706   -12673   -12642   -12606   -12567   -12525   -12480 
  -12437   -12393   -12343   -12290   -12235   -12181   -12124   -12062 
  -11996   -11934   -11873   -11811   -11749   -11691   -11632   -11574 
  -11523   -11479   -11433   -11391   -11356   -11327   -11300   -11276 
  -11259   -11246   -11232   -11225   -11229   -11226   -11226   -11237 
  -11253   -11268   -11286   -11306   -11330   -11354   -11379   -11406 
  -11434   -11458   -11484   -11508   -11529   -11550   -11572   -11592 
  -11611   -11627   -11638   -11650   -11662   -11673   -11680   -11688 
  -11696   -11700   -11706   -11711   -11712   -11713   -11712   -11706 
  -11703   -11699   -11692   -11685   -11682   -11677   -11673   -11670 
  -11668   -11668   -11666   -11668   -11670   -11672   -11682   -11693 
  -11696   -11709   -11726   -11738   -11751   -11766   -11778   -11793 
  -11807   -11819   -11835   -11844   -11851   -11862   -11871   -11881 
  -11888   -11893   -11898   -11902   -11901   -11900   -11898   -11897 
  -11894   -11888   -11881   -11874   -11865   -11859   -11853   -11838 
  -11826   -11816   -11800   -11784   -11770   -11753   -11732   -11719 
  -11704   -11684   -11668   -11650   -11630   -11616   -11600   -11585 
  -11574   -11564   -11557   -11550   -11539   -11537   -11538   -11534 
  -11530   -11530   -11521   -11516   -11523   -11526   -11520   -11516 
  -11515   -11508   -11502   -11497   -11495   -11488   -11479   -11469 
  -11461   -11455   -11452   -11449   -11445   -11442   -11441   -11439 
  -11442   -11448   -11448   -11452   -11460   -11466   -11470   -11476 
  -11481   -11488   -11499   -11506   -11510   -11510   -11512   -11519 
  -11523   -11521   -11524   -11523   -11516   -11511   -11506   -11497 
  -11491   -11483   -11470   -11457   -11449   -11442   -11434   -11429 
  -11426   -11425   -11426   -11429   -11434   -11443   -11453   -11466 
  -11483   -11496   -11512   -11534   -11557   -11583   -11612   -11639 
  -11669   -11706   -11746   -11785   -11827   -11871   -11919   -11970 
  -12021   -12073   -12129   -12185   -12236   -12290   -12348   -12401 
  -12451   -12502   -12548   -12586   -12622   -12658   -12695   -12726 
  -12756   -12784   -12807   -12830   -12860   -12884   -12901   -12921 
  -12945   -12964   -12982   -13000   -13016   -13030   -13041   -13049 
  -13055   -13059   -13062   -13058   -13051   -13049   -13045   -13034 
  -13022   -13008   -12992   -12974   -12954   -12934   -12918   -12898 
  -12876   -12855   -12839   -12819   -12803   -12793   -12779   -12765 
  -12754   -12741   -12729   -12718   -12704   -12690   -12673   -12652 
  -12631   -12609   -12581   -12548   -12515   -12480   -12441   -12396 
  -12351   -12302   -12251   -12198   -12145   -12089   -12031   -11974 
  -11919   -11863   -11809   -11755   -11696   -11646   -11599   -11545 
  -11495   -11455   -11418   -11373   -11334   -11298   -11259   -11219 
  -11183   -11149   -11114   -11080   -11044   -11006   -10970   -10935 
  -10897   -10859   -10821   -10783   -10747   -10712   -10681   -10651 
  -10625   -10597   -10571   -10557   -10542   -10521   -10507   -10501 
  -10493   -10488   -10489   -10489   -10488   -10490   -10496   -10501 
  -10508   -10520   -10536   -10554   -10570   -10589   -10613   -10639 
  -10671   -10704   -10735   -10770   -10812   -10851   -10890   -10935 
  -10979   -11022   -11070   -11119   -11167   -11217   -11264   -11310 
  -11358   -11406   -11452   -11495   -11534   -11572   -11608   -11649 
  -11688   -11723   -11757   -11790   -11826   -11858   -11889   -11923 
  -11955   -11990   -12027   -12056   -12086   -12120   -12154   -12182 
  -12214   -12248   -12278   -12305   -12333   -12363   -12390   -12414 
  -12442   -12472   -12496   -12518   -12538   -12559   -12575   -12590 
  -12598   -12600   -12603   -12602   -12596   -12590   -12576   -12557 
  -12538   -12519   -12496   -12467   -12437   -12411   -12380   -12345 
  -12310   -12271   -12231   -12191   -12152   -12112   -12069   -12021 
  -11973   -11927   -11881   -11835   -11785   -11735   -11691   -11646 
  -11596   -11549   -11504   -11460   -11414   -11369   -11329   -11288 
  -11246   -11207   -11167   -11130   -11098   -11064   -11028   -10995 
  -10966   -10936   -10909   -10882   -10854   -10828   -10805   -10785 
  -10764   -10744   -10722   -10705   -10693   -10678   -10663   -10652 
  -10644   -10640   -10639   -10638   -10639   -10648   -10663   -10675 
  -10686   -10705   -10731   -10754   -10778   -10809   -10837   -10867 
  -10897   -10932   -10966   -11001   -11039   -11075   -11109   -11149 
  -11188   -11223   -11263   -11306   -11345   -11384   -11425   -11461 
  -11497   -11538   -11578   -11619   -11657   -11695   -11734   -11770 
  -11809   -11847   -11881   -11920   -11954   -11989   -12027   -12060 
  -12094   -12131   -12164   -12201   -12236   -12264   -12297   -12334 
  -12372   -12406   -12437   -12469   -12502   -12530   -12560   -12592 
  -12621   -12646   -12665   -12683   -12703   -12717   -12729   -12742 
  -12746   -12742   -12742   -12738   -12727   -12715   -12702   -12680 
  -12654   -12629   -12602   -12571   -12541   -12507   -12471   -12429 
  -12387   -12347   -12306   -12264   -12224   -12185   -12140   -12097 
  -12056   -12016   -11975   -11937   -11896   -11854   -11815   -11778 
  -11743   -11709   -11678   -11647   -11618   -11589   -11566   -11545 
  -11526   -11512   -11500   -11487   -11480   -11475   -11472   -11470 
