Origin Time       2016/04/16 01:25:00
Lat.              32.753
Long.             130.762
Depth. (km)       12
Mag.              7.3
Station Code      SIG005
Station Lat.      35.2493
Station Long.     136.2421
Station Height(m) 93
Record Time       2016/04/16 01:27:52
Sampling Freq(Hz) 100Hz
Duration Time(s)  72
Dir.              N-S
Scale Factor      7845(gal)/8223790
Max. Acc. (gal)   1.881
Last Correction   2016/04/16 01:27:53
Memo.             
[...]
    2546     2569     2592     2609     2628     2651     2667     2686 
    2709     2728     2744     2764     2783     2799     2818     2843 
    2868     2890     2911     2941     2971     2998     3032     3063 
    3092     3130     3167     3202     3242     3279     3311     3350 
    3385     3414     3450     3485     3511     3538     3565     3591 
    3612     3630     3639     3646     3658     3663     3659     3662 
    3665     3658     3657     3657     3650     3647     3653     3651 
    3650     3651     3658     3667     3676     3684     3696     3707 
    3716     3732     3751     3770     3789     3805     3827     3854 
    3873     3888     3909     3927     3936     3950     3964     3971 
    3981     3990     3991     3996     3998     3994     3994     3998 
    3996     3993     3994     3990     3991     3996     3991     3991 
    3998     4000     4002     4009     4010     4010     4016     4016 
    4014     4017     4021     4021     4023     4017     4009     4006 
    4002     3986     3973     3964     3943     3920     3901     3874 
    3840     3813     3781     3744     3705     3661     3615     3574 
    3526     3476     3430     3377     3322     3269     3217     3165 
    3109     3048     2998     2949     2895     2847     2803     2758 
    2716     2679     2646     2619     2593     2563     2544     2533 
    2516     2504     2504     2497     2489     2493     2498     2494 
    2498     2505     2506     2516     2521     2517     2519     2523 
    2519     2516     2513     2508     2497     2481     2467     2455 
    2431     2409     2393     2366     2338     2324     2305     2282 
    2267     2249     2230     2219     2204     2188     2180     2170 
    2154     2147     2143     2130     2116     2110     2098     2085 
    2076     2064     2050     2037     2022     2006     1993     1979 
    1962     1948     1930     1911     1902     1894     1880     1872 
    1868     1863     1864     1864     1867     1876     1881     1888 
    1903     1918     1934     1958     1980     2001     2034     2064 
    2091     2124     2157     2189     2222     2254     2286     2317 
    2347     2378     2411     2440     2470     2501     2525     2546 
    2567     2592     2614     2636     2655     2674     2698     2720 
    2736     2759     2782     2798     2820     2844     2867     2890 
    2918     2941     2961     2986     3011     3036     3067     3090 
    3107     3137     3173     3199     3225     3262     3296     3325 
    3361     3400     3433     3464     3496     3528     3557     3585 
    3613     3639     3661     3681     3696     3709     3721     3728 
    3732     3738     3743     3735     3731     3731     3719     3709 
    3701     3688     3670     3661     3645     3624     3611     3593 
    3570     3554     3538     3511     3495     3483     3462     3445 
    3433     3419     3403     3388     3373     3360     3349     3335 
    3321     3307     3292     3280     3267     3254     3246     3232 
    3217     3207     3194     3173     3159     3146     3121     3099 
    3087     3065     3042     3028     3013     2995     2980     2963 
    2944     2930     2921     2902     2887     2880     2871     2860 
    2856     2857     2857     2857     2859     2868     2878     2884 
    2896     2914     2929     2948     2976     3002     3026     3057 
    3088     3118     3152     3180     3211     3248     3269     3287 
    3314     3333     3348     3369     3384     3391     3402     3407 
    3412     3420     3420     3420     3424     3424     3420     3419 
    3418     3416     3416     3420     3423     3424     3426     3434 
    3442     3447     3451     3458     3462     3469     3478     3481 
    3480     3485     3481     3470     3469     3461     3440     3424 
    3411     3385     3362     3339     3306     3276     3250     3215 
    3183     3156     3117     3078     3049     3013     2974     2944 
    2910     2876     2847     2813     2782     2756     2727     2698 
    2681     2664     2647     2631     2621     2614     2608     2601 
    2597     2597     2592     2586     2587     2583     2574     2574 
    2574     2567     2562     2556     2551     2548     2536     2523 
    2515     2504     2488     2475     2466     2447     2425     2408 
    2389     2367     2342     2315     2295     2273     2242     2218 
    2200     2178     2155     2139     2121     2104     2089     2073 
    2062     2058     2045     2034     2037     2033     2029     2034 
    2037     2038     2046     2057     2066     2083     2096     2111 
    2130     2146     2162     2184     2208     2231     2253     2277 
    2308     2336     2359     2390     2428     2452     2477     2513 
    2546     2574     2609     2643     2675     2716     2754     2786 
    2829     2872     2905     2944     2988     3022     3059     3102 
    3144     3180     3217     3252     3294     3333     3362     3395 
    3429     3454     3473     3492     3510     3523     3527     3527 
    3526     3516     3499     3478     3457     3429     3396     3362 
    3321     3281     3242     3191     3140     3096     3042     2980 
    2930     2872     2806     2752     2697     2635     2577     2519 
    2457     2404     2351     2292     2241     2192     2142     2102 
    2068     2026     1989     1960     1929     1899     1871     1841 
    1819     1796     1767     1748     1733     1711     1696     1688 
    1671     1655     1652     1652     1651     1652     1653     1658 
    1668     1676     1683     1695     1711     1729     1746     1765 
    1786     1809     1833     1864     1899     1927     1956     1991 
    2023     2057     2096     2130     2168     2205     2242     2282 
    2326     2362     2397     2440     2481     2513     2555     2598 
    2628     2659     2695     2721     2745     2775     2791     2809 
    2835     2844     2848     2863     2876     2875     2882     2894 
    2894     2890     2895     2902     2903     2903     2905     2905 
    2905     2907     2910     2909     2906     2903     2896     2896 
    2899     2894     2889     2882     2871     2863     2857     2851 
    2839     2830     2821     2808     2795     2785     2770     2758 
    2747     2729     2714     2706     2688     2671     2664     2656 
    2644     2636     2631     2620     2614     2612     2606     2605 
    2604     2594     2584     2582     2578     2570     2562     2556 
    2546     2531     2520     2508     2489     2469     2451     2432 
    2408     2386     2365     2338     2309     2285     2255     2228 
    2203     2169     2141     2119     2085     2050     2026     1998 
    1962     1930     1900     1867     1836     1804     1768     1737 
    1710     1679     1651     1628     1602     1576     1557     1539 
    1518     1499     1480     1470     1456     1437     1426     1420 
    1405     1395     1393     1385     1381     1381     1374     1370 
    1375     1374     1374     1385     1389     1387     1395     1404 
    1405     1412     1421     1424     1428     1435     1439     1447 
    1455     1459     1467     1478     1483     1497     1512     1520 
    1532     1549     1564     1584     1606     1628     1656     1687 
    1713     1745     1783     1817     1850     1888     1926     1966 
    2007     2039     2077     2124     2161     2192     2234     2270 
    2299     2332     2369     2397     2423     2447     2471     2498 
    2525     2550     2573     2596     2616     2633     2654     2673 
    2687     2702     2724     2747     2759     2775     2797     2814 
    2830     2852     2874     2887     2902     2920     2930     2943 
    2951     2955     2961     2964     2956     2952     2952     2938 
    2925     2915     2899     2879     2862     2839     2813     2791 
    2766     2733     2706     2679     2650     2625     2601     2575 
    2552     2533     2515     2494     2475     2459     2448     2436 
    2424     2419     2415     2411     2412     2415     2415     2419 
    2427     2436     2452     2470     2482     2501     2524     2540 
    2558     2586     2612     2629     2652     2677     2700     2728 
    2754     2778     2805     2828     2849     2876     2895     2909 
    2929     2945     2953     2963     2971     2978     2982     2980 
    2978     2975     2970     2960     2952     2940     2922     2903 
    2884     2863     2844     2822     2792     2762     2735     2702 
    2669     2640     2606     2570     2538     2505     2466     2427 
    2392     2351     2309     2269     2228     2189     2154     2115 
    2076     2041     2011     1975     1945     1923     1900     1875 
    1861     1854     1844     1840     1846     1852     1856     1871 
    1891     1906     1923     1949     1972     1999     2033     2053 
    2079     2118     2149     2173     2211     2247     2274     2309 
    2343     2373     2408     2442     2471     2513     2551     2578 
    2610     2647     2677     2705     2736     2763     2787     2810 
    2836     2863     2882     2905     2926     2938     2952     2967 
    2976     2982     2991     2995     2994     2999     3002     2995 
    2997     3001     2991     2982     2982     2976     2967     2965 
    2961     2955     2953     2951     2947     2949     2951     2948 
    2953     2963     2972     2982     2991     3001     3018     3034 
    3049     3068     3084     3102     3123     3142     3159     3179 
    3200     3226     3253     3273     3295     3321     3343     3369 
    3400     3427     3451     3487     3522     3547     3581     3620 
    3650     3682     3719     3744     3769     3804     3828     3850 
    3875     3894     3905     3921     3932     3937     3944     3944 
    3940     3939     3931     3919     3906     3889     3869     3851 
    3825     3793     3766     3736     3704     3670     3634     3596 
    3561     3522     3477     3442     3407     3362     3323     3289 
    3246     3208     3177     3138     3100     3067     3032     2994 
    2957     2924     2889     2853     2820     2787     2759     2733 
    2709     2682     2652     2632     2613     2587     2567     2555 
    2535     2519     2509     2497     2488     2482     2469     2461 
    2465     2455     2447     2454     2454     2448     2452     2457 
    2455     2461     2469     2473     2486     2501     2509     2524 
    2544     2562     2582     2612     2639     2660     2687     2717 
    2747     2776     2808     2839     2872     2906     2940     2971 
    3002     3034     3067     3094     3121     3146     3167     3190 
    3208     3219     3240     3260     3267     3273     3287     3292 
    3292     3296     3298     3295     3295     3294     3284     3280 
    3280     3271     3261     3261     3253     3241     3242     3245 
    3241     3238     3241     3249     3257     3262     3271     3284 
    3298     3308     3321     3334     3349     3365     3381     3393 
    3407     3423     3437     3451     3468     3480     3491     3504 
    3514     3522     3530     3541     3550     3559     3566     3578 
    3591     3599     3608     3622     3630     3634     3646     3658 
    3666     3676     3686     3692     3703     3715     3723     3730 
    3738     3747     3759     3767     3766     3767     3770     3769 
    3765     3757     3750     3743     3728     3709     3694     3673 
    3642     3619     3596     3561     3532     3507     3472     3437 
    3407     3373     3341     3319     3287     3252     3230     3204 
    3173     3152     3132     3100     3076     3059     3037     3011 
    2988     2964     2941     2922     2905     2887     2878     2868 
    2853     2844     2844     2840     2835     2836     2844     2849 
    2852     2867     2882     2891     2907     2924     2936     2957 
    2978     2988     3010     3036     3049     3069     3100     3119 
    3137     3164     3190     3208     3232     3258     3279     3304 
    3331     3354     3379     3406     3429     3456     3483     3505 
    3530     3557     3580     3605     3631     3659     3688     3712 
    3736     3769     3797     3821     3852     3883     3904     3929 
    3958     3979     4010     4036     4051     4074     4104     4117 
    4131     4152     4164     4176     4189     4194     4205     4215 
    4217     4223     4236     4241     4238     4243     4252     4256 
    4256     4258     4263     4266     4270     4275     4280     4279 
    4280     4289     4291     4287     4288     4288     4289     4298 
    4302     4301     4306     4314     4318     4324     4333     4341 
    4347     4357     4364     4368     4375     4380     4380     4380 
    4380     4379     4375     4371     4363     4349     4336     4326 
    4310     4288     4270     4248     4218     4194     4175     4144 
    4113     4087     4051     4010     3978     3939     3896     3855 
    3807     3757     3708     3653     3596     3544     3489     3420 
    3358     3306     3240     3160     3090     3029     2956     2879 
    2806     2735     2658     2578     2498     2421     2343     2259 
    2170     2092     2016     1930     1845     1769     1695     1615 
    1537     1468     1398     1328     1266     1208     1152     1107 
    1057     1012      982      954      922      903      889      873 
     864      862      855      859      876      884      892      913 
     939      959      984     1012     1043     1088     1129     1163 
    1210     1264     1312     1362     1418     1475     1532     1591 
    1649     1710     1769     1822     1881     1945     2003     2058 
    2116     2173     2230     2286     2335     2388     2444     2494 
    2546     2600     2651     2701     2754     2806     2855     2902 
    2951     3001     3052     3099     3144     3188     3234     3277 
    3319     3362     3400     3435     3473     3511     3543     3573 
    3604     3631     3653     3676     3696     3715     3734     3753 
    3766     3773     3780     3788     3790     3796     3802     3797 
    3790     3794     3789     3773     3769     3763     3747     3738 
    3730     3712     3701     3694     3680     3669     3659     3642 
    3627     3615     3596     3580     3569     3557     3542     3527 
    3511     3497     3480     3462     3450     3434     3412     3393 
    3377     3357     3339     3322     3302     3284     3265     3241 
    3223     3207     3180     3160     3140     3109     3087     3069 
    3038     3007     2986     2959     2926     2898     2863     2822 
    2791     2759     2720     2683     2648     2609     2575     2539 
    2500     2467     2439     2401     2365     2338     2305     2270 
    2239     2207     2174     2143     2114     2085     2056     2025 
    1999     1975     1948     1926     1910     1891     1871     1857 
    1844     1831     1826     1819     1814     1814     1814     1819 
    1826     1830     1838     1857     1872     1885     1907     1930 
    1954     1981     2008     2039     2077     2111     2149     2192 
    2234     2274     2322     2365     2408     2458     2504     2544 
    2594     2639     2677     2725     2772     2806     2847     2891 
    2925     2959     2998     3034     3063     3090     3117     3144 
    3171     3190     3203     3221     3235     3242     3253     3265 
    3269     3269     3267     3267     3262     3250     3238     3229 
    3211     3194     3177     3153     3129     3106     3075     3046 
    3021     2982     2944     2914     2876     2833     2797     2759 
    2712     2667     2625     2577     2532     2492     2442     2394 
    2353     2308     2261     2222     2180     2134     2092     2057 
    2019     1979     1941     1908     1872     1837     1809     1781 
    1753     1726     1701     1677     1656     1632     1609     1593 
    1580     1564     1549     1540     1530     1518     1513     1512 
    1503     1498     1497     1494     1497     1498     1495     1502 
    1513     1517     1524     1535     1543     1549     1566     1578 
    1587     1605     1622     1632     1649     1668     1683     1699 
    1721     1738     1755     1776     1796     1815     1836     1861 
    1888     1912     1934     1958     1987     2012     2039     2066 
    2089     2111     2137     2160     2180     2200     2215     2236 
    2255     2263     2273     2292     2300     2307     2317     2324 
    2328     2338     2343     2350     2357     2358     2363     2374 
    2378     2386     2397     2400     2407     2417     2420     2427 
    2439     2444     2454     2466     2471     2474     2486     2497 
    2504     2512     2520     2525     2535     2544     2550     2563 
    2579     2586     2597     2614     2624     2636     2654     2664 
    2675     2693     2712     2721     2731     2748     2763     2772 
    2783     2795     2805     2810     2817     2821     2824     2826 
    2826     2817     2813     2813     2798     2783     2775     2752 
    2717     2690     2666     2631     2597     2558     2515     2477 
    2436     2384     2332     2285     2228     2176     2130     2074 
    2015     1966     1912     1854     1800     1745     1692     1645 
    1595     1547     1502     1452     1405     1367     1331     1294 
    1262     1240     1223     1201     1183     1178     1177     1174 
    1175     1189     1204     1223     1250     1275     1300     1339 
    1378     1416     1466     1516     1560     1614     1671     1725 
    1783     1846     1903     1961     2022     2083     2147     2214 
    2272     2334     2403     2463     2519     2583     2647     2708 
    2768     2822     2878     2940     2997     3051     3107     3160 
    3213     3271     3322     3366     3414     3462     3508     3553 
    3596     3634     3676     3715     3742     3771     3804     3825 
    3847     3877     3896     3909     3923     3931     3932     3942 
    3950     3954     3954     3951     3956     3958     3951     3950 
    3946     3935     3929     3925     3915     3908     3904     3890 
    3879     3873     3861     3855     3851     3836     3824     3816 
    3802     3786     3774     3757     3738     3727     3713     3694 
    3678     3663     3647     3630     3609     3595     3582     3562 
    3542     3527     3511     3492     3477     3462     3447     3429 
    3407     3391     3375     3355     3339     3330     3317     3299 
    3288     3276     3258     3249     3241     3222     3208     3196 
    3179     3167     3156     3137     3118     3109     3088     3059 
    3036     3015     2984     2955     2926     2891     2856     2820 
    2782     2747     2712     2673     2632     2594     2555     2512 
    2473     2439     2407     2373     2338     2305     2276     2246 
    2223     2201     2181     2162     2150     2141     2130     2123 
    2119     2120     2128     2135     2144     2161     2173     2187 
    2212     2239     2262     2290     2324     2357     2390     2424 
    2461     2505     2544     2586     2633     2678     2720     2768 
    2821     2866     2911     2960     3009     3060     3109     3149 
