Origin Time       2016/04/16 01:25:00
Lat.              32.753
Long.             130.762
Depth. (km)       12
Mag.              7.3
Station Code      SIG007
Station Lat.      35.1339
Station Long.     136.0957
Station Height(m) 90
Record Time       2016/04/16 01:27:55
Sampling Freq(Hz) 100Hz
Duration Time(s)  77
Dir.              E-W
Scale Factor      7845(gal)/8223790
Max. Acc. (gal)   3.206
Last Correction   2016/04/16 01:27:56
Memo.             
[...]
   -1925    -1888    -1852    -1814    -1779    -1741    -1702    -1669 
   -1641    -1601    -1559    -1528    -1493    -1455    -1424    -1390 
   -1358    -1334    -1306    -1278    -1263    -1247    -1223    -1210 
   -1204    -1190    -1182    -1182    -1174    -1158    -1147    -1138 
   -1121    -1107    -1093    -1070    -1053    -1038    -1013     -992 
    -980     -962     -946     -946     -940     -927     -929     -939 
    -942     -958     -982     -996    -1023    -1065    -1096    -1124 
   -1173    -1220    -1259    -1310    -1367    -1418    -1472    -1526 
   -1572    -1621    -1675    -1721    -1761    -1809    -1850    -1880 
   -1912    -1946    -1971    -1992    -2014    -2031    -2049    -2065 
   -2074    -2083    -2095    -2096    -2095    -2100    -2101    -2093 
   -2085    -2077    -2065    -2052    -2034    -2011    -1984    -1961 
   -1933    -1899    -1869    -1837    -1799    -1768    -1742    -1710 
   -1675    -1644    -1606    -1575    -1552    -1524    -1489    -1464 
   -1437    -1404    -1379    -1359    -1328    -1298    -1277    -1252 
   -1225    -1204    -1181    -1154    -1131    -1112    -1092    -1081 
   -1070    -1053    -1044    -1038    -1028    -1030    -1034    -1024 
   -1020    -1026    -1024    -1015    -1016    -1013    -1003    -1004 
   -1004     -987     -980     -984     -976     -967     -972     -962 
    -950     -950     -947     -932     -919     -908     -893     -880 
    -859     -832     -810     -789     -761     -733     -708     -680 
    -646     -622     -599     -568     -540     -518     -484     -457 
    -444     -418     -387     -365     -341     -311     -294     -276 
    -245     -225     -214     -189     -164     -155     -139     -118 
    -112     -103      -89      -82      -75      -68      -70      -70 
     -63      -65      -79      -90      -98     -116     -129     -143 
    -171     -195     -214     -249     -289     -324     -367     -417 
    -460     -508     -566     -615     -665     -726     -777     -824 
    -885     -943     -989    -1042    -1096    -1138    -1185    -1244 
   -1286    -1327    -1382    -1431    -1472    -1524    -1576    -1621 
   -1675    -1737    -1790    -1842    -1906    -1958    -2010    -2077 
   -2142    -2199    -2262    -2319    -2369    -2428    -2496    -2544 
   -2587    -2641    -2688    -2727    -2771    -2799    -2821    -2857 
   -2889    -2896    -2910    -2932    -2945    -2959    -2976    -2980 
   -2980    -2991    -2998    -2992    -2986    -2982    -2970    -2956 
   -2941    -2914    -2890    -2874    -2847    -2811    -2786    -2759 
   -2725    -2698    -2668    -2631    -2604    -2583    -2551    -2521 
   -2496    -2463    -2434    -2413    -2385    -2354    -2332    -2311 
   -2276    -2249    -2228    -2196    -2163    -2138    -2106    -2068 
   -2038    -2001    -1956    -1918    -1875    -1818    -1769    -1726 
   -1668    -1609    -1556    -1495    -1428    -1370    -1308    -1237 
   -1179    -1119    -1048     -994     -946     -885     -831     -792 
    -749     -708     -681     -648     -610     -591     -571     -542 
    -525     -513     -493     -483     -481     -471     -460     -461 
    -457     -451     -457     -454     -440     -436     -429     -409 
    -399     -394     -369     -344     -332     -309     -282     -265 
    -245     -220     -201     -180     -151     -129     -117      -97 
     -76      -67      -54      -32      -23      -22       -9        0 
      -9       -9       -4      -11      -22      -32      -55      -74 
     -94     -133     -176     -210     -255     -315     -376     -442 
    -518     -589     -660     -743     -828     -911    -1000    -1086 
   -1167    -1252    -1343    -1428    -1506    -1590    -1671    -1741 
   -1818    -1894    -1956    -2023    -2091    -2144    -2199    -2257 
   -2303    -2343    -2382    -2409    -2438    -2474    -2488    -2486 
   -2496    -2502    -2489    -2477    -2467    -2442    -2415    -2392 
   -2349    -2304    -2274    -2235    -2177    -2134    -2092    -2034 
   -1984    -1941    -1878    -1811    -1753    -1690    -1621    -1559 
   -1495    -1422    -1351    -1282    -1208    -1133    -1063     -986 
    -913     -847     -770     -691     -626     -562     -490     -423 
    -370     -314     -257     -210     -162     -114      -81      -47 
     -13        8       23       39       47       51       44       27 
       9      -11      -43      -79     -118     -164     -216     -266 
    -319     -383     -451     -513     -583     -662     -737     -808 
    -889     -972    -1053    -1146    -1230    -1308    -1393    -1474 
   -1552    -1636    -1717    -1781    -1848    -1919    -1984    -2046 
   -2110    -2161    -2205    -2259    -2308    -2347    -2392    -2431 
   -2463    -2504    -2542    -2569    -2598    -2633    -2666    -2697 
   -2732    -2767    -2794    -2825    -2863    -2891    -2920    -2956 
   -2986    -3013    -3046    -3078    -3100    -3133    -3165    -3191 
   -3219    -3249    -3273    -3302    -3334    -3355    -3379    -3406 
   -3424    -3442    -3466    -3484    -3497    -3518    -3532    -3541 
   -3557    -3574    -3574    -3574    -3589    -3592    -3588    -3593 
   -3589    -3577    -3577    -3570    -3550    -3537    -3528    -3510 
   -3489    -3470    -3442    -3414    -3388    -3354    -3312    -3275 
   -3235    -3188    -3133    -3073    -3011    -2949    -2887    -2811 
   -2728    -2646    -2563    -2474    -2385    -2288    -2180    -2079 
   -1982    -1877    -1776    -1682    -1579    -1479    -1389    -1289 
   -1189    -1105    -1016     -923     -843     -761     -670     -596 
    -526     -448     -378     -314     -241     -174     -118      -59 
       2       49      101      159      206      245      297      341 
     375      413      450      475      502      535      553      562 
     579      587      579      579      575      557      538      522 
     492      459      429      390      344      307      270      222 
     175      129       71       14      -32      -87     -143     -194 
    -253     -311     -360     -415     -473     -521     -565     -615 
    -658     -699     -743     -780     -811     -851     -890     -919 
    -953     -993    -1028    -1060    -1094    -1123    -1155    -1198 
   -1233    -1266    -1313    -1354    -1390    -1441    -1491    -1532 
   -1584    -1640    -1682    -1729    -1791    -1840    -1887    -1948 
   -1999    -2041    -2096    -2153    -2191    -2236    -2290    -2330 
   -2369    -2419    -2454    -2475    -2511    -2542    -2558    -2575 
   -2594    -2600    -2608    -2621    -2621    -2619    -2617    -2608 
   -2594    -2584    -2567    -2550    -2540    -2521    -2493    -2474 
   -2458    -2427    -2398    -2380    -2351    -2317    -2296    -2270 
   -2239    -2222    -2201    -2172    -2160    -2147    -2123    -2106 
   -2100    -2085    -2068    -2068    -2062    -2049    -2053    -2058 
   -2046    -2052    -2066    -2070    -2077    -2091    -2095    -2106 
   -2126    -2138    -2143    -2160    -2172    -2176    -2193    -2211 
   -2211    -2219    -2236    -2239    -2247    -2266    -2270    -2269 
   -2284    -2297    -2299    -2308    -2324    -2326    -2328    -2338 
   -2338    -2342    -2354    -2351    -2342    -2344    -2342    -2328 
   -2322    -2316    -2297    -2284    -2278    -2263    -2249    -2243 
   -2224    -2201    -2191    -2178    -2161    -2151    -2139    -2123 
   -2116    -2111    -2095    -2085    -2085    -2074    -2065    -2066 
   -2061    -2057    -2064    -2056    -2043    -2056    -2066    -2058 
   -2061    -2070    -2069    -2072    -2083    -2085    -2079    -2087 
   -2096    -2088    -2085    -2092    -2084    -2072    -2076    -2070 
   -2053    -2047    -2039    -2018    -2008    -1999    -1973    -1956 
   -1946    -1921    -1892    -1873    -1845    -1809    -1781    -1752 
   -1715    -1684    -1652    -1609    -1578    -1552    -1517    -1485 
   -1464    -1443    -1421    -1412    -1398    -1383    -1385    -1387 
   -1383    -1391    -1408    -1417    -1433    -1463    -1489    -1516 
   -1560    -1603    -1638    -1690    -1745    -1790    -1849    -1922 
   -1977    -2033    -2101    -2157    -2209    -2277    -2334    -2376 
   -2430    -2482    -2520    -2560    -2602    -2628    -2652    -2682 
   -2701    -2713    -2729    -2736    -2735    -2740    -2743    -2728 
   -2717    -2710    -2693    -2668    -2648    -2620    -2582    -2552 
   -2520    -2473    -2430    -2393    -2346    -2297    -2255    -2207 
   -2154    -2106    -2053    -1998    -1949    -1895    -1831    -1771 
   -1714    -1651    -1588    -1528    -1457    -1387    -1325    -1254 
   -1182    -1120    -1048     -976     -918     -853     -783     -727 
    -673     -610     -558     -513     -463     -419     -387     -352 
    -314     -286     -263     -236     -221     -214     -195     -189 
    -199     -199     -202     -221     -238     -259     -297     -334 
    -368     -421     -483     -535     -595     -668     -734     -801 
    -882     -961    -1036    -1121    -1204    -1277    -1355    -1436 
   -1506    -1579    -1655    -1717    -1775    -1838    -1891    -1934 
   -1981    -2022    -2053    -2091    -2119    -2134    -2154    -2174 
   -2177    -2177    -2185    -2182    -2169    -2166    -2158    -2139 
   -2128    -2121    -2100    -2084    -2077    -2057    -2034    -2027 
   -2011    -1991    -1984    -1971    -1946    -1937    -1930    -1912 
   -1898    -1892    -1877    -1863    -1864    -1854    -1841    -1846 
   -1845    -1833    -1837    -1848    -1845    -1849    -1864    -1872 
   -1877    -1895    -1911    -1923    -1945    -1965    -1980    -2001 
   -2029    -2049    -2070    -2100    -2124    -2146    -2177    -2204 
   -2222    -2249    -2276    -2290    -2307    -2328    -2338    -2349 
   -2361    -2367    -2373    -2380    -2380    -2377    -2381    -2381 
   -2376    -2371    -2369    -2361    -2353    -2343    -2328    -2319 
   -2317    -2301    -2276    -2259    -2243    -2219    -2203    -2182 
   -2150    -2123    -2101    -2069    -2038    -2015    -1984    -1949 
   -1925    -1895    -1857    -1831    -1807    -1775    -1749    -1729 
   -1701    -1679    -1668    -1645    -1622    -1620    -1613    -1597 
   -1598    -1598    -1583    -1582    -1587    -1584    -1584    -1594 
   -1597    -1602    -1614    -1621    -1630    -1648    -1656    -1655 
   -1667    -1684    -1688    -1695    -1709    -1715    -1722    -1729 
   -1729    -1736    -1745    -1741    -1734    -1738    -1737    -1728 
   -1722    -1718    -1698    -1679    -1675    -1658    -1636    -1622 
   -1602    -1572    -1553    -1535    -1507    -1480    -1462    -1436 
   -1412    -1398    -1377    -1348    -1333    -1323    -1300    -1290 
   -1289    -1270    -1255    -1256    -1248    -1237    -1244    -1246 
   -1240    -1250    -1259    -1258    -1266    -1282    -1290    -1302 
   -1318    -1325    -1333    -1355    -1375    -1387    -1405    -1421 
   -1436    -1462    -1489    -1505    -1522    -1547    -1570    -1595 
   -1629    -1660    -1684    -1718    -1752    -1779    -1815    -1852 
   -1875    -1906    -1942    -1960    -1980    -2011    -2030    -2038 
   -2053    -2068    -2073    -2084    -2091    -2087    -2083    -2083 
   -2073    -2065    -2062    -2052    -2037    -2027    -2014    -1988 
   -1966    -1944    -1914    -1891    -1869    -1833    -1796    -1769 
   -1738    -1701    -1667    -1629    -1588    -1553    -1522    -1485 
   -1448    -1418    -1381    -1340    -1308    -1271    -1229    -1194 
   -1159    -1120    -1086    -1051    -1005     -965     -938     -903 
    -861     -826     -795     -756     -728     -706     -670     -639 
    -618     -589     -573     -565     -544     -519     -506     -493 
    -476     -468     -460     -440     -423     -415     -400     -382 
    -370     -360     -344     -333     -325     -307     -292     -282 
    -263     -256     -252     -234     -221     -224     -217     -211 
    -217     -218     -220     -236     -255     -265     -284     -314 
    -337     -364     -406     -442     -475     -522     -573     -621 
    -675     -733     -791     -858     -928     -994    -1065    -1147 
   -1220    -1290    -1371    -1448    -1521    -1605    -1687    -1759 
   -1836    -1915    -1984    -2056    -2134    -2199    -2262    -2335 
   -2401    -2459    -2525    -2583    -2632    -2690    -2745    -2783 
   -2830    -2882    -2915    -2948    -2990    -3018    -3041    -3075 
   -3096    -3109    -3132    -3154    -3159    -3168    -3180    -3187 
   -3194    -3210    -3213    -3215    -3227    -3231    -3226    -3234 
   -3241    -3235    -3237    -3242    -3238    -3237    -3235    -3223 
   -3215    -3217    -3203    -3172    -3148    -3123    -3094    -3076 
   -3055    -3005    -2955    -2915    -2867    -2813    -2759    -2698 
   -2636    -2582    -2515    -2436    -2363    -2293    -2215    -2142 
   -2069    -1982    -1896    -1818    -1732    -1641    -1559    -1474 
   -1383    -1291    -1196    -1098    -1004     -913     -816     -719 
    -627     -529     -425     -336     -243     -137      -39       54 
     152      238      317      406      495      573      650      730 
     801      870      942     1009     1073     1139     1201     1254 
    1310     1368     1413     1456     1505     1543     1578     1618 
    1645     1665     1696     1721     1733     1750     1763     1761 
    1761     1761     1746     1728     1709     1677     1638     1601 
    1552     1491     1435     1374     1294     1209     1123     1023 
     920      822      708      587      471      348      211       79 
     -51     -194     -340     -479     -633     -791     -935    -1081 
   -1236    -1389    -1543    -1699    -1848    -1989    -2137    -2281 
   -2416    -2544    -2671    -2797    -2918    -3032    -3132    -3225 
   -3329    -3424    -3501    -3578    -3657    -3719    -3775    -3832 
   -3878    -3924    -3969    -4003    -4036    -4074    -4102    -4120 
   -4139    -4156    -4170    -4182    -4182    -4178    -4185    -4189 
   -4175    -4158    -4153    -4147    -4131    -4118    -4099    -4072 
   -4058    -4048    -4023    -3994    -3970    -3939    -3904    -3878 
   -3846    -3804    -3770    -3732    -3678    -3636    -3596    -3535 
   -3476    -3424    -3361    -3295    -3234    -3164    -3090    -3026 
   -2957    -2875    -2802    -2736    -2655    -2574    -2505    -2430 
   -2346    -2274    -2203    -2123    -2052    -1981    -1903    -1833 
   -1771    -1699    -1630    -1566    -1497    -1426    -1360    -1289 
   -1213    -1144    -1074     -996     -923     -853     -776     -699 
    -629     -553     -480     -418     -357     -292     -233     -182 
    -129      -79      -36        8       47       74       98      122 
     137      151      160      157      155      151      133      112 
     101       74       36        9      -28      -79     -118     -155 
    -206     -255     -297     -355     -414     -454     -504     -562 
    -612     -665     -726     -778     -826     -885     -950    -1003 
   -1058    -1117    -1169    -1227    -1294    -1355    -1414    -1478 
   -1539    -1595    -1655    -1714    -1775    -1837    -1895    -1952 
   -2011    -2070    -2124    -2182    -2242    -2295    -2344    -2401 
   -2451    -2494    -2546    -2594    -2632    -2673    -2704    -2725 
   -2755    -2781    -2794    -2811    -2830    -2840    -2848    -2852 
   -2847    -2837    -2836    -2830    -2810    -2789    -2771    -2743 
   -2710    -2682    -2643    -2597    -2559    -2512    -2451    -2398 
   -2351    -2289    -2224    -2165    -2097    -2029    -1965    -1895 
   -1818    -1750    -1680    -1601    -1526    -1457    -1383    -1308 
   -1242    -1171    -1097    -1031     -970     -903     -841     -783 
    -720     -661     -608     -557     -511     -472     -423     -372 
    -329     -287     -248     -220     -191     -153     -125     -106 
     -85      -67      -58      -43      -35      -41      -37      -25 
     -31      -40      -40      -52      -67      -71      -85     -106 
    -117     -128     -156     -178     -198     -232     -263     -289 
    -329     -373     -410     -457     -521     -572     -622     -691 
    -758     -824     -900     -977    -1051    -1133    -1221    -1305 
   -1389    -1480    -1567    -1652    -1748    -1840    -1927    -2025 
   -2119    -2205    -2301    -2403    -2493    -2583    -2678    -2770 
   -2863    -2957    -3037    -3118    -3210    -3292    -3365    -3443 
   -3516    -3577    -3640    -3703    -3750    -3797    -3852    -3897 
   -3927    -3959    -3987    -4006    -4025    -4041    -4045    -4052 
   -4059    -4051    -4036    -4027    -4010    -3989    -3973    -3951 
   -3916    -3889    -3867    -3832    -3797    -3767    -3728    -3690 
   -3661    -3622    -3573    -3527    -3480    -3427    -3379    -3330 
   -3275    -3222    -3164    -3092    -3028    -2971    -2902    -2830 
   -2768    -2697    -2620    -2555    -2488    -2408    -2336    -2265 
   -2182    -2104    -2034    -1952    -1873    -1809    -1734    -1651 
   -1576    -1499    -1421    -1358    -1294    -1216    -1143    -1078 
   -1004     -934     -873     -805     -734     -673     -612     -552 
    -500     -446     -383     -336     -297     -245     -197     -163 
    -128      -86      -56      -25       13       39       63      103 
     125      135      167      195      207      230      249      252 
     257      272      276      274      282      280      265      259 
     245      217      197      180      144      110       85       45 
       1      -32      -74     -129     -174     -217     -275     -329 
    -378     -441     -503     -553     -615     -679     -733     -796 
    -864     -916     -970    -1038    -1097    -1147    -1204    -1259 
   -1305    -1359    -1414    -1456    -1503    -1556    -1595    -1632 
   -1683    -1723    -1761    -1810    -1852    -1887    -1929    -1972 
   -2007    -2046    -2091    -2126    -2160    -2204    -2243    -2280 
   -2328    -2369    -2397    -2440    -2486    -2517    -2555    -2605 
   -2639    -2669    -2714    -2751    -2781    -2822    -2859    -2882 
   -2910    -2941    -2959    -2976    -2997    -3009    -3015    -3026 
   -3028    -3019    -3021    -3013    -2988    -2971    -2955    -2922 
   -2889    -2860    -2817    -2764    -2718    -2664    -2601    -2544 
   -2485    -2413    -2346    -2281    -2205    -2134    -2069    -1991 
   -1915    -1854    -1784    -1702    -1636    -1575    -1505    -1441 
   -1386    -1327    -1271    -1225    -1171    -1115    -1077    -1039 
    -992     -959     -929     -885     -853     -838     -810     -778 
    -764     -743     -722     -715     -704     -685     -684     -692 
    -688     -685     -692     -692     -696     -715     -730     -741 
    -764     -788     -803     -831     -864     -889     -919     -955 
    -982    -1019    -1065    -1100    -1135    -1182    -1219    -1246 
   -1282    -1320    -1347    -1378    -1409    -1429    -1451    -1478 
   -1494    -1503    -1520    -1528    -1530    -1544    -1552    -1544 
   -1547    -1552    -1537    -1528    -1532    -1524    -1516    -1517 
   -1502    -1480    -1479    -1476    -1457    -1449    -1444    -1426 
