Origin Time       2016/04/16 01:25:00
Lat.              32.753
Long.             130.762
Depth. (km)       12
Mag.              7.3
Station Code      SIG007
Station Lat.      35.1339
Station Long.     136.0957
Station Height(m) 90
Record Time       2016/04/16 01:27:55
Sampling Freq(Hz) 100Hz
Duration Time(s)  77
Dir.              N-S
Scale Factor      7845(gal)/8223790
Max. Acc. (gal)   3.312
Last Correction   2016/04/16 01:27:56
Memo.             
[...]
   -2903    -2857    -2808    -2758    -2709    -2660    -2609    -2556 
   -2502    -2452    -2407    -2362    -2319    -2282    -2250    -2219 
   -2193    -2170    -2150    -2130    -2115    -2100    -2088    -2079 
   -2065    -2052    -2042    -2033    -2022    -2008    -1995    -1982 
   -1975    -1965    -1953    -1944    -1930    -1918    -1910    -1902 
   -1890    -1880    -1869    -1857    -1849    -1841    -1830    -1826 
   -1823    -1817    -1811    -1810    -1804    -1796    -1796    -1795 
   -1784    -1772    -1765    -1753    -1738    -1729    -1719    -1706 
   -1692    -1683    -1672    -1665    -1663    -1658    -1658    -1661 
   -1664    -1674    -1688    -1705    -1723    -1742    -1764    -1790 
   -1811    -1831    -1852    -1876    -1898    -1912    -1926    -1939 
   -1953    -1969    -1984    -1991    -1998    -2015    -2027    -2030 
   -2041    -2060    -2066    -2066    -2070    -2079    -2088    -2089 
   -2088    -2085    -2087    -2085    -2073    -2072    -2077    -2070 
   -2058    -2056    -2053    -2046    -2042    -2045    -2045    -2041 
   -2039    -2037    -2037    -2042    -2039    -2034    -2041    -2050 
   -2060    -2072    -2084    -2093    -2107    -2123    -2144    -2168 
   -2181    -2192    -2211    -2227    -2236    -2249    -2265    -2280 
   -2290    -2300    -2309    -2319    -2335    -2343    -2342    -2343 
   -2347    -2346    -2342    -2334    -2322    -2307    -2292    -2280 
   -2266    -2250    -2235    -2224    -2215    -2208    -2193    -2178 
   -2170    -2162    -2150    -2139    -2130    -2115    -2097    -2083 
   -2069    -2060    -2052    -2037    -2029    -2030    -2026    -2019 
   -2023    -2030    -2031    -2034    -2043    -2045    -2045    -2053 
   -2061    -2061    -2062    -2062    -2057    -2058    -2062    -2062 
   -2064    -2069    -2074    -2077    -2081    -2085    -2088    -2093 
   -2091    -2087    -2085    -2081    -2074    -2068    -2060    -2049 
   -2039    -2030    -2015    -2000    -1991    -1981    -1973    -1969 
   -1960    -1949    -1949    -1948    -1941    -1945    -1953    -1949 
   -1944    -1941    -1939    -1935    -1930    -1922    -1908    -1898 
   -1887    -1871    -1858    -1845    -1830    -1818    -1804    -1784 
   -1764    -1750    -1737    -1718    -1699    -1686    -1667    -1645 
   -1629    -1617    -1602    -1583    -1568    -1553    -1534    -1517 
   -1502    -1486    -1471    -1462    -1449    -1441    -1439    -1439 
   -1441    -1452    -1468    -1489    -1509    -1533    -1568    -1602 
   -1632    -1665    -1701    -1736    -1773    -1806    -1833    -1867 
   -1900    -1923    -1944    -1973    -1996    -2016    -2042    -2060 
   -2072    -2092    -2107    -2111    -2123    -2137    -2139    -2139 
   -2144    -2142    -2141    -2146    -2144    -2138    -2139    -2143 
   -2142    -2141    -2151    -2162    -2168    -2182    -2204    -2224 
   -2253    -2289    -2326    -2366    -2413    -2459    -2508    -2565 
   -2627    -2682    -2735    -2789    -2841    -2891    -2940    -2988 
   -3033    -3075    -3115    -3154    -3190    -3225    -3261    -3292 
   -3319    -3348    -3369    -3387    -3399    -3407    -3412    -3410 
   -3410    -3406    -3395    -3383    -3372    -3357    -3343    -3326 
   -3302    -3280    -3260    -3234    -3210    -3187    -3161    -3126 
   -3090    -3057    -3019    -2976    -2938    -2893    -2836    -2786 
   -2737    -2685    -2636    -2582    -2525    -2475    -2420    -2357 
   -2296    -2239    -2174    -2104    -2038    -1972    -1904    -1840 
   -1777    -1715    -1663    -1617    -1570    -1526    -1490    -1459 
   -1431    -1405    -1383    -1367    -1359    -1354    -1348    -1354 
   -1364    -1371    -1390    -1416    -1441    -1475    -1509    -1541 
   -1578    -1618    -1657    -1694    -1733    -1772    -1800    -1831 
   -1869    -1898    -1923    -1958    -1992    -2019    -2052    -2089 
   -2124    -2161    -2199    -2230    -2255    -2285    -2315    -2342 
   -2370    -2396    -2417    -2446    -2475    -2500    -2528    -2565 
   -2602    -2636    -2673    -2702    -2739    -2782    -2817    -2848 
   -2887    -2922    -2956    -2992    -3024    -3049    -3075    -3099 
   -3109    -3109    -3121    -3126    -3119    -3113    -3102    -3082 
   -3064    -3049    -3028    -3002    -2979    -2947    -2911    -2882 
   -2844    -2802    -2766    -2721    -2674    -2627    -2582    -2533 
   -2485    -2435    -2380    -2331    -2288    -2242    -2195    -2153 
   -2111    -2072    -2034    -2001    -1964    -1933    -1906    -1871 
   -1833    -1802    -1765    -1728    -1691    -1649    -1606    -1563 
   -1517    -1470    -1426    -1381    -1332    -1287    -1247    -1206 
   -1166    -1128    -1092    -1053    -1016     -982     -953     -928 
    -901     -869     -838     -810     -788     -769     -750     -730 
    -715     -702     -688     -679     -672     -670     -670     -670 
    -675     -683     -692     -707     -724     -743     -766     -791 
    -818     -847     -873     -899     -927     -953     -972     -987 
   -1011    -1028    -1036    -1048    -1062    -1071    -1085    -1101 
   -1113    -1128    -1146    -1165    -1185    -1215    -1242    -1269 
   -1297    -1329    -1363    -1399    -1440    -1486    -1534    -1582 
   -1634    -1694    -1760    -1830    -1904    -1979    -2056    -2137 
   -2219    -2301    -2382    -2467    -2551    -2629    -2706    -2785 
   -2852    -2920    -2990    -3048    -3098    -3150    -3194    -3234 
   -3275    -3302    -3321    -3338    -3349    -3355    -3357    -3352 
   -3336    -3315    -3295    -3271    -3237    -3203    -3173    -3141 
   -3106    -3079    -3049    -3019    -2998    -2979    -2956    -2940 
   -2926    -2906    -2890    -2876    -2862    -2852    -2844    -2837 
   -2830    -2826    -2822    -2818    -2817    -2818    -2818    -2817 
   -2816    -2808    -2797    -2790    -2779    -2767    -2766    -2759 
   -2737    -2706    -2683    -2675    -2663    -2636    -2610    -2589 
   -2559    -2525    -2506    -2494    -2461    -2416    -2385    -2366 
   -2338    -2296    -2266    -2245    -2208    -2168    -2139    -2111 
   -2079    -2049    -2016    -1989    -1964    -1938    -1915    -1895 
   -1873    -1852    -1831    -1811    -1791    -1777    -1764    -1737 
   -1713    -1699    -1679    -1651    -1626    -1602    -1571    -1539 
   -1505    -1472    -1440    -1401    -1358    -1320    -1281    -1237 
   -1197    -1159    -1121    -1081    -1044    -1011     -976     -943 
    -915     -886     -857     -838     -827     -812     -803     -796 
    -789     -787     -789     -796     -805     -815     -827     -846 
    -869     -897     -928     -955     -982    -1016    -1048    -1077 
   -1107    -1139    -1162    -1178    -1192    -1210    -1228    -1232 
   -1233    -1235    -1227    -1219    -1208    -1185    -1166    -1147 
   -1120    -1093    -1067    -1038    -1009     -985     -950     -915 
    -897     -873     -832     -808     -796     -767     -741     -734 
    -719     -704     -702     -707     -711     -724     -739     -757 
    -784     -814     -842     -882     -929     -970    -1011    -1063 
   -1117    -1170    -1228    -1282    -1337    -1399    -1466    -1530 
   -1595    -1661    -1726    -1792    -1861    -1929    -1995    -2056 
   -2111    -2169    -2226    -2276    -2327    -2377    -2416    -2452 
   -2494    -2531    -2560    -2589    -2617    -2641    -2662    -2683 
   -2702    -2716    -2731    -2737    -2739    -2744    -2749    -2748 
   -2744    -2739    -2731    -2727    -2727    -2720    -2712    -2710 
   -2706    -2698    -2691    -2688    -2685    -2682    -2682    -2677 
   -2669    -2671    -2674    -2673    -2674    -2681    -2687    -2697 
   -2709    -2725    -2740    -2758    -2779    -2809    -2839    -2866 
   -2902    -2937    -2971    -3009    -3053    -3098    -3141    -3191 
   -3242    -3292    -3349    -3410    -3469    -3530    -3589    -3649 
   -3713    -3780    -3842    -3899    -3958    -4020    -4074    -4126 
   -4176    -4220    -4260    -4297    -4325    -4349    -4372    -4384 
   -4386    -4387    -4387    -4378    -4359    -4336    -4310    -4283 
   -4251    -4210    -4171    -4132    -4083    -4029    -3979    -3932 
   -3879    -3824    -3765    -3705    -3649    -3591    -3530    -3469 
   -3410    -3345    -3281    -3218    -3150    -3083    -3022    -2956 
   -2889    -2826    -2763    -2695    -2631    -2563    -2492    -2424 
   -2359    -2292    -2223    -2160    -2093    -2020    -1953    -1891 
   -1826    -1761    -1701    -1634    -1571    -1516    -1460    -1398 
   -1343    -1296    -1243    -1190    -1146    -1100    -1047    -1000 
    -957     -903     -853     -808     -757     -702     -649     -595 
    -537     -480     -425     -363     -303     -251     -191     -125 
     -64       -8       47      105      162      214      265      317 
     367      413      450      484      518      552      581      607 
     629      645      658      669      672      673      669      658 
     642      623      599      571      540      508      471      425 
     380      340      297      246      197      149       99       51 
       2      -51     -106     -160     -216     -271     -321     -376 
    -436     -491     -540     -596     -660     -715     -764     -820 
    -881     -935     -984    -1034    -1089    -1147    -1205    -1266 
   -1325    -1386    -1449    -1520    -1594    -1667    -1741    -1818 
   -1898    -1977    -2056    -2143    -2232    -2313    -2396    -2479 
   -2569    -2664    -2755    -2841    -2933    -3028    -3121    -3217 
   -3308    -3396    -3487    -3577    -3658    -3742    -3831    -3906 
   -3981    -4060    -4136    -4207    -4278    -4348    -4421    -4488 
   -4550    -4612    -4677    -4739    -4793    -4845    -4893    -4941 
   -4980    -5012    -5043    -5070    -5093    -5115    -5130    -5143 
   -5154    -5158    -5164    -5169    -5169    -5169    -5166    -5157 
   -5143    -5125    -5108    -5088    -5057    -5023    -4985    -4938 
   -4891    -4839    -4777    -4712    -4645    -4565    -4479    -4395 
   -4306    -4205    -4107    -4016    -3913    -3808    -3707    -3608 
   -3510    -3407    -3307    -3211    -3122    -3032    -2941    -2857 
   -2778    -2698    -2620    -2546    -2475    -2404    -2332    -2266 
   -2207    -2149    -2093    -2043    -1996    -1953    -1912    -1880 
   -1852    -1823    -1798    -1781    -1765    -1752    -1749    -1746 
   -1741    -1741    -1745    -1760    -1781    -1800    -1821    -1841 
   -1867    -1899    -1930    -1958    -1989    -2020    -2049    -2081 
   -2120    -2158    -2192    -2227    -2267    -2305    -2340    -2373 
   -2405    -2431    -2455    -2484    -2511    -2535    -2555    -2571 
   -2587    -2600    -2608    -2620    -2628    -2627    -2628    -2632 
   -2632    -2632    -2633    -2628    -2620    -2613    -2604    -2593 
   -2579    -2563    -2543    -2516    -2489    -2466    -2438    -2407 
   -2376    -2346    -2315    -2281    -2246    -2212    -2181    -2151 
   -2111    -2076    -2043    -2006    -1971    -1938    -1900    -1859 
   -1829    -1800    -1769    -1740    -1711    -1687    -1669    -1655 
   -1637    -1618    -1606    -1601    -1594    -1586    -1578    -1571 
   -1564    -1559    -1556    -1554    -1552    -1553    -1559    -1560 
   -1566    -1579    -1590    -1602    -1617    -1634    -1653    -1674 
   -1694    -1718    -1745    -1773    -1802    -1833    -1865    -1899 
   -1933    -1972    -2012    -2050    -2095    -2141    -2182    -2227 
   -2274    -2319    -2369    -2420    -2469    -2515    -2560    -2606 
   -2651    -2694    -2736    -2775    -2809    -2840    -2870    -2899 
   -2928    -2953    -2974    -2990    -3009    -3030    -3051    -3069 
   -3084    -3099    -3115    -3134    -3148    -3160    -3176    -3194 
   -3207    -3226    -3248    -3269    -3294    -3319    -3349    -3381 
   -3415    -3454    -3492    -3530    -3570    -3612    -3653    -3699 
   -3747    -3790    -3832    -3875    -3916    -3958    -4000    -4040 
   -4079    -4114    -4151    -4186    -4214    -4236    -4258    -4274 
   -4282    -4282    -4275    -4266    -4256    -4236    -4207    -4178 
   -4159    -4139    -4110    -4081    -4051    -4023    -4001    -3975 
   -3944    -3921    -3906    -3889    -3869    -3851    -3835    -3820 
   -3809    -3800    -3790    -3781    -3774    -3774    -3773    -3767 
   -3766    -3771    -3780    -3785    -3788    -3796    -3808    -3819 
   -3831    -3839    -3842    -3851    -3867    -3882    -3894    -3904 
   -3916    -3928    -3935    -3944    -3956    -3965    -3973    -3977 
   -3975    -3977    -3978    -3977    -3974    -3967    -3959    -3948 
   -3932    -3920    -3908    -3890    -3873    -3855    -3836    -3819 
   -3802    -3780    -3753    -3732    -3717    -3694    -3667    -3649 
   -3634    -3611    -3584    -3562    -3543    -3518    -3485    -3450 
   -3415    -3381    -3339    -3283    -3230    -3180    -3119    -3046 
   -2980    -2913    -2833    -2749    -2664    -2571    -2474    -2378 
   -2273    -2163    -2052    -1934    -1815    -1696    -1571    -1441 
   -1313    -1183    -1053     -927     -803     -676     -548     -423 
    -302     -183      -68       37      140      243      340      432 
     518      598      673      745      811      872      929      981 
    1028     1070     1109     1140     1165     1189     1212     1232 
    1248     1255     1256     1259     1260     1255     1248     1237 
    1219     1194     1167     1138     1104     1059     1003      943 
     877      803      722      638      542      438      333      218 
      97      -21     -144     -280     -413     -544     -684     -828 
    -970    -1116    -1266    -1413    -1559    -1706    -1856    -2004 
   -2149    -2289    -2428    -2567    -2701    -2832    -2959    -3083 
   -3204    -3317    -3429    -3534    -3634    -3732    -3831    -3919 
   -3997    -4072    -4147    -4215    -4280    -4336    -4386    -4433 
   -4477    -4521    -4561    -4598    -4630    -4660    -4684    -4707 
   -4731    -4752    -4766    -4777    -4785    -4788    -4789    -4787 
   -4781    -4772    -4757    -4734    -4710    -4684    -4653    -4615 
   -4576    -4533    -4483    -4433    -4378    -4315    -4252    -4186 
   -4116    -4047    -3977    -3899    -3825    -3754    -3680    -3608 
   -3542    -3477    -3415    -3357    -3302    -3249    -3200    -3156 
   -3113    -3073    -3037    -3002    -2967    -2938    -2909    -2874 
   -2844    -2822    -2794    -2768    -2745    -2714    -2683    -2660 
   -2635    -2604    -2570    -2543    -2515    -2485    -2457    -2423 
   -2385    -2349    -2313    -2277    -2242    -2204    -2162    -2119 
   -2076    -2034    -1996    -1949    -1904    -1865    -1823    -1783 
   -1745    -1707    -1668    -1634    -1603    -1579    -1554    -1532 
   -1513    -1499    -1486    -1476    -1466    -1457    -1457    -1456 
   -1449    -1447    -1451    -1456    -1459    -1462    -1468    -1479 
   -1493    -1505    -1518    -1535    -1556    -1579    -1606    -1637 
   -1667    -1703    -1744    -1779    -1817    -1861    -1906    -1946 
   -1992    -2034    -2076    -2120    -2166    -2214    -2259    -2301 
   -2344    -2389    -2430    -2469    -2505    -2540    -2570    -2596 
   -2619    -2636    -2646    -2648    -2648    -2650    -2641    -2631 
   -2619    -2597    -2571    -2544    -2513    -2478    -2439    -2394 
   -2350    -2301    -2243    -2182    -2121    -2060    -1996    -1925 
   -1850    -1772    -1692    -1614    -1534    -1456    -1379    -1298 
   -1220    -1146    -1070     -999     -929     -866     -808     -751 
    -696     -652     -608     -565     -526     -493     -461     -432 
    -403     -378     -352     -332     -311     -286     -265     -246 
    -224     -201     -184     -170     -152     -135     -117      -98 
     -89      -85      -75      -63      -62      -62      -62      -67 
     -79      -94     -110     -129     -149     -176     -207     -236 
    -265     -307     -346     -386     -433     -479     -526     -579 
    -629     -680     -734     -789     -849     -909     -967    -1026 
   -1085    -1147    -1215    -1279    -1344    -1410    -1476    -1543 
   -1606    -1668    -1734    -1795    -1858    -1925    -1987    -2046 
   -2110    -2170    -2232    -2295    -2355    -2420    -2482    -2536 
   -2592    -2647    -2700    -2751    -2801    -2849    -2903    -2953 
   -2994    -3034    -3076    -3118    -3160    -3196    -3226    -3258 
   -3294    -3319    -3338    -3354    -3372    -3385    -3392    -3391 
   -3383    -3369    -3354    -3333    -3303    -3265    -3222    -3175 
   -3122    -3061    -2997    -2930    -2857    -2778    -2697    -2614 
   -2532    -2446    -2354    -2257    -2158    -2057    -1956    -1858 
   -1761    -1660    -1556    -1452    -1355    -1259    -1163    -1071 
    -981     -890     -808     -727     -649     -579     -506     -441 
    -386     -329     -271     -222     -180     -140      -98      -64 
     -35       -5       25       56       85      108      129      153 
     174      191      206      218      222      228      236      238 
     230      221      210      191      168      147      122       87 
      47        5      -39      -85     -133     -190     -252     -317 
    -386     -453     -522     -600     -680     -756     -837     -923 
   -1008    -1094    -1181    -1270    -1364    -1459    -1548    -1634 
   -1719    -1807    -1896    -1984    -2065    -2142    -2219    -2296 
   -2366    -2432    -2490    -2548    -2605    -2652    -2693    -2735 
   -2774    -2803    -2826    -2848    -2871    -2887    -2895    -2898 
   -2896    -2896    -2895    -2887    -2874    -2863    -2849    -2829 
   -2808    -2786    -2759    -2733    -2706    -2675    -2643    -2610 
   -2577    -2546    -2519    -2485    -2450    -2424    -2404    -2382 
   -2357    -2335    -2323    -2311    -2299    -2292    -2285    -2284 
   -2284    -2286    -2293    -2301    -2304    -2309    -2319    -2326 
   -2334    -2347    -2359    -2366    -2373    -2377    -2384    -2393 
   -2400    -2403    -2407    -2408    -2409    -2412    -2415    -2415 
   -2412    -2409    -2408    -2403    -2397    -2390    -2380    -2369 
   -2355    -2338    -2327    -2319    -2304    -2282    -2263    -2246 
   -2228    -2212    -2195    -2176    -2160    -2143    -2128    -2115 
   -2102    -2089    -2077    -2066    -2060    -2053    -2045    -2039 
   -2034    -2026    -2022    -2020    -2012    -2004    -1999    -1989 
   -1979    -1973    -1966    -1956    -1948    -1939    -1930    -1919 
   -1914    -1904    -1894    -1884    -1872    -1861    -1852    -1840 
   -1829    -1821    -1810    -1795    -1787    -1777    -1765    -1760 
   -1753    -1740    -1733    -1725    -1709    -1702    -1699    -1691 
   -1687    -1683    -1675    -1671    -1671    -1667    -1668    -1675 
   -1679    -1683    -1692    -1701    -1707    -1722    -1742    -1759 
   -1773    -1791    -1811    -1833    -1856    -1880    -1904    -1930 
   -1956    -1982    -2010    -2041    -2068    -2093    -2124    -2153 
   -2177    -2205    -2231    -2258    -2284    -2304    -2324    -2350 
   -2370    -2388    -2405    -2421    -2438    -2454    -2471    -2489 
