Origin Time       2016/04/16 01:25:00
Lat.              32.753
Long.             130.762
Depth. (km)       12
Mag.              7.3
Station Code      SIG010
Station Lat.      34.9718
Station Long.     135.8965
Station Height(m) 110
Record Time       2016/04/16 01:27:43
Sampling Freq(Hz) 100Hz
Duration Time(s)  67
Dir.              N-S
Scale Factor      7845(gal)/8223790
Max. Acc. (gal)   2.103
Last Correction   2016/04/16 01:27:44
Memo.             
[...]
   -3850    -3781    -3694    -3620    -3547    -3464    -3380    -3308 
   -3248    -3179    -3102    -3038    -2975    -2894    -2833    -2785 
   -2718    -2651    -2600    -2552    -2496    -2442    -2408    -2369 
   -2322    -2292    -2282    -2265    -2228    -2199    -2180    -2169 
   -2177    -2185    -2165    -2153    -2157    -2155    -2170    -2204 
   -2223    -2235    -2261    -2280    -2293    -2331    -2381    -2417 
   -2455    -2505    -2552    -2598    -2648    -2708    -2771    -2825 
   -2875    -2936    -2994    -3049    -3123    -3194    -3254    -3326 
   -3392    -3450    -3519    -3589    -3653    -3721    -3794    -3865 
   -3925    -3991    -4062    -4129    -4200    -4270    -4329    -4384 
   -4438    -4494    -4558    -4621    -4669    -4706    -4743    -4791 
   -4834    -4868    -4904    -4923    -4920    -4923    -4930    -4927 
   -4923    -4915    -4900    -4873    -4828    -4780    -4741    -4710 
   -4681    -4634    -4568    -4515    -4473    -4422    -4371    -4322 
   -4271    -4225    -4183    -4139    -4099    -4064    -4021    -3974 
   -3932    -3901    -3863    -3817    -3778    -3738    -3682    -3624 
   -3580    -3523    -3457    -3406    -3341    -3261    -3198    -3130 
   -3061    -3017    -2961    -2884    -2824    -2767    -2698    -2641 
   -2600    -2551    -2496    -2446    -2394    -2336    -2286    -2257 
   -2234    -2196    -2144    -2095    -2053    -2016    -1985    -1972 
   -1952    -1910    -1884    -1878    -1857    -1838    -1838    -1842 
   -1845    -1837    -1840    -1876    -1908    -1919    -1944    -1980 
   -2012    -2043    -2085    -2130    -2174    -2227    -2278    -2311 
   -2355    -2415    -2458    -2493    -2538    -2571    -2597    -2654 
   -2725    -2768    -2795    -2826    -2855    -2902    -2961    -3006 
   -3045    -3095    -3152    -3206    -3267    -3330    -3387    -3438 
   -3488    -3539    -3603    -3685    -3761    -3813    -3863    -3924 
   -3981    -4036    -4107    -4182    -4236    -4287    -4344    -4386 
   -4423    -4476    -4522    -4560    -4608    -4662    -4708    -4757 
   -4807    -4845    -4893    -4965    -5022    -5062    -5127    -5190 
   -5227    -5275    -5333    -5371    -5412    -5466    -5506    -5525 
   -5545    -5570    -5582    -5589    -5599    -5599    -5590    -5594 
   -5594    -5574    -5555    -5535    -5495    -5459    -5443    -5413 
   -5362    -5325    -5289    -5233    -5192    -5154    -5084    -5015 
   -4962    -4907    -4846    -4785    -4710    -4631    -4563    -4496 
   -4414    -4321    -4232    -4159    -4090    -4008    -3928    -3846 
   -3744    -3655    -3595    -3523    -3443    -3385    -3321    -3246 
   -3187    -3125    -3042    -2978    -2944    -2903    -2844    -2787 
   -2740    -2687    -2625    -2565    -2521    -2490    -2442    -2384 
   -2324    -2265    -2215    -2189    -2168    -2123    -2072    -2043 
   -2011    -1969    -1952    -1946    -1929    -1921    -1918    -1899 
   -1885    -1902    -1927    -1944    -1961    -1991    -2020    -2046 
   -2084    -2118    -2151    -2207    -2269    -2327    -2380    -2430 
   -2471    -2515    -2581    -2660    -2720    -2759    -2790    -2818 
   -2859    -2920    -2986    -3036    -3064    -3083    -3088    -3090 
   -3117    -3140    -3146    -3160    -3169    -3160    -3160    -3159 
   -3130    -3111    -3111    -3095    -3083    -3083    -3046    -3003 
   -3006    -3001    -2971    -2967    -2964    -2915    -2876    -2866 
   -2852    -2851    -2853    -2814    -2752    -2716    -2690    -2658 
   -2640    -2625    -2582    -2532    -2498    -2466    -2432    -2411 
   -2396    -2374    -2355    -2347    -2342    -2331    -2332    -2350 
   -2362    -2374    -2392    -2403    -2421    -2461    -2506    -2538 
   -2565    -2598    -2619    -2643    -2706    -2759    -2778    -2808 
   -2848    -2875    -2898    -2915    -2937    -2978    -3024    -3048 
   -3049    -3059    -3073    -3075    -3090    -3126    -3157    -3177 
   -3183    -3173    -3167    -3186    -3211    -3232    -3269    -3277 
   -3245    -3250    -3279    -3264    -3264    -3288    -3275    -3256 
   -3268    -3264    -3250    -3260    -3256    -3223    -3208    -3207 
   -3191    -3179    -3196    -3194    -3149    -3130    -3154    -3159 
   -3141    -3144    -3153    -3141    -3125    -3142    -3163    -3149 
   -3138    -3149    -3157    -3168    -3184    -3188    -3184    -3183 
   -3183    -3188    -3203    -3217    -3226    -3246    -3268    -3265 
   -3265    -3299    -3342    -3366    -3395    -3427    -3443    -3477 
   -3537    -3574    -3607    -3659    -3713    -3763    -3809    -3851 
   -3897    -3958    -4027    -4071    -4102    -4153    -4197    -4236 
   -4303    -4352    -4376    -4429    -4480    -4509    -4546    -4594 
   -4633    -4665    -4710    -4762    -4787    -4800    -4835    -4874 
   -4907    -4943    -4981    -5016    -5046    -5065    -5084    -5124 
   -5167    -5188    -5202    -5228    -5244    -5254    -5270    -5289 
   -5296    -5294    -5302    -5309    -5287    -5268    -5273    -5255 
   -5225    -5213    -5184    -5150    -5139    -5115    -5070    -5043 
   -5026    -4994    -4959    -4927    -4888    -4861    -4849    -4808 
   -4754    -4722    -4687    -4646    -4618    -4581    -4527    -4476 
   -4433    -4378    -4309    -4252    -4203    -4149    -4093    -4028 
   -3950    -3877    -3816    -3754    -3681    -3618    -3573    -3522 
   -3456    -3392    -3333    -3276    -3225    -3175    -3127    -3090 
   -3056    -3015    -2971    -2925    -2886    -2860    -2837    -2810 
   -2776    -2731    -2690    -2664    -2636    -2604    -2569    -2532 
   -2490    -2451    -2409    -2366    -2338    -2313    -2273    -2235 
   -2204    -2172    -2147    -2124    -2098    -2077    -2056    -2029 
   -2011    -2010    -2003    -1987    -1979    -1981    -1977    -1975 
   -1971    -1960    -1954    -1956    -1956    -1954    -1954    -1966 
   -1988    -2000    -2000    -2012    -2031    -2047    -2064    -2076 
   -2100    -2142    -2172    -2196    -2243    -2293    -2332    -2373 
   -2420    -2463    -2508    -2552    -2598    -2654    -2705    -2740 
   -2783    -2822    -2862    -2906    -2943    -2975    -3007    -3034 
   -3068    -3106    -3130    -3160    -3192    -3213    -3238    -3276 
   -3308    -3339    -3375    -3402    -3423    -3465    -3511    -3542 
   -3573    -3597    -3611    -3642    -3686    -3721    -3753    -3786 
   -3811    -3825    -3846    -3878    -3908    -3932    -3969    -4017 
   -4059    -4088    -4117    -4152    -4199    -4241    -4278    -4320 
   -4365    -4411    -4457    -4490    -4500    -4525    -4564    -4580 
   -4591    -4615    -4626    -4635    -4646    -4641    -4637    -4626 
   -4608    -4606    -4610    -4606    -4602    -4577    -4553    -4537 
   -4515    -4514    -4535    -4533    -4519    -4519    -4515    -4526 
   -4568    -4600    -4595    -4603    -4641    -4679    -4719    -4766 
   -4789    -4792    -4830    -4907    -4950    -4961    -4994    -5035 
   -5059    -5092    -5135    -5162    -5179    -5201    -5211    -5217 
   -5240    -5254    -5252    -5252    -5243    -5229    -5239    -5240 
   -5211    -5192    -5173    -5136    -5111    -5082    -5039    -4996 
   -4954    -4904    -4846    -4789    -4735    -4669    -4596    -4541 
   -4486    -4418    -4352    -4280    -4199    -4135    -4083    -4024 
   -3954    -3889    -3828    -3770    -3724    -3694    -3666    -3628 
   -3599    -3574    -3539    -3519    -3520    -3508    -3508    -3530 
   -3535    -3522    -3526    -3537    -3551    -3596    -3645    -3657 
   -3665    -3699    -3731    -3763    -3816    -3869    -3901    -3936 
   -3997    -4052    -4098    -4156    -4210    -4256    -4317    -4378 
   -4415    -4464    -4534    -4579    -4608    -4652    -4683    -4716 
   -4768    -4804    -4827    -4855    -4885    -4899    -4912    -4936 
   -4942    -4936    -4961    -4974    -4954    -4949    -4954    -4938 
   -4920    -4900    -4864    -4833    -4808    -4774    -4742    -4716 
   -4679    -4619    -4564    -4526    -4494    -4456    -4411    -4367 
   -4314    -4256    -4214    -4185    -4137    -4081    -4029    -3973 
   -3929    -3912    -3882    -3844    -3809    -3753    -3684    -3643 
   -3630    -3615    -3597    -3570    -3516    -3468    -3457    -3458 
   -3445    -3434    -3430    -3423    -3414    -3410    -3418    -3429 
   -3442    -3462    -3478    -3496    -3516    -3523    -3532    -3544 
   -3563    -3609    -3650    -3657    -3650    -3632    -3632    -3670 
   -3716    -3738    -3727    -3694    -3681    -3693    -3713    -3738 
   -3746    -3732    -3721    -3719    -3723    -3742    -3762    -3766 
   -3769    -3792    -3811    -3819    -3846    -3886    -3912    -3935 
   -3975    -4013    -4032    -4059    -4104    -4145    -4182    -4225 
   -4263    -4287    -4327    -4378    -4410    -4441    -4483    -4517 
   -4554    -4608    -4638    -4639    -4657    -4707    -4757    -4791 
   -4814    -4823    -4828    -4858    -4903    -4923    -4936    -4953 
   -4955    -4972    -4996    -4997    -5007    -5032    -5044    -5047 
   -5054    -5054    -5055    -5070    -5082    -5089    -5096    -5100 
   -5088    -5074    -5082    -5097    -5108    -5111    -5105    -5111 
   -5115    -5104    -5098    -5093    -5089    -5098    -5104    -5089 
   -5078    -5074    -5062    -5060    -5066    -5049    -5027    -5027 
   -5024    -5012    -5004    -4999    -4984    -4978    -4988    -4985 
   -4974    -4976    -4972    -4959    -4951    -4943    -4936    -4936 
   -4931    -4909    -4884    -4865    -4851    -4831    -4803    -4774 
   -4752    -4730    -4696    -4657    -4623    -4592    -4561    -4529 
   -4490    -4441    -4396    -4368    -4342    -4303    -4266    -4236 
   -4194    -4159    -4131    -4090    -4054    -4029    -4002    -3964 
   -3920    -3874    -3828    -3794    -3767    -3728    -3684    -3643 
   -3595    -3541    -3497    -3464    -3427    -3384    -3348    -3322 
   -3288    -3250    -3223    -3192    -3165    -3159    -3136    -3092 
   -3071    -3067    -3049    -3034    -3024    -3005    -2986    -2976 
   -2959    -2936    -2933    -2944    -2944    -2934    -2924    -2914 
   -2911    -2914    -2918    -2928    -2945    -2955    -2964    -2986 
   -3002    -3018    -3059    -3107    -3137    -3163    -3202    -3249 
   -3310    -3385    -3459    -3520    -3578    -3640    -3701    -3773 
   -3869    -3971    -4047    -4109    -4182    -4243    -4294    -4367 
   -4453    -4518    -4568    -4622    -4656    -4676    -4712    -4754 
   -4779    -4797    -4816    -4819    -4810    -4812    -4824    -4828 
   -4814    -4793    -4757    -4712    -4681    -4649    -4614    -4596 
   -4554    -4476    -4407    -4345    -4279    -4228    -4186    -4122 
   -4041    -3956    -3870    -3786    -3719    -3663    -3593    -3507 
   -3415    -3317    -3232    -3159    -3096    -3037    -2961    -2887 
   -2814    -2735    -2667    -2612    -2563    -2515    -2457    -2400 
   -2361    -2322    -2280    -2239    -2207    -2188    -2180    -2170 
   -2158    -2146    -2147    -2154    -2149    -2158    -2193    -2226 
   -2250    -2278    -2295    -2304    -2327    -2355    -2388    -2428 
   -2461    -2479    -2494    -2513    -2538    -2559    -2582    -2606 
   -2623    -2631    -2636    -2643    -2651    -2662    -2664    -2663 
   -2667    -2666    -2658    -2658    -2667    -2681    -2687    -2688 
   -2700    -2702    -2695    -2702    -2717    -2736    -2764    -2790 
   -2810    -2829    -2849    -2875    -2911    -2960    -3002    -3041 
   -3090    -3132    -3161    -3210    -3267    -3315    -3369    -3422 
   -3472    -3534    -3597    -3653    -3696    -3734    -3789    -3836 
   -3871    -3929    -3983    -4008    -4033    -4064    -4085    -4110 
   -4140    -4159    -4171    -4194    -4214    -4225    -4236    -4248 
   -4260    -4271    -4279    -4291    -4305    -4321    -4345    -4355 
   -4356    -4375    -4386    -4386    -4398    -4410    -4407    -4409 
   -4421    -4422    -4405    -4387    -4378    -4375    -4367    -4351 
   -4330    -4313    -4295    -4261    -4225    -4203    -4180    -4152 
   -4122    -4095    -4067    -4028    -3993    -3963    -3924    -3897 
   -3869    -3819    -3780    -3751    -3711    -3684    -3666    -3632 
   -3589    -3553    -3515    -3472    -3439    -3410    -3369    -3322 
   -3279    -3241    -3199    -3153    -3111    -3068    -3019    -2972 
   -2929    -2893    -2852    -2802    -2759    -2718    -2668    -2629 
   -2596    -2554    -2519    -2486    -2442    -2403    -2363    -2326 
   -2299    -2272    -2235    -2200    -2166    -2135    -2111    -2096 
   -2073    -2046    -2039    -2037    -2015    -2007    -2016    -2020 
   -2027    -2047    -2072    -2092    -2116    -2153    -2187    -2227 
   -2281    -2335    -2382    -2436    -2490    -2539    -2593    -2659 
   -2733    -2799    -2844    -2887    -2940    -2991    -3037    -3092 
   -3148    -3187    -3231    -3276    -3303    -3343    -3392    -3419 
   -3430    -3449    -3476    -3488    -3484    -3495    -3503    -3492 
   -3487    -3473    -3445    -3419    -3391    -3358    -3316    -3273 
   -3230    -3183    -3141    -3092    -3015    -2938    -2879    -2813 
   -2740    -2674    -2606    -2529    -2455    -2388    -2312    -2230 
   -2161    -2100    -2031    -1971    -1918    -1848    -1783    -1745 
   -1709    -1657    -1610    -1575    -1540    -1518    -1503    -1475 
   -1452    -1445    -1431    -1429    -1437    -1435    -1431    -1437 
   -1449    -1463    -1479    -1495    -1509    -1535    -1586    -1626 
   -1661    -1713    -1759    -1794    -1857    -1942    -2020    -2083 
   -2146    -2220    -2292    -2377    -2473    -2551    -2636    -2740 
   -2824    -2893    -2982    -3069    -3144    -3222    -3315    -3397 
   -3465    -3549    -3630    -3692    -3765    -3844    -3909    -3974 
   -4048    -4110    -4159    -4222    -4284    -4327    -4380    -4433 
   -4460    -4495    -4541    -4556    -4560    -4581    -4596    -4598 
   -4595    -4583    -4553    -4530    -4517    -4486    -4441    -4406 
   -4371    -4325    -4271    -4207    -4137    -4074    -4029    -3974 
   -3908    -3858    -3821    -3763    -3700    -3651    -3600    -3557 
   -3538    -3518    -3481    -3453    -3440    -3426    -3422    -3435 
   -3437    -3426    -3442    -3466    -3473    -3485    -3516    -3541 
   -3559    -3595    -3630    -3650    -3682    -3719    -3731    -3751 
   -3792    -3815    -3828    -3851    -3865    -3879    -3901    -3915 
   -3923    -3942    -3956    -3958    -3963    -3967    -3967    -3978 
   -3994    -3991    -3981    -3989    -4003    -3996    -3982    -3986 
   -3979    -3965    -3978    -3971    -3943    -3954    -3967    -3955 
   -3955    -3955    -3939    -3925    -3928    -3931    -3917    -3908 
   -3908    -3904    -3899    -3893    -3874    -3863    -3861    -3852 
   -3831    -3813    -3809    -3794    -3780    -3770    -3740    -3707 
   -3700    -3689    -3650    -3619    -3596    -3554    -3515    -3487 
   -3447    -3403    -3366    -3325    -3271    -3226    -3192    -3145 
   -3088    -3045    -2999    -2943    -2902    -2872    -2828    -2782 
   -2744    -2698    -2654    -2620    -2586    -2558    -2538    -2509 
   -2467    -2424    -2403    -2389    -2363    -2343    -2331    -2307 
   -2284    -2276    -2266    -2251    -2246    -2242    -2236    -2245 
   -2246    -2227    -2227    -2251    -2258    -2254    -2269    -2284 
   -2282    -2288    -2308    -2327    -2342    -2366    -2384    -2388 
   -2408    -2442    -2463    -2489    -2524    -2548    -2569    -2608 
   -2655    -2686    -2721    -2772    -2813    -2848    -2901    -2951 
   -2990    -3042    -3099    -3146    -3198    -3253    -3302    -3350 
   -3406    -3454    -3500    -3547    -3582    -3615    -3659    -3700 
   -3727    -3753    -3781    -3798    -3815    -3832    -3844    -3850 
   -3850    -3846    -3839    -3835    -3831    -3811    -3785    -3781 
   -3782    -3759    -3735    -3727    -3712    -3700    -3701    -3693 
   -3676    -3672    -3663    -3647    -3649    -3653    -3645    -3638 
   -3634    -3624    -3615    -3611    -3609    -3605    -3600    -3601 
   -3603    -3596    -3592    -3589    -3585    -3592    -3596    -3596 
   -3604    -3608    -3609    -3627    -3643    -3653    -3673    -3689 
   -3707    -3738    -3766    -3790    -3817    -3846    -3882    -3920 
   -3959    -4000    -4035    -4071    -4110    -4148    -4187    -4225 
   -4263    -4289    -4317    -4351    -4375    -4393    -4426    -4455 
   -4468    -4482    -4496    -4507    -4514    -4523    -4534    -4540 
   -4549    -4565    -4571    -4568    -4575    -4576    -4583    -4606 
   -4627    -4630    -4631    -4646    -4658    -4675    -4698    -4718 
   -4739    -4765    -4792    -4822    -4851    -4880    -4909    -4934 
   -4968    -5008    -5042    -5073    -5105    -5131    -5162    -5201 
   -5231    -5260    -5285    -5294    -5310    -5339    -5351    -5359 
   -5379    -5381    -5373    -5379    -5377    -5358    -5352    -5339 
   -5313    -5294    -5273    -5238    -5205    -5174    -5131    -5089 
   -5057    -5016    -4965    -4915    -4870    -4824    -4774    -4725 
   -4675    -4618    -4557    -4499    -4441    -4374    -4307    -4243 
   -4170    -4099    -4033    -3964    -3894    -3819    -3743    -3680 
   -3612    -3542    -3480    -3411    -3343    -3277    -3215    -3172 
   -3123    -3060    -3019    -2990    -2949    -2909    -2875    -2851 
   -2837    -2822    -2808    -2798    -2792    -2790    -2797    -2808 
   -2814    -2820    -2828    -2849    -2871    -2882    -2898    -2926 
   -2955    -2978    -3009    -3041    -3065    -3096    -3137    -3172 
   -3208    -3258    -3306    -3343    -3388    -3439    -3488    -3542 
   -3599    -3651    -3703    -3757    -3808    -3851    -3902    -3960 
   -4001    -4033    -4085    -4133    -4170    -4212    -4248    -4270 
   -4295    -4326    -4352    -4376    -4401    -4421    -4434    -4442 
   -4446    -4457    -4476    -4484    -4487    -4499    -4510    -4514 
   -4518    -4514    -4504    -4502    -4514    -4521    -4511    -4513 
   -4522    -4517    -4518    -4522    -4509    -4502    -4502    -4488 
   -4486    -4491    -4480    -4471    -4473    -4461    -4431    -4403 
   -4387    -4365    -4333    -4305    -4279    -4240    -4191    -4140 
   -4093    -4044    -3994    -3951    -3908    -3854    -3792    -3731 
   -3670    -3615    -3570    -3524    -3484    -3462    -3442    -3395 
   -3336    -3299    -3277    -3248    -3225    -3232    -3249    -3237 
   -3219    -3218    -3213    -3208    -3229    -3252    -3260    -3284 
   -3321    -3334    -3346    -3388    -3419    -3422    -3453    -3501 
   -3527    -3557    -3593    -3615    -3632    -3659    -3688    -3712 
   -3744    -3792    -3824    -3842    -3875    -3904    -3924    -3956 
   -3994    -4016    -4041    -4081    -4117    -4147    -4178    -4207 
   -4233    -4260    -4279    -4302    -4326    -4351    -4384    -4410 
   -4429    -4452    -4455    -4448    -4464    -4488    -4510    -4526 
   -4531    -4540    -4545    -4533    -4522    -4522    -4529    -4529 
   -4518    -4511    -4502    -4477    -4457    -4448    -4436    -4422 
   -4399    -4359    -4324    -4307    -4283    -4247    -4218    -4186 
