Origin Time       2016/04/16 01:25:00
Lat.              32.753
Long.             130.762
Depth. (km)       12
Mag.              7.3
Station Code      SIG006
Station Lat.      35.2001
Station Long.     135.9210
Station Height(m) 106
Record Time       2016/04/16 01:27:45
Sampling Freq(Hz) 100Hz
Duration Time(s)  60
Dir.              E-W
Scale Factor      7845(gal)/8223790
Max. Acc. (gal)   2.072
Last Correction   2016/04/16 01:27:46
Memo.             
[...]
  -10740   -10736   -10735   -10733   -10732   -10735   -10736   -10732 
  -10729   -10729   -10728   -10729   -10731   -10728   -10722   -10722 
  -10721   -10721   -10725   -10729   -10729   -10731   -10731   -10722 
  -10722   -10727   -10728   -10728   -10728   -10727   -10725   -10725 
  -10724   -10724   -10720   -10716   -10712   -10706   -10698   -10694 
  -10689   -10681   -10671   -10662   -10652   -10646   -10642   -10638 
  -10633   -10628   -10623   -10621   -10621   -10617   -10616   -10616 
  -10613   -10612   -10613   -10612   -10611   -10611   -10609   -10609 
  -10612   -10611   -10612   -10616   -10623   -10632   -10643   -10646 
  -10652   -10662   -10671   -10678   -10686   -10694   -10706   -10719 
  -10725   -10727   -10731   -10733   -10733   -10735   -10737   -10735 
  -10735   -10739   -10737   -10733   -10736   -10739   -10740   -10746 
  -10748   -10751   -10755   -10759   -10760   -10760   -10763   -10767 
  -10770   -10767   -10768   -10773   -10770   -10766   -10768   -10768 
  -10770   -10775   -10778   -10777   -10783   -10791   -10793   -10800 
  -10806   -10806   -10808   -10810   -10813   -10808   -10802   -10800 
  -10797   -10790   -10781   -10774   -10770   -10762   -10755   -10751 
  -10747   -10739   -10731   -10721   -10716   -10714   -10714   -10712 
  -10712   -10712   -10712   -10712   -10709   -10709   -10712   -10716 
  -10721   -10725   -10728   -10733   -10741   -10747   -10752   -10762 
  -10768   -10773   -10782   -10793   -10797   -10802   -10809   -10814 
  -10818   -10827   -10836   -10843   -10849   -10852   -10858   -10860 
  -10866   -10874   -10878   -10881   -10886   -10889   -10889   -10893 
  -10899   -10903   -10903   -10903   -10902   -10894   -10886   -10881 
  -10874   -10868   -10862   -10851   -10843   -10831   -10816   -10808 
  -10800   -10794   -10790   -10783   -10779   -10781   -10775   -10767 
  -10764   -10767   -10768   -10764   -10762   -10760   -10760   -10762 
  -10763   -10763   -10766   -10767   -10767   -10767   -10767   -10766 
  -10766   -10768   -10771   -10771   -10770   -10764   -10760   -10758 
  -10750   -10744   -10746   -10744   -10740   -10739   -10739   -10737 
  -10737   -10739   -10740   -10744   -10746   -10743   -10739   -10735 
  -10736   -10740   -10746   -10752   -10754   -10754   -10754   -10755 
  -10760   -10764   -10770   -10774   -10777   -10782   -10788   -10797 
  -10810   -10818   -10821   -10831   -10843   -10852   -10864   -10878 
  -10887   -10897   -10906   -10912   -10914   -10920   -10925   -10930 
  -10932   -10932   -10935   -10936   -10929   -10924   -10921   -10917 
  -10914   -10913   -10906   -10897   -10895   -10891   -10887   -10886 
  -10886   -10883   -10879   -10874   -10871   -10875   -10885   -10893 
  -10897   -10895   -10895   -10893   -10891   -10897   -10902   -10906 
  -10912   -10912   -10908   -10899   -10893   -10890   -10885   -10879 
  -10871   -10859   -10848   -10839   -10824   -10813   -10804   -10791 
  -10779   -10770   -10755   -10744   -10736   -10729   -10716   -10708 
  -10702   -10696   -10687   -10681   -10674   -10673   -10673   -10670 
  -10670   -10673   -10673   -10670   -10671   -10673   -10674   -10682 
  -10692   -10696   -10701   -10705   -10706   -10708   -10710   -10712 
  -10716   -10720   -10724   -10725   -10722   -10719   -10717   -10714 
  -10706   -10701   -10697   -10686   -10679   -10675   -10663   -10656 
  -10655   -10648   -10643   -10642   -10639   -10633   -10631   -10631 
  -10635   -10640   -10644   -10650   -10655   -10665   -10673   -10681 
  -10692   -10706   -10719   -10727   -10736   -10744   -10747   -10752 
  -10762   -10768   -10774   -10781   -10785   -10786   -10795   -10804 
  -10808   -10814   -10821   -10825   -10828   -10836   -10847   -10860 
  -10872   -10878   -10881   -10886   -10887   -10893   -10902   -10905 
  -10909   -10916   -10913   -10903   -10897   -10894   -10890   -10883 
  -10882   -10883   -10881   -10872   -10860   -10848   -10840   -10833 
  -10831   -10829   -10825   -10820   -10813   -10804   -10795   -10788 
  -10781   -10775   -10770   -10766   -10764   -10760   -10754   -10746 
  -10737   -10728   -10719   -10717   -10719   -10712   -10708   -10706 
  -10701   -10689   -10683   -10679   -10673   -10667   -10665   -10663 
  -10659   -10654   -10648   -10638   -10627   -10619   -10613   -10606 
  -10604   -10601   -10593   -10586   -10582   -10575   -10571   -10573 
  -10570   -10571   -10573   -10570   -10570   -10573   -10571   -10574 
  -10578   -10584   -10593   -10604   -10612   -10625   -10638   -10642 
  -10646   -10658   -10670   -10678   -10687   -10701   -10714   -10728 
  -10741   -10755   -10766   -10775   -10787   -10801   -10810   -10821 
  -10837   -10845   -10849   -10859   -10868   -10875   -10887   -10902 
  -10909   -10914   -10922   -10925   -10932   -10940   -10947   -10955 
  -10963   -10967   -10967   -10970   -10972   -10974   -10976   -10980 
  -10983   -10980   -10975   -10970   -10966   -10959   -10951   -10951 
  -10952   -10951   -10948   -10941   -10937   -10935   -10933   -10930 
  -10933   -10933   -10930   -10932   -10935   -10933   -10930   -10932 
  -10929   -10925   -10926   -10925   -10922   -10921   -10917   -10912 
  -10912   -10910   -10905   -10903   -10901   -10897   -10891   -10887 
  -10886   -10882   -10878   -10874   -10871   -10867   -10864   -10862 
  -10859   -10854   -10848   -10843   -10836   -10828   -10824   -10824 
  -10821   -10820   -10813   -10805   -10798   -10790   -10786   -10785 
  -10779   -10774   -10773   -10768   -10760   -10758   -10758   -10751 
  -10744   -10746   -10748   -10747   -10747   -10748   -10746   -10739 
  -10733   -10731   -10731   -10736   -10739   -10733   -10729   -10729 
  -10725   -10720   -10716   -10712   -10710   -10708   -10700   -10693 
  -10692   -10696   -10696   -10689   -10683   -10681   -10675   -10669 
  -10666   -10666   -10660   -10655   -10654   -10644   -10632   -10625 
  -10621   -10615   -10609   -10606   -10601   -10589   -10578   -10577 
  -10573   -10565   -10565   -10565   -10567   -10575   -10577   -10574 
  -10574   -10571   -10571   -10579   -10588   -10592   -10601   -10609 
  -10609   -10615   -10621   -10627   -10636   -10648   -10660   -10670 
  -10678   -10685   -10689   -10689   -10697   -10708   -10717   -10722 
  -10729   -10733   -10737   -10739   -10743   -10748   -10755   -10758 
  -10759   -10766   -10771   -10774   -10781   -10788   -10794   -10801 
  -10806   -10812   -10814   -10818   -10827   -10836   -10840   -10847 
  -10854   -10859   -10860   -10862   -10863   -10864   -10866   -10870 
  -10875   -10878   -10882   -10889   -10891   -10894   -10897   -10902 
  -10908   -10918   -10924   -10925   -10929   -10933   -10928   -10929 
  -10939   -10941   -10943   -10949   -10951   -10948   -10941   -10935 
  -10928   -10925   -10926   -10929   -10926   -10921   -10921   -10918 
  -10912   -10910   -10910   -10905   -10905   -10908   -10906   -10906 
  -10910   -10910   -10910   -10910   -10908   -10910   -10914   -10917 
  -10921   -10921   -10922   -10920   -10916   -10917   -10916   -10910 
  -10910   -10912   -10909   -10902   -10895   -10891   -10887   -10885 
  -10882   -10878   -10875   -10879   -10878   -10872   -10868   -10864 
  -10856   -10847   -10841   -10837   -10835   -10829   -10824   -10817 
  -10804   -10790   -10782   -10771   -10763   -10759   -10755   -10744 
  -10728   -10719   -10710   -10701   -10694   -10689   -10679   -10673 
  -10666   -10660   -10659   -10662   -10658   -10654   -10652   -10646 
  -10643   -10648   -10644   -10642   -10646   -10646   -10644   -10644 
  -10644   -10643   -10640   -10644   -10651   -10654   -10654   -10654 
  -10646   -10640   -10640   -10646   -10650   -10655   -10662   -10665 
  -10662   -10666   -10666   -10660   -10666   -10678   -10689   -10700 
  -10710   -10709   -10701   -10700   -10702   -10702   -10705   -10706 
  -10708   -10714   -10721   -10724   -10728   -10729   -10724   -10714 
  -10709   -10716   -10731   -10744   -10754   -10759   -10760   -10759 
  -10764   -10777   -10794   -10816   -10831   -10835   -10843   -10852 
  -10859   -10868   -10885   -10895   -10897   -10902   -10909   -10914 
  -10920   -10925   -10925   -10921   -10918   -10916   -10913   -10913 
  -10916   -10917   -10910   -10902   -10897   -10890   -10882   -10878 
  -10874   -10864   -10854   -10844   -10831   -10817   -10802   -10785 
  -10770   -10755   -10743   -10729   -10720   -10706   -10687   -10674 
  -10658   -10640   -10629   -10624   -10617   -10606   -10596   -10586 
  -10574   -10557   -10547   -10543   -10531   -10523   -10521   -10520 
  -10519   -10513   -10511   -10512   -10513   -10512   -10513   -10520 
  -10527   -10528   -10531   -10535   -10539   -10540   -10540   -10546 
  -10559   -10573   -10584   -10589   -10593   -10598   -10601   -10605 
  -10616   -10635   -10650   -10660   -10674   -10685   -10689   -10702 
  -10719   -10732   -10747   -10763   -10782   -10804   -10821   -10835 
  -10848   -10854   -10862   -10876   -10893   -10910   -10926   -10939 
  -10947   -10953   -10963   -10971   -10976   -10983   -10994   -11001 
  -11007   -11017   -11022   -11026   -11025   -11018   -11016   -11018 
  -11021   -11024   -11032   -11033   -11026   -11020   -11017   -11017 
  -11018   -11022   -11024   -11026   -11025   -11020   -11016   -11016 
  -11018   -11021   -11024   -11029   -11033   -11029   -11029   -11034 
  -11039   -11044   -11051   -11057   -11060   -11061   -11067   -11071 
  -11070   -11071   -11075   -11074   -11071   -11067   -11060   -11056 
  -11053   -11045   -11032   -11022   -11011   -10996   -10979   -10962 
  -10943   -10926   -10916   -10901   -10881   -10862   -10841   -10817 
  -10800   -10786   -10768   -10750   -10732   -10712   -10693   -10671 
  -10652   -10635   -10620   -10606   -10588   -10567   -10550   -10531 
  -10516   -10504   -10490   -10477   -10469   -10459   -10449   -10434 
  -10420   -10411   -10407   -10404   -10403   -10404   -10405   -10404 
  -10405   -10412   -10419   -10424   -10435   -10449   -10461   -10476 
  -10489   -10504   -10527   -10551   -10573   -10598   -10625   -10646 
  -10667   -10692   -10714   -10741   -10774   -10805   -10831   -10859 
  -10891   -10920   -10945   -10980   -11017   -11049   -11083   -11111 
  -11133   -11156   -11183   -11210   -11234   -11261   -11287   -11311 
  -11338   -11360   -11377   -11398   -11418   -11443   -11468   -11485 
  -11502   -11518   -11524   -11533   -11542   -11551   -11561   -11566 
  -11564   -11561   -11554   -11545   -11529   -11511   -11497   -11483 
  -11466   -11452   -11430   -11404   -11379   -11350   -11319   -11290 
  -11264   -11237   -11210   -11181   -11153   -11119   -11087   -11057 
  -11024   -10987   -10955   -10926   -10893   -10860   -10833   -10804 
  -10773   -10741   -10709   -10677   -10646   -10613   -10584   -10554 
  -10520   -10488   -10457   -10426   -10393   -10359   -10327   -10299 
  -10266   -10230   -10197   -10170   -10142   -10112   -10083   -10055 
  -10030   -10004    -9979    -9960    -9940    -9925    -9913    -9903 
   -9894    -9891    -9890    -9891    -9896    -9904    -9915    -9930 
   -9950    -9976   -10002   -10029   -10062   -10088   -10114   -10147 
  -10183   -10219   -10263   -10312   -10361   -10411   -10457   -10504 
  -10554   -10601   -10648   -10702   -10759   -10810   -10858   -10903 
  -10951   -11001   -11051   -11097   -11144   -11195   -11244   -11288 
  -11333   -11379   -11426   -11472   -11519   -11566   -11612   -11657 
  -11700   -11745   -11788   -11828   -11863   -11897   -11927   -11958 
  -11988   -12013   -12032   -12046   -12055   -12055   -12054   -12054 
  -12051   -12042   -12027   -12005   -11978   -11951   -11921   -11889 
  -11855   -11821   -11782   -11736   -11688   -11638   -11587   -11535 
  -11485   -11430   -11371   -11311   -11250   -11184   -11118   -11056 
  -10996   -10935   -10868   -10801   -10729   -10658   -10589   -10527 
  -10465   -10397   -10332   -10273   -10214   -10161   -10104   -10046 
   -9995    -9940    -9882    -9833    -9791    -9753    -9718    -9680 
   -9643    -9607    -9576    -9548    -9526    -9506    -9483    -9479 
   -9478    -9464    -9462    -9474    -9478    -9475    -9478    -9490 
   -9512    -9532    -9548    -9575    -9610    -9640    -9668    -9705 
   -9744    -9778    -9822    -9867    -9913    -9972   -10025   -10076 
  -10134   -10192   -10251   -10312   -10372   -10436   -10503   -10569 
  -10636   -10708   -10777   -10844   -10910   -10975   -11039   -11109 
  -11178   -11240   -11300   -11365   -11435   -11502   -11562   -11623 
  -11680   -11736   -11796   -11857   -11916   -11973   -12021   -12066 
  -12110   -12154   -12194   -12236   -12274   -12305   -12329   -12351 
  -12370   -12388   -12403   -12414   -12424   -12429   -12429   -12429 
  -12428   -12420   -12413   -12406   -12391   -12373   -12349   -12325 
  -12305   -12282   -12251   -12224   -12190   -12141   -12096   -12050 
  -12000   -11951   -11896   -11836   -11777   -11711   -11639   -11572 
  -11506   -11431   -11354   -11279   -11203   -11125   -11049   -10975 
  -10901   -10825   -10747   -10665   -10584   -10508   -10434   -10359 
  -10287   -10216   -10143   -10066    -9985    -9913    -9842    -9769 
   -9695    -9624    -9553    -9487    -9421    -9358    -9293    -9225 
   -9167    -9104    -9038    -8989    -8947    -8899    -8849    -8808 
   -8775    -8737    -8699    -8679    -8661    -8646    -8638    -8630 
   -8625    -8627    -8638    -8657    -8680    -8706    -8735    -8770 
   -8804    -8845    -8896    -8958    -9022    -9084    -9151    -9229 
   -9304    -9367    -9437    -9524    -9617    -9705    -9790    -9882 
   -9977   -10068   -10160   -10255   -10346   -10438   -10530   -10615 
  -10701   -10793   -10885   -10975   -11064   -11153   -11237   -11317 
  -11395   -11472   -11549   -11630   -11709   -11781   -11851   -11923 
  -11989   -12043   -12098   -12154   -12206   -12254   -12302   -12347 
  -12390   -12429   -12461   -12491   -12517   -12537   -12557   -12577 
  -12596   -12614   -12630   -12637   -12637   -12636   -12630   -12614 
  -12604   -12594   -12581   -12568   -12552   -12526   -12498   -12465 
  -12429   -12395   -12361   -12325   -12287   -12248   -12212   -12175 
  -12131   -12089   -12046   -11996   -11946   -11902   -11854   -11805 
  -11753   -11701   -11651   -11592   -11530   -11480   -11431   -11379 
  -11327   -11273   -11218   -11164   -11111   -11059   -11006   -10960 
  -10914   -10863   -10817   -10779   -10736   -10694   -10659   -10624 
  -10589   -10562   -10536   -10511   -10486   -10457   -10430   -10401 
  -10374   -10350   -10331   -10319   -10304   -10287   -10272   -10253 
  -10230   -10215   -10201   -10197   -10199   -10195   -10189   -10189 
  -10192   -10189   -10187   -10192   -10203   -10214   -10224   -10230 
  -10234   -10245   -10255   -10261   -10269   -10280   -10287   -10292 
  -10299   -10304   -10305   -10309   -10315   -10318   -10322   -10324 
  -10327   -10327   -10323   -10320   -10322   -10328   -10335   -10339 
  -10341   -10341   -10336   -10328   -10322   -10322   -10327   -10331 
  -10338   -10342   -10339   -10336   -10334   -10334   -10341   -10353 
  -10366   -10378   -10389   -10403   -10413   -10423   -10434   -10444 
  -10454   -10470   -10490   -10504   -10514   -10523   -10521   -10520 
  -10531   -10543   -10558   -10578   -10592   -10598   -10602   -10605 
  -10609   -10620   -10638   -10652   -10669   -10685   -10693   -10700 
  -10714   -10737   -10762   -10781   -10800   -10827   -10854   -10875 
  -10902   -10932   -10957   -10984   -11014   -11044   -11075   -11109 
  -11140   -11168   -11198   -11226   -11254   -11283   -11313   -11345 
  -11375   -11403   -11427   -11449   -11472   -11493   -11518   -11546 
  -11569   -11587   -11604   -11623   -11641   -11658   -11674   -11696 
  -11716   -11728   -11739   -11759   -11774   -11785   -11797   -11807 
  -11813   -11821   -11832   -11842   -11844   -11844   -11843   -11838 
  -11834   -11827   -11821   -11815   -11805   -11793   -11777   -11759 
  -11743   -11727   -11711   -11696   -11677   -11657   -11641   -11622 
  -11604   -11591   -11577   -11557   -11543   -11537   -11524   -11512 
  -11503   -11488   -11468   -11454   -11442   -11427   -11414   -11403 
  -11395   -11383   -11365   -11353   -11341   -11325   -11315   -11311 
  -11300   -11291   -11286   -11275   -11264   -11257   -11253   -11247 
  -11247   -11245   -11240   -11233   -11226   -11217   -11207   -11200 
  -11194   -11186   -11180   -11175   -11163   -11152   -11142   -11132 
  -11122   -11115   -11111   -11113   -11110   -11101   -11095   -11092 
  -11088   -11083   -11080   -11079   -11083   -11083   -11080   -11083 
  -11090   -11088   -11086   -11086   -11083   -11080   -11079   -11075 
  -11070   -11064   -11057   -11045   -11028   -11007   -10987   -10966 
  -10943   -10922   -10901   -10874   -10849   -10828   -10795   -10759 
  -10725   -10686   -10646   -10613   -10579   -10540   -10503   -10466 
  -10424   -10382   -10346   -10311   -10281   -10255   -10226   -10197 
  -10169   -10138   -10111   -10088   -10072   -10060   -10042   -10030 
  -10022   -10010   -10003   -10003   -10000    -9996    -9996    -9994 
   -9989    -9991    -9999   -10008   -10017   -10022   -10026   -10027 
  -10030   -10035   -10044   -10057   -10073   -10085   -10095   -10103 
  -10111   -10125   -10139   -10157   -10177   -10192   -10204   -10219 
  -10233   -10243   -10257   -10274   -10292   -10308   -10323   -10338 
  -10354   -10370   -10389   -10407   -10420   -10432   -10450   -10469 
  -10485   -10500   -10513   -10531   -10547   -10565   -10584   -10601 
  -10616   -10633   -10650   -10660   -10674   -10689   -10702   -10716 
  -10729   -10741   -10750   -10752   -10755   -10760   -10764   -10771 
  -10774   -10775   -10774   -10767   -10758   -10751   -10746   -10736 
  -10725   -10717   -10706   -10696   -10686   -10677   -10665   -10654 
  -10646   -10636   -10624   -10617   -10615   -10611   -10606   -10601 
  -10593   -10580   -10580   -10588   -10596   -10606   -10616   -10619 
  -10620   -10627   -10638   -10652   -10673   -10694   -10714   -10729 
  -10741   -10751   -10762   -10771   -10779   -10787   -10801   -10812 
  -10821   -10829   -10831   -10824   -10816   -10804   -10798   -10802 
  -10808   -10812   -10816   -10814   -10808   -10797   -10783   -10779 
  -10783   -10794   -10810   -10825   -10835   -10840   -10843   -10844 
  -10844   -10852   -10871   -10891   -10914   -10936   -10953   -10960 
  -10960   -10970   -10987   -11006   -11029   -11061   -11091   -11115 
  -11137   -11153   -11169   -11187   -11209   -11232   -11252   -11280 
  -11311   -11331   -11348   -11365   -11377   -11394   -11414   -11433 
  -11453   -11470   -11480   -11484   -11492   -11497   -11499   -11503 
  -11507   -11508   -11511   -11512   -11511   -11506   -11496   -11484 
  -11473   -11465   -11457   -11450   -11443   -11430   -11414   -11398 
  -11377   -11358   -11340   -11319   -11298   -11276   -11250   -11223 
  -11199   -11173   -11136   -11094   -11055   -11017   -10980   -10945 
  -10910   -10872   -10829   -10786   -10747   -10705   -10665   -10628 
  -10593   -10554   -10509   -10470   -10442   -10412   -10382   -10355 
  -10328   -10300   -10274   -10246   -10223   -10204   -10184   -10164 
