Origin Time       2016/04/16 01:25:00
Lat.              32.753
Long.             130.762
Depth. (km)       12
Mag.              7.3
Station Code      SIG005
Station Lat.      35.2493
Station Long.     136.2421
Station Height(m) 93
Record Time       2016/04/16 01:27:52
Sampling Freq(Hz) 100Hz
Duration Time(s)  72
Dir.              E-W
Scale Factor      7845(gal)/8223790
Max. Acc. (gal)   1.921
Last Correction   2016/04/16 01:27:53
Memo.             
[...]
  -10947   -10955   -10967   -10975   -10983   -10995   -11013   -11025 
  -11033   -11048   -11064   -11074   -11088   -11102   -11110   -11119 
  -11129   -11133   -11137   -11142   -11148   -11156   -11165   -11171 
  -11180   -11195   -11207   -11218   -11233   -11242   -11249   -11261 
  -11271   -11277   -11290   -11298   -11302   -11306   -11310   -11315 
  -11322   -11330   -11342   -11348   -11353   -11368   -11376   -11373 
  -11383   -11398   -11398   -11400   -11412   -11418   -11421   -11430 
  -11435   -11441   -11448   -11450   -11453   -11460   -11464   -11465 
  -11469   -11472   -11475   -11475   -11479   -11492   -11502   -11504 
  -11514   -11523   -11524   -11533   -11545   -11549   -11553   -11558 
  -11558   -11562   -11569   -11566   -11561   -11558   -11549   -11531 
  -11515   -11502   -11481   -11457   -11435   -11410   -11383   -11356 
  -11326   -11295   -11259   -11225   -11191   -11153   -11115   -11076 
  -11034   -10998   -10962   -10918   -10883   -10854   -10821   -10787 
  -10755   -10722   -10692   -10673   -10658   -10640   -10633   -10628 
  -10620   -10619   -10619   -10612   -10608   -10606   -10600   -10593 
  -10592   -10586   -10579   -10571   -10569   -10562   -10555   -10554 
  -10557   -10558   -10558   -10557   -10561   -10567   -10570   -10578 
  -10590   -10601   -10616   -10631   -10643   -10658   -10669   -10678 
  -10696   -10710   -10724   -10741   -10755   -10768   -10786   -10798 
  -10808   -10824   -10839   -10849   -10864   -10881   -10889   -10897 
  -10910   -10921   -10930   -10941   -10952   -10963   -10976   -10993 
  -11006   -11022   -11039   -11055   -11071   -11091   -11110   -11125 
  -11137   -11156   -11173   -11187   -11210   -11236   -11254   -11280 
  -11317   -11348   -11379   -11415   -11446   -11479   -11511   -11541 
  -11566   -11595   -11622   -11646   -11677   -11709   -11732   -11757 
  -11789   -11816   -11838   -11862   -11888   -11911   -11934   -11955 
  -11970   -11985   -12004   -12021   -12032   -12039   -12039   -12032 
  -12025   -12013   -11988   -11959   -11936   -11907   -11871   -11843 
  -11815   -11781   -11754   -11728   -11692   -11655   -11627   -11596 
  -11558   -11521   -11483   -11442   -11410   -11379   -11346   -11315 
  -11290   -11260   -11227   -11200   -11169   -11133   -11099   -11072 
  -11048   -11025   -11007   -10993   -10980   -10974   -10967   -10957 
  -10955   -10956   -10955   -10955   -10960   -10968   -10974   -10982 
  -10991   -10999   -11014   -11029   -11038   -11052   -11064   -11070 
  -11078   -11091   -11099   -11102   -11105   -11115   -11122   -11125 
  -11133   -11140   -11142   -11148   -11156   -11160   -11167   -11173 
  -11173   -11179   -11187   -11192   -11198   -11200   -11198   -11196 
  -11199   -11203   -11202   -11199   -11200   -11196   -11188   -11187 
  -11187   -11183   -11184   -11187   -11186   -11180   -11183   -11183 
  -11176   -11169   -11163   -11155   -11149   -11145   -11140   -11134 
  -11128   -11118   -11111   -11114   -11111   -11107   -11114   -11119 
  -11114   -11115   -11119   -11118   -11126   -11142   -11157   -11176 
  -11199   -11218   -11237   -11263   -11287   -11306   -11323   -11348 
  -11369   -11379   -11391   -11406   -11418   -11429   -11441   -11445 
  -11448   -11450   -11448   -11441   -11434   -11419   -11398   -11383 
  -11372   -11352   -11333   -11323   -11307   -11280   -11261   -11242 
  -11217   -11190   -11167   -11142   -11115   -11091   -11070   -11047 
  -11028   -11009   -10989   -10970   -10959   -10944   -10928   -10917 
  -10905   -10889   -10881   -10871   -10854   -10847   -10843   -10827 
  -10814   -10809   -10790   -10773   -10764   -10750   -10732   -10724 
  -10717   -10705   -10697   -10693   -10682   -10675   -10677   -10674 
  -10669   -10674   -10681   -10686   -10696   -10705   -10716   -10728 
  -10739   -10754   -10766   -10777   -10790   -10801   -10810   -10827 
  -10837   -10843   -10863   -10885   -10901   -10924   -10944   -10963 
  -10993   -11017   -11037   -11062   -11088   -11109   -11134   -11161 
  -11180   -11198   -11219   -11237   -11244   -11249   -11254   -11254 
  -11252   -11247   -11244   -11240   -11236   -11230   -11225   -11218 
  -11214   -11209   -11203   -11203   -11206   -11202   -11202   -11207 
  -11210   -11214   -11227   -11242   -11247   -11259   -11269   -11277 
  -11290   -11296   -11300   -11315   -11333   -11338   -11346   -11358 
  -11367   -11375   -11381   -11381   -11384   -11387   -11388   -11388 
  -11385   -11387   -11388   -11385   -11389   -11396   -11402   -11407 
  -11412   -11415   -11416   -11422   -11429   -11434   -11445   -11454 
  -11457   -11468   -11483   -11488   -11492   -11499   -11502   -11503 
  -11506   -11507   -11506   -11504   -11502   -11493   -11481   -11469 
  -11453   -11433   -11411   -11384   -11356   -11334   -11308   -11280 
  -11252   -11229   -11209   -11188   -11167   -11144   -11119   -11102 
  -11083   -11056   -11037   -11024   -11003   -10984   -10976   -10963 
  -10948   -10941   -10936   -10924   -10918   -10917   -10912   -10908 
  -10909   -10910   -10913   -10917   -10921   -10925   -10933   -10943 
  -10949   -10959   -10967   -10971   -10978   -10987   -10991   -10995 
  -11003   -11010   -11017   -11028   -11036   -11039   -11044   -11049 
  -11055   -11056   -11060   -11065   -11065   -11062   -11065   -11065 
  -11060   -11059   -11056   -11051   -11045   -11039   -11033   -11025 
  -11018   -11013   -11002   -10991   -10983   -10975   -10966   -10956 
  -10947   -10939   -10930   -10917   -10902   -10891   -10878   -10863 
  -10854   -10848   -10836   -10827   -10816   -10800   -10788   -10782 
  -10768   -10755   -10747   -10739   -10729   -10720   -10712   -10701 
  -10694   -10696   -10694   -10696   -10708   -10717   -10722   -10733 
  -10750   -10760   -10775   -10794   -10808   -10824   -10848   -10866 
  -10882   -10908   -10929   -10947   -10968   -10993   -11013   -11029 
  -11049   -11068   -11086   -11107   -11124   -11133   -11152   -11171 
  -11179   -11188   -11203   -11214   -11218   -11222   -11225   -11225 
  -11227   -11230   -11230   -11232   -11236   -11237   -11237   -11241 
  -11244   -11245   -11245   -11249   -11254   -11257   -11257   -11257 
  -11259   -11256   -11252   -11247   -11249   -11253   -11249   -11245 
  -11249   -11249   -11249   -11254   -11256   -11257   -11264   -11273 
  -11283   -11295   -11310   -11322   -11341   -11365   -11388   -11411 
  -11441   -11470   -11495   -11518   -11542   -11566   -11591   -11614 
  -11634   -11647   -11662   -11681   -11696   -11706   -11722   -11731 
  -11736   -11747   -11753   -11753   -11761   -11769   -11769   -11772 
  -11774   -11772   -11772   -11772   -11769   -11766   -11759   -11749 
  -11736   -11728   -11720   -11708   -11693   -11678   -11659   -11642 
  -11626   -11605   -11580   -11554   -11526   -11496   -11462   -11431 
  -11398   -11361   -11329   -11294   -11254   -11227   -11200   -11168 
  -11144   -11121   -11094   -11076   -11061   -11045   -11032   -11022 
  -11014   -11007   -11002   -10996   -10989   -10990   -10995   -10993 
  -10994   -11001   -11006   -11014   -11026   -11039   -11055   -11071 
  -11090   -11114   -11138   -11160   -11186   -11217   -11244   -11272 
  -11303   -11338   -11377   -11415   -11454   -11497   -11539   -11583 
  -11628   -11674   -11716   -11759   -11804   -11843   -11880   -11916 
  -11951   -11982   -12008   -12028   -12044   -12063   -12077   -12083 
  -12094   -12108   -12114   -12116   -12122   -12131   -12128   -12122 
  -12127   -12125   -12114   -12110   -12105   -12089   -12075   -12062 
  -12043   -12024   -12008   -11985   -11963   -11946   -11923   -11894 
  -11870   -11843   -11809   -11777   -11746   -11711   -11678   -11645 
  -11604   -11564   -11530   -11491   -11448   -11411   -11379   -11345 
  -11308   -11277   -11244   -11204   -11171   -11141   -11105   -11075 
  -11044   -11010   -10979   -10955   -10930   -10903   -10881   -10860 
  -10835   -10813   -10794   -10774   -10755   -10743   -10722   -10705 
  -10697   -10686   -10673   -10663   -10658   -10650   -10640   -10638 
  -10633   -10625   -10623   -10625   -10624   -10621   -10617   -10611 
  -10608   -10601   -10588   -10573   -10563   -10551   -10531   -10509 
  -10490   -10469   -10442   -10415   -10388   -10361   -10336   -10314 
  -10292   -10269   -10249   -10230   -10215   -10201   -10191   -10181 
  -10179   -10176   -10164   -10158   -10158   -10150   -10142   -10143 
  -10142   -10139   -10143   -10150   -10156   -10162   -10173   -10183 
  -10193   -10211   -10227   -10243   -10265   -10282   -10296   -10315 
  -10334   -10350   -10368   -10389   -10407   -10423   -10442   -10461 
  -10478   -10500   -10517   -10535   -10558   -10584   -10605   -10627 
  -10652   -10675   -10698   -10722   -10744   -10766   -10790   -10816 
  -10840   -10864   -10886   -10908   -10925   -10947   -10968   -10987 
  -11010   -11036   -11049   -11065   -11088   -11105   -11114   -11128 
  -11140   -11146   -11155   -11167   -11175   -11179   -11187   -11192 
  -11199   -11209   -11214   -11217   -11223   -11232   -11236   -11241 
  -11254   -11264   -11272   -11291   -11313   -11331   -11356   -11389 
  -11418   -11450   -11488   -11524   -11561   -11604   -11641   -11674 
  -11718   -11762   -11801   -11842   -11881   -11912   -11943   -11978 
  -12005   -12029   -12058   -12081   -12100   -12124   -12143   -12155 
  -12170   -12186   -12201   -12209   -12213   -12220   -12224   -12224 
  -12225   -12225   -12220   -12214   -12206   -12195   -12186   -12174 
  -12155   -12140   -12121   -12098   -12074   -12046   -12016   -11986 
  -11955   -11920   -11884   -11848   -11811   -11769   -11724   -11681 
  -11637   -11591   -11546   -11500   -11452   -11410   -11369   -11326 
  -11286   -11246   -11209   -11173   -11144   -11110   -11078   -11052 
  -11029   -11001   -10978   -10960   -10941   -10925   -10916   -10906 
  -10897   -10893   -10887   -10886   -10893   -10899   -10903   -10913 
  -10925   -10936   -10947   -10963   -10978   -10989   -10999   -11013 
  -11024   -11032   -11043   -11052   -11052   -11053   -11059   -11056 
  -11048   -11047   -11038   -11026   -11024   -11013   -10996   -10993 
  -10984   -10963   -10952   -10945   -10932   -10918   -10903   -10883 
  -10866   -10852   -10836   -10818   -10804   -10787   -10768   -10759 
  -10751   -10735   -10719   -10712   -10704   -10689   -10685   -10678 
  -10667   -10662   -10663   -10663   -10662   -10665   -10671   -10678 
  -10689   -10700   -10708   -10722   -10746   -10760   -10775   -10804 
  -10828   -10848   -10879   -10906   -10932   -10968   -11005   -11034 
  -11070   -11109   -11144   -11178   -11214   -11256   -11288   -11322 
  -11360   -11391   -11421   -11455   -11483   -11504   -11533   -11558 
  -11576   -11596   -11618   -11632   -11645   -11659   -11674   -11689 
  -11705   -11716   -11728   -11746   -11762   -11772   -11785   -11801 
  -11820   -11835   -11851   -11869   -11885   -11908   -11929   -11944 
  -11962   -11983   -12002   -12021   -12037   -12055   -12069   -12082 
  -12100   -12118   -12135   -12154   -12170   -12181   -12202   -12221 
  -12235   -12253   -12274   -12289   -12305   -12325   -12341   -12360 
  -12379   -12391   -12406   -12426   -12439   -12447   -12456   -12461 
  -12460   -12456   -12453   -12447   -12429   -12413   -12396   -12371 
  -12340   -12316   -12285   -12244   -12205   -12166   -12120   -12075 
  -12027   -11975   -11925   -11870   -11809   -11751   -11693   -11632 
  -11570   -11510   -11449   -11384   -11326   -11272   -11213   -11155 
  -11102   -11045   -10995   -10953   -10909   -10866   -10828   -10795 
  -10764   -10735   -10714   -10698   -10681   -10671   -10669   -10662 
  -10660   -10670   -10682   -10700   -10720   -10741   -10767   -10804 
  -10840   -10874   -10912   -10949   -10984   -11021   -11059   -11094 
  -11124   -11156   -11188   -11218   -11247   -11272   -11290   -11313 
  -11331   -11342   -11353   -11360   -11362   -11365   -11362   -11360 
  -11356   -11344   -11327   -11313   -11294   -11273   -11249   -11218 
  -11190   -11165   -11126   -11083   -11048   -11003   -10951   -10903 
  -10852   -10794   -10737   -10679   -10619   -10563   -10509   -10450 
  -10396   -10349   -10299   -10246   -10201   -10162   -10125   -10088 
  -10060   -10033   -10011    -9992    -9976    -9964    -9953    -9952 
   -9953    -9952    -9958    -9968    -9971    -9979    -9994   -10007 
  -10026   -10050   -10069   -10083   -10099   -10119   -10139   -10160 
  -10176   -10193   -10215   -10230   -10247   -10270   -10292   -10308 
  -10331   -10353   -10370   -10388   -10407   -10427   -10446   -10463 
  -10481   -10498   -10513   -10527   -10539   -10547   -10557   -10563 
  -10566   -10569   -10571   -10565   -10559   -10555   -10547   -10536 
  -10528   -10517   -10504   -10496   -10486   -10476   -10469   -10470 
  -10467   -10465   -10469   -10473   -10477   -10489   -10509   -10524 
  -10540   -10565   -10585   -10606   -10635   -10669   -10704   -10741 
  -10781   -10821   -10864   -10910   -10957   -11010   -11067   -11119 
  -11176   -11241   -11302   -11360   -11427   -11496   -11558   -11622 
  -11689   -11751   -11811   -11874   -11939   -12000   -12062   -12122 
  -12179   -12240   -12299   -12356   -12414   -12474   -12529   -12583 
  -12636   -12688   -12737   -12784   -12833   -12877   -12918   -12961 
  -13001   -13035   -13068   -13099   -13124   -13146   -13165   -13178 
  -13184   -13190   -13194   -13189   -13182   -13169   -13149   -13124 
  -13096   -13068   -13032   -12991   -12953   -12906   -12850   -12800 
  -12748   -12690   -12633   -12575   -12511   -12449   -12387   -12320 
  -12251   -12187   -12118   -12048   -11980   -11914   -11844   -11774 
  -11706   -11634   -11566   -11504   -11437   -11372   -11311   -11247 
  -11191   -11138   -11082   -11029   -10979   -10929   -10881   -10835 
  -10793   -10752   -10705   -10667   -10639   -10602   -10573   -10551 
  -10523   -10498   -10485   -10466   -10447   -10435   -10427   -10416 
  -10409   -10405   -10397   -10395   -10397   -10397   -10396   -10396 
  -10397   -10397   -10399   -10401   -10404   -10407   -10408   -10409 
  -10413   -10416   -10420   -10424   -10426   -10432   -10440   -10444 
  -10451   -10459   -10469   -10478   -10489   -10503   -10519   -10534 
  -10547   -10565   -10585   -10601   -10620   -10643   -10659   -10677 
  -10701   -10720   -10736   -10759   -10783   -10808   -10832   -10860 
  -10893   -10924   -10956   -10995   -11037   -11075   -11117   -11164 
  -11214   -11261   -11308   -11356   -11403   -11453   -11500   -11543 
  -11592   -11634   -11670   -11712   -11751   -11784   -11817   -11846 
  -11867   -11893   -11917   -11936   -11952   -11971   -11989   -12005 
  -12019   -12029   -12043   -12052   -12060   -12067   -12077   -12083 
  -12087   -12094   -12104   -12110   -12116   -12122   -12132   -12136 
  -12137   -12147   -12159   -12162   -12164   -12171   -12174   -12178 
  -12182   -12174   -12168   -12171   -12167   -12159   -12154   -12143 
  -12128   -12114   -12098   -12075   -12055   -12035   -12009   -11983 
  -11958   -11924   -11888   -11855   -11821   -11789   -11757   -11719 
  -11678   -11642   -11604   -11564   -11526   -11488   -11450   -11414 
  -11375   -11337   -11296   -11252   -11210   -11167   -11121   -11079 
  -11034   -10986   -10941   -10895   -10843   -10794   -10747   -10694 
  -10642   -10594   -10542   -10486   -10434   -10377   -10320   -10268 
  -10216   -10164   -10115   -10071   -10030    -9992    -9960    -9933 
   -9911    -9887    -9867    -9857    -9852    -9846    -9846    -9849 
   -9855    -9865    -9875    -9890    -9909    -9927    -9949    -9972 
   -9995   -10018   -10045   -10073   -10096   -10115   -10137   -10162 
  -10183   -10204   -10228   -10246   -10260   -10277   -10293   -10301 
  -10309   -10319   -10324   -10329   -10339   -10343   -10350   -10362 
  -10365   -10372   -10388   -10393   -10396   -10408   -10422   -10427 
  -10435   -10447   -10461   -10474   -10490   -10503   -10517   -10536 
  -10552   -10567   -10589   -10606   -10620   -10638   -10655   -10669 
  -10682   -10696   -10712   -10727   -10739   -10755   -10768   -10782 
  -10801   -10818   -10831   -10852   -10876   -10897   -10926   -10955 
  -10978   -11007   -11044   -11071   -11101   -11140   -11178   -11213 
  -11253   -11295   -11335   -11379   -11425   -11465   -11506   -11550 
  -11591   -11630   -11672   -11706   -11739   -11777   -11809   -11835 
  -11859   -11884   -11902   -11916   -11928   -11935   -11937   -11936 
  -11936   -11932   -11924   -11917   -11904   -11890   -11881   -11866 
  -11842   -11823   -11805   -11784   -11762   -11745   -11720   -11699 
  -11681   -11663   -11647   -11632   -11612   -11595   -11583   -11572 
  -11560   -11547   -11539   -11530   -11515   -11508   -11502   -11488 
  -11480   -11473   -11465   -11457   -11452   -11443   -11437   -11434 
  -11430   -11425   -11425   -11427   -11422   -11422   -11427   -11427 
  -11429   -11431   -11433   -11433   -11429   -11422   -11415   -11407 
  -11400   -11394   -11383   -11369   -11356   -11348   -11337   -11323 
  -11304   -11283   -11264   -11244   -11214   -11187   -11157   -11118 
  -11079   -11043   -10995   -10945   -10897   -10844   -10793   -10741 
  -10686   -10627   -10567   -10511   -10451   -10392   -10332   -10273 
  -10215   -10154   -10095   -10039    -9984    -9931    -9879    -9823 
   -9776    -9732    -9684    -9641    -9605    -9568    -9532    -9504 
   -9478    -9451    -9431    -9416    -9404    -9394    -9391    -9383 
   -9382    -9396    -9397    -9396    -9421    -9435    -9440    -9471 
   -9494    -9506    -9540    -9576    -9605    -9647    -9690    -9725 
   -9765    -9811    -9860    -9907    -9954   -10002   -10048   -10095 
  -10145   -10195   -10249   -10301   -10345   -10388   -10438   -10488 
  -10528   -10571   -10617   -10655   -10689   -10728   -10759   -10786 
  -10818   -10845   -10864   -10890   -10917   -10939   -10959   -10980 
  -10996   -11013   -11032   -11048   -11061   -11080   -11101   -11119 
  -11141   -11164   -11188   -11213   -11241   -11271   -11299   -11330 
  -11365   -11399   -11431   -11470   -11514   -11554   -11597   -11642 
  -11686   -11732   -11784   -11835   -11885   -11935   -11985   -12035 
  -12087   -12137   -12186   -12237   -12287   -12333   -12376   -12418 
  -12459   -12490   -12519   -12550   -12575   -12596   -12614   -12625 
  -12629   -12634   -12631   -12622   -12611   -12596   -12575   -12552 
  -12525   -12494   -12463   -12426   -12383   -12340   -12297   -12245 
  -12193   -12144   -12087   -12024   -11967   -11911   -11842   -11776 
  -11715   -11649   -11577   -11512   -11450   -11379   -11311   -11249 
  -11183   -11122   -11067   -11009   -10952   -10909   -10866   -10817 
  -10778   -10750   -10714   -10682   -10658   -10633   -10606   -10586 
  -10569   -10550   -10536   -10527   -10512   -10498   -10492   -10484 
  -10478   -10478   -10478   -10477   -10481   -10484   -10484   -10486 
  -10492   -10496   -10500   -10508   -10512   -10512   -10513   -10513 
  -10509   -10507   -10504   -10498   -10492   -10488   -10477   -10466 
  -10455   -10443   -10424   -10405   -10392   -10370   -10336   -10314 
  -10292   -10261   -10230   -10203   -10172   -10141   -10108   -10077 
