Origin Time       2016/04/16 01:25:00
Lat.              32.753
Long.             130.762
Depth. (km)       12
Mag.              7.3
Station Code      SIG008
Station Lat.      35.0701
Station Long.     136.2946
Station Height(m) 218
Record Time       2016/04/16 01:27:59
Sampling Freq(Hz) 100Hz
Duration Time(s)  85
Dir.              E-W
Scale Factor      7845(gal)/8223790
Max. Acc. (gal)   1.774
Last Correction   2016/04/16 01:28:00
Memo.             
[...]
   -7960    -7894    -7834    -7773    -7709    -7657    -7600    -7531 
   -7474    -7429    -7375    -7315    -7264    -7219    -7172    -7132 
   -7098    -7053    -7013    -6990    -6975    -6940    -6906    -6899 
   -6886    -6860    -6851    -6848    -6848    -6845    -6836    -6841 
   -6862    -6863    -6870    -6894    -6906    -6926    -6955    -6971 
   -6997    -7034    -7065    -7094    -7123    -7159    -7195    -7225 
   -7260    -7304    -7342    -7376    -7406    -7447    -7496    -7530 
   -7555    -7595    -7642    -7677    -7704    -7738    -7784    -7816 
   -7839    -7881    -7924    -7950    -7986    -8029    -8060    -8093 
   -8128    -8162    -8193    -8222    -8255    -8275    -8295    -8332 
   -8359    -8370    -8387    -8414    -8431    -8430    -8441    -8461 
   -8456    -8451    -8461    -8459    -8444    -8437    -8424    -8404 
   -8395    -8378    -8352    -8326    -8307    -8290    -8260    -8236 
   -8222    -8195    -8174    -8164    -8144    -8132    -8124    -8105 
   -8100    -8111    -8102    -8085    -8101    -8122    -8114    -8121 
   -8152    -8162    -8172    -8209    -8229    -8244    -8283    -8303 
   -8319    -8363    -8394    -8401    -8418    -8451    -8480    -8490 
   -8502    -8527    -8540    -8540    -8553    -8571    -8579    -8583 
   -8579    -8587    -8606    -8600    -8587    -8594    -8598    -8588 
   -8586    -8579    -8571    -8564    -8553    -8542    -8536    -8525 
   -8509    -8503    -8492    -8474    -8467    -8456    -8441    -8431 
   -8417    -8404    -8398    -8382    -8360    -8351    -8349    -8333 
   -8306    -8298    -8297    -8275    -8257    -8248    -8233    -8226 
   -8222    -8201    -8189    -8193    -8185    -8166    -8163    -8167 
   -8154    -8144    -8154    -8148    -8143    -8158    -8166    -8158 
   -8162    -8177    -8190    -8195    -8199    -8208    -8228    -8241 
   -8241    -8248    -8268    -8278    -8286    -8299    -8307    -8317 
   -8333    -8345    -8356    -8367    -8374    -8382    -8401    -8413 
   -8411    -8428    -8446    -8440    -8441    -8461    -8467    -8460 
   -8471    -8486    -8482    -8483    -8496    -8502    -8503    -8506 
   -8513    -8525    -8517    -8509    -8517    -8522    -8509    -8497 
   -8503    -8494    -8464    -8451    -8444    -8407    -8380    -8368 
   -8326    -8276    -8248    -8215    -8162    -8109    -8066    -8021 
   -7964    -7901    -7847    -7798    -7738    -7670    -7611    -7555 
   -7499    -7439    -7380    -7325    -7269    -7214    -7159    -7099 
   -7053    -7009    -6947    -6902    -6868    -6822    -6782    -6751 
   -6716    -6683    -6659    -6642    -6620    -6598    -6588    -6589 
   -6589    -6577    -6581    -6606    -6624    -6629    -6647    -6683 
   -6729    -6751    -6766    -6826    -6886    -6901    -6944    -7013 
   -7059    -7102    -7148    -7195    -7253    -7299    -7345    -7403 
   -7442    -7480    -7535    -7580    -7618    -7659    -7701    -7746 
   -7789    -7819    -7859    -7911    -7950    -7979    -8021    -8068 
   -8095    -8131    -8181    -8208    -8235    -8280    -8310    -8332 
   -8361    -8379    -8394    -8421    -8437    -8441    -8456    -8467 
   -8461    -8469    -8484    -8476    -8464    -8473    -8476    -8469 
   -8457    -8451    -8451    -8441    -8424    -8413    -8407    -8398 
   -8378    -8360    -8355    -8343    -8313    -8291    -8284    -8264 
   -8232    -8213    -8198    -8172    -8149    -8127    -8104    -8081 
   -8059    -8047    -8019    -7985    -7974    -7954    -7924    -7908 
   -7885    -7862    -7859    -7846    -7821    -7816    -7813    -7803 
   -7799    -7793    -7789    -7793    -7785    -7786    -7798    -7796 
   -7789    -7788    -7792    -7794    -7782    -7771    -7769    -7758 
   -7746    -7731    -7711    -7700    -7682    -7650    -7635    -7624 
   -7588    -7551    -7535    -7515    -7482    -7446    -7426    -7411 
   -7380    -7349    -7330    -7310    -7284    -7264    -7252    -7236 
   -7225    -7217    -7207    -7203    -7203    -7202    -7211    -7222 
   -7222    -7234    -7254    -7269    -7283    -7291    -7307    -7331 
   -7346    -7365    -7385    -7398    -7426    -7447    -7447    -7464 
   -7492    -7503    -7512    -7530    -7537    -7539    -7561    -7574 
   -7565    -7572    -7596    -7595    -7581    -7595    -7607    -7599 
   -7603    -7609    -7603    -7612    -7622    -7614    -7619    -7626 
   -7619    -7630    -7647    -7646    -7643    -7659    -7676    -7666 
   -7668    -7692    -7695    -7692    -7708    -7711    -7712    -7728 
   -7732    -7728    -7742    -7758    -7756    -7754    -7765    -7785 
   -7799    -7799    -7812    -7838    -7855    -7870    -7882    -7896 
   -7925    -7951    -7958    -7977    -8004    -8021    -8044    -8073 
   -8083    -8102    -8141    -8164    -8172    -8190    -8224    -8259 
   -8267    -8267    -8297    -8326    -8329    -8341    -8370    -8383 
   -8391    -8406    -8410    -8418    -8441    -8449    -8441    -8456 
   -8471    -8464    -8476    -8490    -8476    -8474    -8490    -8492 
   -8482    -8471    -8471    -8463    -8446    -8440    -8424    -8401 
   -8388    -8368    -8348    -8328    -8293    -8268    -8257    -8226 
   -8191    -8170    -8147    -8117    -8085    -8056    -8032    -8001 
   -7967    -7940    -7913    -7888    -7855    -7823    -7809    -7788 
   -7754    -7728    -7708    -7692    -7669    -7639    -7619    -7601 
   -7577    -7550    -7519    -7503    -7489    -7460    -7435    -7420 
   -7400    -7375    -7350    -7342    -7335    -7311    -7290    -7283 
   -7280    -7273    -7257    -7250    -7257    -7256    -7254    -7256 
   -7250    -7258    -7275    -7267    -7268    -7300    -7302    -7300 
   -7335    -7349    -7342    -7371    -7400    -7410    -7427    -7454 
   -7481    -7496    -7515    -7553    -7569    -7581    -7627    -7657 
   -7672    -7707    -7743    -7758    -7776    -7815    -7851    -7859 
   -7874    -7920    -7950    -7960    -7983    -8023    -8058    -8071 
   -8091    -8131    -8156    -8176    -8208    -8236    -8264    -8294 
   -8319    -8351    -8384    -8418    -8447    -8471    -8496    -8537 
   -8572    -8591    -8614    -8650    -8680    -8710    -8741    -8764 
   -8787    -8818    -8842    -8868    -8891    -8915    -8945    -8961 
   -8972    -8997    -9019    -9031    -9046    -9051    -9055    -9077 
   -9082    -9073    -9084    -9085    -9071    -9080    -9073    -9049 
   -9050    -9038    -9003    -8991    -8978    -8938    -8908    -8895 
   -8860    -8814    -8787    -8764    -8721    -8675    -8631    -8596 
   -8560    -8510    -8463    -8421    -8379    -8338    -8293    -8245 
   -8212    -8176    -8129    -8095    -8078    -8039    -7993    -7974 
   -7956    -7917    -7893    -7877    -7846    -7823    -7807    -7780 
   -7758    -7740    -7712    -7689    -7673    -7652    -7628    -7601 
   -7585    -7569    -7537    -7510    -7496    -7470    -7433    -7403 
   -7383    -7357    -7331    -7312    -7284    -7254    -7245    -7227 
   -7198    -7183    -7167    -7148    -7138    -7126    -7113    -7106 
   -7098    -7086    -7079    -7084    -7078    -7059    -7069    -7087 
   -7065    -7049    -7079    -7099    -7086    -7094    -7118    -7127 
   -7145    -7168    -7180    -7202    -7229    -7254    -7284    -7307 
   -7335    -7378    -7415    -7442    -7487    -7531    -7566    -7616 
   -7662    -7692    -7739    -7785    -7817    -7865    -7915    -7946 
   -7979    -8028    -8067    -8097    -8135    -8175    -8201    -8232 
   -8271    -8294    -8319    -8352    -8367    -8385    -8421    -8431 
   -8424    -8451    -8472    -8463    -8464    -8480    -8473    -8467 
   -8477    -8474    -8464    -8464    -8461    -8459    -8457    -8453 
   -8447    -8449    -8451    -8449    -8451    -8464    -8471    -8474 
   -8494    -8507    -8515    -8543    -8571    -8588    -8617    -8646 
   -8671    -8700    -8737    -8768    -8806    -8843    -8866    -8903 
   -8953    -8976    -8995    -9036    -9066    -9081    -9111    -9142 
   -9155    -9169    -9197    -9213    -9217    -9236    -9250    -9248 
   -9259    -9261    -9246    -9252    -9258    -9239    -9225    -9220 
   -9207    -9192    -9171    -9140    -9113    -9092    -9055    -9011 
   -8981    -8953    -8905    -8858    -8824    -8784    -8738    -8692 
   -8644    -8607    -8567    -8505    -8464    -8441    -8387    -8330 
   -8299    -8262    -8213    -8174    -8136    -8091    -8052    -8017 
   -7974    -7931    -7902    -7875    -7839    -7803    -7778    -7756 
   -7720    -7697    -7689    -7652    -7619    -7619    -7597    -7560 
   -7557    -7543    -7501    -7488    -7493    -7472    -7442    -7429 
   -7420    -7411    -7398    -7378    -7375    -7373    -7357    -7349 
   -7350    -7340    -7334    -7339    -7334    -7331    -7344    -7345 
   -7345    -7357    -7361    -7360    -7373    -7376    -7369    -7385 
   -7395    -7381    -7388    -7403    -7398    -7399    -7406    -7398 
   -7398    -7411    -7411    -7402    -7411    -7419    -7416    -7425 
   -7433    -7443    -7460    -7457    -7466    -7492    -7507    -7524 
   -7546    -7555    -7581    -7614    -7624    -7641    -7668    -7689 
   -7712    -7740    -7763    -7778    -7792    -7813    -7834    -7850 
   -7865    -7871    -7878    -7897    -7903    -7897    -7905    -7909 
   -7893    -7893    -7903    -7888    -7867    -7871    -7867    -7846 
   -7839    -7834    -7817    -7813    -7809    -7793    -7788    -7793 
   -7789    -7782    -7786    -7799    -7812    -7815    -7823    -7844 
   -7865    -7873    -7888    -7913    -7933    -7950    -7974    -7996 
   -8017    -8051    -8068    -8082    -8117    -8143    -8155    -8174 
   -8195    -8221    -8240    -8248    -8275    -8302    -8307    -8317 
   -8338    -8351    -8359    -8367    -8376    -8383    -8385    -8391 
   -8391    -8387    -8387    -8387    -8383    -8382    -8376    -8367 
   -8365    -8367    -8360    -8352    -8349    -8352    -8357    -8352 
   -8351    -8360    -8363    -8370    -8382    -8380    -8387    -8407 
   -8406    -8408    -8437    -8449    -8451    -8469    -8477    -8487 
   -8510    -8513    -8510    -8529    -8543    -8553    -8559    -8567 
   -8586    -8592    -8588    -8596    -8600    -8599    -8603    -8596 
   -8588    -8590    -8583    -8563    -8546    -8538    -8522    -8499 
   -8469    -8440    -8418    -8397    -8363    -8326    -8286    -8247 
   -8214    -8175    -8127    -8081    -8037    -7989    -7931    -7882 
   -7840    -7784    -7720    -7680    -7635    -7570    -7520    -7477 
   -7416    -7364    -7326    -7271    -7215    -7179    -7130    -7068 
   -7028    -6994    -6937    -6890    -6863    -6818    -6770    -6741 
   -6709    -6678    -6648    -6608    -6586    -6574    -6534    -6502 
   -6504    -6486    -6451    -6447    -6444    -6424    -6421    -6423 
   -6407    -6411    -6427    -6423    -6421    -6442    -6460    -6465 
   -6484    -6515    -6536    -6559    -6597    -6623    -6646    -6691 
   -6731    -6752    -6790    -6843    -6876    -6901    -6945    -6998 
   -7037    -7069    -7114    -7163    -7202    -7240    -7284    -7330 
   -7373    -7411    -7449    -7495    -7547    -7581    -7614    -7665 
   -7704    -7738    -7789    -7832    -7869    -7917    -7960    -8007 
   -8050    -8078    -8139    -8205    -8221    -8262    -8336    -8375 
   -8408    -8467    -8510    -8552    -8604    -8645    -8683    -8731 
   -8779    -8814    -8845    -8893    -8934    -8958    -9000    -9040 
   -9061    -9093    -9124    -9144    -9189    -9224    -9221    -9243 
   -9297    -9312    -9306    -9335    -9366    -9373    -9387    -9401 
   -9406    -9427    -9433    -9418    -9428    -9441    -9429    -9414 
   -9405    -9400    -9391    -9369    -9354    -9347    -9317    -9292 
   -9281    -9262    -9234    -9200    -9178    -9162    -9121    -9088 
   -9067    -9024    -8981    -8953    -8915    -8874    -8837    -8787 
   -8742    -8707    -8657    -8604    -8561    -8510    -8457    -8413 
   -8360    -8297    -8240    -8190    -8133    -8071    -8010    -7951 
   -7888    -7827    -7765    -7697    -7634    -7580    -7519    -7454 
   -7399    -7348    -7292    -7236    -7177    -7122    -7076    -7028 
   -6971    -6914    -6874    -6837    -6786    -6737    -6708    -6664 
   -6617    -6588    -6551    -6513    -6482    -6446    -6426    -6400 
   -6361    -6349    -6330    -6301    -6296    -6277    -6257    -6266 
   -6257    -6239    -6250    -6259    -6249    -6249    -6265    -6272 
   -6277    -6288    -6295    -6308    -6334    -6349    -6359    -6381 
   -6421    -6450    -6459    -6496    -6546    -6564    -6588    -6632 
   -6669    -6702    -6735    -6772    -6814    -6848    -6885    -6922 
   -6957    -6995    -7032    -7067    -7101    -7130    -7167    -7207 
   -7229    -7250    -7290    -7318    -7333    -7365    -7403    -7426 
   -7446    -7476    -7503    -7522    -7541    -7574    -7601    -7614 
   -7642    -7681    -7709    -7732    -7759    -7794    -7831    -7862 
   -7897    -7929    -7967    -8010    -8040    -8082    -8132    -8160 
   -8203    -8255    -8286    -8330    -8383    -8418    -8467    -8517 
   -8556    -8610    -8665    -8707    -8758    -8810    -8854    -8899 
   -8946    -9005    -9058    -9085    -9127    -9192    -9238    -9271 
   -9316    -9367    -9409    -9439    -9486    -9535    -9563    -9593 
   -9629    -9661    -9694    -9714    -9730    -9757    -9780    -9792 
   -9802    -9817    -9833    -9836    -9836    -9844    -9842    -9837 
   -9836    -9829    -9817    -9810    -9806    -9787    -9756    -9741 
   -9730    -9697    -9667    -9653    -9622    -9583    -9563    -9533 
   -9490    -9460    -9435    -9391    -9347    -9320    -9281    -9228 
   -9188    -9153    -9104    -9057    -9013    -8970    -8923    -8874 
   -8830    -8785    -8734    -8684    -8640    -8591    -8542    -8494 
   -8441    -8397    -8352    -8294    -8235    -8185    -8133    -8073 
   -8014    -7959    -7906    -7851    -7792    -7730    -7672    -7616 
   -7560    -7501    -7450    -7402    -7340    -7280    -7236    -7186 
   -7126    -7087    -7052    -6999    -6955    -6922    -6886    -6845 
   -6810    -6782    -6744    -6711    -6698    -6673    -6631    -6617 
   -6613    -6578    -6556    -6556    -6535    -6508    -6508    -6505 
   -6478    -6465    -6481    -6470    -6451    -6465    -6465    -6455 
   -6473    -6475    -6467    -6493    -6502    -6494    -6521    -6546 
   -6546    -6563    -6594    -6613    -6635    -6664    -6687    -6710 
   -6741    -6767    -6795    -6831    -6860    -6890    -6919    -6944 
   -6978    -7011    -7038    -7064    -7094    -7130    -7156    -7176 
   -7211    -7236    -7257    -7295    -7323    -7344    -7368    -7395 
   -7435    -7468    -7476    -7491    -7523    -7553    -7574    -7588 
   -7609    -7635    -7654    -7678    -7705    -7719    -7730    -7754 
   -7785    -7803    -7811    -7831    -7852    -7867    -7885    -7902 
   -7920    -7940    -7958    -7974    -7994    -8006    -8024    -8050 
   -8067    -8083    -8105    -8118    -8137    -8164    -8185    -8205 
   -8229    -8248    -8268    -8291    -8317    -8337    -8356    -8382 
   -8404    -8421    -8446    -8473    -8487    -8503    -8522    -8538 
   -8553    -8569    -8579    -8586    -8599    -8614    -8623    -8629 
   -8630    -8630    -8637    -8634    -8627    -8641    -8641    -8618 
   -8619    -8630    -8621    -8617    -8618    -8607    -8606    -8604 
   -8598    -8600    -8591    -8579    -8592    -8596    -8587    -8587 
   -8591    -8600    -8604    -8596    -8607    -8618    -8617    -8627 
   -8627    -8627    -8652    -8655    -8650    -8669    -8679    -8676 
   -8683    -8687    -8695    -8703    -8695    -8691    -8699    -8698 
   -8691    -8687    -8677    -8667    -8664    -8653    -8630    -8606 
   -8592    -8572    -8536    -8500    -8477    -8447    -8403    -8359 
   -8329    -8302    -8253    -8198    -8166    -8135    -8089    -8044 
   -8004    -7963    -7923    -7886    -7851    -7812    -7780    -7753 
   -7712    -7682    -7670    -7638    -7605    -7599    -7581    -7547 
   -7538    -7533    -7506    -7497    -7506    -7488    -7468    -7472 
   -7474    -7465    -7462    -7473    -7479    -7472    -7485    -7507 
   -7506    -7515    -7543    -7553    -7564    -7595    -7614    -7623 
   -7642    -7669    -7692    -7711    -7740    -7770    -7785    -7809 
   -7847    -7873    -7892    -7920    -7946    -7973    -8002    -8024 
   -8050    -8082    -8106    -8129    -8152    -8167    -8197    -8226 
   -8229    -8240    -8270    -8286    -8295    -8305    -8313    -8326 
   -8344    -8345    -8347    -8364    -8371    -8361    -8374    -8391 
   -8384    -8383    -8395    -8401    -8406    -8408    -8408    -8414 
   -8417    -8421    -8428    -8424    -8426    -8434    -8430    -8430 
   -8433    -8431    -8430    -8424    -8426    -8428    -8418    -8414 
   -8414    -8404    -8391    -8388    -8380    -8367    -8355    -8344 
   -8332    -8319    -8305    -8286    -8267    -8259    -8248    -8221 
   -8201    -8197    -8185    -8162    -8149    -8144    -8137    -8118 
   -8100    -8100    -8097    -8083    -8078    -8078    -8073    -8071 
   -8067    -8068    -8073    -8073    -8077    -8078    -8083    -8095 
   -8095    -8094    -8114    -8122    -8120    -8129    -8137    -8139 
   -8148    -8158    -8158    -8156    -8167    -8176    -8167    -8162 
   -8171    -8174    -8164    -8162    -8158    -8141    -8139    -8149 
   -8137    -8125    -8127    -8120    -8110    -8106    -8098    -8086 
   -8077    -8070    -8060    -8051    -8043    -8031    -8021    -8027 
   -8019    -7990    -7986    -7993    -7973    -7956    -7955    -7940 
   -7933    -7931    -7921    -7913    -7902    -7897    -7900    -7884 
   -7875    -7881    -7874    -7865    -7857    -7855    -7863    -7850 
   -7836    -7850    -7852    -7840    -7834    -7840    -7847    -7840 
   -7843    -7844    -7836    -7854    -7865    -7840    -7848    -7877 
   -7869    -7860    -7875    -7879    -7882    -7886    -7884    -7893 
   -7905    -7905    -7906    -7917    -7924    -7931    -7933    -7931 
   -7943    -7962    -7967    -7963    -7974    -7994    -8001    -8002 
   -8020    -8040    -8044    -8048    -8067    -8078    -8078    -8087 
   -8100    -8113    -8124    -8117    -8124    -8154    -8152    -8135 
   -8152    -8167    -8160    -8160    -8164    -8166    -8162    -8156 
   -8162    -8163    -8144    -8139    -8148    -8144    -8128    -8120 
   -8116    -8111    -8116    -8114    -8101    -8097    -8110    -8111 
   -8106    -8118    -8127    -8131    -8144    -8156    -8163    -8185 
   -8206    -8213    -8232    -8263    -8286    -8306    -8330    -8352 
   -8383    -8411    -8424    -8456    -8494    -8513    -8533    -8567 
   -8596    -8619    -8642    -8668    -8692    -8707    -8734    -8760 
   -8768    -8784    -8810    -8823    -8834    -8845    -8851    -8860 
   -8869    -8877    -8877    -8872    -8881    -8883    -8865    -8863 
   -8870    -8856    -8842    -8834    -8823    -8814    -8792    -8769 
   -8760    -8738    -8707    -8688    -8676    -8650    -8617    -8587 
   -8567    -8545    -8509    -8479    -8464    -8437    -8403    -8384 
   -8359    -8324    -8301    -8284    -8267    -8237    -8210    -8201 
