Origin Time       2016/04/16 01:25:00
Lat.              32.753
Long.             130.762
Depth. (km)       12
Mag.              7.3
Station Code      SIG008
Station Lat.      35.0701
Station Long.     136.2946
Station Height(m) 218
Record Time       2016/04/16 01:27:59
Sampling Freq(Hz) 100Hz
Duration Time(s)  85
Dir.              N-S
Scale Factor      7845(gal)/8223790
Max. Acc. (gal)   2.798
Last Correction   2016/04/16 01:28:00
Memo.             
[...]
     945      939      926      913      903      889      881      872 
     861      851      832      815      803      784      765      749 
     727      712      695      668      665      662      635      618 
     610      591      579      566      540      521      506      483 
     461      445      427      411      394      379      363      340 
     325      315      297      279      274      263      249      243 
     238      229      220      217      211      209      209      195 
     189      194      189      186      191      189      191      198 
     195      197      205      199      199      206      198      190 
     190      178      164      160      151      141      136      122 
     118      121      114      117      117      112      118      129 
     136      143      148      156      172      187      194      209 
     228      232      240      261      270      274      298      310 
     309      324      341      344      344      352      359      353 
     344      344      333      314      311      303      280      266 
     259      238      221      209      199      184      167      159 
     144      125      118      106       90       81       75       72 
      62       49       54       55       47       47       44       40 
      47       49       35       28       32       20        1        4 
       1      -18      -25      -31      -45      -47      -51      -62 
     -59      -47      -47      -56      -52      -40      -36      -32 
     -21      -10        2       20       35       54       86      114 
     135      164      195      222      246      266      292      329 
     356      376      411      441      460      495      526      533 
     560      599      606      616      660      673      673      711 
     741      745      772      803      808      830      864      877 
     895      924      945      953      974      996     1005     1019 
    1032     1047     1060     1065     1078     1089     1088     1090 
    1096     1092     1089     1084     1071     1060     1050     1039 
    1028     1011      997      984      963      946      935      919 
     896      888      888      873      859      859      853      849 
     849      843      837      838      834      820      801      792 
     781      765      757      747      730      722      708      691 
     683      681      677      665      657      654      643      635 
     635      633      630      630      623      615      608      602 
     592      581      566      550      545      530      499      490 
     481      451      430      410      376      360      342      303 
     268      249      225      184      141      121       93       47 
      17      -13      -55      -83     -118     -160     -187     -220 
    -261     -288     -315     -359     -387     -399     -440     -483 
    -488     -506     -538     -542     -549     -571     -569     -566 
    -579     -581     -575     -573     -565     -553     -548     -535 
    -518     -503     -484     -461     -436     -405     -376     -344 
    -301     -265     -234     -189     -141      -99      -54      -10 
      36       86      129      175      228      276      318      367 
     410      446      493      540      579      621      662      700 
     739      777      816      854      889      919      947      981 
    1007     1021     1042     1065     1073     1078     1088     1086 
    1081     1081     1075     1060     1048     1039     1026     1000 
     973      961      947      920      900      886      869      853 
     837      816      804      793      776      770      767      750 
     746      750      741      720      710      714      707      691 
     685      683      672      670      666      653      650      649 
     642      638      634      631      634      637      634      631 
     637      645      641      649      666      670      677      696 
     710      718      735      753      765      781      797      810 
     824      838      850      864      876      893      905      915 
     931      942      945      962      980      987     1004     1019 
    1031     1050     1063     1067     1078     1096     1104     1104 
    1112     1117     1113     1115     1111     1101     1100     1094 
    1074     1065     1057     1036     1021     1007      987      970 
     951      929      919      905      886      873      859      847 
     837      823      818      820      812      805      818      823 
     819      832      849      853      864      882      896      909 
     926      943      957      966      981      996     1007     1020 
    1036     1042     1050     1065     1067     1065     1075     1074 
    1063     1069     1065     1047     1039     1042     1035     1023 
    1017     1020     1016     1005     1007     1012     1005     1003 
    1009     1011     1009     1013     1011     1000     1003     1007 
    1004     1000     1000      992      981      981      976      961 
     954      953      938      918      908      900      877      862 
     858      837      800      788      780      746      718      708 
     685      657      641      614      584      571      545      508 
     486      461      432      402      364      333      310      271 
     228      195      155      117       89       43       -4      -32 
     -71     -120     -153     -190     -234     -270     -303     -344 
    -372     -391     -423     -453     -464     -481     -511     -530 
    -542     -565     -583     -594     -610     -625     -637     -648 
    -650     -652     -658     -654     -652     -654     -643     -630 
    -626     -606     -581     -573     -553     -517     -490     -475 
    -454     -425     -402     -380     -351     -330     -319     -292 
    -270     -259     -241     -214     -194     -180     -163     -137 
    -116      -93      -65      -40      -13       20       58       90 
     128      178      221      263      315      359      392      445 
     496      526      566      618      654      687      733      772 
     807      842      868      901      940      965      992     1026 
    1051     1077     1107     1127     1143     1163     1182     1194 
    1201     1210     1224     1224     1224     1235     1237     1232 
    1232     1229     1219     1213     1202     1182     1166     1154 
    1131     1104     1086     1065     1043     1019      992      969 
     949      920      889      864      838      814      791      764 
     734      711      696      665      630      622      603      561 
     540      526      492      464      448      418      383      361 
     338      302      268      244      211      180      156      121 
      87       60       31        5      -14      -36      -59      -81 
     -97     -109     -118     -128     -141     -144     -137     -140 
    -147     -135     -124     -120     -103      -89      -76      -52 
     -28      -16        2       36       62       76      103      144 
     171      193      229      265      299      333      363      405 
     450      483      513      550      591      629      668      708 
     739      769      811      850      880      916      954      986 
    1024     1059     1088     1127     1162     1183     1219     1258 
    1278     1301     1333     1362     1381     1401     1429     1459 
    1475     1489     1512     1532     1545     1560     1578     1588 
    1599     1613     1626     1634     1647     1661     1661     1660 
    1675     1677     1675     1677     1668     1660     1665     1656 
    1645     1640     1622     1606     1597     1578     1553     1532 
    1503     1475     1448     1410     1367     1329     1290     1242 
    1194     1143     1081     1026      972      901      838      778 
     704      635      572      500      425      349      280      212 
     139       67        0      -65     -129     -191     -253     -311 
    -369     -419     -464     -515     -568     -610     -652     -696 
    -733     -770     -812     -850     -889     -926     -957     -990 
   -1028    -1062    -1090    -1121    -1161    -1194    -1224    -1256 
   -1282    -1308    -1344    -1368    -1390    -1422    -1449    -1467 
   -1489    -1516    -1534    -1549    -1567    -1583    -1593    -1603 
   -1614    -1618    -1618    -1618    -1622    -1624    -1617    -1610 
   -1601    -1586    -1576    -1568    -1549    -1528    -1517    -1498 
   -1472    -1451    -1424    -1395    -1372    -1341    -1308    -1285 
   -1255    -1219    -1178    -1146    -1115    -1069    -1028     -997 
    -957     -907     -859     -822     -777     -726     -684     -641 
    -585     -540     -502     -451     -406     -369     -326     -284 
    -249     -210     -171     -136     -103      -71      -37      -11 
      14       47       65       91      129      151      170      207 
     234      251      279      315      340      363      396      430 
     456      483      522      564      592      629      681      723 
     766      820      864      913      976     1034     1090     1148 
    1215     1282     1336     1395     1466     1525     1576     1632 
    1677     1725     1780     1814     1844     1884     1912     1941 
    1972     1987     2007     2037     2053     2062     2076     2088 
    2093     2092     2095     2097     2093     2091     2081     2062 
    2049     2034     2012     1992     1971     1942     1911     1877 
    1849     1819     1776     1737     1706     1665     1613     1572 
    1533     1475     1418     1370     1308     1246     1183     1112 
    1038      965      893      818      735      658      585      500 
     406      325      252      172       85        1      -75     -148 
    -221     -299     -372     -432     -492     -562     -622     -666 
    -722     -777     -815     -862     -908     -935     -984    -1038 
   -1059    -1086    -1135    -1178    -1219    -1258    -1290    -1332 
   -1383    -1418    -1448    -1498    -1543    -1564    -1599    -1649 
   -1677    -1696    -1736    -1771    -1795    -1823    -1848    -1864 
   -1887    -1912    -1929    -1941    -1956    -1971    -1982    -1991 
   -1999    -2010    -2018    -2025    -2030    -2034    -2038    -2043 
   -2053    -2047    -2039    -2050    -2057    -2046    -2045    -2056 
   -2047    -2033    -2034    -2037    -2023    -2012    -2007    -1992 
   -1971    -1952    -1930    -1908    -1888    -1857    -1825    -1798 
   -1761    -1721    -1688    -1649    -1605    -1566    -1534    -1490 
   -1436    -1394    -1358    -1308    -1256    -1213    -1173    -1125 
   -1078    -1043    -1000     -951     -912     -881     -847     -815 
    -791     -765     -734     -715     -696     -666     -658     -657 
    -630     -610     -606     -594     -579     -566     -556     -537 
    -523     -515     -495     -475     -464     -441     -417     -400 
    -372     -334     -307     -276     -233     -199     -166     -120 
     -75      -35       10       55       99      151      201      248 
     302      355      406      464      522      572      637      706 
     764      830      901      959     1026     1112     1177     1230 
    1306     1390     1453     1517     1590     1657     1717     1784 
    1852     1910     1966     2031     2092     2142     2192     2245 
    2295     2332     2376     2423     2458     2489     2531     2565 
    2587     2617     2647     2664     2685     2710     2728     2737 
    2749     2770     2783     2785     2790     2797     2794     2790 
    2783     2767     2756     2747     2721     2691     2669     2643 
    2606     2574     2539     2500     2461     2416     2369     2324 
    2270     2211     2155     2096     2030     1965     1899     1826 
    1748     1671     1598     1522     1439     1354     1271     1189 
    1097      996      903      812      711      611      511      403 
     297      190       78      -27     -129     -243     -353     -456 
    -562     -669     -764     -861     -961    -1051    -1139    -1227 
   -1305    -1386    -1471    -1541    -1603    -1672    -1729    -1777 
   -1833    -1885    -1922    -1961    -1999    -2025    -2053    -2085 
   -2102    -2115    -2134    -2150    -2157    -2160    -2165    -2168 
   -2170    -2166    -2150    -2142    -2141    -2126    -2107    -2095 
   -2077    -2060    -2041    -2016    -1995    -1975    -1954    -1930 
   -1906    -1876    -1849    -1829    -1802    -1773    -1752    -1725 
   -1702    -1680    -1653    -1630    -1613    -1594    -1568    -1544 
   -1525    -1499    -1471    -1447    -1408    -1371    -1344    -1302 
   -1259    -1227    -1178    -1128    -1086    -1038     -981     -924 
    -877     -823     -757     -697     -641     -576     -513     -446 
    -380     -319     -246     -171     -109      -39       40      110 
     178      255      336      414      490      558      637      722 
     791      862      953     1026     1086     1171     1252     1317 
    1391     1463     1530     1605     1671     1738     1804     1859 
    1933     1998     2049     2115     2182     2235     2293     2353 
    2407     2470     2528     2573     2625     2687     2739     2786 
    2835     2882     2930     2976     3018     3056     3094     3133 
    3161     3184     3219     3248     3256     3272     3294     3299 
    3304     3311     3304     3296     3294     3280     3264     3252 
    3230     3206     3190     3160     3126     3099     3071     3037 
    3003     2967     2928     2889     2851     2811     2766     2714 
    2671     2633     2579     2521     2477     2421     2355     2299 
    2242     2176     2104     2034     1971     1891     1810     1738 
    1648     1552     1475     1382     1278     1193     1100      993 
     897      801      704      612      511      406      314      230 
     139       49      -35     -117     -199     -279     -353     -423 
    -502     -573     -638     -712     -778     -837     -900     -959 
   -1021    -1078    -1123    -1174    -1225    -1267    -1314    -1355 
   -1381    -1416    -1452    -1472    -1497    -1522    -1525    -1534 
   -1553    -1551    -1548    -1554    -1547    -1533    -1534    -1518 
   -1487    -1483    -1474    -1428    -1401    -1390    -1350    -1308 
   -1282    -1243    -1196    -1161    -1120    -1070    -1024     -982 
    -928     -869     -822     -770     -711     -658     -600     -537 
    -484     -427     -363     -303     -249     -186     -125      -67 
      -8       49      109      172      229      289      344      386 
     450      519      553      598      658      699      741      795 
     830      859      900      934      959      986     1015     1039 
    1065     1084     1102     1121     1142     1162     1181     1193 
    1206     1223     1233     1232     1235     1248     1246     1236 
    1239     1236     1221     1212     1205     1192     1171     1156 
    1148     1133     1117     1107     1086     1074     1069     1059 
    1058     1057     1046     1043     1053     1053     1055     1073 
    1086     1096     1115     1133     1152     1179     1206     1230 
    1255     1281     1317     1350     1372     1408     1440     1468 
    1501     1532     1560     1593     1620     1647     1682     1710 
    1729     1752     1776     1800     1823     1845     1859     1869 
    1883     1898     1906     1910     1914     1917     1915     1910 
    1906     1902     1894     1881     1867     1858     1850     1833 
    1822     1811     1796     1786     1777     1767     1760     1757 
    1746     1742     1750     1749     1741     1745     1749     1748 
    1755     1759     1750     1753     1760     1755     1759     1763 
    1761     1765     1768     1764     1763     1767     1771     1767 
    1764     1773     1777     1771     1773     1780     1777     1772 
    1773     1769     1761     1761     1750     1729     1715     1706 
    1684     1658     1638     1614     1579     1547     1516     1474 
    1431     1395     1358     1320     1271     1221     1185     1144 
    1093     1053     1011      961      922      882      837      797 
     760      715      677      643      604      561      531      500 
     460      425      391      356      324      288      259      229 
     189      157      136       97       58       31       -8      -52 
     -78     -108     -153     -191     -214     -249     -288     -315 
    -338     -364     -386     -405     -425     -442     -450     -464 
    -473     -471     -471     -468     -457     -449     -438     -421 
    -407     -391     -364     -344     -336     -317     -289     -271 
    -259     -241     -220     -210     -206     -189     -168     -167 
    -160     -144     -140     -139     -136     -133     -125     -125 
    -139     -135     -131     -143     -140     -140     -155     -159 
    -157     -168     -178     -178     -180     -194     -201     -198 
    -202     -211     -211     -210     -205     -202     -199     -191 
    -180     -164     -149     -139     -117      -90      -72      -45 
      -8       20       49       90      122      153      194      232 
     263      294      326      359      383      414      444      461 
     484      513      531      540      557      583      596      602 
     619      631      634      645      657      657      662      672 
     672      670      680      687      685      691      699      700 
     704      718      723      728      745      756      762      787 
     804      810      831      859      870      882      918      939 
     946      977     1004     1012     1038     1065     1075     1100 
    1127     1138     1154     1182     1200     1208     1217     1232 
    1247     1251     1255     1266     1270     1260     1252     1254 
    1247     1233     1217     1205     1196     1178     1161     1144 
    1119     1102     1096     1077     1058     1044     1031     1020 
    1013     1007      999      989      985      982      974      967 
     965      957      945      938      932      918      890      876 
     870      838      800      788      766      728      697      664 
     627      602      573      533      496      464      433      398 
     368      332      291      263      232      189      156      125 
      85       52       25      -11      -45      -74     -109     -143 
    -167     -193     -224     -253     -280     -305     -326     -346 
    -367     -383     -400     -419     -422     -422     -437     -438 
    -425     -432     -427     -409     -400     -399     -383     -357 
    -346     -336     -305     -283     -272     -249     -224     -201 
    -183     -167     -141     -118     -108      -93      -72      -60 
     -58      -49      -36      -35      -36      -32      -41      -56 
     -55      -62      -86     -102     -112     -136     -159     -183 
    -211     -233     -261     -299     -326     -346     -376     -410 
    -438     -464     -492     -518     -540     -569     -594     -604 
    -623     -643     -650     -660     -670     -670     -668     -670 
    -665     -652     -643     -638     -623     -604     -585     -568 
