Origin Time       2016/04/16 01:25:00
Lat.              32.753
Long.             130.762
Depth. (km)       12
Mag.              7.3
Station Code      SIG006
Station Lat.      35.2001
Station Long.     135.9210
Station Height(m) 106
Record Time       2016/04/16 01:27:45
Sampling Freq(Hz) 100Hz
Duration Time(s)  60
Dir.              N-S
Scale Factor      7845(gal)/8223790
Max. Acc. (gal)   1.971
Last Correction   2016/04/16 01:27:46
Memo.             
[...]
   -7974    -7978    -7974    -7966    -7960    -7959    -7950    -7936 
   -7929    -7927    -7921    -7919    -7916    -7911    -7901    -7892 
   -7889    -7888    -7882    -7874    -7863    -7855    -7850    -7847 
   -7848    -7851    -7848    -7839    -7831    -7825    -7816    -7812 
   -7815    -7812    -7805    -7798    -7793    -7782    -7777    -7776 
   -7767    -7756    -7746    -7735    -7727    -7727    -7726    -7719 
   -7717    -7717    -7707    -7699    -7699    -7699    -7701    -7707 
   -7707    -7705    -7704    -7700    -7701    -7708    -7713    -7713 
   -7715    -7713    -7712    -7711    -7713    -7717    -7722    -7728 
   -7735    -7735    -7734    -7732    -7731    -7734    -7735    -7742 
   -7750    -7749    -7743    -7740    -7734    -7723    -7723    -7727 
   -7728    -7727    -7727    -7723    -7722    -7720    -7722    -7715 
   -7708    -7709    -7709    -7705    -7707    -7713    -7716    -7712 
   -7709    -7712    -7713    -7720    -7731    -7740    -7746    -7749 
   -7755    -7761    -7765    -7777    -7796    -7808    -7816    -7827 
   -7838    -7852    -7870    -7882    -7894    -7916    -7935    -7948 
   -7969    -7993    -8006    -8027    -8054    -8071    -8085    -8108 
   -8132    -8154    -8176    -8201    -8218    -8236    -8253    -8268 
   -8283    -8303    -8324    -8345    -8365    -8376    -8382    -8391 
   -8403    -8411    -8418    -8428    -8431    -8433    -8437    -8440 
   -8437    -8434    -8433    -8431    -8424    -8417    -8408    -8398 
   -8387    -8376    -8363    -8343    -8322    -8307    -8291    -8276 
   -8266    -8251    -8230    -8210    -8187    -8160    -8136    -8117 
   -8097    -8071    -8047    -8023    -7996    -7973    -7951    -7924 
   -7900    -7879    -7854    -7825    -7799    -7774    -7749    -7723 
   -7699    -7674    -7649    -7628    -7614    -7591    -7565    -7546 
   -7524    -7500    -7481    -7468    -7452    -7437    -7426    -7410 
   -7391    -7376    -7362    -7348    -7334    -7323    -7315    -7302 
   -7283    -7268    -7253    -7238    -7231    -7219    -7206    -7198 
   -7194    -7190    -7192    -7198    -7198    -7195    -7200    -7209 
   -7217    -7229    -7245    -7258    -7279    -7302    -7318    -7339 
   -7369    -7395    -7420    -7449    -7479    -7508    -7537    -7569 
   -7600    -7630    -7666    -7703    -7735    -7774    -7819    -7857 
   -7888    -7921    -7958    -7989    -8025    -8066    -8104    -8141 
   -8179    -8214    -8251    -8291    -8326    -8360    -8401    -8444 
   -8480    -8517    -8553    -8588    -8625    -8660    -8691    -8723 
   -8758    -8793    -8826    -8853    -8880    -8907    -8931    -8951 
   -8972    -8991    -9008    -9028    -9043    -9059    -9077    -9089 
   -9090    -9086    -9088    -9093    -9089    -9086    -9085    -9073 
   -9058    -9045    -9024    -9003    -8985    -8968    -8943    -8915 
   -8885    -8853    -8818    -8781    -8748    -8714    -8677    -8638 
   -8603    -8561    -8513    -8467    -8424    -8379    -8332    -8281 
   -8232    -8181    -8131    -8081    -8029    -7981    -7931    -7881 
   -7831    -7782    -7735    -7695    -7650    -7605    -7568    -7530 
   -7493    -7461    -7431    -7400    -7368    -7342    -7318    -7290 
   -7264    -7248    -7226    -7206    -7188    -7173    -7160    -7148 
   -7138    -7130    -7119    -7113    -7106    -7094    -7088    -7083 
   -7076    -7074    -7074    -7075    -7069    -7064    -7060    -7060 
   -7063    -7067    -7069    -7075    -7076    -7078    -7083    -7092 
   -7107    -7119    -7130    -7149    -7169    -7188    -7207    -7229 
   -7257    -7284    -7310    -7339    -7369    -7403    -7438    -7470 
   -7503    -7539    -7573    -7605    -7642    -7672    -7699    -7734 
   -7770    -7803    -7832    -7860    -7889    -7916    -7938    -7963 
   -7987    -8006    -8029    -8055    -8073    -8090    -8113    -8128 
   -8139    -8155    -8170    -8182    -8202    -8220    -8222    -8228 
   -8241    -8252    -8262    -8268    -8274    -8278    -8281    -8286 
   -8290    -8286    -8279    -8268    -8252    -8239    -8229    -8214 
   -8193    -8167    -8136    -8097    -8063    -8035    -7997    -7952 
   -7903    -7850    -7796    -7740    -7684    -7631    -7577    -7510 
   -7443    -7383    -7322    -7263    -7206    -7153    -7098    -7036 
   -6976    -6926    -6879    -6833    -6789    -6739    -6690    -6647 
   -6609    -6569    -6535    -6508    -6480    -6448    -6420    -6399 
   -6382    -6366    -6354    -6347    -6340    -6332    -6327    -6323 
   -6327    -6335    -6343    -6353    -6366    -6382    -6397    -6416 
   -6440    -6465    -6497    -6531    -6561    -6590    -6624    -6660 
   -6697    -6733    -6777    -6825    -6872    -6919    -6972    -7028 
   -7080    -7138    -7196    -7249    -7306    -7368    -7422    -7479 
   -7542    -7605    -7662    -7719    -7774    -7831    -7889    -7946 
   -8002    -8058    -8105    -8147    -8191    -8237    -8281    -8326 
   -8371    -8417    -8457    -8487    -8517    -8553    -8587    -8622 
   -8658    -8688    -8716    -8749    -8776    -8802    -8829    -8856 
   -8880    -8903    -8923    -8945    -8964    -8980    -9001    -9023 
   -9040    -9058    -9076    -9088    -9101    -9116    -9128    -9139 
   -9147    -9158    -9163    -9162    -9165    -9167    -9165    -9169 
   -9169    -9157    -9147    -9137    -9127    -9115    -9103    -9089 
   -9074    -9051    -9026    -8997    -8966    -8935    -8901    -8868 
   -8835    -8800    -8758    -8712    -8669    -8629    -8587    -8540 
   -8494    -8440    -8390    -8340    -8283    -8229    -8176    -8116 
   -8052    -7989    -7924    -7857    -7792    -7723    -7651    -7584 
   -7515    -7438    -7364    -7298    -7230    -7157    -7086    -7014 
   -6945    -6881    -6820    -6756    -6691    -6632    -6573    -6515 
   -6460    -6413    -6369    -6323    -6288    -6255    -6222    -6192 
   -6166    -6143    -6123    -6110    -6100    -6096    -6095    -6095 
   -6097    -6103    -6115    -6131    -6154    -6184    -6210    -6241 
   -6280    -6322    -6361    -6408    -6462    -6516    -6575    -6640 
   -6708    -6775    -6845    -6918    -6990    -7064    -7141    -7219 
   -7298    -7376    -7454    -7533    -7611    -7693    -7781    -7869 
   -7952    -8027    -8098    -8177    -8260    -8341    -8424    -8510 
   -8586    -8652    -8718    -8785    -8851    -8920    -8992    -9059 
   -9120    -9169    -9211    -9252    -9296    -9337    -9377    -9413 
   -9441    -9464    -9489    -9508    -9524    -9541    -9558    -9572 
   -9589    -9598    -9605    -9606    -9602    -9591    -9583    -9576 
   -9571    -9563    -9558    -9547    -9526    -9504    -9482    -9459 
   -9439    -9421    -9398    -9367    -9335    -9302    -9265    -9223 
   -9184    -9146    -9108    -9063    -9015    -8966    -8918    -8868 
   -8820    -8772    -8721    -8664    -8604    -8549    -8494    -8431 
   -8372    -8318    -8259    -8199    -8139    -8073    -8010    -7954 
   -7892    -7830    -7771    -7713    -7654    -7592    -7530    -7472 
   -7414    -7358    -7302    -7249    -7194    -7132    -7068    -7011 
   -6961    -6912    -6858    -6805    -6756    -6704    -6650    -6602 
   -6561    -6517    -6477    -6438    -6397    -6359    -6323    -6292 
   -6265    -6242    -6218    -6193    -6172    -6156    -6139    -6122 
   -6106    -6096    -6088    -6080    -6077    -6076    -6073    -6075 
   -6075    -6072    -6076    -6084    -6091    -6104    -6123    -6141 
   -6154    -6170    -6191    -6212    -6239    -6272    -6303    -6339 
   -6378    -6412    -6450    -6488    -6528    -6578    -6625    -6673 
   -6723    -6771    -6820    -6871    -6918    -6970    -7023    -7079 
   -7134    -7188    -7240    -7291    -7345    -7402    -7457    -7510 
   -7561    -7609    -7661    -7715    -7765    -7811    -7859    -7906 
   -7947    -7985    -8021    -8058    -8093    -8128    -8160    -8187 
   -8208    -8225    -8240    -8252    -8262    -8271    -8278    -8279 
   -8274    -8263    -8251    -8237    -8224    -8208    -8193    -8175 
   -8149    -8121    -8091    -8060    -8027    -7994    -7960    -7920 
   -7881    -7840    -7797    -7756    -7719    -7678    -7635    -7592 
   -7548    -7503    -7452    -7400    -7354    -7311    -7263    -7215 
   -7171    -7123    -7075    -7026    -6980    -6936    -6891    -6847 
   -6809    -6770    -6735    -6704    -6670    -6635    -6602    -6577 
   -6555    -6535    -6520    -6509    -6500    -6492    -6486    -6480 
   -6480    -6486    -6490    -6498    -6511    -6521    -6539    -6563 
   -6578    -6598    -6629    -6654    -6677    -6710    -6743    -6771 
   -6806    -6840    -6874    -6914    -6956    -6995    -7040    -7087 
   -7132    -7176    -7225    -7273    -7325    -7375    -7425    -7477 
   -7533    -7584    -7634    -7684    -7735    -7789    -7842    -7892 
   -7946    -7996    -8040    -8083    -8124    -8164    -8206    -8244 
   -8279    -8313    -8340    -8360    -8383    -8404    -8418    -8434 
   -8446    -8456    -8461    -8464    -8460    -8451    -8441    -8437 
   -8426    -8410    -8391    -8368    -8347    -8322    -8293    -8266 
   -8239    -8208    -8174    -8144    -8111    -8073    -8032    -7994 
   -7956    -7917    -7879    -7842    -7803    -7761    -7717    -7676 
   -7639    -7603    -7566    -7530    -7492    -7453    -7411    -7373 
   -7338    -7306    -7277    -7245    -7211    -7183    -7155    -7122 
   -7098    -7078    -7052    -7021    -6997    -6979    -6960    -6947 
   -6939    -6926    -6916    -6910    -6903    -6899    -6899    -6903 
   -6906    -6910    -6918    -6930    -6941    -6951    -6963    -6978 
   -6998    -7018    -7037    -7059    -7083    -7103    -7123    -7145 
   -7169    -7195    -7219    -7246    -7272    -7299    -7333    -7364 
   -7392    -7422    -7450    -7476    -7501    -7523    -7543    -7568 
   -7595    -7627    -7651    -7669    -7688    -7703    -7722    -7744 
   -7761    -7776    -7796    -7815    -7827    -7839    -7857    -7874 
   -7889    -7902    -7916    -7928    -7940    -7954    -7973    -7987 
   -7998    -8010    -8019    -8029    -8046    -8058    -8064    -8068 
   -8073    -8075    -8078    -8089    -8100    -8106    -8109    -8111 
   -8111    -8110    -8110    -8110    -8106    -8104    -8100    -8097 
   -8100    -8106    -8105    -8100    -8098    -8094    -8093    -8101 
   -8110    -8118    -8127    -8132    -8131    -8133    -8147    -8159 
   -8167    -8177    -8187    -8190    -8197    -8215    -8236    -8248 
   -8256    -8256    -8253    -8260    -8276    -8293    -8306    -8318 
   -8316    -8307    -8303    -8307    -8317    -8324    -8321    -8316 
   -8309    -8299    -8295    -8299    -8294    -8284    -8275    -8262 
   -8252    -8248    -8240    -8229    -8213    -8189    -8171    -8162 
   -8158    -8156    -8151    -8135    -8111    -8089    -8075    -8070 
   -8063    -8056    -8052    -8044    -8035    -8023    -8012    -8004 
   -7997    -7985    -7974    -7969    -7969    -7962    -7951    -7938 
   -7921    -7905    -7896    -7892    -7884    -7874    -7865    -7851 
   -7838    -7830    -7821    -7816    -7812    -7803    -7788    -7776 
   -7766    -7758    -7753    -7751    -7756    -7758    -7753    -7751 
   -7750    -7742    -7739    -7744    -7754    -7765    -7777    -7786 
   -7792    -7796    -7799    -7803    -7811    -7827    -7840    -7848 
   -7858    -7865    -7867    -7873    -7881    -7886    -7893    -7901 
   -7900    -7898    -7901    -7906    -7911    -7919    -7925    -7927 
   -7928    -7928    -7929    -7931    -7939    -7946    -7954    -7964 
   -7969    -7978    -7987    -7994    -8004    -8014    -8024    -8035 
   -8051    -8068    -8085    -8095    -8109    -8127    -8143    -8158 
   -8179    -8202    -8215    -8232    -8245    -8257    -8276    -8291 
   -8305    -8317    -8319    -8324    -8338    -8343    -8343    -8351 
   -8359    -8363    -8361    -8361    -8359    -8349    -8344    -8344 
   -8340    -8336    -8336    -8328    -8314    -8306    -8295    -8280 
   -8274    -8270    -8257    -8239    -8221    -8206    -8190    -8174 
   -8158    -8139    -8122    -8109    -8090    -8075    -8060    -8040 
   -8021    -8007    -7992    -7974    -7963    -7959    -7951    -7940 
   -7931    -7928    -7925    -7928    -7939    -7950    -7963    -7979 
   -7992    -8006    -8024    -8043    -8067    -8097    -8129    -8162 
   -8193    -8226    -8256    -8289    -8324    -8359    -8388    -8424 
   -8459    -8494    -8530    -8567    -8600    -8629    -8657    -8681 
   -8704    -8739    -8777    -8807    -8833    -8857    -8872    -8887 
   -8911    -8939    -8962    -8981    -9001    -9023    -9040    -9058 
   -9081    -9100    -9108    -9121    -9139    -9153    -9165    -9180 
   -9186    -9194    -9205    -9209    -9211    -9216    -9219    -9216 
   -9216    -9216    -9213    -9208    -9197    -9188    -9182    -9173 
   -9165    -9159    -9146    -9128    -9115    -9101    -9089    -9084 
   -9077    -9066    -9051    -9038    -9028    -9019    -9018    -9020 
   -9019    -9019    -9024    -9024    -9031    -9042    -9050    -9062 
   -9082    -9103    -9128    -9155    -9175    -9196    -9223    -9248 
   -9274    -9306    -9342    -9373    -9405    -9437    -9466    -9497 
   -9533    -9572    -9607    -9639    -9670    -9702    -9732    -9760 
   -9790    -9817    -9837    -9857    -9879    -9892    -9902    -9915 
   -9923    -9929    -9936    -9933    -9930    -9931    -9921    -9906 
   -9899    -9887    -9867    -9850    -9832    -9804    -9778    -9752 
   -9721    -9690    -9659    -9622    -9582    -9540    -9497    -9451 
   -9404    -9360    -9316    -9266    -9215    -9165    -9113    -9065 
   -9020    -8977    -8934    -8891    -8847    -8806    -8761    -8719 
   -8688    -8653    -8612    -8579    -8546    -8502    -8467    -8444 
   -8417    -8388    -8363    -8332    -8295    -8260    -8230    -8198 
   -8170    -8144    -8114    -8081    -8050    -8021    -7996    -7974 
   -7955    -7931    -7906    -7882    -7859    -7839    -7821    -7807 
   -7789    -7771    -7758    -7746    -7731    -7715    -7704    -7688 
   -7676    -7670    -7661    -7645    -7639    -7634    -7618    -7605 
   -7599    -7593    -7593    -7596    -7593    -7589    -7589    -7592 
   -7597    -7609    -7619    -7623    -7628    -7638    -7650    -7665 
   -7684    -7705    -7723    -7732    -7747    -7767    -7792    -7820 
   -7846    -7865    -7885    -7903    -7925    -7954    -7983    -8014 
   -8047    -8073    -8098    -8129    -8164    -8194    -8221    -8244 
   -8271    -8307    -8343    -8372    -8397    -8421    -8444    -8467 
   -8496    -8520    -8548    -8576    -8590    -8599    -8612    -8623 
   -8637    -8653    -8668    -8679    -8679    -8672    -8669    -8668 
   -8661    -8662    -8662    -8644    -8625    -8612    -8595    -8577 
   -8559    -8533    -8506    -8487    -8467    -8441    -8414    -8390 
   -8356    -8324    -8302    -8278    -8248    -8228    -8206    -8174 
   -8141    -8111    -8083    -8058    -8035    -8010    -7978    -7954 
   -7936    -7915    -7892    -7871    -7852    -7835    -7820    -7807 
   -7797    -7784    -7767    -7759    -7751    -7742    -7738    -7739 
   -7740    -7740    -7740    -7742    -7744    -7747    -7750    -7754 
   -7758    -7761    -7763    -7770    -7781    -7789    -7798    -7809 
   -7812    -7815    -7825    -7836    -7847    -7859    -7870    -7879 
   -7894    -7909    -7920    -7935    -7952    -7969    -7986    -8006 
   -8031    -8054    -8068    -8086    -8108    -8121    -8139    -8164 
   -8182    -8203    -8221    -8226    -8233    -8244    -8248    -8262 
   -8275    -8280    -8278    -8271    -8266    -8263    -8262    -8263 
   -8257    -8247    -8236    -8225    -8212    -8197    -8182    -8166 
   -8147    -8128    -8109    -8090    -8070    -8051    -8029    -8004 
   -7979    -7962    -7942    -7916    -7894    -7870    -7846    -7827 
   -7811    -7788    -7763    -7735    -7703    -7682    -7670    -7652 
   -7634    -7614    -7588    -7562    -7542    -7526    -7512    -7497 
   -7480    -7456    -7433    -7415    -7396    -7377    -7361    -7342 
   -7323    -7302    -7275    -7250    -7234    -7214    -7192    -7177 
   -7160    -7138    -7119    -7098    -7078    -7061    -7042    -7025 
   -7009    -6995    -6983    -6970    -6952    -6937    -6922    -6909 
   -6894    -6879    -6868    -6853    -6835    -6820    -6806    -6790 
   -6777    -6767    -6752    -6737    -6725    -6710    -6698    -6691 
   -6686    -6675    -6660    -6650    -6646    -6643    -6640    -6640 
   -6637    -6628    -6619    -6616    -6619    -6619    -6616    -6617 
   -6621    -6621    -6623    -6624    -6627    -6628    -6627    -6632 
   -6648    -6656    -6659    -6670    -6683    -6690    -6701    -6721 
   -6743    -6763    -6786    -6814    -6840    -6862    -6889    -6921 
   -6957    -6990    -7023    -7059    -7098    -7136    -7172    -7210 
   -7250    -7288    -7325    -7366    -7408    -7443    -7481    -7519 
   -7550    -7584    -7623    -7657    -7690    -7723    -7758    -7786 
   -7813    -7843    -7873    -7892    -7912    -7940    -7966    -7992 
   -8021    -8040    -8055    -8064    -8075    -8093    -8113    -8132 
   -8147    -8155    -8159    -8158    -8151    -8144    -8144    -8144 
   -8137    -8127    -8111    -8097    -8075    -8047    -8020    -7989 
   -7958    -7929    -7901    -7871    -7838    -7793    -7746    -7699 
   -7652    -7612    -7576    -7531    -7484    -7442    -7392    -7337 
   -7295    -7253    -7203    -7163    -7119    -7071    -7023    -6978 
   -6934    -6894    -6853    -6815    -6777    -6736    -6700    -6667 
   -6635    -6604    -6569    -6540    -6516    -6496    -6475    -6455 
   -6440    -6431    -6420    -6409    -6407    -6405    -6407    -6415 
   -6424    -6434    -6448    -6469    -6489    -6509    -6534    -6562 
   -6592    -6627    -6664    -6701    -6736    -6774    -6812    -6848 
   -6895    -6944    -6987    -7034    -7083    -7122    -7159    -7202 
   -7249    -7295    -7345    -7393    -7434    -7473    -7514    -7551 
   -7592    -7635    -7677    -7715    -7751    -7788    -7816    -7844 
   -7878    -7911    -7936    -7962    -7987    -8006    -8023    -8040 
   -8056    -8071    -8087    -8093    -8094    -8094    -8086    -8077 
   -8071    -8060    -8048    -8037    -8021    -8002    -7979    -7948 
   -7916    -7888    -7860    -7827    -7794    -7754    -7712    -7672 
   -7632    -7593    -7555    -7519    -7479    -7433    -7388    -7345 
   -7302    -7257    -7217    -7182    -7144    -7101    -7056    -7011 
   -6974    -6936    -6895    -6860    -6822    -6779    -6737    -6697 
   -6656    -6617    -6581    -6550    -6513    -6474    -6438    -6404 
   -6366    -6332    -6303    -6270    -6238    -6208    -6181    -6157 
   -6131    -6106    -6084    -6062    -6039    -6021    -6003    -5988 
   -5973    -5960    -5946    -5933    -5919    -5902    -5892    -5892 
   -5890    -5880    -5875    -5875    -5879    -5880    -5884    -5895 
   -5904    -5911    -5919    -5931    -5945    -5960    -5973    -5987 
   -6006    -6034    -6060    -6088    -6115    -6139    -6164    -6192 
   -6222    -6251    -6285    -6320    -6350    -6384    -6417    -6450 
