Origin Time       2016/04/16 01:25:00
Lat.              32.753
Long.             130.762
Depth. (km)       12
Mag.              7.3
Station Code      SIG002
Station Lat.      35.4215
Station Long.     136.0243
Station Height(m) 95
Record Time       2016/04/16 01:27:57
Sampling Freq(Hz) 100Hz
Duration Time(s)  60
Dir.              E-W
Scale Factor      7845(gal)/8223790
Max. Acc. (gal)   1.422
Last Correction   2016/04/16 01:27:58
Memo.             
[...]
   -7824    -7832    -7846    -7862    -7873    -7878    -7888    -7897 
   -7903    -7906    -7913    -7931    -7940    -7933    -7938    -7955 
   -7962    -7958    -7960    -7966    -7958    -7950    -7950    -7946 
   -7939    -7933    -7929    -7925    -7920    -7921    -7925    -7920 
   -7916    -7917    -7916    -7916    -7916    -7915    -7917    -7913 
   -7906    -7908    -7911    -7908    -7906    -7908    -7906    -7903 
   -7905    -7911    -7908    -7905    -7913    -7916    -7908    -7906 
   -7909    -7919    -7927    -7925    -7929    -7943    -7952    -7954 
   -7955    -7964    -7971    -7969    -7969    -7978    -7979    -7981 
   -7978    -7973    -7974    -7974    -7973    -7969    -7962    -7962 
   -7966    -7959    -7959    -7962    -7959    -7962    -7960    -7955 
   -7958    -7960    -7962    -7967    -7963    -7955    -7960    -7967 
   -7964    -7959    -7963    -7969    -7963    -7958    -7956    -7955 
   -7956    -7951    -7942    -7939    -7936    -7928    -7921    -7915 
   -7902    -7896    -7889    -7885    -7886    -7881    -7871    -7865 
   -7865    -7863    -7862    -7870    -7882    -7888    -7894    -7903 
   -7905    -7903    -7908    -7919    -7927    -7921    -7924    -7933 
   -7931    -7939    -7950    -7948    -7955    -7969    -7969    -7971 
   -7974    -7974    -7981    -7981    -7978    -7981    -7981    -7979 
   -7973    -7964    -7966    -7960    -7958    -7958    -7948    -7943 
   -7940    -7927    -7923    -7921    -7908    -7900    -7897    -7888 
   -7875    -7863    -7854    -7840    -7827    -7823    -7821    -7812 
   -7796    -7789    -7794    -7793    -7778    -7773    -7778    -7770 
   -7761    -7763    -7766    -7769    -7766    -7765    -7780    -7788 
   -7786    -7799    -7809    -7813    -7832    -7848    -7860    -7879 
   -7892    -7903    -7920    -7935    -7951    -7959    -7971    -7993 
   -7996    -7997    -8007    -8006    -8010    -8017    -8016    -8021 
   -8024    -8021    -8028    -8035    -8032    -8035    -8039    -8033 
   -8032    -8040    -8044    -8035    -8033    -8035    -8031    -8027 
   -8027    -8024    -8021    -8019    -8013    -8006    -7994    -7982 
   -7982    -7974    -7958    -7947    -7938    -7925    -7919    -7908 
   -7893    -7888    -7886    -7882    -7870    -7859    -7854    -7843 
   -7839    -7835    -7821    -7819    -7816    -7803    -7796    -7793 
   -7782    -7767    -7766    -7769    -7755    -7754    -7770    -7769 
   -7773    -7786    -7789    -7799    -7819    -7832    -7848    -7860 
   -7873    -7889    -7903    -7927    -7943    -7946    -7960    -7979 
   -7994    -8007    -8013    -8017    -8032    -8051    -8062    -8073 
   -8086    -8095    -8104    -8108    -8113    -8120    -8117    -8117 
   -8131    -8135    -8131    -8137    -8139    -8139    -8139    -8139 
   -8141    -8139    -8135    -8133    -8128    -8118    -8116    -8111 
   -8100    -8091    -8078    -8063    -8058    -8059    -8043    -8033 
   -8035    -8024    -8017    -8021    -8023    -8017    -8012    -8007 
   -8007    -8012    -8010    -8002    -7997    -7989    -7979    -7974 
   -7969    -7962    -7962    -7962    -7960    -7964    -7974    -7977 
   -7978    -7983    -7979    -7979    -7994    -7998    -7990    -7998 
   -8001    -7992    -7993    -7998    -8001    -8010    -8019    -8023 
   -8027    -8035    -8043    -8046    -8050    -8056    -8063    -8063 
   -8058    -8054    -8048    -8040    -8035    -8019    -8005    -8002 
   -7998    -7987    -7974    -7962    -7952    -7946    -7944    -7936 
   -7929    -7927    -7915    -7909    -7917    -7917    -7912    -7913 
   -7912    -7903    -7898    -7900    -7902    -7900    -7896    -7894 
   -7894    -7894    -7896    -7894    -7888    -7879    -7881    -7877 
   -7871    -7870    -7862    -7843    -7834    -7835    -7830    -7820 
   -7813    -7799    -7789    -7786    -7774    -7759    -7759    -7766 
   -7761    -7753    -7747    -7740    -7738    -7743    -7746    -7743 
   -7742    -7746    -7751    -7753    -7754    -7758    -7765    -7773 
   -7776    -7773    -7773    -7770    -7761    -7767    -7785    -7789 
   -7784    -7785    -7797    -7805    -7809    -7824    -7846    -7855 
   -7859    -7871    -7888    -7898    -7905    -7915    -7931    -7947 
   -7956    -7971    -7987    -8001    -8016    -8028    -8035    -8048 
   -8060    -8073    -8090    -8100    -8102    -8108    -8122    -8144 
   -8160    -8172    -8185    -8199    -8214    -8225    -8240    -8262 
   -8276    -8286    -8289    -8297    -8314    -8319    -8324    -8338 
   -8343    -8341    -8355    -8360    -8363    -8378    -8380    -8376 
   -8374    -8367    -8367    -8376    -8382    -8388    -8395    -8390 
   -8382    -8382    -8394    -8398    -8390    -8390    -8391    -8379 
   -8374    -8380    -8375    -8363    -8360    -8351    -8333    -8324 
   -8317    -8309    -8309    -8298    -8278    -8259    -8239    -8214 
   -8195    -8174    -8144    -8121    -8098    -8062    -8033    -8013 
   -7982    -7946    -7916    -7888    -7852    -7820    -7799    -7781 
   -7753    -7723    -7692    -7663    -7654    -7642    -7622    -7616 
   -7608    -7591    -7572    -7555    -7547    -7543    -7542    -7534 
   -7515    -7497    -7482    -7462    -7443    -7429    -7418    -7406 
   -7392    -7369    -7348    -7329    -7311    -7302    -7302    -7290 
   -7276    -7276    -7272    -7264    -7261    -7253    -7253    -7267 
   -7271    -7269    -7277    -7283    -7275    -7269    -7275    -7285 
   -7294    -7300    -7307    -7307    -7310    -7322    -7322    -7318 
   -7329    -7334    -7340    -7357    -7376    -7393    -7408    -7418 
   -7431    -7447    -7468    -7499    -7520    -7531    -7553    -7573 
   -7585    -7603    -7612    -7624    -7643    -7655    -7668    -7677 
   -7685    -7700    -7712    -7723    -7740    -7749    -7755    -7770 
   -7777    -7780    -7786    -7789    -7793    -7803    -7807    -7804 
   -7803    -7808    -7809    -7808    -7809    -7815    -7821    -7830 
   -7838    -7858    -7875    -7882    -7893    -7908    -7921    -7940 
   -7959    -7977    -7998    -8016    -8028    -8043    -8063    -8082 
   -8106    -8139    -8167    -8181    -8197    -8217    -8235    -8260 
   -8289    -8305    -8313    -8328    -8341    -8349    -8365    -8383 
   -8394    -8406    -8414    -8418    -8424    -8436    -8447    -8454 
   -8451    -8449    -8457    -8464    -8464    -8464    -8464    -8464 
   -8467    -8471    -8471    -8467    -8461    -8451    -8440    -8436 
   -8428    -8418    -8410    -8403    -8394    -8390    -8384    -8378 
   -8374    -8367    -8364    -8365    -8357    -8340    -8326    -8316 
   -8301    -8283    -8266    -8241    -8214    -8193    -8170    -8139 
   -8120    -8095    -8055    -8021    -8001    -7979    -7954    -7931 
   -7912    -7898    -7878    -7854    -7844    -7835    -7819    -7812 
   -7807    -7799    -7796    -7785    -7773    -7765    -7765    -7766 
   -7758    -7754    -7761    -7761    -7759    -7766    -7774    -7781 
   -7789    -7805    -7823    -7836    -7848    -7862    -7873    -7898 
   -7931    -7946    -7960    -7985    -8006    -8032    -8060    -8087 
   -8118    -8141    -8160    -8179    -8202    -8233    -8264    -8294 
   -8324    -8352    -8376    -8390    -8414    -8451    -8483    -8509 
   -8533    -8553    -8579    -8606    -8622    -8637    -8658    -8677 
   -8691    -8704    -8723    -8735    -8739    -8748    -8756    -8758 
   -8768    -8770    -8769    -8772    -8769    -8762    -8760    -8758 
   -8757    -8738    -8711    -8711    -8711    -8687    -8672    -8667 
   -8646    -8619    -8598    -8579    -8563    -8543    -8523    -8487 
   -8447    -8414    -8380    -8348    -8317    -8286    -8245    -8197 
   -8152    -8116    -8073    -8025    -7987    -7950    -7903    -7858 
   -7817    -7784    -7746    -7703    -7674    -7635    -7586    -7560 
   -7535    -7507    -7488    -7462    -7434    -7415    -7398    -7377 
   -7366    -7369    -7376    -7368    -7356    -7358    -7357    -7350 
   -7360    -7375    -7385    -7393    -7398    -7403    -7420    -7441 
   -7460    -7480    -7504    -7523    -7537    -7558    -7580    -7599 
   -7626    -7657    -7677    -7681    -7697    -7730    -7758    -7784 
   -7813    -7846    -7871    -7890    -7923    -7962    -7997    -8033 
   -8071    -8109    -8143    -8163    -8185    -8225    -8264    -8297 
   -8332    -8361    -8388    -8417    -8440    -8464    -8496    -8520 
   -8542    -8563    -8576    -8586    -8587    -8591    -8606    -8612 
   -8610    -8611    -8611    -8600    -8587    -8576    -8564    -8550 
   -8533    -8509    -8480    -8459    -8437    -8418    -8394    -8364 
   -8334    -8311    -8289    -8264    -8245    -8225    -8194    -8163 
   -8135    -8102    -8078    -8062    -8035    -8006    -7978    -7946 
   -7913    -7877    -7843    -7819    -7788    -7746    -7712    -7681 
   -7642    -7608    -7580    -7543    -7499    -7458    -7426    -7395 
   -7356    -7315    -7287    -7253    -7209    -7173    -7156    -7130 
   -7082    -7045    -7030    -7005    -6979    -6970    -6948    -6922 
   -6910    -6898    -6890    -6895    -6899    -6897    -6901    -6909 
   -6914    -6922    -6944    -6972    -6997    -7018    -7037    -7060 
   -7084    -7102    -7122    -7155    -7180    -7196    -7218    -7234 
   -7250    -7280    -7304    -7322    -7348    -7378    -7403    -7423 
   -7449    -7484    -7515    -7545    -7581    -7622    -7661    -7693 
   -7728    -7777    -7823    -7857    -7894    -7947    -8001    -8048 
   -8105    -8156    -8190    -8233    -8298    -8355    -8406    -8463 
   -8513    -8545    -8583    -8631    -8676    -8706    -8733    -8758 
   -8779    -8796    -8818    -8833    -8842    -8847    -8847    -8839 
   -8826    -8812    -8806    -8795    -8776    -8754    -8729    -8700 
   -8683    -8660    -8627    -8600    -8573    -8548    -8523    -8487 
   -8459    -8437    -8408    -8378    -8348    -8324    -8309    -8284 
   -8259    -8235    -8201    -8172    -8159    -8148    -8135    -8111 
   -8086    -8075    -8070    -8058    -8043    -8029    -8023    -8010 
   -8009    -8020    -8023    -8019    -8013    -8004    -8001    -8020 
   -8039    -8043    -8044    -8052    -8055    -8054    -8071    -8102 
   -8125    -8141    -8156    -8164    -8170    -8195    -8240    -8279 
   -8306    -8324    -8337    -8357    -8394    -8434    -8471    -8502 
   -8517    -8530    -8550    -8579    -8602    -8618    -8629    -8625 
   -8612    -8618    -8630    -8633    -8618    -8591    -8579    -8576 
   -8553    -8536    -8519    -8487    -8456    -8424    -8394    -8368 
   -8336    -8295    -8260    -8222    -8176    -8139    -8111    -8082 
   -8044    -8007    -7969    -7933    -7906    -7885    -7865    -7843 
   -7817    -7785    -7754    -7730    -7716    -7705    -7688    -7670 
   -7655    -7634    -7614    -7599    -7581    -7574    -7560    -7542 
   -7535    -7523    -7507    -7501    -7504    -7507    -7500    -7487 
   -7488    -7489    -7477    -7479    -7485    -7481    -7476    -7476 
   -7477    -7482    -7484    -7485    -7488    -7485    -7481    -7480 
   -7481    -7481    -7482    -7485    -7480    -7466    -7465    -7469 
   -7466    -7476    -7485    -7476    -7465    -7464    -7462    -7473 
   -7493    -7504    -7507    -7510    -7518    -7537    -7562    -7593 
   -7616    -7622    -7627    -7639    -7659    -7700    -7739    -7761 
   -7777    -7774    -7781    -7817    -7857    -7901    -7935    -7938 
   -7936    -7940    -7959    -8009    -8064    -8095    -8106    -8108 
   -8113    -8139    -8194    -8248    -8272    -8276    -8280    -8286 
   -8305    -8344    -8384    -8398    -8391    -8388    -8383    -8385 
   -8410    -8437    -8440    -8428    -8418    -8403    -8406    -8414 
   -8417    -8433    -8437    -8418    -8411    -8418    -8428    -8437 
   -8437    -8426    -8411    -8406    -8414    -8430    -8436    -8428 
   -8404    -8374    -8360    -8364    -8370    -8368    -8348    -8310 
   -8278    -8260    -8251    -8245    -8247    -8241    -8215    -8191 
   -8172    -8164    -8171    -8172    -8158    -8151    -8139    -8118 
   -8116    -8124    -8128    -8120    -8108    -8101    -8101    -8111 
   -8128    -8128    -8114    -8097    -8087    -8094    -8114    -8139 
   -8155    -8148    -8132    -8114    -8116    -8141    -8163    -8171 
   -8171    -8164    -8170    -8176    -8182    -8203    -8221    -8222 
   -8224    -8226    -8236    -8251    -8257    -8268    -8278    -8275 
   -8274    -8279    -8295    -8318    -8332    -8334    -8329    -8324 
   -8324    -8334    -8352    -8359    -8356    -8356    -8349    -8340 
   -8340    -8345    -8352    -8347    -8340    -8344    -8343    -8329 
   -8316    -8306    -8302    -8302    -8302    -8294    -8276    -8268 
   -8263    -8248    -8248    -8259    -8262    -8268    -8274    -8278 
   -8289    -8299    -8314    -8333    -8352    -8371    -8388    -8414 
   -8433    -8444    -8473    -8500    -8507    -8519    -8526    -8520 
   -8529    -8546    -8543    -8529    -8519    -8502    -8474    -8460 
   -8451    -8431    -8398    -8356    -8313    -8272    -8228    -8187 
   -8147    -8090    -8031    -7974    -7915    -7859    -7804    -7742 
   -7677    -7609    -7539    -7470    -7402    -7337    -7267    -7192 
   -7127    -7067    -6999    -6943    -6897    -6845    -6793    -6741 
   -6691    -6644    -6605    -6582    -6567    -6539    -6509    -6490 
   -6473    -6462    -6462    -6465    -6465    -6471    -6485    -6501 
   -6520    -6543    -6569    -6604    -6637    -6666    -6706    -6759 
   -6810    -6853    -6898    -6952    -7010    -7060    -7119    -7183 
   -7241    -7296    -7350    -7400    -7454    -7518    -7588    -7650 
   -7705    -7763    -7816    -7870    -7931    -7989    -8048    -8105 
   -8155    -8199    -8244    -8294    -8344    -8387    -8430    -8472 
   -8509    -8545    -8581    -8617    -8658    -8702    -8737    -8766 
   -8791    -8823    -8868    -8907    -8941    -8972    -9007    -9038 
   -9065    -9101    -9147    -9184    -9207    -9229    -9256    -9285 
   -9302    -9320    -9342    -9355    -9358    -9364    -9362    -9348 
   -9343    -9339    -9327    -9310    -9285    -9254    -9232    -9220 
   -9196    -9171    -9151    -9120    -9082    -9055    -9032    -9004 
   -8980    -8951    -8914    -8876    -8843    -8811    -8779    -8745 
   -8715    -8688    -8650    -8611    -8579    -8553    -8530    -8502 
   -8474    -8444    -8413    -8388    -8378    -8361    -8345    -8333 
   -8314    -8291    -8279    -8271    -8260    -8248    -8236    -8230 
   -8226    -8215    -8201    -8191    -8187    -8181    -8171    -8163 
   -8154    -8137    -8118    -8111    -8105    -8086    -8064    -8050 
   -8039    -8027    -8010    -7992    -7973    -7958    -7943    -7924 
   -7906    -7892    -7878    -7863    -7850    -7836    -7820    -7807 
   -7789    -7770    -7763    -7751    -7728    -7717    -7707    -7685 
   -7676    -7676    -7666    -7650    -7646    -7649    -7643    -7632 
   -7626    -7622    -7622    -7623    -7614    -7604    -7599    -7597 
   -7592    -7592    -7595    -7588    -7580    -7577    -7574    -7573 
   -7574    -7568    -7557    -7551    -7545    -7527    -7507    -7489 
   -7470    -7450    -7429    -7406    -7376    -7344    -7312    -7275 
   -7233    -7198    -7163    -7119    -7083    -7047    -7006    -6967 
   -6932    -6898    -6870    -6847    -6825    -6801    -6779    -6759 
   -6743    -6728    -6713    -6705    -6698    -6689    -6678    -6669 
   -6666    -6666    -6658    -6663    -6671    -6669    -6677    -6691 
   -6694    -6698    -6709    -6721    -6736    -6748    -6758    -6771 
   -6779    -6790    -6806    -6818    -6832    -6845    -6851    -6859 
   -6870    -6876    -6880    -6886    -6898    -6898    -6899    -6909 
   -6903    -6893    -6899    -6902    -6886    -6878    -6886    -6883 
   -6875    -6875    -6879    -6881    -6883    -6889    -6901    -6907 
   -6919    -6943    -6963    -6979    -7005    -7030    -7060    -7094 
   -7125    -7155    -7191    -7231    -7269    -7300    -7334    -7383 
   -7427    -7460    -7497    -7543    -7592    -7632    -7668    -7708 
   -7749    -7789    -7836    -7886    -7925    -7955    -7994    -8035 
   -8071    -8105    -8136    -8163    -8194    -8221    -8244    -8264 
   -8283    -8297    -8307    -8324    -8336    -8343    -8347    -8344 
   -8340    -8341    -8341    -8332    -8319    -8310    -8301    -8290 
   -8274    -8253    -8241    -8230    -8209    -8190    -8177    -8159 
   -8139    -8124    -8105    -8090    -8078    -8063    -8047    -8035 
   -8029    -8023    -8013    -8012    -8005    -7990    -7981    -7978 
   -7977    -7966    -7947    -7936    -7929    -7913    -7894    -7881 
   -7870    -7851    -7830    -7815    -7798    -7773    -7755    -7743 
   -7726    -7709    -7696    -7674    -7652    -7638    -7624    -7608 
   -7591    -7576    -7568    -7561    -7545    -7531    -7526    -7520 
   -7514    -7512    -7514    -7515    -7519    -7519    -7520    -7528 
   -7539    -7553    -7566    -7574    -7588    -7604    -7616    -7634 
   -7661    -7689    -7712    -7735    -7761    -7788    -7809    -7838 
   -7870    -7896    -7921    -7955    -7985    -8004    -8023    -8054 
   -8082    -8104    -8129    -8152    -8171    -8189    -8212    -8237 
   -8248    -8257    -8276    -8280    -8281    -8299    -8307    -8298 
   -8295    -8301    -8297    -8289    -8280    -8272    -8264    -8256 
   -8244    -8229    -8214    -8202    -8189    -8168    -8147    -8128 
   -8098    -8066    -8039    -8010    -7979    -7950    -7915    -7877 
   -7832    -7789    -7763    -7723    -7678    -7643    -7604    -7562 
   -7530    -7492    -7458    -7435    -7403    -7372    -7350    -7322 
   -7299    -7291    -7273    -7254    -7254    -7248    -7233    -7234 
   -7238    -7238    -7242    -7248    -7254    -7267    -7275    -7277 
   -7292    -7306    -7312    -7329    -7340    -7344    -7349    -7358 
   -7366    -7373    -7376    -7378    -7385    -7392    -7392    -7393 
   -7393    -7384    -7380    -7384    -7384    -7385    -7385    -7384 
   -7391    -7399    -7408    -7416    -7426    -7443    -7457    -7465 
   -7487    -7510    -7527    -7553    -7578    -7601    -7628    -7657 
   -7682    -7707    -7734    -7755    -7776    -7801    -7827    -7848 
   -7862    -7874    -7893    -7908    -7912    -7913    -7924    -7929 
   -7923    -7917    -7913    -7902    -7896    -7889    -7877    -7859 
   -7846    -7827    -7801    -7782    -7765    -7742    -7720    -7695 
   -7668    -7652    -7638    -7612    -7591    -7577    -7561    -7541 
   -7518    -7506    -7504    -7496    -7480    -7469    -7465    -7461 
   -7461    -7465    -7464    -7466    -7477    -7489    -7495    -7500 
   -7515    -7531    -7542    -7558    -7574    -7591    -7609    -7619 
   -7630    -7647    -7662    -7676    -7685    -7690    -7699    -7701 
   -7705    -7717    -7720    -7713    -7716    -7719    -7716    -7722 
   -7723    -7719    -7717    -7716    -7720    -7727    -7731    -7734 
   -7730    -7726    -7731    -7734    -7738    -7750    -7750    -7747 
   -7763    -7774    -7771    -7782    -7793    -7796    -7805    -7819 
   -7824    -7831    -7839    -7847    -7859    -7867    -7874    -7888 
