Origin Time       2016/04/16 01:25:00
Lat.              32.753
Long.             130.762
Depth. (km)       12
Mag.              7.3
Station Code      SIG012
Station Lat.      34.9043
Station Long.     136.2307
Station Height(m) 230
Record Time       2016/04/16 01:28:01
Sampling Freq(Hz) 100Hz
Duration Time(s)  60
Dir.              E-W
Scale Factor      7845(gal)/8223790
Max. Acc. (gal)   1.604
Last Correction   2016/04/16 01:28:02
Memo.             
[...]
     545      526      508      495      480      461      444      429 
     413      395      383      369      352      336      325      309 
     291      278      261      246      233      216      194      175 
     153      128      105       83       56       29        4      -20 
     -44      -67      -89     -109     -128     -144     -160     -170 
    -176     -178     -178     -176     -171     -163     -153     -144 
    -135     -122     -109      -95      -83      -76      -71      -63 
     -54      -47      -44      -41      -40      -41      -44      -43 
     -39      -36      -29      -17       -8        5       22       40 
      55       75       99      122      144      167      193      217 
     236      259      287      311      334      359      383      407 
     425      442      456      467      477      486      491      495 
     498      503      506      508      511      513      510      510 
     511      508      503      498      491      483      476      468 
     460      454      449      445      445      441      437      437 
     437      433      436      441      442      445      449      450 
     454      459      457      459      464      468      471      479 
     486      491      496      502      506      514      523      529 
     530      533      538      544      549      544      538      546 
     552      552      556      564      566      565      568      569 
     568      571      572      565      558      552      540      530 
     515      498      484      469      454      442      430      415 
     403      392      383      376      367      359      355      344 
     337      333      321      311      305      297      284      272 
     257      240      225      211      194      175      157      140 
     121      106       87       70       55       40       25       14 
       1      -10      -22      -36      -49      -59      -64      -71 
     -79      -85      -94     -101     -103     -112     -126     -133 
    -141     -157     -168     -178     -190     -205     -221     -233 
    -245     -259     -270     -280     -288     -291     -297     -298 
    -292     -287     -275     -261     -246     -225     -202     -180 
    -159     -135     -108      -78      -49      -16       21       58 
      94      133      175      217      259      301      341      383 
     422      459      490      519      548      568      584      602 
     616      623      631      641      643      643      645      646 
     643      639      637      633      622      615      611      604 
     595      588      585      577      569      569      566      561 
     556      553      552      550      549      545      538      533 
     526      517      508      500      492      479      463      449 
     436      421      407      399      387      378      375      372 
     368      368      370      379      387      392      400      410 
     415      422      429      433      436      437      440      438 
     434      430      425      422      415      407      398      383 
     367      349      333      317      297      280      263      245 
     229      216      199      186      178      163      144      131 
     120      102       83       64       47       29        8      -10 
     -28      -44      -58      -76      -97     -112     -128     -147 
    -163     -180     -194     -206     -224     -241     -253     -261 
    -272     -286     -301     -314     -325     -338     -352     -360 
    -368     -378     -387     -396     -402     -406     -410     -414 
    -419     -422     -418     -417     -415     -409     -399     -386 
    -373     -364     -342     -314     -291     -265     -234     -206 
    -176     -148     -120      -90      -62      -32       -1       32 
      65       98      135      172      211      253      295      341 
     386      425      468      510      552      591      625      661 
     695      718      741      767      788      799      814      828 
     832      831      834      831      822      816      807      793 
     781      769      754      741      726      714      702      684 
     670      662      654      643      633      625      618      612 
     607      602      596      592      587      579      568      558 
     553      546      531      521      515      503      487      475 
     467      457      446      433      419      402      378      355 
     336      310      284      263      238      209      184      156 
     125       97       68       40       16      -13      -40      -60 
     -81      -99     -121     -143     -157     -170     -186     -197 
    -201     -209     -217     -217     -212     -209     -199     -187 
    -174     -156     -133     -112      -90      -65      -41      -18 
       5       35       67       97      126      159      190      220 
     255      291      321      351      382      413      442      468 
     491      513      533      556      575      591      607      619 
     627      635      643      653      662      669      677      684 
     693      702      708      715      726      734      743      751 
     757      762      764      761      760      758      751      741 
     728      715      702      692      680      665      648      627 
     606      583      561      544      522      493      471      445 
     415      392      370      349      333      310      284      268 
     252      234      216      199      183      164      147      133 
     118      105       93       79       70       60       51       47 
      41       41       45       47       49       58       67       74 
      86      103      117      135      155      171      189      210 
     233      256      275      291      310      330      346      363 
     379      398      410      422      438      450      457      464 
     471      477      481      484      488      490      491      493 
     498      504      515      523      529      537      548      553 
     556      564      569      569      573      579      572      568 
     569      566      562      560      553      545      535      526 
     517      506      493      484      473      461      449      444 
     437      427      421      413      403      399      392      383 
     382      373      360      355      349      342      338      326 
     311      301      286      270      256      238      218      201 
     180      160      147      129      112       99       83       67 
      54       39       22        9       -4      -21      -37      -52 
     -64      -78      -90     -102     -112     -121     -124     -129 
    -133     -135     -137     -141     -141     -139     -137     -131 
    -128     -126     -122     -117     -108      -97      -93      -90 
     -78      -65      -56      -41      -25       -8       10       32 
      63       95      129      170      214      259      310      361 
     413      473      537      598      660      726      792      857 
     923      987     1055     1116     1174     1237     1296     1348 
    1401     1448     1486     1522     1559     1584     1601     1617 
    1632     1638     1640     1637     1632     1622     1606     1595 
    1583     1564     1548     1535     1518     1499     1485     1468 
    1449     1433     1420     1402     1382     1367     1354     1340 
    1318     1294     1274     1251     1225     1197     1167     1136 
    1104     1067     1031      993      957      920      880      838 
     803      765      722      677      637      598      553      510 
     468      429      392      353      314      282      249      217 
     191      163      137      118       98       76       63       52 
      40       31       27       21       11        5        8        5 
       2        4        2       -2       -8      -16      -23      -28 
     -35      -47      -54      -60      -74      -83      -89      -94 
     -98     -103     -105     -103     -103     -101      -97      -93 
     -90      -86      -79      -67      -55      -44      -31      -13 
       1       14       31       49       70       90      116      143 
     167      194      225      261      297      337      382      418 
     454      500      544      581      619      656      689      722 
     757      788      815      838      864      888      912      934 
     953      970      990     1005     1013     1024     1032     1039 
    1047     1051     1053     1053     1055     1050     1042     1036 
    1031     1020     1005      992      976      961      942      918 
     893      869      842      816      789      760      730      700 
     666      629      595      560      522      486      448      409 
     375      340      301      263      230      193      155      125 
      90       52       23       -4      -32      -58      -76      -97 
    -112     -121     -133     -139     -137     -136     -131     -126 
    -116     -102      -90      -75      -58      -40      -23       -2 
      20       37       55       78      101      124      147      171 
     195      221      249      283      315      348      383      422 
     460      496      540      579      619      665      708      747 
     789      828      864      899      932      962      990     1015 
    1036     1055     1069     1078     1090     1101     1105     1105 
    1109     1113     1112     1116     1121     1121     1121     1124 
    1127     1131     1136     1140     1143     1148     1155     1162 
    1170     1177     1185     1194     1201     1212     1224     1230 
    1239     1246     1251     1260     1270     1275     1286     1297 
    1302     1312     1321     1324     1328     1332     1329     1325 
    1324     1318     1308     1294     1285     1274     1252     1230 
    1213     1192     1166     1146     1123     1098     1071     1039 
    1008      978      945      912      881      847      811      772 
     730      692      653      610      569      526      479      433 
     390      344      301      259      220      183      144      108 
      74       47       17      -10      -31      -49      -67      -83 
     -94     -102     -110     -118     -122     -124     -126     -129 
    -136     -137     -140     -144     -159     -170     -178     -191 
    -210     -225     -245     -268     -292     -315     -340     -367 
    -398     -425     -454     -490     -521     -550     -583     -612 
    -639     -668     -693     -715     -737     -756     -774     -793 
    -805     -816     -832     -847     -857     -868     -881     -896 
    -908     -916     -928     -940     -949     -961     -973     -986 
   -1000    -1013    -1026    -1042    -1055    -1067    -1080    -1088 
   -1094    -1097    -1098    -1102    -1102    -1094    -1089    -1084 
   -1071    -1059    -1051    -1038    -1019    -1004     -989     -976 
    -962     -947     -929     -912     -896     -877     -864     -853 
    -841     -828     -819     -804     -789     -778     -765     -743 
    -718     -696     -672     -637     -600     -560     -515     -469 
    -422     -372     -322     -268     -214     -162     -108      -55 
      -2       51      102      151      199      246      289      329 
     369      411      449      481      514      544      572      602 
     631      658      683      710      735      757      783      804 
     822      842      858      873      890      903      913      927 
     936      946      955      958      962      969      973      976 
     980      986      990      994     1003     1011     1017     1023 
    1032     1044     1053     1059     1071     1081     1086     1094 
    1098     1100     1105     1109     1104     1100     1096     1088 
    1081     1077     1063     1050     1039     1023     1004      985 
     967      953      934      912      896      880      862      849 
     837      822      812      801      789      781      774      762 
     747      737      728      715      706      697      683      669 
     660      650      637      623      611      594      573      557 
     542      526      510      493      473      451      433      413 
     390      368      344      322      299      278      257      237 
     216      195      180      168      156      144      136      129 
     125      120      120      118      121      125      129      133 
     140      144      151      157      166      171      170      172 
     178      176      174      174      172      170      168      167 
     167      166      163      163      166      170      175      180 
     189      202      217      229      248      275      299      318 
     342      373      403      430      456      484      514      542 
     565      585      606      626      641      648      653      658 
     658      657      652      642      630      610      585      568 
     546      515      484      457      425      386      346      309 
     270      230      190      144       97       54        9      -36 
     -82     -129     -178     -225     -275     -321     -368     -417 
    -464     -508     -549     -594     -637     -676     -715     -757 
    -796     -835     -872     -908     -945     -978    -1012    -1046 
   -1077    -1105    -1139    -1167    -1192    -1219    -1244    -1266 
   -1285    -1305    -1323    -1336    -1348    -1360    -1367    -1371 
   -1370    -1360    -1354    -1347    -1332    -1312    -1290    -1266 
   -1237    -1202    -1162    -1119    -1071    -1021     -973     -916 
    -853     -796     -739     -675     -607     -545     -483     -414 
    -346     -280     -214     -151      -83      -11       52      116 
     182      243      303      364      419      471      522      568 
     608      652      688      719      749      776      797      818 
     835      849      857      864      870      872      866      859 
     853      843      834      823      811      796      778      764 
     753      741      727      715      707      699      695      695 
     692      691      695      700      702      707      712      720 
     728      735      743      749      751      754      756      757 
     758      757      750      741      737      728      715      707 
     697      681      660      639      622      603      581      561 
     540      518      492      469      451      433      414      395 
     369      346      330      313      292      275      259      238 
     217      195      175      157      141      128      110       89 
      68       54       39       23        9       -8      -23      -39 
     -52      -60      -71      -83      -89      -97     -106     -109 
    -112     -120     -121     -121     -125     -126     -125     -125 
    -121     -117     -112     -108     -105     -102      -93      -86 
     -81      -71      -62      -52      -43      -32      -23      -14 
       0       14       27       39       58       79       97      121 
     147      170      194      224      255      284      315      348 
     382      415      448      483      518      552      587      622 
     646      669      696      715      731      749      764      769 
     773      777      776      770      762      756      747      734 
     722      710      696      684      668      652      642      634 
     625      616      610      603      600      598      594      592 
     592      589      591      589      584      584      585      579 
     576      573      568      564      561      556      552      548 
     540      532      526      515      503      495      484      469 
     453      437      422      405      386      363      338      319 
     302      278      251      232      212      191      175      163 
     148      137      129      124      118      117      118      125 
     137      147      157      174      190      207      233      257 
     282      313      344      376      411      445      479      519 
     560      599      639      681      719      758      799      838 
     874      911      949      984     1013     1043     1071     1093 
    1111     1131     1143     1151     1158     1156     1152     1150 
    1138     1123     1109     1089     1062     1034     1003      970 
     932      895      855      812      769      726      680      631 
     587      542      498      451      407      364      322      280 
     237      195      157      117       76       39        4      -29 
     -62      -91     -121     -151     -182     -211     -237     -263 
    -291     -315     -337     -359     -375     -392     -413     -427 
    -440     -456     -468     -477     -488     -498     -504     -513 
    -517     -521     -525     -521     -517     -514     -508     -498 
    -483     -467     -445     -422     -394     -364     -334     -301 
    -261     -222     -186     -144     -102      -64      -21       23 
      70      116      160      202      248      292      333      375 
     417      449      480      514      542      566      589      610 
     631      646      654      662      669      672      676      680 
     681      677      670      664      660      652      642      633 
     622      610      600      589      579      568      553      545 
     537      526      523      518      508      504      503      502 
     500      499      496      495      495      495      493      491 
     491      492      487      480      477      475      472      464 
     463      460      450      442      437      427      418      411 
     400      391      380      367      353      344      334      321 
     307      298      288      278      271      265      259      257 
     255      252      253      257      261      266      272      280 
     287      295      307      321      333      351      367      382 
     398      417      436      456      475      495      515      532 
     552      572      592      610      630      646      661      679 
     695      708      718      727      735      745      751      753 
     753      753      747      741      728      715      702      685 
     664      643      621      594      566      540      510      479 
     451      425      398      370      344      321      299      275 
     252      236      218      198      186      175      160      152 
     147      136      131      128      126      133      136      139 
     149      160      170      183      198      214      236      257 
     276      299      324      344      368      392      415      441 
     463      481      502      522      540      553      571      584 
     594      603      612      621      626      631      637      642 
     648      650      652      657      662      665      665      665 
     665      662      660      658      656      650      643      638 
     626      615      607      600      591      581      571      560 
     552      542      526      521      515      504      493      486 
     477      468      454      444      438      422      405      392 
     375      357      344      328      314      305      291      278 
