Origin Time       2016/04/16 01:25:00
Lat.              32.753
Long.             130.762
Depth. (km)       12
Mag.              7.3
Station Code      SIG010
Station Lat.      34.9718
Station Long.     135.8965
Station Height(m) 110
Record Time       2016/04/16 01:27:43
Sampling Freq(Hz) 100Hz
Duration Time(s)  67
Dir.              E-W
Scale Factor      7845(gal)/8223790
Max. Acc. (gal)   1.402
Last Correction   2016/04/16 01:27:44
Memo.             
[...]
    5060     5051     5039     5043     5047     5030     5003     4985 
    4956     4920     4907     4891     4847     4807     4774     4737 
    4714     4704     4680     4641     4602     4568     4546     4533 
    4519     4504     4492     4479     4459     4437     4433     4425 
    4407     4406     4407     4393     4382     4371     4356     4344 
    4338     4341     4341     4311     4279     4271     4270     4258 
    4248     4232     4202     4182     4192     4192     4164     4153 
    4158     4149     4136     4129     4131     4137     4139     4136 
    4140     4158     4178     4187     4189     4199     4223     4253 
    4291     4340     4382     4402     4434     4488     4534     4584 
    4648     4702     4747     4792     4834     4881     4931     4980 
    5035     5085     5121     5150     5178     5202     5220     5243 
    5270     5293     5309     5317     5312     5309     5321     5341 
    5355     5358     5358     5354     5339     5333     5341     5350 
    5346     5339     5339     5335     5328     5328     5323     5308 
    5297     5287     5275     5265     5248     5225     5212     5200 
    5171     5134     5105     5084     5055     5023     4992     4954 
    4918     4896     4865     4823     4793     4777     4752     4718 
    4695     4680     4672     4666     4650     4633     4630     4633 
    4627     4621     4617     4619     4619     4619     4635     4653 
    4650     4639     4633     4630     4634     4635     4625     4615 
    4606     4595     4585     4580     4573     4560     4544     4529 
    4515     4509     4509     4517     4523     4527     4534     4549 
    4568     4587     4611     4645     4671     4687     4710     4747 
    4793     4828     4850     4882     4912     4932     4972     5011 
    5036     5082     5119     5123     5144     5189     5217     5238 
    5268     5287     5300     5320     5329     5329     5341     5352 
    5348     5344     5339     5323     5313     5317     5298     5262 
    5240     5229     5209     5179     5161     5154     5134     5104 
    5080     5049     5020     5013     5001     4985     4977     4958 
    4934     4922     4909     4893     4892     4896     4877     4855 
    4851     4843     4837     4835     4827     4823     4823     4818 
    4820     4831     4831     4828     4837     4854     4878     4892 
    4900     4923     4941     4954     4981     5007     5027     5060 
    5085     5096     5124     5162     5190     5228     5275     5312 
    5332     5362     5409     5447     5481     5524     5547     5552 
    5582     5611     5617     5625     5637     5629     5618     5614 
    5585     5547     5530     5501     5443     5400     5354     5285 
    5220     5161     5092     5027     4958     4887     4812     4733 
    4662     4594     4517     4455     4402     4332     4268     4217 
    4159     4104     4055     4013     3969     3939     3913     3869 
    3836     3823     3796     3778     3778     3765     3744     3738 
    3734     3713     3703     3705     3701     3696     3697     3696 
    3699     3704     3701     3701     3701     3704     3712     3721 
    3730     3730     3713     3711     3728     3736     3732     3735 
    3738     3738     3750     3770     3784     3793     3812     3836 
    3871     3920     3958     3986     4025     4072     4120     4180 
    4253     4318     4375     4440     4498     4557     4649     4743 
    4811     4881     4961     5027     5093     5171     5239     5283 
    5335     5397     5447     5485     5521     5557     5590     5621 
    5641     5649     5659     5676     5678     5670     5672     5667 
    5648     5632     5618     5605     5589     5560     5533     5510 
    5478     5448     5428     5405     5377     5348     5320     5296 
    5268     5243     5225     5208     5186     5171     5158     5134 
    5119     5123     5123     5109     5093     5081     5070     5069 
    5065     5053     5032     5011     4996     4986     4970     4949 
    4922     4893     4878     4864     4833     4795     4756     4716 
    4693     4671     4633     4598     4557     4504     4473     4455 
    4414     4372     4349     4317     4274     4241     4218     4190 
    4170     4156     4122     4085     4069     4063     4048     4029 
    4016     4014     4020     4021     4023     4028     4036     4050 
    4063     4083     4107     4133     4172     4215     4238     4266 
    4311     4348     4383     4418     4449     4488     4537     4572 
    4600     4631     4646     4656     4685     4716     4731     4747 
    4768     4781     4801     4822     4828     4841     4860     4880 
    4911     4938     4950     4965     4984     4993     5001     5027 
    5049     5055     5080     5107     5089     5080     5093     5084 
    5081     5100     5101     5086     5071     5063     5062     5046 
    5036     5044     5042     5036     5038     5027     5026     5043 
    5055     5057     5057     5059     5066     5071     5063     5058 
    5070     5058     5017     4999     4997     4982     4959     4928 
    4891     4864     4841     4812     4776     4743     4719     4698 
    4681     4673     4668     4668     4673     4671     4661     4665 
    4691     4715     4729     4750     4773     4795     4816     4830 
    4847     4884     4912     4918     4930     4951     4965     4973 
    4976     4976     4978     4981     4985     4993     4996     4994 
    4988     4984     4992     4996     4988     4989     4994     4986 
    4982     4986     4989     4986     4970     4968     4980     4972 
    4959     4963     4965     4963     4956     4930     4901     4891 
    4892     4889     4880     4852     4804     4760     4737     4726 
    4706     4658     4595     4550     4519     4490     4476     4453 
    4399     4351     4329     4315     4305     4294     4282     4266 
    4243     4236     4238     4233     4241     4248     4233     4225 
    4248     4275     4283     4283     4291     4302     4318     4341 
    4363     4387     4411     4434     4468     4499     4523     4557 
    4583     4604     4641     4668     4683     4703     4726     4746 
    4769     4792     4811     4834     4857     4873     4888     4904 
    4912     4918     4945     4989     5017     5024     5038     5057 
    5076     5103     5131     5161     5179     5194     5219     5242 
    5251     5262     5271     5281     5292     5297     5313     5336 
    5337     5320     5308     5305     5302     5298     5298     5286 
    5260     5239     5219     5198     5192     5175     5146     5121 
    5088     5046     5027     5011     4965     4923     4897     4854 
    4808     4784     4757     4720     4693     4666     4633     4602 
    4575     4548     4529     4518     4502     4476     4452     4436 
    4419     4398     4374     4360     4347     4318     4298     4289 
    4283     4294     4307     4301     4301     4317     4327     4344 
    4371     4398     4423     4453     4477     4499     4530     4556 
    4576     4610     4642     4660     4679     4693     4687     4681 
    4685     4685     4692     4703     4707     4693     4669     4656 
    4650     4633     4612     4600     4584     4568     4560     4568 
    4577     4577     4568     4567     4571     4579     4583     4591 
    4618     4639     4644     4645     4657     4671     4679     4685 
    4696     4699     4695     4688     4680     4677     4675     4665 
    4654     4645     4638     4639     4634     4625     4619     4618 
    4619     4631     4644     4645     4644     4645     4660     4685 
    4699     4704     4719     4737     4747     4772     4797     4807 
    4827     4864     4888     4901     4928     4961     4978     5005 
    5046     5076     5100     5138     5167     5188     5217     5246 
    5268     5309     5354     5374     5394     5425     5448     5464 
    5486     5503     5518     5532     5530     5525     5530     5526 
    5505     5491     5483     5468     5445     5413     5382     5362 
    5333     5292     5251     5216     5179     5138     5104     5074 
    5031     4976     4927     4884     4845     4810     4772     4730 
    4684     4642     4608     4573     4531     4494     4464     4440 
    4411     4387     4360     4327     4299     4279     4271     4266 
    4251     4243     4245     4247     4243     4236     4228     4236 
    4245     4251     4271     4280     4263     4258     4266     4276 
    4293     4299     4303     4315     4314     4314     4330     4345 
    4356     4368     4376     4379     4391     4425     4455     4459 
    4464     4498     4537     4563     4588     4626     4662     4693 
    4733     4783     4826     4858     4900     4955     5016     5071 
    5120     5166     5212     5254     5305     5368     5417     5447 
    5481     5514     5549     5584     5616     5633     5641     5645 
    5645     5644     5645     5638     5622     5605     5580     5552 
    5535     5518     5489     5459     5454     5448     5424     5395 
    5374     5355     5347     5352     5352     5347     5344     5348 
    5356     5367     5381     5390     5397     5421     5443     5441 
    5440     5455     5456     5448     5454     5443     5424     5418 
    5410     5389     5379     5368     5336     5300     5271     5246 
    5215     5186     5163     5128     5086     5054     5011     4963 
    4935     4904     4857     4816     4783     4742     4698     4661 
    4625     4579     4548     4523     4476     4434     4410     4374 
    4332     4303     4268     4225     4197     4180     4159     4140 
    4121     4102     4087     4072     4054     4045     4059     4067 
    4067     4086     4104     4106     4128     4163     4191     4225 
    4266     4309     4344     4378     4422     4464     4502     4548 
    4598     4645     4699     4752     4787     4826     4884     4932 
    4968     5016     5069     5109     5148     5194     5231     5256 
    5298     5341     5362     5382     5414     5447     5472     5493 
    5513     5532     5541     5552     5572     5582     5587     5603 
    5616     5617     5617     5616     5618     5618     5607     5610 
    5620     5610     5594     5597     5601     5590     5583     5580 
    5570     5564     5575     5583     5571     5556     5552     5556 
    5552     5545     5529     5513     5505     5494     5483     5475 
    5452     5425     5414     5406     5389     5370     5358     5347 
    5332     5321     5319     5309     5293     5292     5297     5292 
    5285     5283     5289     5306     5323     5323     5321     5336 
    5356     5370     5390     5416     5437     5458     5476     5495 
    5519     5552     5589     5613     5632     5656     5683     5709 
    5730     5753     5783     5811     5831     5853     5872     5886 
    5902     5918     5931     5944     5944     5946     5958     5960 
    5956     5953     5950     5946     5935     5917     5898     5879 
    5854     5825     5792     5760     5724     5684     5647     5606 
    5552     5502     5467     5432     5379     5331     5293     5248 
    5204     5162     5123     5085     5050     5013     4978     4953 
    4923     4887     4857     4835     4804     4776     4764     4738 
    4700     4683     4665     4631     4603     4577     4545     4525 
    4509     4488     4468     4441     4406     4378     4363     4353 
    4338     4317     4299     4294     4288     4279     4271     4268 
    4275     4291     4311     4322     4330     4352     4379     4405 
    4438     4469     4500     4540     4577     4612     4653     4689 
    4725     4773     4823     4861     4908     4963     4997     5034 
    5088     5130     5155     5184     5217     5258     5298     5335 
    5375     5410     5429     5451     5491     5536     5567     5589 
    5620     5661     5699     5736     5772     5803     5823     5837 
    5863     5902     5923     5942     5972     5985     5988     5991 
    5979     5967     5960     5945     5923     5899     5867     5826 
    5778     5719     5659     5602     5555     5503     5436     5373 
    5320     5248     5169     5111     5060     4999     4941     4896 
    4854     4812     4773     4739     4714     4684     4648     4625 
    4615     4600     4585     4581     4573     4550     4535     4535 
    4531     4517     4509     4496     4473     4453     4434     4410 
    4382     4355     4327     4299     4280     4256     4220     4190 
    4152     4109     4081     4052     4014     3987     3973     3955 
    3929     3905     3883     3869     3861     3852     3840     3831 
    3828     3824     3811     3807     3807     3788     3767     3761 
    3748     3727     3715     3709     3692     3674     3663     3646 
    3618     3596     3573     3554     3551     3550     3528     3511 
    3501     3484     3469     3470     3466     3454     3459     3472 
    3468     3466     3481     3488     3499     3530     3554     3565 
    3597     3643     3682     3728     3784     3835     3894     3956 
    4013     4090     4191     4284     4365     4460     4561     4654 
    4747     4860     4977     5077     5169     5273     5379     5474 
    5564     5645     5722     5806     5884     5948     6004     6056 
    6103     6150     6185     6204     6226     6250     6266     6276 
    6288     6299     6295     6285     6281     6274     6251     6227 
    6214     6205     6188     6164     6124     6085     6064     6035 
    5988     5954     5926     5886     5849     5811     5763     5727 
    5698     5655     5617     5594     5556     5508     5468     5437 
    5401     5366     5335     5296     5260     5238     5208     5164 
    5125     5098     5067     5035     5015     5000     4968     4934 
    4905     4873     4845     4827     4804     4768     4737     4710 
    4681     4653     4626     4604     4581     4557     4540     4517 
    4482     4457     4437     4415     4403     4391     4376     4360 
    4341     4322     4315     4313     4303     4302     4303     4291 
    4280     4286     4282     4270     4271     4279     4278     4271 
    4263     4256     4266     4270     4260     4248     4233     4228 
    4223     4218     4220     4212     4194     4187     4186     4175 
    4158     4147     4140     4137     4144     4144     4124     4110 
    4112     4109     4113     4125     4126     4131     4148     4159 
    4158     4163     4185     4197     4215     4253     4270     4271 
    4297     4327     4345     4365     4386     4401     4423     4455 
    4471     4487     4525     4553     4564     4587     4615     4631 
    4650     4679     4699     4708     4730     4753     4753     4753 
    4764     4762     4762     4770     4761     4743     4742     4729 
    4692     4660     4639     4618     4594     4576     4549     4514 
    4488     4464     4422     4382     4365     4345     4305     4274 
    4256     4238     4213     4191     4170     4152     4151     4139 
    4113     4102     4101     4088     4083     4090     4085     4067 
    4068     4074     4066     4071     4079     4066     4055     4064 
    4072     4074     4071     4068     4074     4085     4086     4097 
    4113     4120     4128     4151     4174     4185     4192     4207 
    4223     4228     4236     4253     4263     4266     4276     4287 
    4291     4297     4295     4286     4279     4280     4280     4276 
    4271     4268     4256     4256     4251     4220     4197     4194 
    4189     4180     4182     4170     4143     4122     4112     4095 
    4081     4069     4058     4052     4052     4050     4041     4043 
    4052     4062     4082     4110     4136     4163     4202     4243 
    4271     4303     4355     4403     4448     4502     4556     4603 
    4664     4723     4769     4822     4884     4932     4976     5035 
    5093     5140     5194     5247     5285     5331     5383     5424 
    5454     5491     5536     5564     5594     5641     5670     5679 
    5707     5737     5748     5765     5791     5803     5813     5829 
    5840     5845     5861     5879     5883     5886     5898     5914 
    5926     5946     5962     5964     5968     5987     5996     5996 
    5998     6006     6014     6006     5985     5972     5964     5949 
    5926     5904     5886     5859     5825     5788     5744     5699 
    5664     5625     5572     5524     5485     5433     5374     5327 
    5273     5216     5174     5125     5065     5017     4973     4922 
    4881     4850     4804     4756     4723     4689     4648     4621 
    4596     4563     4535     4514     4477     4444     4426     4413 
    4395     4378     4344     4297     4270     4253     4217     4176 
    4151     4121     4077     4033     3997     3956     3910     3874 
    3848     3812     3766     3730     3693     3653     3634     3626 
    3600     3580     3573     3562     3558     3565     3568     3573 
    3589     3607     3624     3647     3672     3697     3735     3774 
    3801     3831     3869     3906     3942     3971     4002     4043 
    4077     4101     4128     4149     4168     4187     4190     4194 
    4210     4217     4215     4220     4215     4197     4197     4200 
    4182     4163     4152     4139     4129     4128     4114     4093 
    4081     4079     4072     4059     4047     4035     4024     4025 
    4031     4023     4017     4027     4023     4014     4025     4044 
    4059     4067     4077     4087     4102     4131     4159     4180 
    4212     4243     4270     4306     4344     4382     4421     4461 
    4498     4541     4590     4627     4660     4707     4758     4801 
    4838     4870     4905     4947     4989     5026     5057     5088 
    5119     5150     5177     5201     5227     5250     5271     5300 
    5317     5321     5329     5337     5339     5350     5355     5354 
    5355     5350     5336     5321     5302     5286     5278     5259 
    5232     5209     5179     5155     5136     5107     5074     5053 
    5030     5008     4994     4973     4949     4934     4918     4904 
    4892     4876     4865     4866     4864     4850     4842     4845 
    4846     4846     4849     4857     4864     4870     4878     4885 
    4893     4909     4918     4923     4938     4956     4968     4972 
    4980     4992     5001     5009     5020     5030     5034     5030 
    5032     5050     5055     5053     5062     5063     5054     5059 
    5071     5071     5070     5081     5090     5096     5104     5120 
    5143     5164     5179     5198     5224     5254     5283     5306 
    5332     5368     5398     5422     5455     5489     5516     5549 
    5580     5601     5626     5656     5683     5694     5699     5709 
    5718     5718     5717     5719     5714     5703     5698     5692 
    5680     5661     5640     5623     5613     5593     5572     5564 
    5548     5528     5517     5505     5493     5489     5486     5474 
    5456     5447     5445     5436     5420     5410     5401     5389 
    5382     5364     5339     5327     5310     5290     5279     5258 
    5224     5200     5184     5161     5134     5111     5086     5055 
