Origin Time       2016/04/16 01:25:00
Lat.              32.753
Long.             130.762
Depth. (km)       12
Mag.              7.3
Station Code      SIG002
Station Lat.      35.4215
Station Long.     136.0243
Station Height(m) 95
Record Time       2016/04/16 01:27:57
Sampling Freq(Hz) 100Hz
Duration Time(s)  60
Dir.              N-S
Scale Factor      7845(gal)/8223790
Max. Acc. (gal)   2.100
Last Correction   2016/04/16 01:27:58
Memo.             
[...]
   11758    11793    11838    11878    11911    11947    11989    12029 
   12077    12137    12206    12271    12324    12368    12420    12479 
   12538    12603    12668    12721    12771    12826    12874    12921 
   12976    13020    13057    13088    13111    13132    13155    13174 
   13186    13185    13176    13167    13161    13149    13139    13127 
   13096    13053    13028    13016    12997    12969    12943    12919 
   12883    12842    12822    12804    12779    12762    12745    12710 
   12673    12652    12627    12602    12586    12565    12533    12495 
   12463    12442    12428    12406    12384    12366    12344    12321 
   12303    12287    12283    12297    12291    12280    12285    12286 
   12283    12279    12278    12287    12297    12305    12320    12329 
   12332    12344    12348    12345    12363    12388    12403    12418 
   12418    12411    12420    12434    12447    12472    12496    12498 
   12487    12491    12507    12525    12548    12573    12587    12583 
   12579    12587    12600    12614    12636    12649    12652    12663 
   12672    12680    12695    12696    12692    12704    12715    12718 
   12726    12731    12735    12741    12734    12725    12726    12733 
   12742    12749    12750    12735    12712    12702    12700    12695 
   12683    12671    12656    12629    12598    12565    12532    12498 
   12464    12429    12401    12361    12310    12271    12235    12187 
   12145    12106    12069    12036    12004    11969    11935    11896 
   11854    11820    11797    11770    11746    11732    11715    11689 
   11666    11645    11627    11610    11596    11595    11593    11585 
   11576    11574    11569    11561    11569    11581    11578    11587 
   11611    11618    11618    11630    11647    11670    11696    11709 
   11726    11747    11757    11772    11805    11824    11827    11836 
   11854    11869    11884    11900    11913    11924    11927    11932 
   11942    11950    11961    11967    11967    11970    11974    11973 
   11970    11974    11980    11978    11973    11973    11966    11954 
   11947    11946    11944    11935    11920    11911    11893    11867 
   11854    11831    11799    11784    11776    11751    11724    11704 
   11678    11655    11641    11627    11614    11599    11584    11573 
   11566    11562    11560    11556    11556    11557    11560    11562 
   11570    11584    11581    11580    11599    11615    11616    11624 
   11641    11647    11650    11662    11677    11689    11699    11704 
   11713    11732    11743    11745    11757    11774    11784    11790 
   11803    11816    11820    11823    11831    11844    11857    11861 
   11863    11874    11884    11888    11892    11900    11913    11935 
   11947    11947    11962    11977    11980    11989    12000    12010 
   12017    12027    12040    12055    12070    12077    12085    12098 
   12100    12093    12096    12101    12100    12087    12082    12081 
   12070    12054    12032    12013    12002    11980    11951    11928 
   11904    11870    11836    11805    11767    11734    11701    11659 
   11618    11584    11547    11510    11468    11434    11411    11379 
   11344    11318    11292    11275    11263    11242    11230    11233 
   11230    11226    11230    11232    11233    11246    11259    11276 
   11307    11327    11341    11371    11403    11421    11452    11491 
   11515    11539    11566    11585    11604    11626    11643    11665 
   11688    11701    11712    11727    11742    11766    11786    11788 
   11792    11805    11812    11816    11827    11838    11848    11850 
   11847    11850    11861    11865    11873    11889    11893    11889 
   11885    11881    11884    11880    11869    11869    11875    11867 
   11850    11844    11848    11842    11838    11850    11857    11859 
   11869    11877    11881    11890    11900    11907    11920    11944 
   11956    11963    11982    12000    12016    12029    12035    12044 
   12062    12067    12063    12066    12069    12058    12044    12035 
   12024    12005    11985    11967    11947    11917    11886    11867 
   11836    11799    11769    11732    11688    11650    11619    11583 
   11541    11507    11476    11438    11407    11376    11340    11307 
   11280    11250    11222    11202    11176    11152    11129    11105 
   11090    11074    11048    11032    11026    11009    10987    10974 
   10960    10941    10924    10906    10891    10874    10851    10835 
   10818    10793    10766    10748    10733    10705    10682    10663 
   10635    10613    10597    10574    10555    10539    10516    10497 
   10482    10458    10435    10424    10408    10384    10372    10353 
   10324    10305    10295    10282    10263    10235    10211    10197 
   10176    10143    10123    10103    10069    10038    10014     9987 
    9957     9926     9904     9883     9860     9841     9821     9802 
    9795     9787     9767     9757     9759     9757     9759     9769 
    9776     9776     9782     9801     9822     9834     9849     9868 
    9877     9888     9909     9925     9936     9948     9957     9969 
    9979     9979     9981     9987     9994     9996     9989     9987 
    9992     9994     9988     9988     9992     9989     9981     9979 
    9984     9983     9975     9972     9979     9979     9967     9973 
    9985     9979     9975     9985    10000    10007    10010    10021 
   10034    10045    10065    10083    10099    10125    10142    10164 
   10199    10222    10237    10269    10305    10335    10357    10377 
   10408    10440    10465    10500    10536    10566    10594    10624 
   10662    10704    10735    10771    10813    10841    10871    10921 
   10963    10998    11044    11090    11126    11171    11219    11260 
   11313    11362    11400    11448    11497    11531    11564    11619 
   11672    11708    11746    11792    11838    11877    11913    11961 
   12005    12036    12073    12112    12141    12175    12216    12247 
   12283    12324    12353    12383    12418    12448    12468    12492 
   12525    12550    12561    12571    12587    12599    12602    12604 
   12609    12610    12604    12594    12587    12583    12568    12546 
   12537    12523    12496    12472    12447    12415    12388    12363 
   12336    12297    12263    12233    12195    12159    12128    12087 
   12046    12013    11979    11943    11904    11859    11824    11799 
   11757    11715    11685    11641    11591    11564    11533    11488 
   11450    11415    11373    11338    11298    11256    11225    11191 
   11151    11122    11087    11047    11021    10991    10948    10917 
   10895    10867    10844    10817    10783    10760    10741    10709 
   10686    10677    10658    10635    10631    10621    10600    10590 
   10584    10570    10569    10569    10561    10557    10561    10563 
   10565    10569    10577    10580    10584    10586    10600    10617 
   10624    10632    10651    10663    10673    10696    10716    10727 
   10747    10768    10787    10804    10814    10832    10854    10871 
   10893    10917    10929    10940    10967    10993    11007    11033 
   11062    11078    11095    11125    11155    11171    11187    11214 
   11237    11252    11267    11283    11296    11310    11318    11326 
   11331    11335    11338    11335    11327    11326    11322    11308 
   11294    11279    11264    11250    11227    11199    11178    11156 
   11122    11094    11075    11039    10995    10971    10947    10909 
   10876    10854    10829    10790    10755    10733    10705    10665 
   10636    10612    10582    10559    10531    10504    10489    10467 
   10449    10438    10431    10419    10408    10405    10404    10408 
   10415    10416    10420    10434    10446    10461    10481    10497 
   10511    10537    10566    10588    10617    10646    10670    10709 
   10744    10764    10801    10847    10876    10910    10959    11001 
   11034    11076    11128    11175    11211    11256    11308    11353 
   11398    11449    11487    11520    11569    11605    11632    11674 
   11708    11732    11759    11792    11813    11827    11851    11875 
   11888    11907    11931    11943    11959    11983    12008    12032 
   12046    12060    12096    12136    12159    12185    12225    12260 
   12287    12326    12378    12414    12439    12490    12548    12584 
   12625    12677    12726    12771    12825    12883    12931    12969 
   13015    13065    13108    13151    13197    13240    13277    13312 
   13346    13378    13410    13444    13475    13498    13521    13549 
   13568    13582    13598    13618    13629    13631    13640    13645 
   13639    13633    13631    13624    13609    13588    13576    13559 
   13532    13516    13498    13471    13441    13410    13386    13360 
   13323    13279    13244    13216    13177    13135    13096    13054 
   13014    12974    12930    12892    12855    12815    12777    12745 
   12713    12680    12638    12603    12581    12560    12528    12499 
   12478    12453    12424    12406    12399    12380    12359    12348 
   12336    12320    12312    12303    12290    12283    12278    12268 
   12260    12253    12245    12244    12247    12241    12243    12248 
   12241    12247    12259    12253    12260    12280    12280    12283 
   12305    12313    12313    12333    12351    12351    12361    12380 
   12382    12390    12415    12434    12439    12455    12474    12484 
   12494    12518    12541    12552    12565    12584    12602    12618 
   12634    12660    12680    12688    12700    12715    12727    12742 
   12756    12762    12766    12769    12766    12772    12781    12779 
   12773    12771    12760    12745    12738    12734    12723    12707 
   12692    12676    12658    12644    12623    12603    12595    12576 
   12542    12518    12496    12474    12445    12417    12391    12359 
   12326    12301    12268    12231    12210    12186    12147    12117 
   12089    12056    12025    12002    11978    11946    11917    11896 
   11871    11848    11830    11811    11789    11767    11759    11753 
   11732    11712    11700    11692    11682    11674    11670    11662 
   11654    11650    11650    11649    11645    11639    11642    11649 
   11655    11662    11668    11685    11705    11715    11727    11753 
   11774    11797    11830    11857    11875    11901    11927    11952 
   11983    12013    12039    12064    12087    12109    12136    12163 
   12183    12198    12213    12228    12241    12260    12272    12264 
   12268    12285    12278    12275    12285    12287    12290    12291 
   12291    12302    12301    12291    12301    12314    12321    12332 
   12348    12361    12367    12371    12390    12409    12420    12441 
   12464    12482    12505    12518    12529    12552    12577    12599 
   12626    12660    12688    12708    12735    12772    12808    12843 
   12887    12930    12972    13012    13047    13096    13151    13200 
   13258    13317    13358    13396    13444    13495    13544    13587 
   13626    13664    13702    13730    13755    13782    13806    13824 
   13845    13865    13868    13864    13865    13863    13853    13839 
   13824    13811    13799    13772    13740    13710    13671    13633 
   13595    13555    13512    13467    13423    13375    13325    13278 
   13224    13163    13109    13068    13018    12958    12904    12850 
   12793    12746    12700    12652    12603    12560    12519    12474 
   12424    12382    12344    12301    12258    12228    12202    12160 
   12117    12091    12071    12044    12020    12000    11979    11958 
   11936    11921    11909    11893    11880    11869    11855    11847 
   11843    11831    11823    11819    11808    11799    11790    11781 
   11778    11778    11772    11766    11762    11755    11747    11746 
   11746    11749    11750    11747    11751    11761    11762    11767 
   11782    11797    11807    11819    11832    11847    11861    11877 
   11904    11927    11934    11954    11989    12009    12027    12056 
   12081    12098    12122    12150    12172    12197    12218    12235 
   12253    12276    12295    12307    12324    12349    12367    12375 
   12396    12420    12434    12453    12467    12479    12499    12515 
   12523    12540    12552    12565    12583    12591    12602    12613 
   12621    12638    12649    12641    12646    12661    12653    12638 
   12646    12646    12625    12618    12614    12591    12567    12555 
   12533    12507    12487    12457    12425    12406    12383    12347 
   12316    12295    12260    12221    12206    12185    12141    12109 
   12083    12050    12019    11993    11958    11923    11896    11866 
   11827    11794    11770    11739    11705    11686    11661    11626 
   11599    11572    11546    11530    11504    11475    11457    11441 
   11419    11396    11376    11356    11330    11304    11292    11269 
   11233    11209    11194    11165    11132    11105    11076    11047 
   11017    10983    10952    10918    10872    10836    10809    10768 
   10731    10697    10650    10604    10571    10528    10478    10444 
   10411    10362    10323    10291    10249    10207    10170    10134 
   10096    10064    10031     9988     9952     9929     9898     9867 
    9837     9806     9780     9755     9725     9705     9690     9664 
    9640     9620     9602     9586     9568     9556     9553     9544 
    9530     9525     9520     9516     9520     9524     9528     9532 
    9536     9545     9556     9571     9586     9598     9621     9644 
    9661     9684     9709     9730     9756     9782     9803     9828 
    9855     9880     9903     9921     9949     9975     9991    10014 
   10037    10053    10073    10096    10116    10131    10146    10162 
   10173    10191    10204    10212    10227    10242    10249    10258 
   10272    10280    10291    10312    10326    10328    10341    10358 
   10366    10372    10388    10403    10409    10411    10415    10427 
   10438    10438    10438    10446    10454    10447    10446    10466 
   10473    10471    10485    10492    10489    10501    10517    10523 
   10531    10547    10569    10584    10597    10624    10648    10660 
   10689    10735    10759    10779    10813    10847    10882    10917 
   10956    11002    11034    11064    11111    11152    11181    11221 
   11265    11303    11334    11362    11399    11434    11455    11479 
   11508    11529    11547    11569    11578    11587    11601    11605 
   11607    11616    11616    11611    11608    11596    11584    11573 
   11553    11538    11530    11508    11483    11465    11441    11412 
   11392    11372    11346    11327    11306    11279    11263    11253 
   11236    11219    11211    11207    11195    11188    11191    11194 
   11192    11194    11207    11219    11226    11237    11253    11265 
   11283    11304    11323    11335    11349    11369    11394    11415 
   11439    11465    11485    11503    11523    11546    11569    11593 
   11620    11645    11668    11696    11723    11738    11759    11792 
   11816    11836    11870    11893    11904    11927    11950    11966 
   11988    12004    12013    12033    12055    12060    12075    12102 
   12112    12120    12137    12152    12159    12168    12183    12194 
   12206    12220    12231    12244    12249    12253    12262    12259 
   12251    12253    12258    12252    12247    12244    12233    12217 
   12209    12195    12178    12167    12152    12124    12101    12089 
   12064    12031    12015    11996    11958    11927    11902    11869 
   11828    11796    11770    11736    11693    11657    11627    11591 
   11547    11518    11488    11445    11407    11381    11346    11308 
   11276    11252    11227    11191    11159    11148    11136    11109 
   11086    11075    11061    11043    11034    11033    11024    11016 
   11020    11021    11016    11016    11020    11022    11026    11036 
   11041    11039    11047    11057    11060    11062    11075    11086 
   11090    11094    11098    11101    11105    11110    11113    11126 
   11140    11133    11130    11140    11145    11146    11153    11159 
   11160    11165    11167    11163    11171    11179    11178    11184 
   11187    11184    11191    11191    11187    11196    11194    11188 
   11194    11191    11183    11184    11183    11176    11171    11167 
   11175    11171    11152    11155    11156    11140    11129    11126 
   11124    11122    11118    11105    11091    11088    11087    11079 
   11075    11071    11062    11053    11048    11045    11044    11041 
   11037    11038    11038    11033    11036    11038    11039    11049 
   11055    11053    11061    11070    11078    11092    11098    11105 
   11126    11137    11142    11163    11181    11191    11206    11222 
   11241    11260    11277    11294    11318    11344    11362    11381 
   11410    11438    11461    11487    11520    11554    11581    11611 
   11643    11677    11715    11754    11793    11834    11869    11900 
   11942    11992    12031    12066    12109    12154    12195    12235 
   12276    12322    12366    12406    12449    12492    12529    12571 
   12614    12646    12684    12727    12760    12796    12841    12874 
   12904    12942    12974    13004    13036    13068    13103    13128 
   13146    13176    13205    13220    13246    13278    13298    13324 
   13350    13363    13393    13423    13435    13455    13479    13494 
   13512    13533    13551    13564    13581    13597    13594    13595 
   13614    13621    13609    13605    13612    13605    13593    13590 
   13576    13558    13545    13532    13517    13500    13479    13456 
   13429    13400    13374    13352    13325    13298    13271    13238 
   13211    13181    13147    13122    13096    13061    13023    12988 
   12961    12935    12893    12847    12815    12783    12745    12712 
   12676    12631    12595    12556    12510    12469    12434    12390 
   12343    12306    12272    12224    12175    12140    12110    12070 
   12028    11993    11959    11917    11884    11858    11823    11794 
   11770    11742    11712    11688    11663    11638    11614    11593 
   11572    11560    11545    11524    11515    11500    11483    11476 
   11466    11462    11464    11452    11441    11442    11431    11421 
   11430    11434    11427    11427    11422    11418    11427    11433 
   11431    11441    11450    11455    11464    11470    11480    11488 
   11500    11521    11535    11542    11564    11585    11593    11610 
   11638    11654    11663    11688    11709    11722    11743    11762 
   11770    11794    11824    11842    11861    11885    11902    11909 
   11934    11965    11978    11989    12009    12025    12037    12054 
   12066    12078    12091    12101    12108    12117    12124    12129 
   12139    12135    12128    12133    12127    12110    12109    12108 
   12087    12071    12064    12048    12032    12024    12005    11982 
   11967    11950    11935    11919    11896    11881    11877    11853 
   11831    11827    11816    11803    11796    11788    11784    11786 
   11789    11792    11797    11801    11811    11828    11843    11854 
   11875    11901    11919    11940    11971    12000    12021    12046 
