Origin Time       2016/04/16 01:25:00
Lat.              32.753
Long.             130.762
Depth. (km)       12
Mag.              7.3
Station Code      SIT003
Station Lat.      36.0720
Station Long.     139.6968
Station Height(m) 9
Record Time       2016/04/16 01:29:39
Sampling Freq(Hz) 100Hz
Duration Time(s)  91
Dir.              E-W
Scale Factor      7845(gal)/8223790
Max. Acc. (gal)   1.814
Last Correction   2016/04/16 01:29:42
Memo.             
[...]
  -14702   -14709   -14716   -14713   -14706   -14712   -14717   -14717 
  -14721   -14732   -14743   -14742   -14740   -14744   -14752   -14770 
  -14780   -14782   -14790   -14798   -14805   -14813   -14812   -14813 
  -14832   -14846   -14852   -14855   -14863   -14877   -14887   -14897 
  -14905   -14912   -14918   -14921   -14925   -14935   -14941   -14945 
  -14955   -14958   -14959   -14963   -14964   -14974   -14986   -14985 
  -14978   -14975   -14979   -14985   -14980   -14978   -14979   -14980 
  -14982   -14979   -14978   -14975   -14970   -14971   -14974   -14968 
  -14959   -14955   -14955   -14944   -14939   -14936   -14936   -14941 
  -14940   -14929   -14921   -14910   -14899   -14899   -14898   -14886 
  -14877   -14875   -14867   -14852   -14850   -14855   -14854   -14855 
  -14854   -14836   -14816   -14800   -14796   -14813   -14820   -14800 
  -14779   -14771   -14778   -14790   -14790   -14777   -14763   -14759 
  -14755   -14740   -14732   -14740   -14746   -14735   -14714   -14700 
  -14700   -14700   -14696   -14688   -14675   -14670   -14667   -14663 
  -14651   -14631   -14628   -14635   -14624   -14609   -14604   -14601 
  -14590   -14577   -14569   -14569   -14571   -14561   -14535   -14523 
  -14520   -14508   -14489   -14476   -14482   -14492   -14473   -14449 
  -14436   -14438   -14440   -14428   -14411   -14386   -14364   -14368 
  -14372   -14354   -14331   -14318   -14319   -14328   -14321   -14297 
  -14274   -14265   -14260   -14243   -14234   -14241   -14241   -14226 
  -14203   -14183   -14183   -14191   -14188   -14179   -14177   -14179 
  -14162   -14133   -14119   -14126   -14131   -14125   -14112   -14107 
  -14106   -14108   -14112   -14113   -14112   -14099   -14085   -14092 
  -14099   -14088   -14075   -14075   -14080   -14080   -14080   -14084 
  -14088   -14088   -14080   -14079   -14072   -14064   -14067   -14080 
  -14087   -14075   -14060   -14065   -14075   -14069   -14067   -14067 
  -14062   -14061   -14064   -14067   -14064   -14058   -14056   -14045 
  -14040   -14050   -14056   -14050   -14045   -14038   -14034   -14027 
  -14014   -14003   -13999   -13999   -13992   -13983   -13971   -13960 
  -13953   -13946   -13932   -13921   -13918   -13921   -13915   -13902 
  -13894   -13882   -13864   -13855   -13851   -13846   -13841   -13834 
  -13829   -13814   -13802   -13799   -13795   -13787   -13778   -13770 
  -13761   -13753   -13751   -13743   -13738   -13740   -13734   -13728 
  -13728   -13724   -13718   -13716   -13710   -13706   -13705   -13702 
  -13701   -13699   -13695   -13691   -13691   -13691   -13693   -13699 
  -13703   -13702   -13705   -13706   -13705   -13709   -13710   -13710 
  -13711   -13710   -13714   -13722   -13724   -13720   -13720   -13725 
  -13732   -13734   -13732   -13732   -13733   -13733   -13734   -13737 
  -13737   -13730   -13733   -13747   -13752   -13752   -13753   -13749 
  -13748   -13753   -13759   -13760   -13757   -13756   -13760   -13767 
  -13768   -13761   -13763   -13772   -13770   -13765   -13768   -13767 
  -13761   -13763   -13768   -13767   -13760   -13761   -13767   -13770 
  -13763   -13757   -13755   -13757   -13756   -13756   -13760   -13760 
  -13753   -13751   -13752   -13747   -13740   -13737   -13737   -13737 
  -13736   -13732   -13734   -13732   -13722   -13721   -13721   -13713 
  -13706   -13705   -13701   -13691   -13686   -13682   -13675   -13667 
  -13664   -13664   -13656   -13645   -13641   -13639   -13629   -13617 
  -13610   -13603   -13594   -13586   -13582   -13572   -13559   -13547 
  -13535   -13527   -13516   -13505   -13495   -13485   -13477   -13458 
  -13440   -13429   -13412   -13400   -13394   -13379   -13373   -13369 
  -13359   -13351   -13335   -13317   -13311   -13301   -13293   -13288 
  -13277   -13270   -13263   -13254   -13248   -13244   -13238   -13234 
  -13228   -13219   -13211   -13209   -13211   -13205   -13200   -13204 
  -13207   -13204   -13204   -13203   -13201   -13204   -13201   -13201 
  -13209   -13216   -13221   -13228   -13232   -13236   -13243   -13250 
  -13259   -13266   -13273   -13285   -13296   -13304   -13316   -13325 
  -13338   -13351   -13358   -13369   -13377   -13386   -13406   -13419 
  -13423   -13436   -13450   -13463   -13483   -13504   -13518   -13527 
  -13537   -13554   -13568   -13585   -13601   -13612   -13620   -13629 
  -13644   -13654   -13664   -13682   -13697   -13707   -13718   -13730 
  -13744   -13755   -13763   -13776   -13786   -13790   -13799   -13811 
  -13824   -13832   -13837   -13849   -13856   -13864   -13872   -13879 
  -13886   -13891   -13891   -13895   -13900   -13910   -13918   -13919 
  -13923   -13929   -13929   -13929   -13932   -13934   -13936   -13942 
  -13948   -13946   -13950   -13948   -13946   -13948   -13946   -13942 
  -13942   -13941   -13941   -13941   -13938   -13932   -13925   -13922 
  -13915   -13910   -13907   -13899   -13896   -13896   -13888   -13882 
  -13876   -13872   -13869   -13860   -13845   -13839   -13829   -13815 
  -13814   -13806   -13796   -13790   -13773   -13765   -13760   -13740 
  -13726   -13718   -13710   -13703   -13693   -13682   -13668   -13657 
  -13654   -13641   -13621   -13610   -13603   -13597   -13586   -13571 
  -13560   -13551   -13541   -13533   -13522   -13513   -13504   -13495 
  -13489   -13486   -13483   -13481   -13478   -13474   -13467   -13462 
  -13460   -13458   -13460   -13460   -13458   -13463   -13464   -13463 
  -13467   -13470   -13470   -13475   -13483   -13489   -13494   -13501 
  -13510   -13522   -13536   -13549   -13562   -13574   -13590   -13601 
  -13613   -13630   -13645   -13659   -13679   -13695   -13711   -13728 
  -13743   -13760   -13782   -13801   -13818   -13838   -13865   -13886 
  -13902   -13923   -13946   -13969   -13995   -14017   -14037   -14057 
  -14076   -14098   -14115   -14131   -14153   -14173   -14196   -14216 
  -14233   -14253   -14273   -14288   -14304   -14319   -14335   -14354 
  -14372   -14385   -14393   -14403   -14412   -14422   -14432   -14445 
  -14458   -14470   -14477   -14486   -14493   -14496   -14504   -14512 
  -14516   -14520   -14527   -14529   -14531   -14529   -14532   -14536 
  -14542   -14539   -14539   -14539   -14539   -14536   -14535   -14532 
  -14529   -14531   -14532   -14531   -14532   -14531   -14531   -14527 
  -14523   -14523   -14523   -14520   -14517   -14513   -14511   -14509 
  -14513   -14516   -14521   -14526   -14526   -14528   -14528   -14526 
  -14529   -14534   -14531   -14532   -14538   -14544   -14551   -14551 
  -14558   -14567   -14570   -14572   -14582   -14588   -14588   -14590 
  -14598   -14605   -14615   -14624   -14632   -14643   -14651   -14655 
  -14663   -14669   -14670   -14671   -14678   -14686   -14694   -14704 
  -14710   -14714   -14720   -14727   -14731   -14727   -14723   -14720 
  -14721   -14725   -14724   -14724   -14728   -14727   -14727   -14727 
  -14725   -14723   -14716   -14714   -14714   -14704   -14693   -14688 
  -14681   -14677   -14667   -14663   -14659   -14647   -14634   -14625 
  -14619   -14604   -14592   -14585   -14572   -14561   -14547   -14534 
  -14523   -14511   -14496   -14485   -14477   -14465   -14453   -14445 
  -14426   -14407   -14400   -14388   -14377   -14368   -14353   -14343 
  -14331   -14321   -14315   -14301   -14291   -14283   -14270   -14257 
  -14249   -14241   -14231   -14222   -14212   -14204   -14196   -14191 
  -14185   -14179   -14170   -14164   -14158   -14156   -14154   -14152 
  -14146   -14145   -14143   -14139   -14142   -14143   -14137   -14133 
  -14135   -14135   -14137   -14139   -14143   -14142   -14142   -14149 
  -14153   -14162   -14173   -14175   -14179   -14189   -14189   -14191 
  -14197   -14206   -14218   -14231   -14241   -14250   -14262   -14273 
  -14283   -14292   -14300   -14312   -14327   -14339   -14350   -14358 
  -14364   -14381   -14395   -14407   -14426   -14438   -14450   -14465 
  -14477   -14492   -14508   -14523   -14536   -14548   -14563   -14581 
  -14594   -14608   -14621   -14634   -14647   -14662   -14675   -14692 
  -14704   -14719   -14736   -14750   -14763   -14779   -14796   -14812 
  -14825   -14839   -14852   -14864   -14879   -14894   -14906   -14917 
  -14931   -14941   -14949   -14962   -14971   -14979   -14988   -14998 
  -15007   -15017   -15028   -15037   -15041   -15044   -15052   -15060 
  -15064   -15072   -15080   -15084   -15090   -15090   -15094   -15101 
  -15101   -15097   -15095   -15093   -15094   -15095   -15090   -15090 
  -15087   -15079   -15074   -15070   -15063   -15056   -15051   -15044 
  -15036   -15029   -15021   -15010   -14998   -14993   -14982   -14967 
  -14955   -14943   -14932   -14922   -14908   -14898   -14887   -14870 
  -14852   -14839   -14827   -14812   -14794   -14777   -14760   -14742 
  -14723   -14708   -14693   -14674   -14656   -14640   -14623   -14604 
  -14588   -14574   -14555   -14538   -14523   -14506   -14490   -14473 
  -14459   -14442   -14420   -14405   -14391   -14373   -14357   -14339 
  -14327   -14316   -14304   -14296   -14281   -14265   -14253   -14234 
  -14220   -14208   -14193   -14184   -14172   -14158   -14148   -14135 
  -14127   -14122   -14118   -14111   -14103   -14098   -14089   -14080 
  -14073   -14061   -14053   -14046   -14040   -14037   -14029   -14022 
  -14019   -14014   -14010   -14004   -13999   -14000   -13990   -13979 
  -13975   -13967   -13961   -13956   -13952   -13950   -13941   -13934 
  -13938   -13938   -13934   -13930   -13922   -13915   -13905   -13896 
  -13895   -13887   -13872   -13865   -13860   -13851   -13846   -13845 
  -13838   -13829   -13818   -13805   -13791   -13780   -13771   -13763 
  -13755   -13743   -13734   -13726   -13718   -13706   -13694   -13684 
  -13672   -13657   -13647   -13639   -13628   -13618   -13608   -13598 
  -13590   -13579   -13574   -13565   -13552   -13543   -13533   -13524 
  -13514   -13504   -13497   -13486   -13474   -13468   -13463   -13454 
  -13443   -13435   -13428   -13425   -13420   -13413   -13408   -13406 
  -13404   -13398   -13394   -13392   -13392   -13389   -13392   -13390 
  -13387   -13392   -13394   -13396   -13397   -13392   -13389   -13394 
  -13398   -13400   -13404   -13404   -13402   -13405   -13408   -13412 
  -13417   -13423   -13429   -13435   -13439   -13446   -13450   -13452 
  -13462   -13474   -13482   -13489   -13498   -13508   -13517   -13528 
  -13532   -13537   -13547   -13554   -13563   -13571   -13574   -13582 
  -13591   -13598   -13612   -13625   -13633   -13640   -13644   -13649 
  -13656   -13667   -13678   -13687   -13697   -13706   -13713   -13722 
  -13729   -13740   -13752   -13759   -13763   -13771   -13779   -13791 
  -13803   -13817   -13826   -13833   -13841   -13846   -13853   -13860 
  -13867   -13872   -13878   -13890   -13896   -13902   -13907   -13917 
  -13927   -13934   -13940   -13946   -13954   -13963   -13965   -13967 
  -13971   -13976   -13981   -13986   -13990   -13996   -13996   -13995 
  -13999   -13999   -14002   -14003   -14002   -14003   -14004   -14000 
  -14000   -14000   -13999   -13999   -13999   -13998   -13991   -13987 
  -13983   -13979   -13979   -13973   -13965   -13957   -13948   -13944 
  -13940   -13932   -13923   -13917   -13911   -13905   -13895   -13882 
  -13871   -13864   -13853   -13842   -13833   -13819   -13806   -13794 
  -13780   -13771   -13756   -13740   -13732   -13717   -13701   -13689 
  -13674   -13663   -13657   -13649   -13644   -13639   -13625   -13612 
  -13605   -13597   -13583   -13571   -13562   -13554   -13545   -13535 
  -13525   -13516   -13502   -13491   -13487   -13482   -13473   -13463 
  -13455   -13448   -13441   -13435   -13433   -13429   -13423   -13423 
  -13420   -13413   -13413   -13416   -13419   -13419   -13417   -13410 
  -13409   -13417   -13413   -13416   -13423   -13420   -13417   -13419 
  -13420   -13421   -13421   -13428   -13435   -13433   -13436   -13440 
  -13444   -13450   -13452   -13459   -13463   -13463   -13470   -13474 
  -13478   -13489   -13489   -13491   -13500   -13501   -13505   -13510 
  -13510   -13516   -13520   -13521   -13525   -13532   -13537   -13539 
  -13539   -13540   -13543   -13547   -13543   -13544   -13552   -13549 
  -13544   -13548   -13548   -13547   -13547   -13547   -13549   -13551 
  -13554   -13558   -13558   -13563   -13567   -13568   -13570   -13567 
  -13567   -13565   -13562   -13564   -13568   -13568   -13567   -13567 
  -13562   -13560   -13562   -13562   -13560   -13560   -13562   -13565 
  -13568   -13574   -13579   -13586   -13595   -13598   -13603   -13613 
  -13621   -13624   -13636   -13647   -13647   -13653   -13663   -13670 
  -13680   -13690   -13702   -13714   -13724   -13738   -13747   -13756 
  -13773   -13791   -13809   -13826   -13844   -13865   -13887   -13910 
  -13927   -13945   -13967   -13987   -14013   -14040   -14060   -14088 
  -14115   -14139   -14169   -14195   -14222   -14254   -14284   -14316 
  -14345   -14370   -14407   -14443   -14473   -14506   -14543   -14581 
  -14613   -14647   -14686   -14725   -14763   -14797   -14825   -14862 
  -14902   -14939   -14972   -15006   -15043   -15080   -15117   -15152 
  -15186   -15223   -15260   -15292   -15327   -15360   -15395   -15429 
  -15457   -15489   -15525   -15553   -15579   -15610   -15641   -15664 
  -15687   -15714   -15742   -15768   -15785   -15805   -15828   -15850 
  -15873   -15896   -15912   -15925   -15942   -15957   -15963   -15975 
  -15988   -15993   -16005   -16013   -16017   -16024   -16020   -16019 
  -16027   -16029   -16028   -16024   -16020   -16019   -16015   -16012 
  -16005   -15997   -15986   -15977   -15971   -15962   -15946   -15931 
  -15919   -15904   -15889   -15873   -15853   -15838   -15823   -15804 
  -15784   -15761   -15743   -15731   -15711   -15685   -15662   -15638 
  -15614   -15589   -15564   -15538   -15515   -15495   -15475   -15452 
  -15429   -15403   -15376   -15353   -15327   -15302   -15280   -15250 
  -15221   -15202   -15183   -15161   -15134   -15105   -15079   -15053 
  -15028   -15005   -14978   -14953   -14932   -14905   -14879   -14856 
  -14835   -14818   -14800   -14779   -14759   -14739   -14721   -14704 
  -14688   -14669   -14647   -14631   -14617   -14605   -14586   -14569 
  -14555   -14538   -14519   -14503   -14488   -14476   -14458   -14436 
  -14419   -14407   -14397   -14389   -14378   -14369   -14361   -14346 
  -14331   -14326   -14318   -14304   -14292   -14281   -14270   -14264 
  -14257   -14242   -14226   -14215   -14204   -14193   -14185   -14176 
  -14162   -14150   -14141   -14130   -14116   -14108   -14102   -14095 
  -14090   -14083   -14067   -14052   -14044   -14038   -14029   -14013 
  -13999   -13991   -13980   -13971   -13957   -13938   -13923   -13910 
  -13902   -13895   -13878   -13857   -13845   -13829   -13818   -13803 
  -13787   -13775   -13761   -13744   -13730   -13711   -13690   -13675 
  -13660   -13644   -13628   -13612   -13595   -13581   -13568   -13555 
  -13539   -13520   -13508   -13495   -13481   -13463   -13444   -13432 
  -13420   -13402   -13392   -13377   -13352   -13335   -13323   -13308 
  -13290   -13278   -13267   -13254   -13242   -13228   -13213   -13208 
  -13198   -13189   -13184   -13172   -13162   -13157   -13151   -13146 
  -13138   -13131   -13128   -13126   -13122   -13119   -13113   -13108 
  -13111   -13116   -13113   -13106   -13106   -13108   -13111   -13119 
  -13126   -13123   -13124   -13131   -13139   -13149   -13154   -13161 
  -13172   -13182   -13193   -13203   -13215   -13227   -13242   -13254 
  -13266   -13281   -13298   -13320   -13346   -13365   -13375   -13392 
  -13413   -13436   -13460   -13483   -13500   -13517   -13539   -13562 
  -13585   -13608   -13633   -13657   -13680   -13703   -13726   -13748 
  -13771   -13796   -13824   -13849   -13876   -13902   -13926   -13953 
  -13979   -14002   -14027   -14056   -14080   -14106   -14129   -14152 
  -14172   -14192   -14219   -14246   -14265   -14283   -14301   -14320 
  -14339   -14357   -14370   -14388   -14409   -14426   -14443   -14458 
  -14467   -14477   -14489   -14503   -14513   -14523   -14528   -14531 
  -14538   -14542   -14543   -14546   -14546   -14551   -14551   -14551 
  -14551   -14543   -14542   -14539   -14529   -14523   -14516   -14505 
  -14500   -14492   -14478   -14465   -14455   -14446   -14432   -14422 
  -14403   -14382   -14372   -14358   -14345   -14331   -14314   -14297 
  -14280   -14262   -14249   -14229   -14214   -14202   -14181   -14160 
  -14139   -14123   -14108   -14094   -14080   -14065   -14047   -14031 
  -14019   -14007   -13990   -13977   -13973   -13965   -13956   -13946 
  -13938   -13933   -13923   -13917   -13914   -13910   -13905   -13905 
  -13896   -13887   -13884   -13884   -13882   -13886   -13888   -13888 
  -13892   -13895   -13900   -13909   -13917   -13925   -13934   -13944 
  -13950   -13960   -13973   -13983   -13986   -13998   -14014   -14023 
  -14033   -14046   -14054   -14067   -14079   -14088   -14104   -14115 
  -14127   -14145   -14152   -14156   -14165   -14179   -14197   -14210 
  -14216   -14222   -14234   -14246   -14257   -14265   -14272   -14277 
  -14291   -14298   -14300   -14301   -14305   -14314   -14324   -14331 
  -14330   -14326   -14330   -14338   -14338   -14335   -14338   -14337 
  -14331   -14330   -14327   -14320   -14316   -14312   -14307   -14303 
  -14293   -14283   -14280   -14274   -14265   -14260   -14247   -14238 
  -14231   -14220   -14211   -14203   -14191   -14179   -14168   -14153 
  -14139   -14133   -14121   -14106   -14096   -14080   -14067   -14057 
  -14049   -14042   -14031   -14021   -14013   -14006   -13996   -13992 
  -13990   -13980   -13969   -13961   -13954   -13948   -13941   -13930 
  -13925   -13921   -13918   -13911   -13896   -13891   -13890   -13884 
  -13891   -13892   -13884   -13883   -13884   -13886   -13887   -13888 
  -13890   -13891   -13896   -13903   -13903   -13902   -13905   -13911 
  -13917   -13919   -13921   -13926   -13934   -13944   -13950   -13954 
  -13960   -13967   -13975   -13983   -13990   -13995   -13998   -14006 
  -14013   -14017   -14021   -14021   -14026   -14037   -14046   -14047 
  -14047   -14056   -14064   -14067   -14076   -14080   -14084   -14095 
  -14100   -14104   -14111   -14116   -14119   -14122   -14127   -14130 
  -14127   -14130   -14129   -14126   -14129   -14127   -14125   -14126 
  -14125   -14119   -14118   -14112   -14107   -14110   -14108   -14104 
  -14096   -14089   -14085   -14083   -14076   -14068   -14058   -14054 
  -14049   -14041   -14037   -14025   -14010   -14004   -13991   -13975 
  -13967   -13956   -13945   -13936   -13925   -13910   -13892   -13878 
  -13868   -13859   -13845   -13832   -13821   -13811   -13802   -13787 
  -13773   -13761   -13745   -13734   -13725   -13709   -13695   -13682 
  -13664   -13654   -13647   -13629   -13617   -13608   -13594   -13582 
  -13567   -13554   -13543   -13531   -13517   -13506   -13498   -13487 
  -13475   -13468   -13459   -13446   -13440   -13429   -13419   -13416 
  -13408   -13397   -13389   -13379   -13371   -13363   -13351   -13343 
  -13342   -13336   -13325   -13320   -13319   -13312   -13304   -13302 
  -13300   -13292   -13286   -13284   -13281   -13275   -13270   -13262 
  -13257   -13254   -13247   -13240   -13232   -13227   -13225   -13225 
  -13220   -13213   -13215   -13215   -13212   -13213   -13211   -13207 
