Origin Time       2016/04/16 01:25:00
Lat.              32.753
Long.             130.762
Depth. (km)       12
Mag.              7.3
Station Code      SIT010
Station Lat.      35.9065
Station Long.     139.6481
Station Height(m) 13
Record Time       2016/04/16 01:30:06
Sampling Freq(Hz) 100Hz
Duration Time(s)  60
Dir.              N-S
Scale Factor      7845(gal)/8223790
Max. Acc. (gal)   1.872
Last Correction   2016/04/16 01:30:09
Memo.             
[...]
     523      506      496      488      467      457      451      440 
     432      421      406      390      376      369      361      341 
     324      315      309      289      271      263      251      234 
     224      207      194      186      167      148      143      129 
     108       94       81       65       51       35       25       14 
      -2      -17      -25      -37      -51      -63      -74      -83 
     -93     -105     -118     -126     -135     -144     -152     -167 
    -180     -182     -187     -198     -203     -211     -225     -234 
    -234     -237     -245     -252     -255     -257     -261     -272 
    -278     -274     -271     -284     -295     -289     -289     -306 
    -309     -303     -309     -318     -324     -325     -326     -336 
    -349     -346     -341     -355     -368     -370     -376     -383 
    -394     -403     -406     -415     -427     -434     -441     -449 
    -459     -472     -479     -483     -499     -517     -526     -531 
    -548     -569     -577     -584     -603     -619     -630     -642 
    -657     -676     -693     -700     -715     -737     -750     -761 
    -778     -799     -815     -827     -843     -864     -880     -892 
    -907     -922     -939     -954     -963     -982    -1000    -1013 
   -1031    -1046    -1055    -1077    -1092    -1097    -1111    -1124 
   -1135    -1146    -1155    -1167    -1174    -1177    -1185    -1201 
   -1213    -1216    -1220    -1240    -1252    -1254    -1262    -1277 
   -1282    -1282    -1290    -1300    -1304    -1304    -1305    -1312 
   -1323    -1329    -1324    -1323    -1333    -1339    -1340    -1337 
   -1340    -1348    -1351    -1350    -1352    -1356    -1360    -1359 
   -1359    -1364    -1363    -1354    -1356    -1363    -1359    -1352 
   -1347    -1350    -1351    -1343    -1347    -1355    -1347    -1341 
   -1339    -1343    -1351    -1343    -1333    -1345    -1352    -1341 
   -1337    -1340    -1341    -1340    -1334    -1336    -1334    -1331 
   -1329    -1324    -1328    -1334    -1328    -1324    -1325    -1323 
   -1320    -1316    -1314    -1317    -1312    -1305    -1302    -1298 
   -1291    -1286    -1285    -1282    -1281    -1278    -1271    -1264 
   -1262    -1255    -1251    -1250    -1246    -1240    -1229    -1220 
   -1221    -1216    -1205    -1200    -1194    -1182    -1174    -1171 
   -1171    -1165    -1152    -1147    -1146    -1136    -1128    -1124 
   -1119    -1113    -1105    -1100    -1100    -1090    -1080    -1077 
   -1074    -1070    -1065    -1058    -1058    -1060    -1055    -1047 
   -1044    -1047    -1048    -1043    -1036    -1039    -1043    -1044 
   -1039    -1039    -1046    -1043    -1039    -1044    -1050    -1046 
   -1046    -1053    -1057    -1053    -1055    -1063    -1070    -1070 
   -1070    -1074    -1075    -1074    -1074    -1077    -1081    -1080 
   -1074    -1077    -1081    -1085    -1085    -1081    -1081    -1085 
   -1088    -1081    -1075    -1081    -1081    -1071    -1070    -1069 
   -1063    -1053    -1042    -1043    -1044    -1032    -1019    -1016 
   -1013    -1000     -981     -974     -973     -959     -942     -929 
    -920     -903     -885     -874     -861     -842     -822     -800 
    -785     -772     -745     -723     -710     -685     -658     -638 
    -614     -594     -575     -546     -521     -500     -475     -453 
    -430     -403     -382     -355     -328     -306     -280     -252 
    -229     -206     -180     -153     -125      -99      -81      -56 
     -29       -8        5       31       62       85      101      124 
     151      175      194      211      237      263      282      299 
     322      348      373      391      410      437      457      477 
     504      525      540      558      576      596      615      633 
     649      664      685      708      719      737      764      773 
     784      804      820      832      842      849      861      870 
     876      882      892      900      901      903      912      920 
     918      912      918      918      913      909      905      905 
     905      903      899      889      881      876      868      857 
     846      837      828      822      811      799      792      783 
     770      758      745      738      731      715      702      695 
     685      675      660      653      648      633      621      612 
     604      598      592      585      573      562      560      553 
     545      535      526      526      523      514      513      510 
     500      500      498      488      483      483      477      471 
     467      464      464      454      445      444      440      432 
     423      418      417      415      407      398      398      395 
     386      380      379      373      369      369      363      356 
     351      348      344      340      334      329      319      315 
     313      303      303      306      298      289      294      299 
     289      286      289      288      288      287      280      284 
     294      289      286      292      297      295      299      309 
     314      317      319      325      337      344      340      344 
     355      360      368      379      383      390      394      405 
     415      415      421      434      438      440      449      451 
     456      467      469      464      473      484      484      490 
     499      499      500      517      522      519      526      533 
     535      533      532      538      545      545      545      548 
     549      550      550      558      564      558      562      572 
     569      564      569      571      568      564      565      565 
     562      564      568      562      562      568      571      572 
     572      576      581      579      579      585      585      587 
     588      591      600      603      606      618      626      630 
     642      654      664      676      685      693      704      714 
     726      739      751      761      777      797      814      828 
     850      872      888      907      932      950      965      989 
    1011     1028     1053     1078     1093     1115     1140     1166 
    1188     1209     1236     1260     1279     1302     1325     1344 
    1368     1393     1414     1437     1457     1476     1497     1520 
    1541     1559     1580     1603     1617     1637     1660     1669 
    1683     1703     1717     1728     1744     1759     1765     1775 
    1795     1806     1813     1826     1833     1840     1861     1872 
    1872     1885     1899     1902     1908     1917     1922     1933 
    1935     1934     1946     1953     1949     1949     1956     1960 
    1960     1964     1971     1971     1968     1968     1972     1971 
    1969     1971     1973     1968     1962     1960     1954     1952 
    1949     1934     1922     1922     1912     1898     1887     1876 
    1872     1863     1844     1833     1825     1813     1800     1787 
    1773     1759     1740     1729     1717     1695     1677     1664 
    1651     1632     1610     1593     1583     1563     1537     1528 
    1521     1498     1478     1466     1452     1435     1418     1409 
    1398     1379     1367     1359     1343     1328     1318     1308 
    1297     1285     1273     1256     1247     1240     1230     1224 
    1213     1197     1196     1194     1181     1170     1166     1159 
    1151     1146     1140     1131     1123     1120     1112     1101 
    1096     1089     1086     1085     1078     1070     1065     1060 
    1058     1051     1047     1048     1042     1039     1039     1035 
    1031     1030     1026     1030     1031     1024     1021     1030 
    1030     1024     1030     1042     1042     1036     1043     1051 
    1051     1051     1055     1065     1071     1077     1084     1092 
    1102     1109     1113     1125     1133     1133     1140     1150 
    1156     1163     1163     1162     1169     1171     1171     1175 
    1182     1188     1188     1190     1197     1198     1197     1196 
    1201     1202     1194     1193     1197     1190     1181     1177 
    1179     1175     1171     1170     1162     1154     1151     1140 
    1128     1124     1116     1111     1104     1089     1081     1075 
    1060     1046     1042     1039     1026     1007      996      993 
     981      961      946      934      922      905      889      882 
     869      845      834      824      810      793      773      764 
     757      737      718      702      688      670      649      634 
     625      608      585      568      565      553      519      502 
     500      483      463      445      429      419      400      379 
     364      348      332      314      298      286      265      243 
     225      210      191      171      149      129      112       91 
      74       54       32       17       -1      -23      -44      -68 
     -89     -102     -120     -147     -174     -193     -214     -240 
    -261     -286     -310     -328     -351     -380     -398     -418 
    -444     -468     -490     -508     -535     -566     -579     -598 
    -630     -658     -684     -706     -726     -754     -778     -797 
    -823     -847     -874     -899     -913     -945     -976     -987 
   -1009    -1039    -1060    -1081    -1094    -1113    -1142    -1159 
   -1173    -1193    -1213    -1229    -1244    -1262    -1282    -1301 
   -1318    -1336    -1347    -1362    -1378    -1390    -1405    -1417 
   -1431    -1444    -1453    -1470    -1487    -1490    -1495    -1513 
   -1525    -1530    -1544    -1551    -1548    -1554    -1570    -1576 
   -1579    -1586    -1593    -1597    -1603    -1606    -1605    -1609 
   -1621    -1620    -1611    -1617    -1621    -1617    -1614    -1615 
   -1617    -1618    -1614    -1606    -1613    -1617    -1613    -1609 
   -1610    -1611    -1610    -1602    -1597    -1599    -1591    -1580 
   -1583    -1582    -1574    -1567    -1563    -1561    -1556    -1545 
   -1540    -1537    -1535    -1533    -1522    -1514    -1514    -1509 
   -1499    -1494    -1490    -1479    -1471    -1471    -1466    -1459 
   -1452    -1441    -1439    -1440    -1433    -1422    -1417    -1412 
   -1404    -1394    -1387    -1379    -1371    -1368    -1363    -1355 
   -1347    -1336    -1332    -1331    -1324    -1317    -1304    -1291 
   -1293    -1290    -1278    -1266    -1254    -1251    -1251    -1235 
   -1221    -1221    -1215    -1202    -1197    -1190    -1178    -1166 
   -1161    -1154    -1142    -1129    -1119    -1113    -1105    -1092 
   -1080    -1073    -1067    -1055    -1048    -1043    -1030    -1016 
   -1011    -1000     -986     -977     -966     -955     -947     -932 
    -922     -920     -912     -899     -892     -890     -890     -881 
    -873     -874     -874     -864     -857     -855     -854     -849 
    -843     -842     -838     -832     -830     -828     -823     -819 
    -815     -811     -808     -803     -795     -792     -792     -787 
    -777     -772     -772     -764     -758     -758     -751     -741 
    -741     -735     -730     -726     -718     -711     -707     -697 
    -691     -683     -673     -661     -649     -642     -631     -619 
    -618     -612     -599     -595     -587     -579     -581     -577 
    -565     -557     -553     -546     -537     -531     -525     -511 
    -506     -504     -492     -479     -473     -467     -459     -451 
    -445     -438     -434     -427     -415     -413     -411     -400 
    -395     -396     -386     -373     -369     -363     -355     -344 
    -333     -330     -324     -306     -295     -288     -279     -265 
    -249     -243     -234     -216     -202     -191     -178     -170 
    -159     -147     -129     -120     -110      -91      -76      -65 
     -49      -29      -14       -5        9       25       32       47 
      68       83       98      117      126      139      159      183 
     199      210      225      246      266      289      303      314 
     334      351      364      383      396      411      429      445 
     461      475      487      506      526      538      558      579 
     595      608      625      641      652      665      687      700 
     708      724      741      751      765      780      792      807 
     818      826      835      851      870      880      889      908 
     924      934      949      965      974      981      996     1011 
    1020     1031     1043     1055     1073     1081     1090     1112 
    1131     1138     1148     1169     1183     1192     1200     1215 
    1233     1246     1252     1264     1278     1291     1302     1314 
    1332     1340     1351     1370     1382     1391     1412     1424 
    1431     1448     1460     1470     1489     1505     1513     1522 
    1535     1553     1567     1576     1594     1610     1620     1632 
    1648     1667     1684     1692     1705     1725     1741     1752 
    1768     1786     1798     1810     1826     1842     1856     1872 
    1885     1894     1907     1926     1944     1949     1954     1971 
    1981     1985     2006     2026     2034     2046     2053     2061 
    2076     2083     2089     2106     2111     2111     2118     2135 
    2147     2146     2149     2161     2168     2170     2178     2180 
    2178     2185     2188     2189     2195     2189     2187     2192 
    2193     2188     2182     2184     2189     2187     2180     2177 
    2173     2169     2162     2153     2147     2142     2134     2121 
    2115     2107     2096     2081     2073     2070     2053     2031 
    2025     2014     1992     1977     1968     1954     1938     1917 
    1903     1892     1871     1846     1826     1813     1798     1771 
    1748     1729     1707     1683     1661     1636     1609     1586 
    1566     1540     1517     1494     1464     1439     1413     1383 
    1355     1331     1305     1273     1239     1209     1182     1154 
    1125     1097     1065     1032     1007      982      942      911 
     889      851      815      784      745      710      675      639 
     607      571      531      500      472      430      387      357 
     325      287      251      212      174      136       99       64 
      32        0      -37      -78     -110     -140     -170     -202 
    -237     -270     -302     -334     -367     -398     -425     -457 
    -491     -511     -535     -569     -596     -621     -639     -665 
    -699     -718     -731     -761     -787     -804     -824     -849 
    -870     -884     -896     -909     -926     -939     -949     -958 
    -966     -973     -986     -999    -1005    -1009    -1015    -1024 
   -1031    -1035    -1034    -1034    -1034    -1026    -1021    -1021 
   -1020    -1013    -1004     -993     -989     -985     -978     -976 
    -969     -958     -949     -932     -919     -913     -903     -888 
    -870     -855     -842     -823     -805     -795     -781     -765 
    -749     -731     -718     -704     -688     -672     -661     -645 
    -612     -589     -583     -566     -537     -510     -498     -488 
    -467     -446     -430     -410     -390     -368     -353     -342 
    -317     -287     -271     -259     -237     -209     -189     -178 
    -159     -135     -116      -97      -78      -59      -40      -21 
      -4       18       41       60       82      101      116      131 
     148      170      191      198      207      228      246      263 
     268      274      295      310      314      324      338      349 
     359      376      388      390      398      410      415      425 
     432      429      437      454      461      463      467      471 
     476      484      490      495      503      506      500      503 
     518      523      515      518      532      535      530      538 
     546      545      546      552      558      560      549      549 
     565      562      545      540      550      558      557      549 
     548      553      556      550      544      546      550      550 
     545      546      556      553      546      549      552      545 
     538      544      553      544      533      540      542      532 
     526      531      535      525      514      508      506      508 
     504      491      487      487      481      468      457      451 
     446      441      427      413      410      402      383      376 
     370      356      344      338      326      310      294      286 
     278      265      249      233      224      214      197      183 
     176      164      144      133      125      110      101       87 
      74       74       58       37       35       21        5        0 
     -10      -14      -23      -45      -47      -54      -68      -71 
     -81      -94      -93      -98     -112     -114     -118     -135 
    -140     -140     -148     -157     -164     -168     -172     -175 
    -176     -183     -183     -178     -186     -189     -184     -182 
    -183     -187     -189     -186     -191     -195     -193     -190 
    -187     -187     -183     -180     -180     -175     -178     -176 
    -162     -163     -167     -157     -152     -144     -144     -144 
    -135     -128     -129     -124     -117     -110     -105     -102 
     -97      -89      -87      -86      -72      -67      -72      -71 
     -59      -47      -45      -47      -40      -28      -23      -23 
     -17      -10       -8       -5        1        5        9        8 
       9       17       21       21       22       27       32       29 
      29       37       36       27       25       35       40       28 
      16       18       25       22       20       14        8        9 
       5       -2       -8      -11      -23      -32      -35      -39 
     -47      -60      -71      -79      -85      -94     -108     -112 
    -118     -131     -139     -143     -147     -152     -160     -163 
    -167     -182     -190     -193     -202     -206     -211     -228 
    -237     -241     -246     -252     -257     -263     -271     -279 
    -280     -280     -283     -288     -292     -288     -292     -303 
    -299     -295     -298     -297     -301     -305     -295     -291 
    -294     -294     -289     -288     -292     -286     -278     -283 
    -279     -263     -261     -257     -251     -249     -240     -232 
    -234     -225     -212     -209     -194     -182     -176     -166 
    -155     -144     -133     -121     -101      -91      -85      -67 
     -55      -43      -32      -22        0       14       21       44 
      62       76       99      117      137      156      175      202 
     222      234      255      279      301      319      337      357 
     380      407      429      446      473      499      517      538 
     564      591      608      625      650      672      692      710 
     728      747      764      781      799      815      831      846 
     859      881      900      905      918      938      947      951 
     965      981      986      994     1007     1015     1020     1026 
    1030     1035     1039     1042     1042     1039     1043     1039 
    1039     1044     1039     1036     1039     1039     1036     1035 
