Origin Time       2016/04/16 01:25:00
Lat.              32.753
Long.             130.762
Depth. (km)       12
Mag.              7.3
Station Code      SIT003
Station Lat.      36.0720
Station Long.     139.6968
Station Height(m) 9
Record Time       2016/04/16 01:29:39
Sampling Freq(Hz) 100Hz
Duration Time(s)  91
Dir.              N-S
Scale Factor      7845(gal)/8223790
Max. Acc. (gal)   1.822
Last Correction   2016/04/16 01:29:42
Memo.             
[...]
   -1312    -1332    -1355    -1377    -1397    -1418    -1443    -1468 
   -1491    -1516    -1540    -1566    -1594    -1624    -1652    -1682 
   -1710    -1736    -1763    -1795    -1826    -1849    -1880    -1911 
   -1941    -1973    -1998    -2023    -2057    -2087    -2114    -2139 
   -2169    -2201    -2228    -2257    -2284    -2308    -2336    -2367 
   -2393    -2416    -2442    -2465    -2488    -2513    -2538    -2559 
   -2582    -2602    -2620    -2639    -2659    -2673    -2683    -2702 
   -2721    -2733    -2745    -2759    -2774    -2782    -2790    -2798 
   -2805    -2814    -2822    -2829    -2835    -2836    -2837    -2837 
   -2840    -2847    -2844    -2840    -2837    -2832    -2826    -2820 
   -2814    -2808    -2801    -2790    -2779    -2774    -2763    -2748 
   -2740    -2728    -2710    -2695    -2679    -2663    -2644    -2624 
   -2609    -2590    -2567    -2546    -2529    -2512    -2489    -2467 
   -2450    -2427    -2401    -2378    -2355    -2331    -2308    -2286 
   -2263    -2238    -2214    -2188    -2163    -2138    -2115    -2089 
   -2061    -2034    -2014    -1989    -1968    -1941    -1914    -1895 
   -1875    -1852    -1833    -1813    -1790    -1767    -1748    -1728 
   -1706    -1688    -1671    -1655    -1642    -1625    -1611    -1599 
   -1584    -1572    -1560    -1552    -1543    -1532    -1524    -1514 
   -1507    -1501    -1497    -1493    -1487    -1486    -1485    -1479 
   -1479    -1480    -1479    -1479    -1483    -1486    -1486    -1489 
   -1493    -1494    -1499    -1506    -1512    -1521    -1528    -1532 
   -1543    -1549    -1554    -1563    -1570    -1579    -1590    -1595 
   -1603    -1613    -1621    -1628    -1634    -1648    -1656    -1658 
   -1667    -1675    -1680    -1690    -1696    -1702    -1709    -1714 
   -1722    -1733    -1740    -1744    -1749    -1757    -1767    -1773 
   -1779    -1788    -1796    -1804    -1810    -1811    -1819    -1826 
   -1833    -1840    -1842    -1844    -1846    -1849    -1852    -1852 
   -1852    -1854    -1856    -1854    -1854    -1856    -1852    -1852 
   -1854    -1854    -1854    -1856    -1852    -1849    -1849    -1852 
   -1852    -1842    -1841    -1841    -1833    -1833    -1830    -1826 
   -1825    -1822    -1819    -1817    -1811    -1809    -1807    -1803 
   -1796    -1796    -1795    -1791    -1791    -1788    -1781    -1776 
   -1769    -1764    -1763    -1760    -1757    -1759    -1760    -1757 
   -1755    -1759    -1759    -1755    -1757    -1760    -1760    -1760 
   -1760    -1761    -1763    -1760    -1761    -1763    -1763    -1764 
   -1767    -1771    -1771    -1769    -1771    -1776    -1780    -1780 
   -1783    -1787    -1786    -1786    -1788    -1790    -1791    -1794 
   -1796    -1798    -1802    -1804    -1803    -1806    -1811    -1810 
   -1815    -1821    -1822    -1825    -1825    -1826    -1831    -1836 
   -1840    -1842    -1845    -1846    -1840    -1842    -1849    -1848 
   -1848    -1849    -1852    -1850    -1850    -1856    -1857    -1856 
   -1856    -1854    -1856    -1856    -1858    -1863    -1861    -1861 
   -1865    -1868    -1868    -1869    -1873    -1872    -1871    -1873 
   -1875    -1872    -1871    -1872    -1872    -1867    -1868    -1872 
   -1871    -1868    -1864    -1858    -1852    -1850    -1850    -1848 
   -1841    -1831    -1826    -1825    -1814    -1806    -1800    -1792 
   -1781    -1771    -1765    -1755    -1742    -1733    -1721    -1707 
   -1690    -1675    -1664    -1648    -1632    -1617    -1593    -1571 
   -1553    -1533    -1513    -1490    -1466    -1441    -1416    -1390 
   -1366    -1340    -1312    -1282    -1256    -1228    -1198    -1173 
   -1144    -1120    -1092    -1060    -1032    -1004     -973     -943 
    -915     -885     -850     -818     -789     -758     -730     -699 
    -668     -639     -607     -579     -553     -521     -491     -467 
    -442     -413     -383     -363     -338     -314     -295     -274 
    -253     -234     -216     -199     -178     -163     -148     -129 
    -118     -106      -91      -78      -65      -58      -47      -41 
     -36      -23      -17      -14      -13      -13       -8       -5 
      -8       -5      -11      -13      -17      -27      -28      -35 
     -43      -47      -52      -62      -75      -83      -94     -108 
    -116     -126     -139     -148     -160     -172     -187     -203 
    -214     -225     -238     -252     -263     -275     -292     -307 
    -318     -332     -342     -352     -364     -373     -383     -392 
    -403     -415     -422     -429     -444     -453     -461     -471 
    -477     -484     -492     -499     -502     -506     -513     -513 
    -515     -521     -525     -529     -529     -526     -531     -532 
    -533     -535     -537     -540     -540     -544     -542     -542 
    -546     -548     -548     -553     -550     -552     -557     -560 
    -562     -565     -565     -566     -566     -568     -569     -569 
    -569     -572     -577     -579     -581     -585     -588     -594 
    -595     -596     -600     -603     -611     -614     -614     -622 
    -622     -625     -630     -631     -635     -635     -642     -650 
    -648     -654     -656     -650     -653     -656     -656     -654 
    -654     -657     -657     -658     -658     -650     -649     -646 
    -641     -638     -630     -627     -625     -616     -608     -600 
    -592     -589     -584     -575     -568     -562     -556     -548 
    -540     -533     -526     -517     -508     -500     -490     -483 
    -471     -461     -457     -448     -440     -434     -422     -413 
    -405     -395     -387     -376     -369     -364     -357     -353 
    -346     -342     -337     -329     -330     -330     -325     -324 
    -318     -318     -321     -319     -319     -322     -328     -330 
    -330     -334     -336     -336     -341     -348     -355     -359 
    -361     -368     -375     -382     -388     -399     -411     -418 
    -430     -442     -451     -463     -473     -486     -495     -503 
    -517     -529     -540     -553     -566     -575     -585     -595 
    -607     -619     -627     -635     -646     -657     -669     -681 
    -689     -696     -704     -714     -722     -734     -743     -753 
    -762     -773     -780     -783     -792     -801     -807     -816 
    -824     -830     -838     -845     -849     -857     -864     -868 
    -870     -880     -888     -889     -892     -899     -907     -911 
    -918     -924     -926     -931     -936     -939     -949     -955 
    -959     -965     -969     -976     -980     -989    -1000    -1004 
   -1013    -1024    -1031    -1038    -1046    -1057    -1067    -1075 
   -1085    -1090    -1098    -1111    -1117    -1129    -1136    -1144 
   -1158    -1166    -1175    -1183    -1193    -1204    -1206    -1217 
   -1229    -1233    -1244    -1255    -1267    -1278    -1286    -1298 
   -1306    -1316    -1327    -1333    -1344    -1354    -1360    -1371 
   -1381    -1389    -1394    -1397    -1404    -1408    -1412    -1416 
   -1420    -1426    -1431    -1433    -1433    -1433    -1435    -1441 
   -1443    -1439    -1435    -1431    -1431    -1431    -1428    -1426 
   -1421    -1417    -1416    -1410    -1408    -1402    -1393    -1389 
   -1383    -1378    -1371    -1360    -1351    -1345    -1336    -1325 
   -1316    -1308    -1300    -1291    -1282    -1270    -1263    -1256 
   -1247    -1237    -1228    -1223    -1215    -1206    -1202    -1197 
   -1189    -1182    -1175    -1166    -1156    -1148    -1142    -1138 
   -1135    -1131    -1121    -1115    -1107    -1101    -1094    -1090 
   -1086    -1078    -1069    -1060    -1055    -1051    -1046    -1042 
   -1038    -1034    -1032    -1030    -1024    -1021    -1019    -1012 
   -1007    -1004    -1000     -997     -996     -992     -987     -984 
    -981     -982     -982     -980     -978     -978     -974     -969 
    -966     -963     -961     -953     -951     -957     -955     -954 
    -955     -951     -947     -947     -947     -950     -953     -951 
    -950     -951     -951     -949     -950     -953     -955     -958 
    -959     -961     -962     -967     -967     -965     -967     -969 
    -972     -972     -969     -973     -973     -970     -976     -980 
    -981     -984     -985     -986     -985     -986     -990     -993 
    -997    -1003    -1004    -1008    -1011    -1013    -1017    -1024 
   -1026    -1030    -1035    -1035    -1039    -1046    -1043    -1044 
   -1048    -1055    -1059    -1060    -1065    -1065    -1065    -1075 
   -1078    -1081    -1089    -1093    -1102    -1111    -1116    -1124 
   -1129    -1139    -1148    -1159    -1171    -1177    -1188    -1202 
   -1212    -1221    -1230    -1243    -1258    -1269    -1285    -1300 
   -1306    -1320    -1337    -1351    -1367    -1383    -1399    -1416 
   -1429    -1445    -1466    -1480    -1495    -1514    -1532    -1549 
   -1568    -1586    -1603    -1621    -1640    -1661    -1677    -1695 
   -1719    -1741    -1757    -1772    -1787    -1804    -1823    -1842 
   -1859    -1876    -1894    -1907    -1922    -1939    -1956    -1971 
   -1984    -2001    -2016    -2029    -2042    -2053    -2066    -2083 
   -2095    -2106    -2119    -2130    -2143    -2157    -2162    -2170 
   -2180    -2184    -2192    -2204    -2209    -2214    -2218    -2223 
   -2232    -2238    -2242    -2247    -2249    -2251    -2253    -2249 
   -2249    -2251    -2257    -2258    -2255    -2257    -2254    -2250 
   -2247    -2242    -2236    -2232    -2230    -2224    -2215    -2212 
   -2207    -2203    -2201    -2195    -2191    -2187    -2176    -2169 
   -2162    -2153    -2143    -2128    -2119    -2120    -2115    -2106 
   -2097    -2091    -2085    -2081    -2077    -2070    -2061    -2050 
   -2042    -2034    -2022    -2011    -2003    -1998    -1993    -1988 
   -1981    -1975    -1965    -1960    -1956    -1949    -1942    -1934 
   -1925    -1919    -1914    -1907    -1899    -1891    -1881    -1873 
   -1873    -1869    -1859    -1854    -1852    -1844    -1833    -1826 
   -1822    -1819    -1818    -1813    -1807    -1799    -1788    -1787 
   -1783    -1783    -1783    -1773    -1769    -1769    -1765    -1761 
   -1750    -1745    -1745    -1742    -1742    -1736    -1728    -1726 
   -1726    -1723    -1717    -1713    -1713    -1709    -1709    -1706 
   -1701    -1698    -1694    -1694    -1692    -1686    -1679    -1675 
   -1675    -1674    -1667    -1660    -1656    -1656    -1655    -1651 
   -1655    -1652    -1641    -1636    -1632    -1628    -1624    -1622 
   -1624    -1620    -1614    -1606    -1599    -1593    -1593    -1593 
   -1588    -1586    -1582    -1572    -1566    -1564    -1559    -1556 
   -1553    -1549    -1547    -1545    -1543    -1540    -1533    -1528 
   -1530    -1528    -1526    -1518    -1513    -1512    -1509    -1509 
   -1506    -1498    -1494    -1490    -1483    -1478    -1471    -1466 
   -1459    -1455    -1453    -1451    -1445    -1437    -1433    -1431 
   -1420    -1408    -1402    -1395    -1390    -1379    -1368    -1362 
   -1354    -1345    -1331    -1318    -1313    -1301    -1291    -1286 
   -1274    -1260    -1250    -1237    -1224    -1209    -1196    -1185 
   -1178    -1166    -1154    -1146    -1135    -1123    -1115    -1104 
   -1094    -1084    -1067    -1051    -1031    -1016    -1003     -985 
    -973     -966     -957     -950     -942     -927     -915     -900 
    -888     -877     -864     -847     -831     -818     -808     -796 
    -787     -783     -778     -773     -764     -753     -741     -733 
    -724     -715     -707     -696     -684     -683     -673     -666 
    -668     -658     -661     -666     -658     -652     -645     -641 
    -637     -631     -635     -631     -629     -634     -635     -638 
    -639     -638     -643     -646     -649     -656     -660     -665 
    -672     -680     -688     -692     -699     -706     -714     -720 
    -726     -734     -746     -761     -780     -791     -793     -803 
    -815     -824     -835     -847     -862     -880     -889     -903 
    -918     -928     -946     -961     -977     -989    -1000    -1019 
   -1035    -1047    -1058    -1069    -1080    -1093    -1105    -1115 
   -1128    -1146    -1159    -1174    -1185    -1196    -1212    -1223 
   -1233    -1247    -1256    -1264    -1273    -1279    -1286    -1294 
   -1304    -1310    -1312    -1316    -1324    -1329    -1333    -1340 
   -1345    -1350    -1352    -1354    -1352    -1350    -1350    -1354 
   -1348    -1337    -1325    -1314    -1308    -1301    -1293    -1286 
   -1277    -1270    -1262    -1243    -1223    -1205    -1193    -1174 
   -1152    -1132    -1105    -1081    -1062    -1046    -1024     -996 
    -974     -954     -932     -916     -892     -862     -834     -801 
    -769     -737     -702     -675     -646     -614     -584     -552 
    -521     -488     -454     -423     -391     -355     -321     -286 
    -251     -216     -182     -151     -120      -94      -67      -35 
      -5       23       59       91      128      160      187      217 
     240      261      287      309      330      357      382      403 
     430      456      477      498      514      529      540      553 
     572      584      600      611      619      635      645      656 
     665      670      681      689      696      700      695      702 
     714      714      712      710      702      704      706      704 
     699      687      684      681      666      661      665      660 
     650      634      614      610      608      595      576      565 
     558      537      511      492      475      460      446      427 
     400      375      361      348      328      303      272      251 
     234      205      176      156      126       97       72       44 
      18       -8      -32      -59      -93     -125     -155     -189 
    -220     -246     -276     -306     -340     -373     -406     -434 
    -463     -499     -537     -572     -607     -643     -683     -715 
    -747     -777     -807     -845     -890     -932     -963     -989 
   -1024    -1074    -1121    -1156    -1193    -1228    -1264    -1306 
   -1344    -1372    -1402    -1443    -1495    -1541    -1580    -1615 
   -1637    -1668    -1713    -1753    -1791    -1825    -1852    -1878 
   -1912    -1946    -1973    -2012    -2058    -2100    -2141    -2168 
   -2187    -2208    -2231    -2266    -2311    -2347    -2373    -2386 
   -2398    -2423    -2470    -2528    -2567    -2577    -2583    -2608 
   -2632    -2644    -2655    -2675    -2706    -2728    -2735    -2752 
   -2779    -2797    -2813    -2833    -2856    -2875    -2886    -2899 
   -2913    -2913    -2903    -2909    -2933    -2951    -2949    -2951 
   -2971    -2992    -2999    -3001    -3006    -3007    -2998    -2990 
   -2994    -2998    -2991    -2967    -2953    -2957    -2960    -2960 
   -2970    -2972    -2967    -2961    -2933    -2903    -2893    -2884 
   -2879    -2874    -2853    -2832    -2817    -2811    -2814    -2809 
   -2792    -2763    -2735    -2728    -2708    -2664    -2628    -2613 
   -2619    -2623    -2619    -2612    -2570    -2500    -2461    -2473 
   -2496    -2485    -2434    -2392    -2369    -2351    -2336    -2319 
   -2305    -2289    -2267    -2247    -2212    -2165    -2146    -2153 
   -2150    -2121    -2081    -2053    -2039    -2029    -2018    -1996 
   -1964    -1934    -1907    -1894    -1891    -1875    -1844    -1815 
   -1800    -1794    -1771    -1736    -1702    -1672    -1663    -1671 
   -1658    -1632    -1606    -1591    -1580    -1560    -1539    -1532 
   -1520    -1494    -1462    -1428    -1399    -1390    -1397    -1395 
   -1375    -1339    -1300    -1282    -1279    -1266    -1252    -1239 
   -1215    -1194    -1181    -1161    -1140    -1127    -1120    -1112 
   -1085    -1055    -1047    -1043    -1028    -1013     -993     -965 
    -949     -950     -950     -940     -928     -911     -892     -882 
    -873     -864     -859     -854     -845     -835     -822     -810 
    -800     -793     -792     -795     -788     -777     -772     -762 
    -756     -754     -749     -746     -743     -735     -735     -738 
    -737     -728     -722     -723     -722     -720     -723     -720 
    -715     -714     -715     -714     -706     -700     -704     -712 
    -714     -708     -707     -707     -710     -714     -719     -724 
    -719     -715     -722     -723     -724     -723     -722     -728 
    -728     -726     -727     -724     -728     -737     -734     -735 
    -743     -753     -762     -761     -758     -766     -772     -776 
    -784     -791     -796     -803     -808     -812     -818     -827 
    -841     -849     -855     -869     -882     -893     -908     -918 
    -923     -935     -950     -967     -985     -994    -1008    -1024 
   -1032    -1047    -1060    -1070    -1088    -1105    -1121    -1139 
   -1158    -1179    -1196    -1208    -1224    -1242    -1258    -1273 
   -1289    -1304    -1314    -1332    -1351    -1368    -1390    -1412 
   -1431    -1447    -1459    -1468    -1480    -1497    -1512    -1525 
   -1540    -1551    -1560    -1574    -1586    -1597    -1610    -1624 
   -1636    -1642    -1652    -1661    -1664    -1669    -1677    -1680 
   -1687    -1691    -1695    -1702    -1701    -1707    -1717    -1717 
   -1719    -1717    -1713    -1715    -1713    -1710    -1711    -1709 
   -1707    -1706    -1703    -1699    -1691    -1687    -1687    -1680 
   -1671    -1665    -1658    -1649    -1642    -1636    -1632    -1628 
   -1614    -1609    -1606    -1594    -1587    -1582    -1568    -1560 
   -1553    -1540    -1533    -1525    -1514    -1503    -1491    -1482 
   -1474    -1463    -1452    -1441    -1431    -1420    -1405    -1397 
   -1389    -1375    -1366    -1354    -1337    -1323    -1308    -1298 
   -1291    -1282    -1274    -1262    -1252    -1246    -1229    -1212 
   -1206    -1198    -1188    -1175    -1161    -1147    -1135    -1124 
   -1116    -1107    -1096    -1084    -1073    -1062    -1051    -1039 
   -1030    -1021    -1009     -996     -985     -974     -965     -954 
    -943     -940     -938     -929     -928     -923     -913     -909 
    -903     -890     -881     -877     -873     -864     -858     -859 
    -857     -851     -851     -851     -850     -847     -842     -842 
    -838     -835     -837     -835     -832     -835     -838     -838 
    -837     -843     -846     -847     -853     -854     -859     -869 
    -876     -882     -886     -889     -895     -903     -908     -912 
    -922     -935     -940     -943     -951     -954     -951     -957 
    -969     -980     -982     -982     -990    -1000    -1003    -1007 
   -1011    -1017    -1028    -1039    -1046    -1050    -1057    -1065 
   -1071    -1081    -1090    -1094    -1100    -1104    -1107    -1113 
   -1119    -1125    -1132    -1136    -1146    -1156    -1162    -1167 
   -1170    -1178    -1188    -1190    -1197    -1204    -1206    -1215 
   -1221    -1225    -1229    -1235    -1237    -1240    -1247    -1254 
   -1254    -1254    -1254    -1258    -1262    -1263    -1263    -1264 
   -1263    -1269    -1277    -1278    -1279    -1285    -1286    -1282 
