Origin Time       2016/04/16 01:25:00
Lat.              32.753
Long.             130.762
Depth. (km)       12
Mag.              7.3
Station Code      SIT010
Station Lat.      35.9065
Station Long.     139.6481
Station Height(m) 13
Record Time       2016/04/16 01:30:06
Sampling Freq(Hz) 100Hz
Duration Time(s)  60
Dir.              E-W
Scale Factor      7845(gal)/8223790
Max. Acc. (gal)   1.225
Last Correction   2016/04/16 01:30:09
Memo.             
[...]
     673      661      652      638      622      608      594      569 
     553      545      526      506      488      473      467      454 
     436      418      409      394      378      365      353      337 
     321      307      295      282      263      251      243      228 
     211      205      195      183      171      159      149      140 
     129      118      112      109       98       90       89       82 
      71       65       60       52       43       36       39       36 
      27       20       17       13       13       11        8        5 
       0       -2       -2       -5       -5       -9      -14      -11 
      -9      -13      -14      -14      -13      -11      -16      -13 
      -8       -9       -9       -5       -5        1        8        4 
       5       18       22       18       29       40       43       47 
      56       65       70       72       86       94       89       95 
     117      126      135      149      157      164      180      193 
     198      214      228      229      245      268      276      287 
     295      305      329      341      341      363      382      386 
     402      417      423      438      451      461      479      498 
     508      523      538      548      560      571      584      600 
     614      627      645      662      679      692      702      719 
     735      750      767      778      791      805      819      835 
     851      864      880      895      911      927      943      961 
     972      986     1009     1026     1039     1055     1070     1088 
    1102     1119     1142     1159     1175     1193     1210     1228 
    1244     1263     1279     1287     1304     1324     1337     1352 
    1367     1382     1398     1413     1426     1444     1462     1472 
    1486     1506     1517     1526     1540     1547     1561     1579 
    1582     1598     1618     1621     1630     1641     1651     1671 
    1675     1676     1695     1702     1705     1713     1719     1733 
    1740     1733     1742     1763     1764     1761     1772     1777 
    1780     1790     1795     1799     1807     1809     1809     1817 
    1822     1825     1830     1831     1831     1840     1841     1838 
    1838     1840     1840     1840     1845     1844     1836     1836 
    1840     1833     1833     1830     1821     1825     1826     1818 
    1814     1806     1803     1806     1796     1786     1781     1771 
    1757     1753     1745     1734     1723     1714     1710     1698 
    1676     1664     1658     1648     1637     1624     1606     1594 
    1580     1561     1549     1537     1518     1506     1494     1474 
    1455     1439     1426     1413     1393     1377     1366     1348 
    1332     1313     1294     1286     1269     1246     1237     1224 
    1205     1190     1178     1165     1152     1136     1119     1112 
    1102     1085     1073     1065     1058     1046     1035     1031 
    1026     1016     1007      999      994      990      981      973 
     969      965      961      955      953      953      947      938 
     940      946      938      929      931      934      928      923 
     923      929      932      928      931      938      936      939 
     946      947      950      949      949      961      969      969 
     976      984      992     1000     1000     1011     1028     1030 
    1031     1044     1055     1065     1071     1078     1093     1097 
    1096     1112     1125     1131     1136     1144     1162     1169 
    1171     1189     1200     1205     1216     1223     1237     1254 
    1252     1264     1282     1286     1298     1314     1321     1333 
    1340     1350     1366     1375     1381     1387     1402     1418 
    1424     1433     1444     1448     1460     1471     1476     1483 
    1490     1498     1509     1514     1516     1522     1532     1537 
    1539     1547     1551     1552     1563     1568     1567     1571 
    1571     1578     1587     1580     1575     1580     1586     1588 
    1583     1586     1588     1583     1580     1586     1588     1579 
    1570     1572     1575     1567     1563     1566     1560     1554 
    1553     1552     1548     1540     1533     1533     1534     1528 
    1517     1514     1513     1505     1495     1493     1494     1486 
    1472     1472     1471     1462     1456     1455     1453     1449 
    1440     1435     1437     1439     1433     1429     1425     1421 
    1416     1410     1414     1417     1408     1404     1405     1405 
    1405     1404     1404     1402     1398     1399     1405     1408 
    1408     1408     1410     1416     1416     1417     1424     1428 
    1431     1433     1436     1441     1447     1448     1455     1464 
    1466     1468     1478     1486     1490     1495     1501     1509 
    1513     1516     1526     1540     1549     1552     1560     1571 
    1579     1587     1594     1602     1611     1618     1628     1637 
    1645     1655     1663     1669     1676     1688     1701     1706 
    1714     1726     1729     1740     1750     1752     1761     1771 
    1775     1784     1794     1796     1802     1810     1815     1818 
    1825     1833     1833     1840     1844     1845     1852     1858 
    1863     1867     1869     1872     1873     1872     1876     1878 
    1875     1881     1887     1884     1887     1890     1888     1895 
    1895     1887     1890     1898     1895     1894     1899     1899 
    1896     1898     1898     1899     1903     1899     1899     1900 
    1896     1896     1898     1896     1900     1903     1900     1904 
    1902     1896     1899     1899     1899     1899     1894     1896 
    1899     1896     1898     1898     1888     1888     1887     1880 
    1880     1877     1871     1868     1859     1854     1856     1848 
    1836     1831     1829     1817     1804     1799     1791     1784 
    1775     1764     1755     1741     1729     1723     1711     1695 
    1680     1668     1663     1652     1626     1617     1613     1590 
    1571     1561     1547     1533     1512     1491     1485     1472 
    1447     1429     1416     1398     1379     1358     1345     1333 
    1308     1287     1271     1254     1235     1215     1197     1177 
    1155     1133     1117     1107     1085     1059     1038     1017 
    1000      982      959      940      918      897      877      861 
     843      822      799      784      762      739      722      700 
     684      666      645      626      610      595      579      558 
     544      530      513      499      480      464      454      433 
     417      407      392      380      365      351      342      333 
     319      302      291      289      275      259      257      245 
     229      225      221      212      202      197      194      183 
     175      170      164      164      157      144      143      141 
     133      128      129      129      126      118      116      117 
     114      110      108      109      109      102      101      108 
     108      102      106      112      112      110      114      117 
     121      128      122      121      129      126      126      131 
     131      135      141      143      149      152      151      159 
     164      168      175      175      178      186      183      186 
     195      198      199      202      203      205      205      207 
     212      211      214      212      210      217      218      217 
     220      218      224      230      225      230      240      241 
     241      241      241      246      246      243      248      253 
     252      252      255      259      259      253      253      263 
     261      251      251      255      253      248      245      246 
     246      240      233      234      238      233      228      230 
     229      222      221      222      220      214      207      211 
     218      212      201      203      206      201      198      197 
     197      198      194      194      197      195      193      191 
     195      199      199      203      207      211      214      216 
     225      232      233      238      244      252      259      263 
     266      274      276      283      291      295      302      313 
     315      321      328      334      340      344      352      359 
     359      363      370      378      376      376      387      391 
     388      388      392      396      399      398      399      405 
     402      395      396      400      403      399      396      405 
     406      398      399      403      407      406      402      403 
     406      406      406      403      406      411      403      400 
     406      402      398      399      396      398      396      388 
     390      391      386      382      383      383      380      378 
     376      380      382      370      368      375      368      361 
     364      359      352      349      344      341      334      329 
     325      319      315      310      302      299      298      294 
     287      278      275      272      261      253      257      252 
     241      238      236      229      224      218      212      209 
     198      184      183      182      174      163      156      153 
     149      137      128      125      121      110      103      108 
     105       90       82       85       82       78       72       67 
      65       67       60       56       60       58       55       56 
      56       52       54       54       54       56       52       52 
      58       58       56       59       59       65       75       74 
      74       81       86       90       93       97      101      103 
     108      109      117      124      120      125      136      137 
     140      144      151      153      147      148      157      159 
     159      160      162      174      176      168      178      186 
     182      187      195      201      203      199      203      214 
     217      216      217      225      234      229      229      244 
     244      236      243      249      252      256      255      259 
     266      263      265      275      279      279      283      284 
     288      298      302      310      319      319      324      336 
     342      351      361      365      369      382      391      400 
     411      421      430      440      450      464      475      484 
     495      510      519      526      540      557      565      576 
     596      611      618      638      656      665      683      697 
     711      728      745      760      777      789      810      837 
     846      851      877      903      915      929      953      976 
     993     1008     1030     1051     1070     1086     1104     1127 
    1154     1171     1181     1206     1233     1243     1259     1285 
    1305     1321     1339     1363     1389     1410     1425     1441 
    1470     1491     1502     1525     1554     1566     1580     1609 
    1630     1644     1663     1680     1698     1722     1736     1746 
    1775     1794     1800     1817     1833     1848     1864     1878 
    1896     1918     1929     1939     1960     1972     1984     2001 
    2011     2025     2043     2052     2061     2074     2083     2097 
    2111     2114     2119     2133     2138     2143     2153     2162 
    2169     2169     2173     2181     2188     2191     2189     2195 
    2196     2196     2196     2199     2207     2208     2192     2199 
    2209     2195     2192     2196     2184     2182     2188     2176 
    2169     2165     2151     2149     2153     2128     2110     2116 
    2111     2091     2077     2070     2066     2056     2034     2023 
    2018     2006     1992     1980     1971     1961     1942     1927 
    1921     1903     1890     1878     1859     1850     1845     1817 
    1799     1800     1784     1767     1761     1741     1723     1722 
    1707     1686     1675     1657     1642     1637     1618     1597 
    1593     1579     1556     1549     1535     1520     1509     1490 
    1472     1468     1453     1435     1425     1412     1393     1391 
    1382     1360     1355     1350     1325     1318     1313     1293 
    1290     1282     1262     1259     1255     1235     1233     1230 
    1216     1210     1205     1193     1196     1192     1174     1177 
    1185     1177     1175     1178     1173     1177     1181     1173 
    1179     1193     1185     1188     1198     1196     1204     1215 
    1212     1221     1229     1230     1247     1255     1254     1269 
    1282     1282     1301     1316     1318     1333     1348     1360 
    1379     1389     1397     1418     1436     1445     1460     1475 
    1490     1509     1521     1528     1551     1574     1584     1599 
    1621     1632     1652     1675     1682     1691     1717     1736 
    1742     1760     1779     1790     1803     1823     1833     1849 
    1872     1883     1891     1910     1926     1942     1958     1969 
    1984     2001     2010     2022     2039     2052     2061     2073 
    2087     2098     2107     2118     2130     2141     2150     2161 
    2172     2182     2192     2199     2204     2215     2226     2230 
    2235     2242     2245     2253     2261     2263     2263     2267 
    2273     2276     2277     2277     2282     2289     2285     2281 
    2289     2289     2282     2282     2282     2282     2281     2274 
    2270     2273     2265     2257     2254     2249     2246     2243 
    2232     2224     2220     2218     2208     2193     2184     2182 
    2172     2157     2147     2142     2133     2116     2104     2096 
    2083     2070     2058     2043     2031     2018     2003     1991 
    1979     1964     1945     1930     1921     1903     1885     1873 
    1859     1848     1833     1814     1803     1791     1769     1757 
    1748     1732     1715     1701     1684     1674     1660     1641 
    1630     1620     1605     1593     1584     1578     1568     1552 
    1537     1526     1518     1509     1499     1487     1475     1463 
    1451     1444     1435     1426     1420     1409     1398     1393 
    1381     1370     1364     1358     1344     1332     1327     1324 
    1314     1300     1290     1282     1275     1270     1259     1247 
    1246     1237     1224     1221     1217     1202     1196     1192 
    1183     1178     1166     1154     1154     1146     1129     1123 
    1119     1109     1098     1088     1081     1074     1062     1053 
    1047     1036     1023     1017     1013     1005      993      984 
     981      974      961      949      942      942      935      920 
     911      909      903      892      885      877      872      862 
     853      850      845      831      822      818      814      803 
     792      789      787      776      764      756      753      749 
     739      728      726      724      715      707      702      699 
     693      687      684      685      676      664      662      662 
     656      645      639      642      639      629      623      625 
     623      615      607      606      604      600      594      588 
     587      584      575      569      572      565      553      550 
     552      549      540      526      526      532      519      504 
     508      511      495      481      486      490      480      468 
     463      461      453      437      433      440      429      411 
     406      403      398      388      372      369      373      360 
     348      349      341      329      324      317      314      306 
     287      286      288      274      263      255      244      240 
     229      218      216      207      197      191      186      176 
     164      159      153      144      139      128      122      120 
     110      101       94       89       86       76       63       60 
      62       55       41       39       43       35       18       16 
      20       17        5       -2        5        4      -11      -17 
     -11       -9      -21      -31      -28      -32      -40      -43 
     -45      -47      -54      -65      -65      -63      -70      -76 
     -79      -81      -79      -85      -91      -90      -89      -97 
    -101      -97      -99     -102     -103     -108     -108     -109 
    -110     -109     -109     -110     -114     -118     -114     -109 
    -112     -110     -109     -110     -108     -109     -106     -101 
    -102      -99      -95      -94      -93      -93      -89      -85 
     -79      -76      -75      -67      -58      -56      -55      -44 
     -32      -29      -32      -22       -5       -2       -2        8 
      23       32       32       41       55       64       72       81 
      95      109      112      120      136      149      156      163 
     178      195      201      206      221      236      245      252 
     263      282      288      292      310      325      333      337 
     348      367      376      380      394      407      414      418 
     425      444      457      457      463      477      487      492 
     495      503      518      523      526      535      540      545 
     556      560      565      579      583      577      584      596 
     603      604      610      622      626      625      630      639 
     646      653      657      662      670      672      675      687 
     693      697      707      712      719      726      726      731 
     743      749      754      765      772      777      784      791 
     799      808      812      818      834      842      841      849 
     861      873      877      877      890      903      905      909 
     916      922      929      935      935      940      947      953 
     957      959      965      970      972      973      978      986 
     990      987      989     1000     1000      996     1000     1003 
    1000      999      999      999     1000      996      993      994 
     993      989      986      982      982      978      974      977 
     970      959      959      957      949      945      938      931 
     928      922      909      903      901      893      882      881 
     880      873      866      859      854      851      841      830 
     830      830      819      811      812      812      804      791 
     787      793      788      774      772      772      765      758 
     757      756      750      747      745      743      743      737 
     731      737      739      734      731      733      735      735 
     731      730      737      741      738      737      746      751 
     750      758      764      766      770      772      781      792 
     791      792      805      815      820      824      834      846 
     853      858      872      884      890      901      912      922 
     936      946      953      967      982      993     1005     1020 
    1036     1050     1058     1073     1092     1102     1113     1129 
    1142     1162     1177     1182     1201     1221     1224     1237 
    1259     1269     1285     1301     1308     1327     1343     1350 
    1367     1385     1394     1409     1425     1439     1451     1460 
