Origin Time       2016/04/16 01:25:00
Lat.              32.753
Long.             130.762
Depth. (km)       12
Mag.              7.3
Station Code      SMN017
Station Lat.      36.0933
Station Long.     132.9840
Station Height(m) 3
Record Time       2016/04/16 01:27:07
Sampling Freq(Hz) 100Hz
Duration Time(s)  60
Dir.              E-W
Scale Factor      7845(gal)/8223790
Max. Acc. (gal)   1.401
Last Correction   2016/04/16 01:27:08
Memo.             
[...]
    4021     4031     4040     4045     4050     4055     4062     4066 
    4063     4060     4055     4044     4036     4032     4025     4023 
    4017     4010     4008     4009     4008     4013     4024     4027 
    4029     4039     4040     4035     4040     4043     4032     4027 
    4025     4021     4021     4027     4031     4036     4041     4050 
    4054     4052     4052     4048     4036     4033     4028     4016 
    4009     4002     3993     3984     3977     3967     3964     3967 
    3970     3969     3967     3963     3956     3954     3951     3951 
    3958     3973     3987     4003     4021     4039     4051     4063 
    4079     4087     4090     4091     4081     4066     4055     4043 
    4031     4029     4028     4025     4029     4039     4048     4054 
    4058     4060     4060     4060     4062     4060     4060     4060 
    4058     4051     4047     4043     4035     4031     4035     4041 
    4052     4072     4088     4101     4118     4128     4122     4118 
    4107     4088     4078     4067     4052     4048     4048     4044 
    4039     4032     4023     4014     4014     4017     4021     4039 
    4062     4083     4104     4117     4121     4121     4116     4107 
    4095     4088     4093     4090     4088     4099     4107     4117 
    4136     4153     4174     4205     4233     4256     4279     4297 
    4303     4299     4291     4278     4253     4225     4191     4159 
    4133     4113     4097     4088     4086     4083     4081     4083 
    4085     4077     4077     4081     4077     4074     4083     4087 
    4091     4098     4101     4104     4116     4128     4140     4155 
    4168     4178     4182     4183     4178     4171     4170     4163 
    4149     4140     4133     4113     4104     4104     4098     4101 
    4106     4107     4113     4120     4125     4131     4133     4140 
    4140     4137     4137     4139     4135     4139     4147     4148 
    4151     4159     4159     4155     4156     4152     4143     4136 
    4121     4101     4086     4081     4077     4072     4072     4074 
    4074     4072     4069     4069     4072     4077     4074     4072 
    4071     4064     4052     4045     4040     4036     4040     4043 
    4041     4043     4047     4041     4036     4036     4031     4020 
    4017     4014     4006     4005     4008     4001     3994     3996 
    3993     3990     3993     3993     3993     3997     4001     4008 
    4014     4021     4029     4036     4040     4040     4039     4040 
    4044     4044     4041     4040     4039     4036     4036     4045 
    4059     4072     4093     4110     4117     4124     4128     4121 
    4116     4116     4116     4122     4137     4149     4159     4166 
    4166     4159     4149     4137     4121     4112     4107     4101 
    4101     4106     4109     4114     4122     4128     4131     4132 
    4131     4125     4117     4114     4110     4106     4105     4110 
    4112     4116     4125     4135     4144     4159     4170     4178 
    4189     4199     4205     4210     4218     4218     4212     4209 
    4207     4202     4197     4197     4199     4199     4200     4203 
    4199     4199     4205     4205     4209     4220     4230     4237 
    4248     4256     4261     4266     4263     4252     4236     4218 
    4200     4186     4176     4167     4167     4172     4178     4182 
    4183     4185     4180     4174     4166     4156     4147     4139 
    4132     4126     4125     4124     4121     4122     4124     4122 
    4121     4131     4144     4158     4180     4210     4233     4256 
    4283     4299     4305     4311     4309     4291     4271     4253 
    4228     4202     4180     4166     4156     4149     4143     4140 
    4143     4143     4140     4145     4144     4133     4125     4117 
    4104     4087     4064     4040     4017     3994     3973     3958 
    3946     3936     3935     3940     3944     3948     3950     3959 
    3971     3977     3983     4001     4014     4025     4045     4066 
    4079     4095     4112     4118     4128     4133     4132     4135 
    4129     4118     4114     4104     4086     4074     4059     4044 
    4036     4035     4032     4032     4036     4036     4035     4036 
    4040     4040     4043     4055     4063     4067     4074     4083 
    4085     4086     4090     4090     4087     4085     4086     4085 
    4081     4074     4072     4074     4078     4077     4078     4083 
    4082     4083     4087     4083     4078     4074     4066     4052 
    4045     4039     4029     4027     4027     4029     4035     4040 
    4047     4060     4074     4086     4104     4120     4133     4145 
    4151     4156     4167     4174     4178     4178     4172     4159 
    4143     4120     4102     4091     4078     4069     4071     4072 
    4077     4085     4087     4088     4094     4094     4095     4102 
    4106     4107     4113     4122     4132     4147     4159     4172 
    4180     4182     4178     4171     4159     4145     4133     4124 
    4120     4120     4124     4140     4163     4183     4212     4238 
    4256     4270     4276     4270     4255     4233     4210     4187 
    4164     4147     4132     4116     4102     4087     4072     4059 
    4047     4036     4029     4025     4025     4027     4033     4048 
    4062     4074     4091     4105     4105     4104     4105     4102 
    4094     4086     4079     4074     4068     4062     4052     4036 
    4017     4000     3983     3971     3973     3979     3987     4003 
    4025     4041     4055     4066     4069     4068     4063     4050 
    4028     4008     3991     3974     3959     3944     3931     3924 
    3923     3925     3932     3937     3944     3950     3958     3967 
    3975     3987     4005     4020     4035     4054     4069     4081 
    4085     4088     4091     4091     4090     4088     4090     4097 
    4104     4109     4116     4120     4122     4128     4133     4135 
    4128     4122     4122     4118     4122     4139     4155     4172 
    4197     4214     4230     4253     4271     4280     4286     4283 
    4275     4258     4232     4202     4180     4162     4140     4128 
    4129     4133     4136     4148     4167     4183     4200     4215 
    4220     4220     4213     4194     4172     4148     4121     4099 
    4086     4078     4081     4090     4099     4113     4125     4129 
    4136     4140     4137     4136     4136     4132     4132     4140 
    4147     4152     4156     4158     4159     4159     4151     4137 
    4124     4113     4098     4083     4077     4077     4074     4082 
    4090     4090     4088     4090     4087     4082     4071     4055 
    4041     4029     4014     3997     3984     3970     3955     3948 
    3940     3940     3946     3948     3960     3978     3990     4010 
    4039     4062     4085     4110     4131     4144     4156     4159 
    4155     4152     4140     4114     4087     4066     4040     4016 
    3997     3979     3963     3954     3948     3946     3943     3946 
    3950     3951     3956     3962     3964     3969     3977     3983 
    3982     3982     3983     3978     3974     3978     3977     3977 
    3984     3990     3990     3994     3994     3984     3975     3965 
    3958     3954     3956     3964     3978     3987     3997     4010 
    4020     4023     4025     4017     4006     3993     3974     3956 
    3939     3919     3905     3904     3901     3898     3902     3909 
    3913     3917     3923     3929     3937     3947     3959     3971 
    3977     3983     3990     3987     3984     3990     3989     3987 
    3994     3998     4000     4006     4000     3984     3979     3975 
    3971     3974     3979     3981     3983     3987     3991     3993 
    3991     3987     3982     3978     3973     3962     3951     3950 
    3946     3937     3939     3942     3942     3946     3951     3950 
    3948     3951     3951     3954     3958     3964     3970     3979 
    3994     4005     4012     4031     4051     4069     4090     4113 
    4131     4144     4155     4163     4170     4175     4180     4183 
    4189     4197     4203     4214     4225     4237     4251     4266 
    4284     4299     4311     4321     4326     4329     4329     4327 
    4332     4332     4325     4321     4310     4294     4279     4266 
    4252     4240     4232     4228     4233     4241     4245     4247 
    4247     4243     4232     4218     4207     4197     4182     4170 
    4168     4164     4162     4167     4174     4175     4180     4190 
    4199     4209     4218     4230     4238     4245     4247     4240 
    4223     4207     4195     4180     4170     4159     4143     4132 
    4129     4122     4124     4139     4153     4170     4195     4218 
    4236     4252     4261     4260     4258     4256     4248     4232 
    4222     4214     4199     4194     4197     4200     4207     4215 
    4223     4230     4232     4233     4233     4238     4247     4251 
    4252     4258     4260     4258     4261     4263     4261     4258 
    4256     4251     4245     4241     4236     4225     4220     4210 
    4199     4190     4178     4163     4148     4131     4117     4110 
    4106     4102     4104     4107     4112     4113     4110     4106 
    4101     4093     4085     4077     4062     4048     4036     4025 
    4014     4006     3996     3984     3978     3969     3958     3947 
    3936     3925     3917     3910     3904     3899     3898     3894 
    3893     3893     3890     3890     3892     3888     3885     3886 
    3885     3882     3886     3894     3906     3925     3947     3970 
    3997     4024     4052     4085     4116     4145     4175     4203 
    4228     4258     4286     4302     4314     4324     4326     4327 
    4330     4329     4325     4321     4320     4327     4338     4351 
    4367     4382     4391     4393     4395     4398     4393     4383 
    4372     4360     4349     4342     4341     4340     4340     4342 
    4344     4344     4345     4341     4333     4325     4314     4305 
    4299     4293     4297     4307     4315     4329     4349     4367 
    4383     4395     4401     4405     4407     4409     4406     4403 
    4402     4399     4395     4393     4392     4388     4387     4386 
    4382     4376     4374     4374     4371     4371     4372     4367 
    4360     4357     4347     4332     4318     4299     4279     4266 
    4258     4253     4261     4278     4284     4293     4310     4321 
    4322     4327     4327     4321     4313     4303     4288     4274 
    4256     4236     4213     4190     4171     4155     4132     4114 
    4107     4104     4104     4114     4128     4140     4159     4178 
    4197     4213     4228     4247     4260     4268     4271     4270 
    4263     4253     4238     4223     4205     4187     4171     4156 
    4145     4137     4124     4104     4083     4060     4032     4003 
    3979     3958     3939     3927     3915     3908     3905     3902 
    3901     3906     3913     3920     3932     3955     3978     4000 
    4027     4052     4069     4085     4094     4095     4090     4082 
    4068     4051     4043     4036     4025     4020     4017     4013 
    4013     4016     4013     4009     4005     4001     3990     3979 
    3973     3965     3960     3959     3956     3951     3951     3955 
    3955     3956     3965     3974     3979     3989     4003     4016 
    4031     4048     4062     4071     4081     4087     4088     4090 
    4086     4078     4074     4074     4081     4099     4126     4159 
    4192     4225     4251     4271     4287     4299     4299     4293 
    4287     4275     4260     4248     4248     4255     4263     4274 
    4288     4307     4322     4336     4353     4367     4375     4382 
    4382     4372     4364     4355     4341     4330     4324     4320 
    4313     4306     4299     4287     4274     4256     4228     4200 
    4178     4151     4118     4099     4091     4087     4102     4135 
    4166     4210     4270     4321     4363     4407     4436     4452 
    4468     4477     4487     4500     4515     4534     4556     4573 
    4594     4618     4642     4665     4687     4706     4723     4741 
    4762     4791     4818     4850     4892     4934     4976     5017 
    5049     5070     5086     5100     5105     5108     5107     5097 
    5084     5073     5066     5063     5063     5066     5070     5071 
    5070     5062     5046     5022     4989     4954     4923     4895 
    4865     4849     4843     4837     4837     4847     4855     4860 
    4870     4876     4874     4877     4876     4866     4858     4858 
    4855     4857     4870     4881     4891     4904     4908     4903 
    4891     4861     4820     4776     4719     4654     4591     4522 
    4457     4401     4347     4306     4278     4253     4233     4223 
    4207     4189     4175     4153     4126     4107     4086     4055 
    4028     3997     3964     3940     3921     3904     3898     3896 
    3888     3877     3856     3824     3784     3736     3682     3632 
    3582     3526     3470     3416     3354     3295     3244     3190 
    3138     3099     3067     3034     3003     2979     2955     2928 
    2903     2880     2860     2843     2829     2820     2813     2803 
    2787     2768     2752     2736     2724     2721     2720     2716 
    2713     2708     2691     2674     2658     2640     2628     2633 
    2646     2663     2691     2718     2743     2766     2782     2794 
    2799     2805     2816     2832     2852     2880     2914     2944 
    2980     3019     3052     3084     3118     3142     3169     3194 
    3213     3232     3256     3268     3275     3283     3284     3287 
    3302     3331     3364     3407     3459     3508     3553     3588 
    3609     3626     3642     3658     3684     3715     3753     3798 
    3848     3901     3955     4005     4058     4120     4180     4237 
    4295     4352     4406     4464     4531     4596     4660     4726 
    4783     4835     4884     4918     4945     4966     4978     4984 
    4985     4984     4982     4984     4986     4989     4993     4997 
    5003     5003     5011     5030     5049     5070     5098     5121 
    5138     5157     5175     5188     5201     5217     5231     5250 
    5268     5283     5298     5316     5333     5352     5375     5394 
    5405     5410     5406     5398     5389     5377     5368     5360 
    5350     5339     5329     5314     5290     5258     5212     5154 
    5089     5017     4936     4852     4776     4695     4610     4534 
    4467     4399     4345     4307     4271     4238     4214     4185 
    4143     4098     4050     3993     3944     3901     3855     3813 
    3775     3734     3690     3653     3624     3605     3595     3591 
    3586     3577     3563     3549     3534     3515     3499     3496 
    3492     3485     3484     3478     3468     3464     3465     3468 
    3481     3501     3524     3554     3591     3624     3658     3690 
    3723     3754     3789     3825     3861     3898     3940     3989 
    4036     4086     4135     4182     4225     4258     4284     4305 
    4315     4309     4294     4276     4255     4228     4214     4205 
    4205     4220     4245     4278     4321     4367     4409     4452 
    4496     4533     4560     4580     4600     4614     4621     4629 
    4638     4649     4661     4680     4695     4698     4693     4677 
    4644     4603     4560     4513     4472     4437     4407     4388 
    4379     4380     4392     4407     4418     4419     4410     4390 
    4353     4311     4271     4237     4210     4197     4197     4202 
    4213     4225     4236     4240     4247     4251     4245     4241 
    4240     4228     4209     4191     4170     4139     4110     4091 
    4069     4048     4040     4036     4029     4023     4012     4000 
    3991     3982     3977     3981     3987     3998     4021     4051 
    4085     4118     4148     4171     4190     4205     4209     4202 
    4185     4162     4136     4107     4081     4060     4036     4020 
    4013     4008     4000     3994     3996     3996     3993     3993 
    4003     4021     4041     4067     4091     4102     4098     4083 
    4058     4024     3994     3969     3942     3927     3927     3927 
    3928     3939     3947     3946     3947     3950     3948     3951 
    3959     3960     3964     3971     3975     3981     3989     3997 
    4012     4035     4069     4116     4167     4225     4288     4352 
    4411     4464     4509     4548     4581     4598     4610     4627 
    4635     4642     4660     4680     4702     4733     4765     4789 
    4811     4837     4852     4857     4862     4866     4864     4862 
    4861     4845     4823     4801     4779     4756     4737     4719 
    4710     4707     4703     4699     4702     4704     4702     4698 
    4688     4666     4639     4606     4563     4518     4484     4457 
    4434     4426     4425     4415     4405     4392     4369     4341 
    4310     4271     4233     4205     4182     4162     4145     4129 
    4117     4107     4097     4086     4072     4051     4023     3984 
    3929     3861     3790     3719     3657     3615     3597     3597 
    3613     3642     3681     3713     3734     3750     3759     3759 
    3754     3743     3727     3712     3696     3678     3662     3640 
    3622     3613     3603     3591     3581     3570     3555     3546 
    3541     3544     3559     3584     3622     3681     3748     3813 
    3879     3939     3983     4016     4040     4051     4055     4063 
    4066     4062     4055     4041     4020     3990     3951     3906 
    3856     3812     3769     3724     3680     3640     3601     3561 
    3527     3499     3477     3459     3449     3439     3431     3418 
    3396     3369     3338     3294     3246     3207     3175     3154 
    3148     3149     3154     3164     3172     3179     3180     3180 
    3180     3190     3199     3213     3227     3244     3256     3268 
    3284     3302     3321     3345     3372     3402     3431     3461 
    3495     3528     3555     3581     3608     3634     3669     3707 
    3740     3770     3797     3816     3828     3839     3842     3844 
    3848     3854     3861     3870     3878     3888     3893     3892 
    3896     3904     3902     3902     3913     3928     3947     3981 
    4024     4066     4114     4159     4190     4218     4240     4251 
    4256     4258     4263     4275     4291     4315     4355     4401 
    4450     4504     4556     4602     4642     4675     4692     4698 
    4691     4676     4658     4641     4631     4635     4653     4691 
    4742     4803     4872     4943     5007     5063     5113     5148 
    5169     5179     5182     5185     5181     5169     5164     5167 
    5174     5189     5211     5231     5244     5254     5256     5254 
    5246     5239     5232     5223     5216     5209     5201     5193 
    5185     5169     5151     5125     5089     5054     5019     4978 
    4941     4915     4891     4864     4843     4822     4791     4761 
    4733     4696     4660     4630     4599     4564     4529     4500 
