Origin Time       2016/04/16 01:25:00
Lat.              32.753
Long.             130.762
Depth. (km)       12
Mag.              7.3
Station Code      SMN018
Station Lat.      36.1925
Station Long.     133.2331
Station Height(m) 5
Record Time       2016/04/16 01:27:12
Sampling Freq(Hz) 100Hz
Duration Time(s)  91
Dir.              E-W
Scale Factor      7845(gal)/8223790
Max. Acc. (gal)   3.093
Last Correction   2016/04/16 01:27:13
Memo.             
[...]
  -11762   -11769   -11780   -11794   -11812   -11838   -11869   -11904 
  -11940   -11978   -12020   -12062   -12104   -12147   -12185   -12216 
  -12245   -12272   -12290   -12301   -12306   -12303   -12297   -12286 
  -12268   -12248   -12224   -12194   -12166   -12136   -12100   -12062 
  -12028   -11996   -11966   -11936   -11909   -11881   -11851   -11817 
  -11780   -11732   -11680   -11619   -11556   -11488   -11416   -11340 
  -11259   -11178   -11095   -11007   -10920   -10836   -10752   -10673 
  -10600   -10531   -10469   -10409   -10359   -10316   -10276   -10233 
  -10191   -10145   -10096   -10046    -9991    -9933    -9875    -9819 
   -9763    -9705    -9651    -9599    -9549    -9502    -9454    -9414 
   -9381    -9350    -9321    -9293    -9263    -9232    -9198    -9165 
   -9131    -9096    -9067    -9045    -9026    -9012    -9001    -8996 
   -8993    -8991    -8989    -8985    -8982    -8982    -8978    -8970 
   -8968    -8966    -8965    -8968    -8977    -8992    -9008    -9023 
   -9043    -9063    -9081    -9101    -9120    -9137    -9158    -9177 
   -9193    -9217    -9246    -9278    -9319    -9358    -9397    -9440 
   -9481    -9518    -9562    -9602    -9640    -9680    -9720    -9752 
   -9788    -9826    -9859    -9891    -9925    -9957    -9985   -10015 
  -10044   -10073   -10108   -10147   -10191   -10239   -10289   -10342 
  -10397   -10454   -10508   -10565   -10621   -10677   -10732   -10785 
  -10835   -10883   -10930   -10976   -11021   -11070   -11122   -11179 
  -11241   -11311   -11383   -11458   -11539   -11619   -11696   -11774 
  -11846   -11911   -11975   -12035   -12086   -12128   -12158   -12179 
  -12191   -12191   -12183   -12167   -12137   -12102   -12062   -12017 
  -11965   -11908   -11858   -11811   -11761   -11720   -11692   -11665 
  -11641   -11622   -11605   -11587   -11569   -11546   -11518   -11488 
  -11460   -11426   -11392   -11356   -11317   -11277   -11237   -11199 
  -11167   -11140   -11115   -11099   -11092   -11088   -11087   -11094 
  -11109   -11129   -11151   -11176   -11209   -11237   -11261   -11290 
  -11315   -11341   -11372   -11407   -11443   -11484   -11529   -11574 
  -11614   -11653   -11692   -11727   -11759   -11786   -11805   -11824 
  -11838   -11847   -11858   -11870   -11881   -11898   -11914   -11929 
  -11947   -11966   -11985   -12004   -12027   -12051   -12079   -12108 
  -12131   -12155   -12182   -12204   -12225   -12249   -12274   -12297 
  -12321   -12340   -12357   -12371   -12376   -12384   -12395   -12402 
  -12414   -12433   -12455   -12478   -12501   -12525   -12544   -12557 
  -12567   -12575   -12583   -12590   -12591   -12591   -12584   -12569 
  -12556   -12540   -12522   -12515   -12518   -12525   -12541   -12567 
  -12600   -12640   -12684   -12733   -12779   -12822   -12864   -12898 
  -12927   -12949   -12961   -12970   -12976   -12972   -12968   -12964 
  -12954   -12937   -12916   -12892   -12865   -12834   -12796   -12753 
  -12703   -12645   -12590   -12538   -12487   -12434   -12388   -12353 
  -12320   -12285   -12253   -12221   -12187   -12155   -12122   -12085 
  -12050   -12016   -11982   -11951   -11919   -11881   -11840   -11797 
  -11749   -11695   -11642   -11589   -11537   -11488   -11445   -11411 
  -11388   -11368   -11354   -11349   -11346   -11346   -11348   -11346 
  -11341   -11335   -11325   -11306   -11283   -11253   -11219   -11183 
  -11140   -11086   -11024   -10949   -10868   -10783   -10697   -10609 
  -10524   -10444   -10372   -10311   -10257   -10212   -10179   -10154 
  -10138   -10121   -10106   -10085   -10061   -10038   -10021   -10003 
   -9991    -9985    -9985    -9992   -10006   -10019   -10038   -10062 
  -10083   -10096   -10106   -10106   -10095   -10077   -10055   -10027 
   -9998    -9971    -9949    -9931    -9921    -9913    -9911    -9913 
   -9911    -9906    -9898    -9891    -9879    -9864    -9853    -9842 
   -9832    -9825    -9817    -9817    -9826    -9834    -9844    -9859 
   -9876    -9892    -9913    -9940    -9969   -10006   -10052   -10102 
  -10156   -10211   -10265   -10320   -10374   -10422   -10467   -10514 
  -10561   -10606   -10651   -10697   -10740   -10778   -10814   -10847 
  -10867   -10885   -10895   -10897   -10897   -10897   -10887   -10874 
  -10856   -10832   -10805   -10778   -10740   -10700   -10666   -10624 
  -10577   -10534   -10490   -10446   -10399   -10353   -10307   -10258 
  -10206   -10149   -10093   -10038    -9981    -9925    -9865    -9807 
   -9753    -9707    -9667    -9636    -9610    -9596    -9596    -9603 
   -9621    -9652    -9690    -9732    -9779    -9833    -9887    -9937 
   -9985   -10031   -10076   -10116   -10160   -10203   -10243   -10287 
  -10328   -10368   -10408   -10451   -10496   -10546   -10605   -10665 
  -10731   -10810   -10895   -10986   -11082   -11171   -11250   -11325 
  -11387   -11438   -11485   -11524   -11554   -11580   -11599   -11611 
  -11626   -11641   -11659   -11685   -11718   -11754   -11797   -11844 
  -11894   -11946   -11997   -12048   -12101   -12154   -12205   -12254 
  -12305   -12353   -12396   -12439   -12483   -12519   -12555   -12590 
  -12622   -12654   -12688   -12721   -12756   -12798   -12837   -12877 
  -12927   -12978   -13026   -13073   -13126   -13180   -13231   -13279 
  -13329   -13379   -13427   -13473   -13518   -13565   -13612   -13653 
  -13694   -13730   -13761   -13783   -13795   -13805   -13809   -13799 
  -13782   -13760   -13733   -13694   -13645   -13590   -13528   -13466 
  -13404   -13333   -13267   -13213   -13159   -13105   -13061   -13023 
  -12989   -12962   -12937   -12920   -12910   -12893   -12873   -12849 
  -12825   -12795   -12764   -12737   -12710   -12680   -12660   -12641 
  -12631   -12626   -12621   -12619   -12617   -12618   -12618   -12609 
  -12598   -12583   -12563   -12538   -12513   -12482   -12447   -12413 
  -12375   -12330   -12287   -12244   -12197   -12150   -12102   -12051 
  -11998   -11944   -11892   -11842   -11793   -11751   -11718   -11692 
  -11677   -11666   -11661   -11658   -11657   -11654   -11645   -11624 
  -11596   -11568   -11534   -11495   -11455   -11422   -11392   -11375 
  -11365   -11360   -11358   -11367   -11375   -11379   -11385   -11394 
  -11400   -11403   -11399   -11389   -11379   -11362   -11344   -11325 
  -11304   -11286   -11272   -11256   -11237   -11221   -11206   -11195 
  -11190   -11186   -11187   -11196   -11209   -11223   -11242   -11261 
  -11277   -11298   -11323   -11346   -11369   -11395   -11422   -11449 
  -11473   -11503   -11537   -11566   -11596   -11630   -11663   -11692 
  -11718   -11735   -11745   -11749   -11745   -11736   -11732   -11727 
  -11718   -11711   -11711   -11708   -11703   -11699   -11692   -11680 
  -11663   -11639   -11608   -11572   -11530   -11485   -11443   -11406 
  -11373   -11346   -11327   -11318   -11313   -11313   -11318   -11323 
  -11326   -11326   -11321   -11313   -11300   -11284   -11267   -11245 
  -11219   -11194   -11165   -11134   -11105   -11076   -11044   -11016 
  -10991   -10967   -10945   -10926   -10912   -10901   -10891   -10886 
  -10883   -10881   -10875   -10870   -10863   -10856   -10848   -10839 
  -10829   -10825   -10829   -10840   -10859   -10883   -10914   -10955 
  -10996   -11038   -11082   -11124   -11163   -11200   -11234   -11265 
  -11292   -11315   -11333   -11348   -11356   -11356   -11353   -11344 
  -11327   -11303   -11276   -11250   -11229   -11207   -11187   -11175 
  -11164   -11153   -11137   -11111   -11083   -11052   -11016   -10982 
  -10953   -10920   -10891   -10868   -10848   -10833   -10820   -10804 
  -10788   -10774   -10750   -10716   -10681   -10642   -10596   -10547 
  -10503   -10461   -10424   -10388   -10358   -10339   -10327   -10322 
  -10327   -10338   -10349   -10366   -10385   -10396   -10408   -10419 
  -10424   -10428   -10432   -10436   -10442   -10447   -10449   -10447 
  -10450   -10453   -10459   -10473   -10492   -10516   -10544   -10578 
  -10619   -10665   -10714   -10767   -10821   -10876   -10932   -10986 
  -11038   -11090   -11138   -11186   -11234   -11286   -11340   -11396 
  -11457   -11519   -11583   -11647   -11709   -11769   -11827   -11885 
  -11936   -11985   -12035   -12081   -12128   -12178   -12226   -12272 
  -12320   -12363   -12399   -12428   -12449   -12464   -12475   -12483 
  -12486   -12486   -12482   -12478   -12476   -12476   -12482   -12492 
  -12510   -12530   -12548   -12571   -12592   -12609   -12622   -12631 
  -12636   -12636   -12633   -12625   -12614   -12604   -12594   -12583 
  -12575   -12569   -12564   -12559   -12555   -12548   -12540   -12529 
  -12515   -12499   -12482   -12467   -12453   -12438   -12422   -12406 
  -12383   -12352   -12316   -12267   -12206   -12141   -12067   -11983 
  -11897   -11809   -11715   -11623   -11535   -11449   -11372   -11303 
  -11236   -11179   -11133   -11088   -11051   -11014   -10971   -10930 
  -10891   -10849   -10809   -10763   -10716   -10674   -10627   -10578 
  -10536   -10494   -10449   -10407   -10372   -10338   -10307   -10274 
  -10241   -10208   -10177   -10142   -10108   -10079   -10049   -10026 
  -10008    -9992    -9979    -9969    -9956    -9945    -9940    -9933 
   -9931    -9934    -9944    -9961    -9984   -10015   -10055   -10100 
  -10149   -10207   -10263   -10316   -10374   -10431   -10484   -10539 
  -10597   -10654   -10709   -10766   -10828   -10890   -10949   -11011 
  -11078   -11138   -11196   -11257   -11308   -11358   -11407   -11448 
  -11485   -11529   -11570   -11611   -11662   -11713   -11769   -11832 
  -11898   -11965   -12036   -12105   -12171   -12239   -12301   -12355 
  -12402   -12439   -12468   -12492   -12510   -12525   -12540   -12553 
  -12561   -12567   -12571   -12575   -12575   -12571   -12561   -12552 
  -12536   -12514   -12498   -12479   -12449   -12415   -12383   -12351 
  -12320   -12290   -12263   -12240   -12220   -12205   -12190   -12178 
  -12174   -12174   -12174   -12174   -12175   -12177   -12179   -12179 
  -12171   -12159   -12139   -12108   -12067   -12016   -11951   -11884 
  -11811   -11731   -11653   -11574   -11496   -11422   -11353   -11284 
  -11217   -11153   -11097   -11039   -10982   -10929   -10879   -10827 
  -10781   -10743   -10708   -10674   -10648   -10627   -10608   -10594 
  -10579   -10563   -10542   -10511   -10473   -10430   -10377   -10322 
  -10266   -10212   -10156   -10108   -10071   -10039   -10015   -10004 
   -9995    -9987    -9984    -9979    -9973    -9965    -9954    -9941 
   -9925    -9902    -9875    -9846    -9815    -9782    -9745    -9705 
   -9670    -9633    -9596    -9560    -9528    -9497    -9475    -9456 
   -9447    -9445    -9454    -9474    -9497    -9524    -9558    -9589 
   -9618    -9648    -9672    -9687    -9699    -9707    -9707    -9709 
   -9709    -9707    -9703    -9697    -9690    -9683    -9675    -9666 
   -9653    -9644    -9640    -9641    -9649    -9664    -9684    -9717 
   -9759    -9807    -9864    -9927    -9999   -10076   -10157   -10241 
  -10324   -10405   -10478   -10543   -10602   -10655   -10701   -10743 
  -10782   -10821   -10863   -10909   -10956   -11002   -11049   -11092 
  -11133   -11169   -11199   -11223   -11245   -11265   -11284   -11306 
  -11327   -11345   -11356   -11372   -11387   -11400   -11419   -11437 
  -11453   -11469   -11485   -11502   -11515   -11527   -11539   -11553 
  -11564   -11580   -11596   -11614   -11632   -11651   -11661   -11669 
  -11676   -11674   -11669   -11666   -11663   -11659   -11658   -11659 
  -11662   -11668   -11674   -11677   -11680   -11688   -11696   -11703 
  -11715   -11728   -11745   -11767   -11796   -11828   -11863   -11900 
  -11940   -11980   -12023   -12069   -12120   -12174   -12231   -12294 
  -12355   -12413   -12469   -12525   -12577   -12627   -12673   -12711 
  -12745   -12773   -12792   -12808   -12820   -12825   -12825   -12826 
  -12827   -12822   -12820   -12818   -12812   -12806   -12796   -12785 
  -12776   -12765   -12756   -12744   -12729   -12718   -12706   -12687 
  -12667   -12641   -12610   -12576   -12540   -12501   -12461   -12420 
  -12383   -12352   -12320   -12287   -12258   -12229   -12197   -12168 
  -12144   -12117   -12087   -12056   -12021   -11985   -11951   -11916 
  -11880   -11844   -11812   -11778   -11739   -11700   -11659   -11618 
  -11569   -11521   -11477   -11435   -11398   -11368   -11344   -11322 
  -11303   -11290   -11275   -11256   -11242   -11230   -11214   -11196 
  -11180   -11163   -11146   -11132   -11121   -11110   -11101   -11099 
  -11103   -11102   -11101   -11102   -11099   -11090   -11074   -11053 
  -11029   -11001   -10967   -10929   -10890   -10852   -10813   -10778 
  -10747   -10720   -10696   -10677   -10666   -10659   -10652   -10648 
  -10648   -10651   -10648   -10644   -10640   -10632   -10619   -10598 
  -10574   -10543   -10511   -10476   -10436   -10397   -10359   -10322 
  -10282   -10246   -10207   -10162   -10114   -10061   -10006    -9944 
   -9876    -9807    -9736    -9662    -9587    -9509    -9433    -9360 
   -9286    -9215    -9147    -9084    -9019    -8961    -8904    -8845 
   -8785    -8729    -8675    -8625    -8584    -8553    -8530    -8519 
   -8517    -8517    -8527    -8543    -8553    -8560    -8567    -8565 
   -8553    -8538    -8522    -8496    -8467    -8434    -8398    -8361 
   -8324    -8281    -8240    -8214    -8185    -8152    -8131    -8100 
   -8066    -8048    -8028    -8005    -7989    -7974    -7967    -7966 
   -7964    -7964    -7981    -8016    -8051    -8082    -8122    -8170 
   -8214    -8266    -8329    -8401    -8474    -8540    -8610    -8685 
   -8756    -8824    -8896    -8966    -9030    -9090    -9144    -9193 
   -9240    -9286    -9333    -9379    -9429    -9487    -9547    -9610 
   -9675    -9738    -9807    -9877    -9946   -10021   -10096   -10166 
  -10239   -10314   -10385   -10457   -10525   -10594   -10665   -10728 
  -10786   -10844   -10897   -10947   -10993   -11041   -11091   -11137 
  -11184   -11233   -11280   -11335   -11389   -11443   -11500   -11557 
  -11607   -11653   -11700   -11742   -11780   -11811   -11834   -11855 
  -11877   -11890   -11902   -11919   -11925   -11928   -11931   -11932 
  -11928   -11927   -11920   -11908   -11897   -11888   -11878   -11873 
  -11871   -11869   -11867   -11869   -11873   -11881   -11892   -11904 
  -11919   -11932   -11951   -11974   -11993   -12006   -12021   -12036 
  -12044   -12054   -12056   -12051   -12044   -12039   -12028   -12013 
  -12001   -11990   -11980   -11966   -11951   -11942   -11929   -11904 
  -11874   -11844   -11808   -11766   -11722   -11677   -11637   -11595 
  -11543   -11499   -11462   -11415   -11365   -11319   -11273   -11219 
  -11160   -11107   -11052   -10994   -10941   -10882   -10827   -10779 
  -10721   -10674   -10642   -10605   -10578   -10555   -10547   -10547 
  -10540   -10543   -10557   -10570   -10592   -10608   -10629   -10658 
  -10674   -10694   -10714   -10729   -10754   -10771   -10785   -10809 
  -10831   -10852   -10878   -10910   -10949   -10986   -11024   -11065 
  -11099   -11133   -11169   -11198   -11214   -11234   -11254   -11271 
  -11277   -11280   -11284   -11286   -11284   -11277   -11269   -11271 
  -11263   -11250   -11244   -11233   -11225   -11217   -11204   -11195 
  -11183   -11173   -11168   -11165   -11165   -11169   -11171   -11168 
  -11169   -11168   -11156   -11144   -11133   -11115   -11095   -11079 
  -11067   -11048   -11032   -11026   -11018   -11017   -11020   -11014 
  -11022   -11029   -11036   -11055   -11068   -11080   -11098   -11107 
  -11122   -11136   -11134   -11138   -11144   -11136   -11119   -11101 
  -11075   -11047   -11016   -10971   -10929   -10897   -10852   -10809 
  -10778   -10741   -10698   -10658   -10617   -10574   -10535   -10500 
  -10466   -10432   -10401   -10376   -10353   -10331   -10318   -10309 
  -10305   -10304   -10307   -10315   -10334   -10357   -10382   -10417 
  -10457   -10498   -10550   -10604   -10654   -10709   -10766   -10824 
  -10887   -10951   -11009   -11067   -11122   -11175   -11226   -11272 
  -11313   -11350   -11383   -11407   -11430   -11450   -11465   -11475 
  -11483   -11483   -11479   -11476   -11472   -11462   -11454   -11445 
  -11434   -11426   -11416   -11410   -11408   -11404   -11402   -11400 
  -11398   -11396   -11392   -11391   -11396   -11403   -11414   -11429 
  -11443   -11461   -11484   -11503   -11521   -11546   -11566   -11583 
  -11597   -11611   -11620   -11630   -11638   -11645   -11647   -11651 
  -11659   -11670   -11680   -11691   -11700   -11700   -11700   -11701 
  -11696   -11691   -11682   -11673   -11659   -11643   -11627   -11608 
  -11577   -11541   -11510   -11481   -11448   -11412   -11383   -11358 
  -11333   -11307   -11279   -11249   -11214   -11175   -11133   -11088 
  -11047   -11005   -10962   -10920   -10883   -10848   -10813   -10781 
  -10751   -10725   -10708   -10693   -10679   -10670   -10669   -10666 
  -10665   -10667   -10669   -10666   -10665   -10667   -10666   -10658 
  -10652   -10652   -10652   -10652   -10659   -10671   -10681   -10694 
  -10712   -10727   -10743   -10763   -10779   -10797   -10821   -10847 
  -10867   -10891   -10918   -10948   -10979   -11010   -11041   -11075 
  -11110   -11146   -11180   -11210   -11240   -11273   -11308   -11344 
  -11383   -11422   -11464   -11511   -11557   -11599   -11642   -11686 
  -11726   -11762   -11792   -11821   -11850   -11875   -11898   -11923 
  -11944   -11966   -11982   -11997   -12012   -12024   -12032   -12039 
  -12044   -12051   -12058   -12059   -12064   -12074   -12081   -12089 
  -12105   -12124   -12145   -12168   -12197   -12226   -12258   -12294 
  -12334   -12372   -12411   -12449   -12484   -12514   -12542   -12568 
  -12587   -12602   -12614   -12617   -12614   -12611   -12596   -12580 
  -12565   -12544   -12521   -12503   -12482   -12457   -12438   -12417 
  -12395   -12380   -12368   -12361   -12367   -12379   -12398   -12426 
  -12457   -12494   -12530   -12565   -12602   -12636   -12663   -12690 
  -12721   -12745   -12764   -12784   -12798   -12803   -12806   -12800 
  -12784   -12761   -12733   -12694   -12647   -12599   -12546   -12498 
  -12452   -12410   -12378   -12357   -12345   -12339   -12341   -12349 
  -12360   -12371   -12384   -12401   -12414   -12424   -12429   -12437 
  -12445   -12448   -12451   -12456   -12457   -12459   -12463   -12465 
  -12468   -12471   -12471   -12468   -12464   -12456   -12445   -12432 
  -12415   -12399   -12383   -12363   -12344   -12324   -12302   -12278 
  -12252   -12221   -12188   -12154   -12117   -12077   -12029   -11977 
  -11927   -11873   -11817   -11765   -11716   -11665   -11618   -11573 
  -11533   -11499   -11469   -11439   -11415   -11398   -11379   -11365 
  -11360   -11354   -11349   -11345   -11334   -11322   -11304   -11277 
  -11246   -11209   -11159   -11103   -11049   -10989   -10930   -10878 
  -10828   -10785   -10754   -10728   -10710   -10700   -10696   -10696 
  -10700   -10706   -10719   -10736   -10759   -10783   -10813   -10848 
  -10885   -10926   -10974   -11024   -11075   -11130   -11183   -11237 
  -11295   -11346   -11392   -11439   -11485   -11527   -11562   -11599 
  -11641   -11686   -11736   -11789   -11847   -11911   -11975   -12044 
  -12112   -12181   -12249   -12317   -12380   -12445   -12514   -12583 
