Origin Time       2016/04/16 01:25:00
Lat.              32.753
Long.             130.762
Depth. (km)       12
Mag.              7.3
Station Code      SMN012
Station Lat.      34.3529
Station Long.     131.9352
Station Height(m) 300
Record Time       2016/04/16 01:25:43
Sampling Freq(Hz) 100Hz
Duration Time(s)  108
Dir.              N-S
Scale Factor      7845(gal)/8223790
Max. Acc. (gal)   6.966
Last Correction   2016/04/16 01:25:43
Memo.             
[...]
   -4174    -4055    -3809    -3438    -3011    -2610    -2293    -2107 
   -2053    -2095    -2185    -2282    -2361    -2390    -2351    -2286 
   -2273    -2336    -2442    -2551    -2671    -2792    -2887    -2938 
   -2941    -2901    -2837    -2756    -2674    -2605    -2512    -2378 
   -2239    -2120    -2018    -1908    -1779    -1649    -1539    -1466 
   -1476    -1603    -1813    -2066    -2358    -2690    -3056    -3427 
   -3767    -4031    -4135    -4020    -3740    -3407    -3109    -2857 
   -2660    -2538    -2459    -2378    -2295    -2223    -2177    -2191 
   -2258    -2335    -2384    -2389    -2342    -2209    -1975    -1679 
   -1383    -1156    -1081    -1182    -1389    -1621    -1852    -2068 
   -2242    -2377    -2498    -2629    -2795    -2979    -3141    -3269 
   -3339    -3329    -3257    -3159    -3044    -2928    -2809    -2679 
   -2570    -2506    -2474    -2428    -2346    -2251    -2163    -2062 
   -1921    -1742    -1560    -1412    -1314    -1297    -1378    -1544 
   -1761    -2000    -2255    -2531    -2818    -3102    -3368    -3609 
   -3823    -4005    -4139    -4205    -4202    -4124    -3971    -3744 
   -3466    -3194    -2951    -2720    -2485    -2249    -1996    -1709 
   -1422    -1217    -1142    -1189    -1351    -1615    -1942    -2296 
   -2641    -2940    -3163    -3300    -3364    -3392    -3422    -3454 
   -3468    -3451    -3423    -3410    -3420    -3454    -3484    -3470 
   -3391    -3245    -3080    -2961    -2929    -2997    -3157    -3358 
   -3541    -3673    -3730    -3688    -3547    -3303    -2984    -2681 
   -2457    -2338    -2344    -2465    -2646    -2839    -3032    -3241 
   -3480    -3730    -3944    -4078    -4104    -4012    -3846    -3674 
   -3544    -3461    -3420    -3400    -3343    -3211    -3044    -2928 
   -2890    -2901    -2936    -2974    -3018    -3130    -3333    -3574 
   -3794    -3935    -3989    -3977    -3925    -3867    -3809    -3726 
   -3626    -3535    -3433    -3284    -3079    -2829    -2550    -2258 
   -2015    -1883    -1894    -2083    -2444    -2882    -3275    -3522 
   -3595    -3511    -3339    -3175    -3080    -3059    -3094    -3156 
   -3223    -3261    -3229    -3137    -3028    -2910    -2795    -2698 
   -2581    -2421    -2269    -2163    -2115    -2143    -2253    -2421 
   -2647    -2928    -3249    -3589    -3931    -4253    -4538    -4745 
   -4827    -4777    -4641    -4448    -4225    -4028    -3901    -3870 
   -3924    -4032    -4158    -4245    -4251    -4168    -4010    -3796 
   -3563    -3353    -3173    -3025    -2911    -2840    -2818    -2847 
   -2928    -3073    -3287    -3541    -3788    -4003    -4158    -4228 
   -4233    -4191    -4098    -4002    -3958    -3977    -4035    -4062 
   -4003    -3856    -3623    -3327    -3056    -2886    -2849    -2955 
   -3161    -3404    -3618    -3755    -3813    -3805    -3732    -3608 
   -3466    -3325    -3184    -3044    -2906    -2778    -2659    -2546 
   -2466    -2465    -2583    -2852    -3257    -3719    -4149    -4513 
   -4797    -4996    -5117    -5166    -5119    -4963    -4714    -4388 
   -4002    -3559    -3063    -2536    -2020    -1587    -1310    -1250 
   -1431    -1817    -2327    -2882    -3404    -3815    -4074    -4166 
   -4114    -3990    -3877    -3838    -3886    -3986    -4082    -4143 
   -4178    -4200    -4197    -4158    -4087    -3978    -3817    -3615 
   -3385    -3153    -2955    -2829    -2818    -2949    -3207    -3524 
   -3821    -4050    -4191    -4275    -4334    -4351    -4266    -4069 
   -3802    -3524    -3294    -3141    -3064    -3049    -3082    -3168 
   -3312    -3476    -3620    -3707    -3711    -3634    -3495    -3317 
   -3152    -3048    -3017    -3065    -3198    -3385    -3573    -3721 
   -3808    -3831    -3796    -3716    -3589    -3434    -3294    -3206 
   -3191    -3254    -3353    -3429    -3476    -3530    -3634    -3811 
   -4072    -4391    -4702    -4941    -5046    -4968    -4704    -4286 
   -3776    -3295    -2934    -2714    -2619    -2590    -2556    -2497 
   -2417    -2336    -2308    -2382    -2559    -2801    -3045    -3248 
   -3388    -3466    -3507    -3542    -3597    -3690    -3816    -3951 
   -4055    -4090    -4036    -3886    -3659    -3399    -3150    -2932 
   -2744    -2584    -2461    -2423    -2519    -2735    -3025    -3307 
   -3496    -3574    -3546    -3434    -3295    -3173    -3090    -3067 
   -3105    -3186    -3296    -3407    -3491    -3539    -3554    -3524 
   -3464    -3402    -3354    -3333    -3355    -3450    -3632    -3879 
   -4131    -4320    -4399    -4375    -4297    -4218    -4159    -4113 
   -4031    -3880    -3688    -3500    -3330    -3186    -3098    -3087 
   -3130    -3179    -3200    -3180    -3136    -3119    -3169    -3287 
   -3472    -3740    -4067    -4396    -4689    -4926    -5092    -5178 
   -5164    -5063    -4918    -4748    -4573    -4415    -4263    -4077 
   -3828    -3516    -3188    -2884    -2623    -2448    -2397    -2454 
   -2594    -2781    -2938    -3010    -2986    -2898    -2806    -2783 
   -2866    -3025    -3230    -3465    -3701    -3906    -4072    -4210 
   -4334    -4452    -4544    -4595    -4617    -4599    -4542    -4456 
   -4340    -4205    -4054    -3867    -3640    -3404    -3173    -2959 
   -2785    -2655    -2560    -2500    -2469    -2438    -2400    -2386 
   -2435    -2562    -2756    -2986    -3218    -3419    -3572    -3669 
   -3719    -3759    -3821    -3920    -4048    -4182    -4289    -4352 
   -4374    -4352    -4271    -4136    -3962    -3755    -3505    -3226 
   -2945    -2685    -2454    -2266    -2149    -2126    -2184    -2282 
   -2381    -2434    -2447    -2470    -2551    -2717    -2936    -3138 
   -3294    -3388    -3415    -3414    -3415    -3387    -3294    -3159 
   -3033    -2956    -2944    -3019    -3194    -3446    -3750    -4052 
   -4289    -4407    -4369    -4164    -3827    -3445    -3109    -2866 
   -2712    -2614    -2538    -2470    -2394    -2297    -2188    -2076 
   -2000    -2015    -2142    -2370    -2683    -3040    -3395    -3707 
   -3936    -4058    -4086    -4068    -4045    -4033    -4040    -4047 
   -4017    -3940    -3811    -3634    -3458    -3322    -3217    -3109 
   -2986    -2871    -2783    -2729    -2716    -2747    -2794    -2814 
   -2790    -2720    -2616    -2527    -2504    -2552    -2650    -2759 
   -2852    -2922    -2978    -3030    -3084    -3148    -3237    -3369 
   -3557    -3786    -4039    -4271    -4402    -4364    -4158    -3856 
   -3553    -3296    -3086    -2880    -2664    -2448    -2245    -2068 
   -1930    -1841    -1790    -1780    -1814    -1876    -1958    -2083 
   -2257    -2459    -2646    -2786    -2893    -2963    -2979    -2943 
   -2879    -2806    -2747    -2732    -2775    -2868    -2995    -3123 
   -3227    -3295    -3322    -3316    -3300    -3296    -3323    -3369 
   -3399    -3375    -3275    -3090    -2856    -2635    -2458    -2335 
   -2274    -2267    -2322    -2446    -2629    -2847    -3079    -3298 
   -3481    -3615    -3696    -3747    -3802    -3880    -3975    -4066 
   -4116    -4107    -4060    -3997    -3898    -3767    -3627    -3464 
   -3240    -2964    -2693    -2492    -2398    -2412    -2492    -2597 
   -2700    -2786    -2844    -2857    -2816    -2754    -2735    -2801 
   -2922    -3036    -3088    -3033    -2868    -2646    -2415    -2211 
   -2076    -2022    -2050    -2165    -2338    -2527    -2700    -2829 
   -2880    -2844    -2737    -2600    -2484    -2420    -2386    -2338 
   -2280    -2239    -2227    -2228    -2234    -2257    -2290    -2305 
   -2299    -2303    -2328    -2400    -2551    -2792    -3107    -3465 
   -3840    -4207    -4514    -4699    -4746    -4657    -4419    -4048 
   -3607    -3183    -2839    -2596    -2455    -2404    -2403    -2444 
   -2552    -2737    -2944    -3098    -3159    -3129    -3040    -2940 
   -2889    -2918    -3005    -3102    -3183    -3250    -3322    -3388 
   -3446    -3508    -3577    -3645    -3713    -3765    -3765    -3663 
   -3453    -3210    -3024    -2948    -2995    -3125    -3268    -3373 
   -3412    -3364    -3229    -3063    -2933    -2856    -2843    -2920 
   -3061    -3176    -3203    -3159    -3080    -3007    -2970    -2976 
   -3032    -3111    -3194    -3291    -3385    -3440    -3461    -3492 
   -3542    -3599    -3624    -3549    -3345    -3061    -2779    -2558 
   -2371    -2189    -2083    -2101    -2184    -2288    -2421    -2546 
   -2635    -2752    -2972    -3281    -3613    -3919    -4174    -4369 
   -4495    -4567    -4618    -4644    -4623    -4563    -4441    -4218 
   -3888    -3485    -3092    -2797    -2629    -2602    -2748    -3071 
   -3501    -3909    -4195    -4305    -4176    -3794    -3273    -2785 
   -2417    -2123    -1811    -1497    -1298    -1262    -1324    -1433 
   -1598    -1844    -2215    -2697    -3188    -3596    -3898    -4098 
   -4190    -4187    -4124    -4028    -3937    -3894    -3888    -3858 
   -3748    -3568    -3397    -3342    -3434    -3647    -3940    -4215 
   -4348    -4322    -4232    -4152    -4072    -3962    -3863    -3827 
   -3789    -3636    -3400    -3203    -3071    -3006    -3042    -3164 
   -3317    -3485    -3639    -3755    -3836    -3885    -3923    -4012 
   -4152    -4252    -4240    -4099    -3823    -3477    -3188    -3006 
   -2917    -2906    -2945    -2995    -3018    -2994    -2933    -2839 
   -2721    -2624    -2552    -2484    -2434    -2431    -2470    -2500 
   -2486    -2494    -2578    -2732    -2956    -3226    -3454    -3584 
   -3669    -3761    -3811    -3724    -3480    -3157    -2855    -2574 
   -2326    -2169    -2050    -1930    -1956    -2265    -2766    -3264 
   -3665    -4008    -4321    -4572    -4730    -4808    -4835    -4800 
   -4706    -4627    -4606    -4571    -4442    -4225    -3954    -3677 
   -3406    -3126    -2895    -2785    -2802    -2925    -3127    -3327 
   -3462    -3534    -3550    -3466    -3246    -2896    -2467    -2072 
   -1859    -1868    -2027    -2280    -2550    -2785    -3078    -3496 
   -3990    -4568    -5193    -5702    -6057    -6284    -6311    -6095 
   -5679    -5166    -4673    -4205    -3716    -3254    -2914    -2718 
   -2643    -2609    -2542    -2482    -2527    -2701    -2965    -3258 
   -3505    -3704    -3925    -4228    -4568    -4830    -4911    -4803 
   -4585    -4334    -4066    -3784    -3562    -3478    -3488    -3485 
   -3449    -3433    -3456    -3501    -3558    -3603    -3593    -3520 
   -3439    -3400    -3353    -3242    -3133    -3126    -3219    -3345 
   -3465    -3515    -3407    -3133    -2786    -2475    -2232    -2052 
   -1973    -2023    -2153    -2285    -2362    -2347    -2243    -2137 
   -2130    -2227    -2354    -2465    -2516    -2513    -2533    -2582 
   -2610    -2647    -2745    -2963    -3316    -3692    -3996    -4238 
   -4369    -4334    -4228    -4131    -4014    -3892    -3805    -3765 
   -3808    -3981    -4220    -4461    -4710    -4928    -5069    -5096 
   -4970    -4737    -4515    -4351    -4190    -4032    -3909    -3804 
   -3699    -3643    -3676    -3765    -3871    -3986    -4116    -4248 
   -4357    -4405    -4352    -4159    -3798    -3275    -2679    -2121 
   -1636    -1246     -984     -843     -805     -842     -934    -1101 
   -1377    -1757    -2209    -2681    -3125    -3539    -3919    -4223 
   -4437    -4587    -4688    -4725    -4699    -4617    -4476    -4324 
   -4212    -4139    -4063    -3964    -3855    -3751    -3608    -3383 
   -3102    -2794    -2475    -2160    -1818    -1460    -1178    -1009 
    -920     -882     -881     -920    -1000    -1094    -1173    -1243 
   -1354    -1549    -1856    -2276    -2756    -3245    -3697    -4029 
   -4190    -4190    -4031    -3730    -3330    -2855    -2349    -1869 
   -1433    -1028     -634     -234      147      475      738      934 
    1058     1138     1197     1197     1116      958      707      387 
      54     -263     -549     -799    -1035    -1281    -1570    -1933 
   -2336    -2720    -3061    -3353    -3623    -3928    -4237    -4479 
   -4657    -4765    -4792    -4781    -4765    -4738    -4699    -4639 
   -4565    -4515    -4517    -4526    -4463    -4325    -4163    -3994 
   -3824    -3676    -3557    -3462    -3407    -3427    -3501    -3557 
   -3557    -3551    -3619    -3788    -4014    -4258    -4523    -4828 
   -5169    -5556    -5988    -6436    -6868    -7276    -7682    -8116 
   -8552    -8931    -9261    -9568    -9826    -9989   -10077   -10088 
  -10007    -9864    -9718    -9595    -9471    -9302    -9100    -8901 
   -8667    -8329    -7884    -7395    -6930    -6473    -5964    -5375 
   -4727    -4078    -3492    -2988    -2570    -2254    -2057    -1964 
   -1904    -1800    -1605    -1271     -781     -176      540     1345 
    2084     2602     2840     2792     2519     2081     1532      970 
     522      234       75       14       27       62       72       22 
     -68     -211     -476     -838    -1206    -1545    -1777    -1803 
   -1647    -1381    -1016     -581     -187       90      280      409 
     441      363      207       -8     -318     -757    -1343    -2085 
   -2938    -3820    -4668    -5462    -6195    -6845    -7423    -7897 
   -8213    -8410    -8557    -8708    -8939    -9271    -9655   -10045 
  -10374   -10500   -10308    -9730    -8726    -7353    -5765    -4113 
   -2486     -970      351     1429     2289     2976     3491     3839 
    4014     3939     3551     2886     1987      846     -444    -1669 
   -2702    -3496    -4058    -4437    -4661    -4747    -4743    -4714 
   -4681    -4642    -4612    -4554    -4402    -4120    -3666    -3025 
   -2231    -1334     -391      515     1275     1814     2047     1881 
    1344      579     -289    -1175    -2033    -2830    -3534    -4153 
   -4718    -5229    -5671    -6038    -6304    -6407    -6331    -6092 
   -5643    -4972    -4182    -3330    -2435    -1570     -810     -178 
     330      741     1062     1263     1312     1198      945      615 
     276      -71     -451     -824    -1136    -1383    -1556    -1680 
   -1814    -2018    -2338    -2781    -3343    -3996    -4675    -5383 
   -6143    -6909    -7568    -8056    -8349    -8398    -8181    -7723 
   -7099    -6394    -5668    -4954    -4233    -3503    -2828    -2254 
   -1792    -1455    -1204    -1039    -1000    -1046    -1136    -1242 
   -1313    -1344    -1382    -1474    -1636    -1876    -2218    -2667 
   -3190    -3677    -4032    -4270    -4453    -4572    -4579    -4495 
   -4334    -4104    -3878    -3681    -3500    -3315    -3045    -2652 
   -2195    -1733    -1336    -1092    -1023    -1100    -1343    -1749 
   -2250    -2771    -3223    -3527    -3674    -3685    -3603    -3472 
   -3327    -3213    -3141    -3088    -3059    -3037    -3014    -2992 
   -2988    -3021    -3095    -3211    -3383    -3612    -3869    -4077 
   -4187    -4175    -4036    -3825    -3619    -3453    -3343    -3299 
   -3294    -3335    -3461    -3673    -3978    -4384    -4862    -5398 
   -5985    -6552    -7037    -7454    -7803    -8070    -8260    -8334 
   -8253    -8028    -7662    -7146    -6486    -5715    -4892    -4104 
   -3450    -2959    -2578    -2281    -2084    -1995    -2001    -2077 
   -2209    -2396    -2594    -2759    -2903    -3044    -3226    -3538 
   -4020    -4644    -5352    -6044    -6635    -7063    -7271    -7267 
   -7137    -6983    -6866    -6793    -6790    -6879    -7021    -7148 
   -7198    -7142    -6987    -6750    -6507    -6361    -6336    -6377 
   -6458    -6550    -6569    -6420    -6026    -5317    -4306    -3094 
   -1799     -576      445     1260     1890     2300     2479     2435 
    2143     1571      754     -211    -1263    -2362    -3458    -4529 
   -5555    -6528    -7457    -8306    -9031    -9639   -10079   -10239 
  -10112    -9763    -9205    -8464    -7569    -6554    -5532    -4583 
   -3693    -2874    -2143    -1483     -907     -433       -1      417 
     754      986     1140     1194     1136     1015      847      638 
     414      152     -164     -473     -706     -845     -847     -688 
    -433     -129      191      456      623      681      621      461 
     160     -380    -1154    -2079    -3090    -4088    -4962    -5628 
   -5979    -5950    -5571    -4923    -4186    -3549    -3092    -2833 
   -2744    -2805    -2975    -3136    -3160    -2983    -2612    -2165 
   -1800    -1665    -1907    -2569    -3584    -4858    -6212    -7446 
   -8434    -9077    -9340    -9283    -8972    -8463    -7867    -7334 
   -6966    -6744    -6623    -6578    -6539    -6442    -6297    -6126 
   -5945    -5767    -5560    -5359    -5229    -5150    -5070    -4908 
   -4549    -3948    -3121    -2158    -1200     -332      402      962 
    1363     1629     1763     1817     1830     1773     1617     1334 
     900      307     -460    -1441    -2605    -3836    -5042    -6172 
   -7137    -7830    -8175    -8176    -7920    -7553    -7196    -6902 
   -6739    -6789    -7011    -7319    -7661    -7962    -8144    -8122 
   -7821    -7260    -6519    -5689    -4852    -4052    -3312    -2681 
   -2255    -2095    -2212    -2636    -3329    -4140    -4916    -5517 
   -5830    -5840    -5609    -5244    -4852    -4504    -4243    -4082 
   -3977    -3871    -3709    -3438    -3029    -2492    -1918    -1435 
   -1093     -923     -992    -1308    -1881    -2700    -3643    -4572 
   -5363    -5906    -6146    -6110    -5846    -5402    -4932    -4568 
   -4313    -4162    -4054    -3889    -3709    -3591    -3569    -3711 
   -4016    -4396    -4745    -4978    -5093    -5086    -4897    -4517 
   -4017    -3484    -2988    -2589    -2282    -2034    -1819    -1611 
   -1395    -1173     -928     -661     -471     -451     -622     -996 
   -1530    -2077    -2544    -2930    -3223    -3430    -3570    -3653 
   -3719    -3770    -3776    -3719    -3577    -3341    -3006    -2586 
   -2169    -1830    -1610    -1539    -1626    -1838    -2138    -2502 
   -2893    -3287    -3681    -4036    -4332    -4581    -4807    -5051 
   -5325    -5594    -5811    -5925    -5867    -5609    -5194    -4642 
   -3932    -3123    -2334    -1682    -1240    -1080    -1243    -1669 
   -2269    -2965    -3680    -4388    -5070    -5687    -6218    -6624 
   -6875    -6983    -6971    -6871    -6721    -6562    -6451    -6416 
   -6403    -6334    -6193    -6002    -5771    -5501    -5167    -4766 
   -4313    -3842    -3429    -3111    -2891    -2790    -2818    -2967 
   -3217    -3546    -3916    -4243    -4473    -4608    -4654    -4629 
   -4594    -4571    -4521    -4464    -4419    -4314    -4144    -3964 
   -3798    -3658    -3530    -3402    -3284    -3194    -3134    -3094 
   -3069    -3052    -3030    -3017    -3021    -3021    -3003    -2963 
   -2870    -2706    -2520    -2354    -2234    -2144    -2025    -1795 
   -1399     -828     -136      573     1179     1583     1707     1518 
    1039      322     -557    -1457    -2263    -2943    -3458    -3778 
   -3919    -3932    -3904    -3912    -3997    -4147    -4317    -4463 
   -4546    -4550    -4483    -4388    -4291    -4178    -4031    -3848 
   -3653    -3454    -3267    -3142    -3105    -3163    -3326    -3569 
   -3869    -4217    -4579    -4927    -5267    -5574    -5827    -6079 
