Origin Time       2016/04/16 01:25:00
Lat.              32.753
Long.             130.762
Depth. (km)       12
Mag.              7.3
Station Code      SMN008
Station Lat.      34.8523
Station Long.     132.5308
Station Height(m) 335
Record Time       2016/04/16 01:25:59
Sampling Freq(Hz) 100Hz
Duration Time(s)  101
Dir.              N-S
Scale Factor      7845(gal)/8223790
Max. Acc. (gal)   6.157
Last Correction   2016/04/16 01:25:59
Memo.             
[...]
   -5221    -5332    -5281    -5065    -4715    -4320    -3997    -3842 
   -3879    -4050    -4283    -4542    -4754    -4833    -4780    -4672 
   -4576    -4538    -4567    -4596    -4587    -4612    -4745    -4923 
   -5043    -5084    -5063    -5017    -5016    -5066    -5039    -4857 
   -4653    -4579    -4656    -4862    -5154    -5402    -5502    -5524 
   -5609    -5769    -5896    -5906    -5763    -5490    -5205    -5054 
   -5071    -5177    -5285    -5344    -5317    -5209    -5034    -4814 
   -4627    -4509    -4444    -4422    -4422    -4403    -4353    -4294 
   -4241    -4210    -4245    -4367    -4486    -4475    -4336    -4225 
   -4279    -4487    -4693    -4716    -4495    -4172    -3974    -4023 
   -4276    -4600    -4842    -4907    -4826    -4725    -4687    -4664 
   -4579    -4441    -4306    -4228    -4268    -4425    -4654    -4923 
   -5196    -5391    -5447    -5390    -5289    -5167    -5026    -4874 
   -4738    -4664    -4657    -4652    -4614    -4552    -4457    -4355 
   -4289    -4280    -4342    -4449    -4526    -4561    -4606    -4679 
   -4748    -4785    -4791    -4784    -4785    -4787    -4789    -4808 
   -4833    -4826    -4784    -4735    -4668    -4552    -4418    -4336 
   -4360    -4541    -4881    -5270    -5536    -5606    -5564    -5548 
   -5634    -5796    -5960    -6060    -6065    -6006    -5949    -5913 
   -5875    -5830    -5771    -5680    -5548    -5354    -5100    -4850 
   -4684    -4627    -4644    -4653    -4630    -4606    -4600    -4626 
   -4716    -4862    -5039    -5238    -5397    -5436    -5351    -5202 
   -5043    -4934    -4923    -4997    -5098    -5161    -5140    -5044 
   -4915    -4819    -4820    -4915    -5001    -4932    -4650    -4276 
   -4008    -3923    -3965    -4095    -4318    -4579    -4800    -4993 
   -5198    -5356    -5373    -5271    -5167    -5116    -5071    -4976 
   -4834    -4675    -4511    -4372    -4263    -4145    -4012    -3942 
   -4001    -4209    -4565    -5012    -5421    -5671    -5749    -5707 
   -5594    -5489    -5454    -5433    -5355    -5277    -5308    -5432 
   -5541    -5606    -5686    -5807    -5919    -5952    -5853    -5625 
   -5337    -5103    -4980    -4941    -4923    -4922    -4962    -5034 
   -5093    -5140    -5219    -5347    -5519    -5699    -5825    -5841 
   -5729    -5510    -5268    -5093    -5004    -4963    -4915    -4819 
   -4673    -4488    -4294    -4176    -4189    -4263    -4303    -4289 
   -4306    -4434    -4652    -4861    -4961    -4892    -4691    -4477 
   -4360    -4371    -4444    -4515    -4619    -4812    -5074    -5325 
   -5491    -5517    -5421    -5286    -5209    -5243    -5346    -5432 
   -5445    -5367    -5219    -5070    -4981    -4916    -4810    -4653 
   -4502    -4425    -4413    -4393    -4368    -4426    -4626    -4928 
   -5227    -5404    -5404    -5268    -5101    -4970    -4855    -4735 
   -4614    -4488    -4378    -4356    -4434    -4529    -4526    -4419 
   -4344    -4449    -4761    -5171    -5516    -5653    -5552    -5273 
   -4963    -4810    -4876    -5036    -5150    -5155    -5027    -4806 
   -4621    -4610    -4812    -5124    -5412    -5607    -5647    -5495 
   -5281    -5169    -5205    -5339    -5439    -5352    -5088    -4808 
   -4657    -4645    -4672    -4611    -4390    -4062    -3771    -3582 
   -3544    -3775    -4275    -4882    -5448    -5856    -6019    -5895 
   -5481    -4909    -4393    -4066    -3962    -4039    -4178    -4258 
   -4241    -4156    -4081    -4079    -4178    -4347    -4514    -4631 
   -4646    -4549    -4437    -4399    -4393    -4365    -4336    -4284 
   -4149    -3947    -3761    -3677    -3762    -4000    -4251    -4390 
   -4414    -4393    -4396    -4444    -4491    -4461    -4330    -4186 
   -4152    -4293    -4625    -5057    -5393    -5498    -5387    -5147 
   -4866    -4622    -4490    -4484    -4541    -4622    -4707    -4716 
   -4594    -4368    -4087    -3839    -3711    -3735    -3919    -4266 
   -4730    -5212    -5617    -5859    -5842    -5522    -4992    -4437 
   -4009    -3776    -3734    -3823    -3955    -4032    -3993    -3875 
   -3776    -3757    -3813    -3920    -4001    -4005    -3984    -4024 
   -4163    -4383    -4612    -4797    -4950    -5017    -4926    -4704 
   -4453    -4252    -4162    -4213    -4367    -4529    -4639    -4688 
   -4669    -4627    -4637    -4695    -4757    -4849    -4981    -5097 
   -5185    -5292    -5429    -5552    -5628    -5647    -5576    -5421 
   -5254    -5136    -5081    -5104    -5227    -5424    -5575    -5562 
   -5363    -5074    -4835    -4718    -4706    -4777    -4893    -4981 
   -4996    -4974    -4980    -4992    -4989    -5047    -5178    -5268 
   -5277    -5242    -5177    -5111    -5103    -5166    -5217    -5142 
   -4963    -4818    -4777    -4887    -5163    -5481    -5678    -5687 
   -5536    -5296    -5059    -4908    -4873    -4953    -5136    -5339 
   -5443    -5428    -5332    -5219    -5166    -5215    -5327    -5433 
   -5526    -5637    -5780    -5964    -6180    -6354    -6400    -6246 
   -5837    -5224    -4591    -4097    -3800    -3715    -3820    -4036 
   -4286    -4534    -4776    -5003    -5198    -5360    -5481    -5547 
   -5593    -5653    -5724    -5773    -5765    -5679    -5536    -5389 
   -5306    -5346    -5498    -5672    -5763    -5706    -5501    -5220 
   -4930    -4631    -4291    -3923    -3593    -3384    -3369    -3566 
   -3888    -4232    -4592    -4974    -5324    -5626    -5888    -6026 
   -5957    -5732    -5464    -5248    -5119    -5050    -4974    -4854 
   -4727    -4644    -4621    -4637    -4656    -4638    -4568    -4477 
   -4414    -4437    -4590    -4864    -5182    -5448    -5599    -5626 
   -5601    -5580    -5572    -5551    -5512    -5471    -5424    -5324 
   -5189    -5115    -5135    -5206    -5290    -5314    -5186    -4854 
   -4388    -3951    -3686    -3663    -3859    -4168    -4468    -4695 
   -4861    -5009    -5179    -5351    -5452    -5447    -5360    -5246 
   -5148    -5101    -5127    -5217    -5317    -5385    -5416    -5406 
   -5390    -5425    -5509    -5551    -5436    -5142    -4807    -4571 
   -4450    -4440    -4592    -4936    -5413    -5921    -6381    -6689 
   -6777    -6709    -6569    -6378    -6139    -5854    -5540    -5252 
   -5054    -4963    -4942    -4916    -4841    -4718    -4606    -4591 
   -4676    -4776    -4827    -4869    -4946    -5027    -5103    -5162 
   -5169    -5127    -5071    -4992    -4895    -4838    -4826    -4823 
   -4834    -4855    -4838    -4742    -4602    -4488    -4409    -4329 
   -4258    -4207    -4164    -4131    -4172    -4386    -4765    -5194 
   -5576    -5891    -6154    -6403    -6666    -6886    -6967    -6903 
   -6806    -6760    -6786    -6859    -6924    -6914    -6808    -6642 
   -6489    -6365    -6191    -5910    -5555    -5211    -4963    -4854 
   -4860    -4936    -5051    -5209    -5447    -5755    -6034    -6166 
   -6127    -6002    -5881    -5798    -5713    -5583    -5397    -5189 
   -4997    -4846    -4750    -4714    -4712    -4707    -4658    -4563 
   -4473    -4426    -4413    -4428    -4468    -4519    -4612    -4769 
   -4934    -5036    -5082    -5130    -5215    -5305    -5347    -5302 
   -5184    -5062    -4992    -4966    -4954    -4880    -4669    -4375 
   -4128    -4020    -4069    -4222    -4395    -4544    -4658    -4720 
   -4742    -4803    -4938    -5116    -5306    -5455    -5475    -5352 
   -5157    -4956    -4793    -4692    -4644    -4639    -4673    -4710 
   -4689    -4561    -4349    -4156    -4113    -4297    -4638    -4976 
   -5219    -5371    -5452    -5495    -5525    -5521    -5478    -5462 
   -5533    -5680    -5853    -6010    -6112    -6130    -6079    -5999 
   -5891    -5714    -5443    -5131    -4892    -4795    -4810    -4911 
   -5069    -5194    -5177    -4981    -4684    -4441    -4356    -4401 
   -4490    -4537    -4446    -4203    -3929    -3754    -3688    -3676 
   -3674    -3646    -3549    -3383    -3203    -3075    -3032    -3071 
   -3169    -3330    -3595    -3927    -4191    -4303    -4282    -4202 
   -4118    -4040    -3956    -3855    -3753    -3669    -3591    -3508 
   -3431    -3331    -3194    -3083    -3015    -2937    -2844    -2805 
   -2826    -2868    -2933    -3071    -3277    -3451    -3553    -3650 
   -3778    -3910    -4032    -4137    -4203    -4197    -4120    -4032 
   -4047    -4203    -4423    -4615    -4738    -4774    -4748    -4729 
   -4758    -4806    -4822    -4849    -4962    -5184    -5476    -5757 
   -5935    -5987    -5956    -5937    -5996    -6115    -6232    -6305 
   -6331    -6330    -6332    -6361    -6408    -6435    -6436    -6431 
   -6447    -6475    -6484    -6477    -6509    -6629    -6837    -7091 
   -7348    -7576    -7782    -7987    -8159    -8213    -8110    -7892 
   -7607    -7271    -6891    -6496    -6178    -6031    -6023    -6073 
   -6131    -6138    -6056    -5917    -5779    -5698    -5719    -5864 
   -6102    -6361    -6612    -6879    -7169    -7431    -7599    -7623 
   -7470    -7172    -6852    -6652    -6639    -6775    -6968    -7142 
   -7231    -7177    -6979    -6642    -6195    -5778    -5516    -5400 
   -5386    -5422    -5459    -5518    -5611    -5694    -5767    -5809 
   -5702    -5364    -4846    -4295    -3875    -3669    -3673    -3812 
   -3913    -3852    -3659    -3420    -3199    -3040    -2934    -2829 
   -2675    -2452    -2201    -1993    -1865    -1813    -1784    -1734 
   -1698    -1715    -1757    -1817    -1902    -1981    -2050    -2158 
   -2317    -2519    -2751    -2999    -3287    -3634    -4031    -4473 
   -4900    -5204    -5370    -5443    -5458    -5448    -5428    -5398 
   -5387    -5395    -5409    -5451    -5518    -5571    -5562    -5458 
   -5314    -5197    -5070    -4885    -4623    -4263    -3851    -3477 
   -3180    -2957    -2794    -2659    -2538    -2432    -2374    -2416 
   -2563    -2721    -2779    -2674    -2461    -2270    -2146    -2022 
   -1892    -1819    -1859    -2084    -2475    -2903    -3308    -3699 
   -4088    -4529    -5042    -5578    -6076    -6462    -6691    -6779 
   -6747    -6650    -6521    -6297    -5953    -5559    -5162    -4797 
   -4492    -4252    -4083    -3955    -3808    -3608    -3329    -2999 
   -2720    -2546    -2481    -2519    -2587    -2574    -2439    -2234 
   -2076    -2069    -2193    -2392    -2668    -2959    -3168    -3303 
   -3383    -3423    -3492    -3611    -3744    -3866    -3940    -3982 
   -4063    -4205    -4403    -4669    -4959    -5206    -5329    -5228 
   -4915    -4545    -4287    -4271    -4552    -5055    -5589    -5921 
   -5940    -5686    -5229    -4669    -4182    -3906    -3867    -4025 
   -4274    -4464    -4600    -4811    -5164    -5659    -6211    -6655 
   -6876    -6829    -6525    -6088    -5655    -5327    -5163    -5108 
   -5038    -4911    -4741    -4556    -4390    -4282    -4307    -4506 
   -4799    -5080    -5263    -5271    -5111    -4896    -4726    -4602 
   -4453    -4217    -3908    -3586    -3310    -3165    -3235    -3505 
   -3942    -4535    -5181    -5688    -5946    -5962    -5837    -5719 
   -5726    -5875    -6054    -6164    -6254    -6394    -6600    -6843 
   -6979    -6886    -6647    -6412    -6288    -6323    -6511    -6810 
   -7179    -7534    -7782    -7865    -7747    -7446    -6990    -6400 
   -5811    -5433    -5370    -5632    -6178    -6886    -7611    -8206 
   -8487    -8318    -7717    -6832    -5914    -5235    -4972    -5138 
   -5560    -6011    -6405    -6781    -7188    -7622    -7963    -8035 
   -7753    -7172    -6504    -5989    -5715    -5655    -5730    -5803 
   -5793    -5756    -5751    -5802    -5906    -6019    -6127    -6242 
   -6340    -6427    -6528    -6613    -6711    -6930    -7333    -7881 
   -8413    -8685    -8569    -8120    -7514    -6907    -6373    -5945 
   -5676    -5602    -5726    -6021    -6399    -6782    -7141    -7426 
   -7528    -7356    -6889    -6224    -5560    -5085    -4914    -5012 
   -5204    -5335    -5386    -5431    -5607    -6044    -6723    -7452 
   -7950    -7971    -7527    -6916    -6474    -6355    -6546    -6918 
   -7276    -7470    -7453    -7227    -6826    -6377    -6061    -5946 
   -5968    -5991    -5891    -5701    -5580    -5601    -5641    -5481 
   -4986    -4215    -3388    -2759    -2482    -2512    -2656    -2744 
   -2718    -2628    -2581    -2691    -3005    -3457    -3921    -4247 
   -4364    -4297    -4069    -3743    -3450    -3306    -3333    -3496 
   -3719    -3890    -3874    -3599    -3130    -2619    -2220    -2069 
   -2184    -2380    -2423    -2251    -1968    -1687    -1486    -1439 
   -1595    -1915    -2295    -2646    -2874    -2868    -2600    -2201 
   -1894    -1830    -2062    -2548    -3161    -3738    -4152    -4347 
   -4317    -4063    -3601    -2986    -2351    -1867    -1655    -1709 
   -1919    -2180    -2446    -2700    -2930    -3115    -3234    -3256 
   -3144    -2999    -3061    -3523    -4379    -5377    -6135    -6401 
   -6228    -5911    -5721    -5734    -5894    -6073    -6084    -5784 
   -5148    -4209    -3090    -2041    -1336    -1133    -1451    -2192 
   -3164    -4094    -4764    -5093    -5098    -4845    -4448    -4066 
   -3858    -3928    -4283    -4818    -5273    -5362    -4994    -4369 
   -3839    -3723    -4116    -4877    -5763    -6520    -6999    -7241 
   -7411    -7654    -7997    -8367    -8708    -9009    -9259    -9451 
   -9625    -9877   -10281   -10804   -11268   -11403   -10999   -10100 
   -8989    -8013    -7384    -7092    -7015    -7036    -6998    -6770 
   -6378    -5984    -5741    -5709    -5877    -6181    -6486    -6687 
   -6758    -6679    -6457    -6130    -5755    -5414    -5197    -5159 
   -5344    -5773    -6455    -7312    -8156    -8779    -9054    -8941 
   -8510    -7925    -7371    -6988    -6841    -6921    -7206    -7596 
   -7885    -7842    -7292    -6219    -4864    -3645    -2948    -2999 
   -3786    -5016    -6276    -7271    -7894    -8167    -8182    -8024 
   -7719    -7302    -6885    -6609    -6555    -6698    -6963    -7250 
   -7442    -7493    -7425    -7244    -6968    -6690    -6523    -6521 
   -6696    -6978    -7196    -7173    -6878    -6465    -6166    -6085 
   -6156    -6205    -6062    -5671    -5103    -4456    -3836    -3336 
   -2979    -2759    -2639    -2511    -2315    -2150    -2196    -2586 
   -3326    -4280    -5225    -5938    -6312    -6347    -6138    -5836 
   -5593    -5498    -5522    -5583    -5653    -5717    -5718    -5617 
   -5418    -5212    -5078    -4994    -4885    -4689    -4421    -4222 
   -4230    -4431    -4723    -4938    -4920    -4656    -4276    -3967 
   -3888    -4128    -4683    -5377    -5915    -6096    -5910    -5497 
   -4984    -4413    -3834    -3333    -2971    -2748    -2635    -2614 
   -2705    -2980    -3532    -4348    -5240    -5949    -6231    -5952 
   -5206    -4320    -3689    -3615    -4183    -5198    -6290    -7107 
   -7482    -7399    -6930    -6277    -5706    -5368    -5206    -5036 
   -4731    -4387    -4214    -4347    -4753    -5227    -5539    -5675 
   -5778    -5942    -6172    -6427    -6652    -6770    -6750    -6627 
   -6460    -6258    -5968    -5580    -5144    -4700    -4288    -3973 
   -3743    -3530    -3291    -3048    -2884    -2863    -2965    -3194 
   -3565    -4036    -4572    -5082    -5416    -5479    -5286    -4934 
   -4573    -4324    -4268    -4428    -4707    -5013    -5316    -5617 
   -5950    -6311    -6625    -6833    -6924    -6868    -6601    -6131 
   -5599    -5169    -4932    -4958    -5273    -5757    -6133    -6142 
   -5737    -5107    -4502    -4031    -3631    -3260    -2979    -2856 
   -2889    -3013    -3171    -3395    -3727    -4136    -4568    -4953 
   -5223    -5404    -5551    -5737    -6056    -6527    -7063    -7489 
   -7639    -7533    -7260    -6808    -6151    -5360    -4548    -3886 
   -3570    -3662    -4048    -4563    -5070    -5501    -5825    -6019 
   -6080    -5992    -5710    -5239    -4683    -4191    -3880    -3726 
   -3615    -3537    -3557    -3709    -3998    -4332    -4525    -4467 
   -4212    -3944    -3858    -4029    -4434    -4974    -5485    -5790 
   -5793    -5556    -5225    -4887    -4583    -4391    -4374    -4545 
   -4915    -5452    -6064    -6620    -7015    -7165    -7002    -6559 
   -5968    -5416    -5116    -5167    -5517    -6019    -6448    -6652 
   -6648    -6523    -6409    -6450    -6664    -6979    -7312    -7585 
   -7782    -7944    -8087    -8125    -7915    -7441    -6868    -6413 
   -6158    -5944    -5525    -4816    -3894    -2918    -2095    -1567 
   -1341    -1339    -1520    -1894    -2378    -2826    -3186    -3508 
   -3882    -4351    -4842    -5223    -5333    -5070    -4507    -3801 
   -3088    -2544    -2289    -2307    -2512    -2847    -3314    -3852 
   -4318    -4623    -4748    -4735    -4723    -4824    -5013    -5200 
   -5286    -5185    -4882    -4449    -3991    -3630    -3485    -3601 
   -3906    -4280    -4583    -4685    -4591    -4375    -4074    -3751 
   -3495    -3366    -3377    -3495    -3653    -3782    -3861    -3897 
   -3863    -3738    -3557    -3317    -3019    -2747    -2587    -2556 
   -2688    -2964    -3238    -3385    -3391    -3271    -3021    -2678 
   -2367    -2218    -2326    -2731    -3292    -3767    -4031    -4098 
   -4023    -3880    -3776    -3800    -3946    -4105    -4174    -4098 
   -3869    -3550    -3248    -3052    -3052    -3311    -3809    -4460 
   -5124    -5659    -6006    -6192    -6252    -6203    -6053    -5809 
   -5506    -5235    -5065    -5009    -5030    -5015    -4868    -4568 
   -4186    -3854    -3677    -3680    -3821    -4009    -4137    -4133 
   -3921    -3496    -3025    -2721    -2686    -2898    -3264    -3676 
   -4083    -4473    -4860    -5243    -5547    -5672    -5575    -5283 
   -4864    -4398    -3989    -3723    -3657    -3775    -3958    -4067 
   -4036    -3828    -3473    -3157    -3114    -3445    -4055    -4692 
   -5065    -5030    -4660    -4136    -3655    -3381    -3377    -3577 
   -3882    -4248    -4645    -5044    -5413    -5649    -5610    -5216 
   -4541    -3823    -3330    -3215    -3515    -4113    -4750    -5235 
   -5552    -5768    -5961    -6201    -6458    -6562    -6332    -5736 
   -4885    -3937    -3095    -2552    -2347    -2371    -2479    -2533 
   -2502    -2505    -2724    -3284    -4106    -4909    -5479    -5768 
   -5778    -5548    -5171    -4730    -4321    -4097    -4174    -4468 
   -4753    -4887    -4870    -4723    -4514    -4355    -4268    -4182 
   -4027    -3785    -3566    -3591    -3929    -4391    -4741    -4818 
   -4535    -4006    -3489    -3159    -3005    -2952    -2995    -3180 
   -3485    -3792    -3975    -3973    -3816    -3527    -3094    -2573 
   -2106    -1826    -1852    -2228    -2856    -3532    -4063    -4367 
   -4526    -4645    -4745    -4812    -4785    -4625    -4476    -4550 
   -4941    -5574    -6242    -6725    -6928    -6848    -6538    -6102 
   -5651    -5251    -4891    -4507    -4059    -3582    -3217    -3121 
   -3326    -3747    -4263    -4719    -4986    -5022    -4870    -4692 
   -4677    -4849    -5077    -5240    -5260    -5144    -5058    -5127 
   -5259    -5296    -5155    -4779    -4203    -3659    -3376    -3339 
