Origin Time       2016/04/16 01:25:00
Lat.              32.753
Long.             130.762
Depth. (km)       12
Mag.              7.3
Station Code      SMN014
Station Lat.      34.4668
Station Long.     131.7752
Station Height(m) 150
Record Time       2016/04/16 01:25:43
Sampling Freq(Hz) 100Hz
Duration Time(s)  114
Dir.              E-W
Scale Factor      7845(gal)/8223790
Max. Acc. (gal)   11.632
Last Correction   2016/04/16 01:25:43
Memo.             
[...]
   -6772    -6966    -6987    -6799    -6454    -6100    -5800    -5506 
   -5194    -4930    -4801    -4827    -4949    -5089    -5215    -5386 
   -5679    -6057    -6439    -6750    -6862    -6736    -6485    -6246 
   -6062    -5911    -5779    -5648    -5489    -5329    -5229    -5211 
   -5301    -5506    -5727    -5848    -5879    -5934    -6049    -6145 
   -6139    -6035    -5864    -5640    -5405    -5231    -5233    -5454 
   -5748    -5940    -6019    -6069    -6127    -6189    -6212    -6102 
   -5822    -5464    -5181    -5073    -5130    -5267    -5459    -5738 
   -6069    -6327    -6451    -6508    -6554    -6585    -6602    -6582 
   -6443    -6205    -6008    -5896    -5807    -5683    -5487    -5251 
   -5076    -5057    -5212    -5479    -5768    -6008    -6216    -6470 
   -6755    -6899    -6782    -6477    -6133    -5852    -5659    -5460 
   -5163    -4877    -4785    -4945    -5282    -5710    -6151    -6543 
   -6871    -7172    -7468    -7726    -7888    -7929    -7900    -7838 
   -7723    -7507    -7165    -6732    -6255    -5767    -5283    -4784 
   -4266    -3798    -3462    -3296    -3329    -3608    -4171    -4980 
   -5976    -7091    -8168    -9050    -9676   -10008    -9977    -9571 
   -8883    -8044    -7179    -6423    -5837    -5387    -5090    -4953 
   -4897    -4887    -4941    -5049    -5162    -5235    -5260    -5265 
   -5306    -5471    -5753    -6044    -6295    -6538    -6774    -6947 
   -6990    -6832    -6474    -6033    -5594    -5201    -4920    -4774 
   -4729    -4764    -4911    -5251    -5798    -6444    -7075    -7601 
   -7989    -8272    -8461    -8513    -8401    -8089    -7526    -6760 
   -5934    -5142    -4425    -3855    -3484    -3369    -3613    -4187 
   -4909    -5618    -6264    -6836    -7264    -7482    -7499    -7319 
   -6961    -6544    -6151    -5763    -5364    -5004    -4754    -4688 
   -4801    -4946    -4956    -4845    -4745    -4776    -5003    -5398 
   -5849    -6285    -6683    -6970    -7065    -6970    -6744    -6493 
   -6288    -6183    -6177    -6166    -6060    -5860    -5647    -5530 
   -5518    -5481    -5339    -5155    -5016    -4974    -5103    -5467 
   -6049    -6741    -7420    -7982    -8345    -8446    -8289    -7946 
   -7523    -7082    -6608    -6134    -5765    -5545    -5462    -5495 
   -5597    -5688    -5709    -5674    -5630    -5566    -5481    -5394 
   -5268    -5166    -5216    -5424    -5694    -5940    -6107    -6142 
   -6076    -6008    -5991    -6025    -6095    -6112    -6035    -5926 
   -5829    -5725    -5589    -5474    -5451    -5485    -5537    -5660 
   -5821    -5940    -6039    -6133    -6207    -6301    -6436    -6569 
   -6675    -6747    -6805    -6878    -6971    -7055    -7048    -6847 
   -6434    -5886    -5352    -4962    -4666    -4371    -4126    -4036 
   -4147    -4446    -4851    -5246    -5537    -5760    -6026    -6358 
   -6679    -6909    -7040    -7176    -7452    -7858    -8240    -8484 
   -8581    -8549    -8380    -8068    -7593    -6934    -6135    -5325 
   -4639    -4126    -3766    -3549    -3501    -3620    -3882    -4260 
   -4704    -5173    -5674    -6208    -6704    -7026    -7091    -6894 
   -6494    -6016    -5606    -5300    -5054    -4823    -4653    -4672 
   -4934    -5341    -5780    -6219    -6698    -7272    -7913    -8446 
   -8688    -8604    -8302    -7959    -7673    -7366    -6918    -6346 
   -5778    -5317    -4984    -4783    -4710    -4746    -4912    -5193 
   -5525    -5863    -6183    -6432    -6555    -6544    -6420    -6169 
   -5814    -5467    -5188    -4986    -4915    -4989    -5130    -5265 
   -5377    -5443    -5420    -5286    -5077    -4881    -4773    -4810 
   -5001    -5306    -5672    -6049    -6405    -6723    -6914    -6852 
   -6544    -6120    -5717    -5443    -5343    -5404    -5599    -5887 
   -6199    -6442    -6539    -6513    -6392    -6122    -5711    -5279 
   -4903    -4618    -4500    -4583    -4803    -5080    -5360    -5605 
   -5798    -5938    -5967    -5829    -5566    -5275    -5026    -4864 
   -4822    -4904    -5088    -5408    -5892    -6424    -6863    -7176 
   -7364    -7474    -7601    -7776    -7929    -7947    -7778    -7431 
   -6936    -6404    -5930    -5536    -5286    -5211    -5216    -5240 
   -5292    -5359    -5386    -5344    -5260    -5186    -5192    -5308 
   -5422    -5405    -5279    -5143    -5044    -4985    -4958    -4989 
   -5131    -5394    -5699    -5971    -6226    -6509    -6781    -6952 
   -7032    -7006    -6764    -6295    -5699    -5088    -4625    -4419 
   -4417    -4580    -4974    -5590    -6281    -6880    -7249    -7288 
   -7032    -6660    -6323    -6026    -5709    -5375    -5108    -4996 
   -5069    -5268    -5513    -5775    -6053    -6305    -6492    -6597 
   -6569    -6393    -6156    -5931    -5719    -5512    -5283    -4984 
   -4603    -4213    -3879    -3605    -3416    -3426    -3723    -4245 
   -4870    -5522    -6184    -6886    -7592    -8160    -8515    -8699 
   -8733    -8592    -8260    -7765    -7155    -6486    -5830    -5267 
   -4877    -4730    -4837    -5077    -5305    -5512    -5760    -6031 
   -6255    -6384    -6405    -6373    -6322    -6191    -5965    -5746 
   -5610    -5562    -5580    -5649    -5745    -5822    -5876    -5918 
   -5908    -5848    -5805    -5818    -5926    -6172    -6488    -6736 
   -6833    -6743    -6473    -6072    -5585    -5053    -4526    -4101 
   -3835    -3726    -3811    -4140    -4600    -4989    -5224    -5337 
   -5416    -5559    -5809    -6115    -6424    -6735    -7007    -7150 
   -7198    -7211    -7084    -6751    -6276    -5740    -5254    -4956 
   -4892    -5003    -5227    -5502    -5746    -5919    -6070    -6177 
   -6115    -5879    -5606    -5485    -5633    -5983    -6361    -6670 
   -6917    -7088    -7088    -6824    -6299    -5584    -4811    -4156 
   -3719    -3483    -3411    -3487    -3719    -4099    -4553    -4999 
   -5406    -5776    -6156    -6590    -7038    -7434    -7747    -7967 
   -8073    -8062    -7974    -7870    -7730    -7474    -7053    -6517 
   -5980    -5498    -5089    -4822    -4746    -4807    -4931    -5097 
   -5298    -5509    -5688    -5791    -5833    -5908    -6069    -6230 
   -6349    -6501    -6711    -6937    -7160    -7354    -7462    -7431 
   -7214    -6826    -6389    -6006    -5643    -5209    -4723    -4256 
   -3882    -3653    -3593    -3690    -3915    -4251    -4679    -5103 
   -5436    -5709    -5975    -6277    -6659    -7088    -7446    -7639 
   -7676    -7654    -7627    -7533    -7307    -6983    -6610    -6200 
   -5778    -5433    -5233    -5144    -5107    -5103    -5097    -5047 
   -4981    -4986    -5119    -5336    -5582    -5869    -6224    -6590 
   -6864    -7030    -7195    -7457    -7805    -8124    -8252    -8086 
   -7685    -7254    -6886    -6474    -5948    -5425    -5097    -5081 
   -5327    -5665    -5967    -6168    -6242    -6192    -6044    -5888 
   -5853    -6015    -6355    -6717    -6868    -6718    -6370    -5971 
   -5589    -5223    -4874    -4606    -4513    -4625    -4845    -5011 
   -5066    -5117    -5270    -5559    -5980    -6443    -6822    -7150 
   -7570    -8083    -8494    -8629    -8451    -7986    -7330    -6663 
   -6088    -5572    -5088    -4702    -4502    -4583    -4977    -5602 
   -6330    -7072    -7766    -8395    -8945    -9316    -9432    -9288 
   -8860    -8154    -7298    -6459    -5711    -5055    -4473    -3969 
   -3607    -3478    -3565    -3793    -4140    -4639    -5335    -6193 
   -7061    -7798    -8317    -8588    -8688    -8725    -8729    -8607 
   -8279    -7820    -7312    -6797    -6365    -6073    -5888    -5803 
   -5815    -5869    -5926    -6031    -6273    -6690    -7256    -7875 
   -8424    -8830    -9040    -9005    -8765    -8421    -7987    -7447 
   -6928    -6598    -6524    -6673    -6929    -7153    -7325    -7561 
   -7869    -8066    -8020    -7780    -7435    -6985    -6401    -5679 
   -4874    -4095    -3499    -3219    -3267    -3546    -4028    -4756 
   -5674    -6579    -7285    -7730    -7896    -7777    -7464    -7126 
   -6789    -6319    -5737    -5251    -4962    -4818    -4745    -4675 
   -4600    -4549    -4534    -4592    -4804    -5173    -5599    -6029 
   -6462    -6870    -7211    -7453    -7526    -7321    -6840    -6266 
   -5760    -5337    -5058    -5043    -5285    -5648    -6016    -6369 
   -6750    -7153    -7472    -7580    -7496    -7329    -7126    -6906 
   -6708    -6459    -6021    -5441    -4946    -4612    -4344    -4074 
   -3840    -3770    -4020    -4560    -5179    -5724    -6131    -6369 
   -6412    -6313    -6134    -5854    -5525    -5323    -5297    -5381 
   -5607    -5989    -6420    -6810    -7127    -7361    -7543    -7735 
   -7913    -7969    -7858    -7626    -7317    -6932    -6424    -5779 
   -5108    -4527    -4055    -3693    -3485    -3468    -3700    -4289 
   -5250    -6356    -7315    -7996    -8464    -8792    -8919    -8770 
   -8403    -7942    -7443    -6872    -6154    -5296    -4487    -3951 
   -3802    -4017    -4386    -4735    -5135    -5656    -6262    -6902 
   -7449    -7668    -7453    -6913    -6210    -5439    -4645    -3879 
   -3265    -2943    -2920    -3073    -3299    -3593    -3971    -4426 
   -5001    -5752    -6600    -7396    -8082    -8638    -8965    -9007 
   -8827    -8459    -7871    -7089    -6201    -5300    -4506    -3971 
   -3762    -3839    -4220    -4927    -5856    -6870    -7886    -8835 
   -9647   -10262   -10646   -10791   -10682   -10284    -9593    -8692 
   -7688    -6650    -5648    -4741    -3929    -3229    -2685    -2384 
   -2416    -2798    -3505    -4491    -5568    -6531    -7315    -7863 
   -8089    -8032    -7842    -7612    -7356    -7092    -6881    -6837 
   -7084    -7593    -8213    -8876    -9558   -10154   -10563   -10739 
  -10638   -10280    -9826    -9451    -9150    -8824    -8453    -8068 
   -7701    -7418    -7213    -7003    -6743    -6420    -6076    -5776 
   -5547    -5373    -5217    -5104    -5125    -5302    -5571    -5875 
   -6158    -6430    -6774    -7173    -7518    -7771    -8040    -8411 
   -8814    -9104    -9217    -9119    -8807    -8302    -7619    -6791 
   -5949    -5202    -4556    -4005    -3636    -3483    -3492    -3673 
   -4001    -4327    -4563    -4739    -4895    -5038    -5131    -5063 
   -4792    -4456    -4247    -4176    -4140    -4081    -3960    -3743 
   -3492    -3307    -3232    -3349    -3757    -4418    -5143    -5833 
   -6544    -7256    -7819    -8141    -8232    -8100    -7727    -7099 
   -6212    -5139    -4000    -2886    -1878    -1023     -282      394 
    1007     1554     2034     2412     2671     2798     2739     2447 
    1914     1162      310     -491    -1201    -1800    -2250    -2579 
   -2832    -2961    -2932    -2828    -2752    -2768    -2967    -3411 
   -4054    -4866    -5796    -6685    -7323    -7534    -7230    -6453 
   -5305    -3906    -2436    -1102      -41      676      951      714 
      11    -1016    -2181    -3277    -4174    -4822    -5252    -5576 
   -5888    -6241    -6693    -7236    -7792    -8328    -8818    -9186 
   -9305    -9013    -8283    -7322    -6403    -5709    -5339    -5374 
   -5854    -6720    -7812    -8912    -9764   -10220   -10322   -10153 
   -9715    -8996    -8066    -7034    -6077    -5447    -5246    -5320 
   -5574    -6104    -6937    -8002    -9290   -10746   -12179   -13397 
  -14288   -14805   -14971   -14823   -14364   -13605   -12599   -11399 
  -10027    -8471    -6754    -4997    -3372    -2011    -1030     -533 
    -553    -1005    -1767    -2817    -4190    -5784    -7337    -8572 
   -9312    -9506    -9161    -8355    -7222    -5919    -4714    -3991 
   -3990    -4615    -5649    -6922    -8166    -9090    -9585    -9666 
   -9400    -8833    -7960    -6832    -5578    -4293    -3044    -1962 
   -1208     -841     -791     -953    -1300    -1838    -2550    -3438 
   -4548    -5929    -7595    -9412   -11072   -12305   -12916   -12673 
  -11469    -9516    -7221    -5031    -3260    -1985    -1273    -1269 
   -1954    -3076    -4357    -5638    -6859    -7912    -8654    -9047 
   -9188    -9173    -8965    -8510    -7912    -7314    -6766    -6320 
   -6080    -6091    -6338    -6750    -7248    -7803    -8371    -8938 
   -9524   -10018   -10291   -10384   -10342   -10091    -9512    -8565 
   -7393    -6281    -5467    -4996    -4706    -4349    -3859    -3365 
   -2984    -2790    -2810    -2978    -3242    -3666    -4399    -5544 
   -7017    -8572    -9941   -10998   -11838   -12522   -12942   -13043 
  -12874   -12507   -12070   -11639   -11186   -10644    -9985    -9255 
   -8560    -8054    -7755    -7465    -7109    -6848    -6847    -7223 
   -7963    -8863    -9701   -10389   -10903   -11084   -10674    -9549 
   -7784    -5579    -3267    -1170      542     1800     2592     2971 
    2893     2258     1147     -274    -1844    -3395    -4862    -6185 
   -7184    -7744    -7854    -7528    -6825    -5779    -4351    -2613 
    -811      774     1926     2520     2590     2255     1593      683 
    -276    -1062    -1590    -1881    -2072    -2427    -3113    -4050 
   -5076    -6023    -6717    -7092    -7145    -6817    -6025    -4801 
   -3353    -1933     -741       98      581      784      769      542 
      51     -710    -1567    -2278    -2713    -2902    -2949    -2953 
   -2934    -2810    -2527    -2130    -1602     -812      286     1625 
    3088     4519     5668     6258     6173     5502     4396     3006 
    1451     -220    -1941    -3595    -5065    -6249    -7056    -7465 
   -7526    -7323    -6951    -6527    -6200    -6034    -6058    -6393 
   -7106    -8077    -9090    -9944   -10485   -10619   -10234    -9211 
   -7523    -5367    -3079     -936      834     2074     2736     2787 
    2235     1151     -365    -2191    -4222    -6346    -8367   -10100 
  -11404   -12116   -12155   -11634   -10740    -9691    -8726    -7944 
   -7261    -6598    -6003    -5620    -5598    -5979    -6671    -7569 
   -8575    -9521   -10184   -10519   -10667   -10658   -10412    -9940 
   -9265    -8407    -7520    -6744    -6104    -5653    -5433    -5379 
   -5495    -5895    -6654    -7758    -9067   -10372   -11560   -12573 
  -13288   -13531   -13165   -12191   -10854    -9513    -8374    -7399 
   -6462    -5556    -4801    -4303    -4047    -3936    -3844    -3717 
   -3651    -3744    -4013    -4378    -4702    -4949    -5225    -5598 
   -6003    -6250    -6114    -5555    -4760    -3955    -3225    -2509 
   -1729     -895     -186      220      324      112     -558    -1710 
   -3137    -4611    -6029    -7335    -8515    -9601   -10521   -11213 
  -11781   -12316   -12754   -12973   -12802   -12114   -10995    -9702 
   -8533    -7695    -7254    -7253    -7630    -8152    -8635    -8965 
   -8997    -8685    -8171    -7616    -7055    -6443    -5724    -4860 
   -3875    -2798    -1755    -1089    -1071    -1745    -3041    -4811 
   -6804    -8673   -10211   -11488   -12592   -13450   -14014   -14261 
  -14106   -13528   -12592   -11329    -9850    -8380    -7107    -6154 
   -5483    -4849    -4048    -3067    -2006    -1044     -360      -36 
    -147     -733    -1656    -2751    -4036    -5547    -7188    -8857 
  -10474   -11914   -13007   -13647   -13829   -13537   -12798   -11718 
  -10368    -8806    -7140    -5483    -3971    -2747    -1883    -1409 
   -1345    -1657    -2243    -2974    -3721    -4403    -4989    -5458 
   -5759    -5860    -5795    -5589    -5177    -4499    -3667    -2914 
   -2319    -1811    -1395    -1167    -1254    -1680    -2289    -2907 
   -3458    -3927    -4320    -4634    -4828    -4789    -4482    -4063 
   -3738    -3659    -3786    -3899    -3867    -3708    -3472    -3111 
   -2486    -1641     -799     -121      313      542      634      560 
     294     -139     -700    -1321    -1973    -2669    -3424    -4238 
   -5065    -5787    -6355    -6826    -7203    -7419    -7416    -7173 
   -6735    -6169    -5483    -4703    -3932    -3223    -2548    -1966 
   -1601    -1443    -1387    -1405    -1543    -1877    -2459    -3218 
   -4058    -4939    -5800    -6585    -7296    -7873    -8245    -8464 
   -8565    -8569    -8569    -8567    -8449    -8093    -7388    -6356 
   -5179    -4068    -3159    -2533    -2243    -2282    -2636    -3288 
   -4148    -5090    -5956    -6520    -6652    -6380    -5742    -4741 
   -3472    -2226    -1371    -1092    -1313    -1787    -2242    -2544 
   -2712    -2799    -2853    -2913    -2990    -3051    -3060    -3007 
   -2866    -2632    -2371    -2154    -1973    -1726    -1379    -1044 
    -908    -1198    -2079    -3580    -5590    -7919   -10336   -12563 
  -14255   -15117   -15020   -14099   -12595   -10682    -8546    -6386 
   -4347    -2569    -1159     -103      687     1306     1729     1810 
    1356      202    -1624    -3893    -6326    -8586   -10357   -11483 
  -11923   -11686   -10821    -9460    -7784    -5927    -4031    -2209 
    -538      853     1781     2118     1830      974     -355    -1981 
   -3628    -5140    -6573    -7946    -9186   -10246   -11029   -11365 
  -11194   -10646    -9907    -9111    -8348    -7700    -7187    -6737 
   -6347    -6164    -6285    -6608    -6921    -7126    -7263    -7441 
   -7794    -8387    -9094    -9684   -10046   -10206   -10177    -9967 
   -9589    -9065    -8487    -7923    -7333    -6794    -6416    -6143 
   -5900    -5701    -5622    -5699    -5814    -5848    -5821    -5842 
   -6089    -6679    -7595    -8761   -10038   -11272   -12437   -13521 
  -14369   -14752   -14538   -13782   -12702   -11508   -10276    -9020 
   -7813    -6744    -5879    -5233    -4801    -4531    -4371    -4288 
   -4248    -4324    -4649    -5177    -5742    -6251    -6681    -6945 
   -6907    -6578    -6120    -5715    -5445    -5270    -5163    -5157 
   -5229    -5387    -5610    -5805    -5902    -5887    -5817    -5810 
   -5904    -6062    -6268    -6550    -6951    -7443    -7948    -8352 
   -8550    -8553    -8447    -8302    -8097    -7736    -7173    -6511 
   -5930    -5585    -5559    -5746    -5942    -6043    -6038    -5988 
   -5992    -6030    -6035    -6014    -5957    -5896    -5918    -6002 
   -6039    -5973    -5853    -5800    -5925    -6231    -6573    -6787 
   -6848    -6817    -6812    -6945    -7168    -7349    -7404    -7295 
   -7079    -6841    -6556    -6142    -5626    -5175    -4989    -5142 
   -5476    -5755    -5846    -5795    -5745    -5805    -6003    -6353 
   -6804    -7291    -7807    -8321    -8765    -9092    -9310    -9424 
   -9466    -9593    -9826    -9954    -9832    -9478    -8955    -8332 
   -7655    -7014    -6508    -6158    -5938    -5795    -5670    -5551 
   -5474    -5448    -5414    -5313    -5162    -4941    -4598    -4194 
   -3812    -3427    -3052    -2832    -2903    -3339    -4133    -5131 
   -6158    -7114    -7928    -8567    -9047    -9391    -9606    -9695 
   -9626    -9333    -8745    -7865    -6867    -6000    -5427    -5171 
   -5188    -5418    -5849    -6442    -7084    -7662    -8133    -8505 
   -8776    -8968    -9054    -8954    -8668    -8253    -7712    -7064 
   -6335    -5514    -4757    -4321    -4299    -4563    -4901    -5198 
   -5458    -5694    -5896    -6008    -5975    -5837    -5697    -5611 
