Origin Time       2016/04/16 01:25:00
Lat.              32.753
Long.             130.762
Depth. (km)       12
Mag.              7.3
Station Code      SMN015
Station Lat.      35.3644
Station Long.     133.1704
Station Height(m) 32
Record Time       2016/04/16 01:26:48
Sampling Freq(Hz) 100Hz
Duration Time(s)  67
Dir.              E-W
Scale Factor      7845(gal)/8223790
Max. Acc. (gal)   2.833
Last Correction   2016/04/16 01:26:49
Memo.             
[...]
   -2389    -2390    -2386    -2374    -2354    -2332    -2309    -2285 
   -2267    -2261    -2259    -2265    -2281    -2304    -2334    -2370 
   -2411    -2448    -2482    -2506    -2525    -2538    -2542    -2538 
   -2529    -2517    -2505    -2492    -2479    -2470    -2463    -2454 
   -2444    -2438    -2430    -2417    -2407    -2397    -2381    -2367 
   -2357    -2347    -2342    -2338    -2338    -2343    -2354    -2366 
   -2382    -2398    -2409    -2415    -2415    -2407    -2389    -2367 
   -2338    -2308    -2276    -2242    -2215    -2203    -2203    -2214 
   -2236    -2267    -2305    -2349    -2390    -2432    -2469    -2496 
   -2515    -2528    -2529    -2520    -2505    -2478    -2442    -2408 
   -2370    -2331    -2299    -2276    -2258    -2245    -2239    -2242 
   -2243    -2250    -2258    -2263    -2266    -2263    -2251    -2238 
   -2223    -2204    -2181    -2163    -2150    -2144    -2146    -2155 
   -2174    -2200    -2234    -2270    -2311    -2353    -2396    -2446 
   -2493    -2538    -2584    -2632    -2677    -2716    -2751    -2779 
   -2798    -2813    -2822    -2825    -2824    -2816    -2798    -2772 
   -2743    -2708    -2662    -2610    -2556    -2502    -2450    -2405 
   -2366    -2331    -2305    -2285    -2266    -2255    -2249    -2242 
   -2241    -2242    -2247    -2254    -2261    -2270    -2284    -2296 
   -2311    -2331    -2354    -2382    -2413    -2442    -2471    -2498 
   -2523    -2540    -2550    -2554    -2550    -2544    -2538    -2525 
   -2513    -2502    -2494    -2490    -2486    -2481    -2484    -2490 
   -2498    -2508    -2517    -2520    -2519    -2511    -2494    -2477 
   -2455    -2428    -2404    -2381    -2361    -2346    -2338    -2338 
   -2344    -2358    -2380    -2412    -2444    -2479    -2520    -2559 
   -2596    -2629    -2660    -2687    -2712    -2735    -2759    -2789 
   -2824    -2863    -2903    -2944    -2982    -3011    -3029    -3040 
   -3038    -3024    -3001    -2967    -2924    -2878    -2830    -2782 
   -2735    -2691    -2647    -2598    -2550    -2498    -2439    -2376 
   -2309    -2241    -2170    -2102    -2034    -1966    -1903    -1845 
   -1795    -1755    -1725    -1701    -1687    -1683    -1683    -1687 
   -1692    -1691    -1684    -1675    -1657    -1629    -1591    -1548 
   -1506    -1467    -1435    -1412    -1404    -1420    -1456    -1509 
   -1578    -1657    -1740    -1823    -1910    -1989    -2064    -2134 
   -2196    -2250    -2299    -2347    -2396    -2448    -2502    -2560 
   -2623    -2688    -2762    -2836    -2907    -2975    -3038    -3094 
   -3138    -3172    -3191    -3194    -3187    -3168    -3141    -3106 
   -3068    -3028    -2984    -2938    -2896    -2853    -2809    -2762 
   -2714    -2664    -2610    -2551    -2492    -2430    -2363    -2299 
   -2236    -2170    -2106    -2042    -1977    -1915    -1858    -1803 
   -1757    -1721    -1692    -1674    -1669    -1679    -1707    -1748 
   -1798    -1858    -1922    -1982    -2045    -2102    -2153    -2196 
   -2232    -2262    -2288    -2304    -2319    -2335    -2347    -2362 
   -2376    -2392    -2411    -2428    -2442    -2452    -2459    -2469 
   -2482    -2492    -2504    -2521    -2533    -2543    -2550    -2546 
   -2536    -2521    -2502    -2481    -2454    -2427    -2407    -2386 
   -2369    -2361    -2359    -2362    -2374    -2394    -2416    -2440 
   -2466    -2488    -2501    -2508    -2508    -2505    -2496    -2481 
   -2465    -2446    -2423    -2400    -2380    -2362    -2347    -2342 
   -2350    -2365    -2386    -2416    -2448    -2481    -2511    -2542 
   -2570    -2600    -2624    -2636    -2643    -2641    -2635    -2623 
   -2610    -2596    -2583    -2570    -2559    -2552    -2544    -2538 
   -2531    -2521    -2509    -2493    -2474    -2452    -2425    -2396 
   -2371    -2351    -2335    -2327    -2323    -2324    -2331    -2340 
   -2358    -2377    -2393    -2411    -2427    -2440    -2457    -2471 
   -2482    -2489    -2500    -2509    -2516    -2523    -2529    -2536 
   -2544    -2551    -2560    -2573    -2586    -2598    -2608    -2614 
   -2619    -2621    -2617    -2608    -2598    -2589    -2581    -2577 
   -2575    -2577    -2579    -2583    -2589    -2590    -2587    -2579 
   -2563    -2543    -2520    -2494    -2469    -2440    -2413    -2386 
   -2359    -2335    -2313    -2299    -2285    -2276    -2272    -2270 
   -2270    -2276    -2285    -2296    -2308    -2316    -2327    -2334 
   -2338    -2342    -2346    -2354    -2363    -2373    -2385    -2397 
   -2409    -2419    -2425    -2430    -2430    -2423    -2412    -2401 
   -2389    -2376    -2361    -2351    -2350    -2357    -2371    -2396 
   -2434    -2479    -2531    -2592    -2652    -2709    -2762    -2809 
   -2844    -2871    -2882    -2880    -2866    -2839    -2806    -2770 
   -2725    -2683    -2643    -2601    -2558    -2521    -2485    -2448 
   -2412    -2374    -2335    -2296    -2250    -2201    -2151    -2098 
   -2043    -1991    -1942    -1900    -1865    -1840    -1822    -1810 
   -1807    -1813    -1819    -1826    -1840    -1856    -1873    -1896 
   -1923    -1954    -1991    -2029    -2066    -2102    -2135    -2166 
   -2196    -2223    -2246    -2270    -2295    -2317    -2343    -2374 
   -2403    -2430    -2463    -2498    -2533    -2571    -2610    -2652 
   -2691    -2729    -2764    -2795    -2818    -2836    -2848    -2852 
   -2847    -2839    -2830    -2818    -2805    -2792    -2778    -2766 
   -2759    -2756    -2759    -2764    -2775    -2791    -2806    -2817 
   -2822    -2822    -2816    -2802    -2779    -2748    -2712    -2667 
   -2619    -2567    -2515    -2461    -2405    -2353    -2308    -2272 
   -2239    -2215    -2199    -2187    -2177    -2169    -2165    -2161 
   -2155    -2147    -2141    -2135    -2130    -2130    -2137    -2149 
   -2166    -2191    -2224    -2266    -2309    -2355    -2404    -2450 
   -2489    -2521    -2543    -2554    -2551    -2536    -2513    -2481 
   -2442    -2405    -2366    -2328    -2296    -2267    -2242    -2220 
   -2201    -2187    -2177    -2174    -2180    -2192    -2214    -2243 
   -2280    -2323    -2371    -2421    -2473    -2525    -2577    -2620 
   -2652    -2675    -2685    -2678    -2659    -2632    -2597    -2558 
   -2521    -2488    -2465    -2452    -2451    -2461    -2478    -2505 
   -2535    -2565    -2598    -2628    -2647    -2655    -2652    -2640 
   -2620    -2593    -2563    -2525    -2482    -2444    -2407    -2369 
   -2336    -2307    -2280    -2258    -2235    -2212    -2188    -2162 
   -2137    -2107    -2070    -2041    -2019    -2001    -1991    -1989 
   -1998    -2018    -2049    -2084    -2126    -2173    -2222    -2267 
   -2309    -2346    -2377    -2400    -2416    -2428    -2442    -2467 
   -2501    -2544    -2594    -2651    -2713    -2774    -2830    -2880 
   -2921    -2952    -2971    -2979    -2976    -2967    -2952    -2936 
   -2917    -2896    -2882    -2863    -2841    -2821    -2805    -2789 
   -2767    -2740    -2714    -2682    -2646    -2605    -2559    -2504 
   -2442    -2369    -2289    -2204    -2115    -2025    -1933    -1845 
   -1759    -1676    -1601    -1534    -1479    -1431    -1387    -1354 
   -1331    -1320    -1316    -1321    -1340    -1368    -1404    -1451 
   -1503    -1556    -1613    -1674    -1733    -1796    -1861    -1922 
   -1984    -2046    -2104    -2162    -2218    -2267    -2312    -2355 
   -2392    -2420    -2444    -2461    -2467    -2469    -2467    -2459 
   -2448    -2439    -2428    -2419    -2412    -2401    -2388    -2374 
   -2359    -2340    -2322    -2307    -2295    -2281    -2269    -2258 
   -2249    -2241    -2241    -2243    -2251    -2263    -2277    -2289 
   -2301    -2307    -2308    -2304    -2293    -2276    -2250    -2222 
   -2195    -2165    -2130    -2101    -2076    -2056    -2037    -2023 
   -2015    -2015    -2023    -2037    -2057    -2085    -2121    -2158 
   -2199    -2242    -2284    -2328    -2373    -2412    -2442    -2466 
   -2481    -2486    -2485    -2471    -2447    -2416    -2384    -2350 
   -2315    -2284    -2251    -2215    -2184    -2155    -2126    -2097 
   -2068    -2041    -2016    -1996    -1981    -1972    -1969    -1969 
   -1973    -1981    -1985    -1993    -2003    -2010    -2014    -2015 
   -2014    -2007    -1995    -1977    -1952    -1923    -1890    -1852 
   -1815    -1781    -1750    -1722    -1703    -1691    -1687    -1690 
   -1702    -1722    -1748    -1780    -1818    -1859    -1911    -1968 
   -2030    -2101    -2178    -2261    -2343    -2425    -2502    -2574 
   -2635    -2682    -2717    -2739    -2747    -2743    -2728    -2708 
   -2685    -2658    -2627    -2596    -2570    -2546    -2523    -2504 
   -2490    -2478    -2466    -2451    -2432    -2411    -2384    -2351 
   -2315    -2276    -2235    -2192    -2147    -2102    -2056    -2007 
   -1958    -1911    -1865    -1823    -1786    -1757    -1738    -1728 
   -1729    -1738    -1757    -1790    -1830    -1876    -1934    -1999 
   -2066    -2138    -2208    -2278    -2343    -2401    -2450    -2492 
   -2525    -2550    -2569    -2583    -2586    -2577    -2565    -2546 
   -2523    -2493    -2461    -2435    -2413    -2398    -2390    -2389 
   -2392    -2403    -2419    -2436    -2452    -2467    -2479    -2488 
   -2492    -2494    -2493    -2489    -2488    -2489    -2493    -2504 
   -2527    -2554    -2584    -2623    -2662    -2698    -2732    -2759 
   -2781    -2797    -2811    -2832    -2852    -2876    -2910    -2947 
   -2986    -3037    -3094    -3150    -3207    -3260    -3303    -3333 
   -3352    -3354    -3336    -3307    -3267    -3213    -3148    -3073 
   -2991    -2909    -2822    -2731    -2639    -2546    -2450    -2351 
   -2257    -2161    -2069    -1987    -1914    -1846    -1792    -1749 
   -1713    -1686    -1672    -1671    -1677    -1691    -1715    -1748 
   -1787    -1830    -1872    -1915    -1961    -2004    -2043    -2083 
   -2123    -2158    -2192    -2227    -2257    -2282    -2305    -2324 
   -2342    -2362    -2386    -2416    -2447    -2482    -2520    -2552 
   -2582    -2609    -2627    -2635    -2627    -2604    -2575    -2540 
   -2496    -2446    -2397    -2349    -2304    -2266    -2232    -2203 
   -2180    -2161    -2144    -2128    -2116    -2106    -2092    -2079 
   -2073    -2069    -2066    -2069    -2083    -2107    -2144    -2199 
   -2265    -2342    -2428    -2520    -2610    -2700    -2782    -2855 
   -2921    -2979    -3033    -3083    -3129    -3172    -3215    -3258 
   -3298    -3331    -3360    -3379    -3381    -3376    -3361    -3335 
   -3300    -3258    -3211    -3165    -3118    -3071    -3034    -3001 
   -2965    -2937    -2913    -2893    -2874    -2853    -2832    -2806 
   -2779    -2745    -2709    -2675    -2641    -2609    -2582    -2562 
   -2548    -2544    -2550    -2562    -2578    -2594    -2605    -2613 
   -2616    -2605    -2589    -2565    -2535    -2502    -2466    -2427 
   -2388    -2346    -2296    -2242    -2182    -2115    -2041    -1968 
   -1894    -1814    -1734    -1657    -1578    -1503    -1437    -1381 
   -1328    -1282    -1246    -1212    -1178    -1146    -1113    -1084 
   -1053    -1026    -1005     -989     -978     -977     -984     -999 
   -1026    -1069    -1120    -1183    -1260    -1345    -1439    -1535 
   -1632    -1729    -1819    -1898    -1968    -2025    -2062    -2091 
   -2114    -2126    -2137    -2147    -2160    -2181    -2211    -2243 
   -2286    -2335    -2390    -2450    -2509    -2565    -2623    -2673 
   -2714    -2749    -2775    -2787    -2794    -2799    -2798    -2791 
   -2787    -2778    -2764    -2755    -2748    -2744    -2747    -2758 
   -2774    -2797    -2824    -2855    -2889    -2926    -2965    -2998 
   -3026    -3049    -3064    -3071    -3078    -3084    -3087    -3088 
   -3099    -3113    -3127    -3156    -3188    -3225    -3267    -3308 
   -3355    -3403    -3445    -3487    -3523    -3553    -3573    -3582 
   -3578    -3561    -3527    -3481    -3418    -3333    -3237    -3125 
   -2994    -2853    -2704    -2546    -2386    -2227    -2070    -1918 
   -1776    -1644    -1521    -1408    -1302    -1205    -1119    -1039 
    -969     -907     -851     -801     -758     -720     -688     -665 
    -649     -638     -643     -662     -691     -730     -776     -824 
    -873     -919     -955     -981     -999    -1013    -1026    -1039 
   -1053    -1065    -1081    -1097    -1107    -1116    -1128    -1142 
   -1162    -1189    -1229    -1291    -1379    -1483    -1606    -1753 
   -1904    -2062    -2227    -2386    -2539    -2686    -2824    -2952 
   -3071    -3183    -3280    -3361    -3429    -3477    -3505    -3522 
   -3526    -3514    -3492    -3469    -3440    -3410    -3385    -3369 
   -3353    -3345    -3345    -3349    -3354    -3361    -3372    -3381 
   -3392    -3406    -3420    -3435    -3449    -3462    -3472    -3472 
   -3468    -3459    -3437    -3403    -3366    -3322    -3262    -3191 
   -3114    -3033    -2947    -2860    -2776    -2695    -2620    -2556 
   -2504    -2461    -2430    -2411    -2407    -2413    -2435    -2467 
   -2504    -2543    -2581    -2608    -2625    -2624    -2602    -2559 
   -2497    -2417    -2319    -2207    -2079    -1941    -1792    -1632 
   -1470    -1304    -1138     -978     -822     -670     -535     -411 
    -294     -189      -91        2       91      172      249      324 
     392      453      506      548      579      599      602      591 
     572      538      492      448      399      340      272      193 
     101       -1     -118     -253     -403     -566     -741     -926 
   -1120    -1320    -1521    -1718    -1910    -2097    -2274    -2440 
   -2598    -2745    -2879    -3005    -3117    -3213    -3300    -3369 
   -3429    -3478    -3523    -3561    -3591    -3618    -3638    -3649 
   -3653    -3651    -3638    -3615    -3577    -3522    -3446    -3348 
   -3227    -3088    -2932    -2767    -2600    -2436    -2281    -2138 
   -2006    -1888    -1786    -1698    -1624    -1567    -1528    -1505 
   -1495    -1503    -1528    -1563    -1606    -1664    -1723    -1788 
   -1865    -1949    -2041    -2141    -2249    -2366    -2490    -2617 
   -2743    -2866    -2983    -3084    -3165    -3232    -3288    -3329 
   -3355    -3372    -3379    -3377    -3366    -3345    -3312    -3272 
   -3223    -3164    -3094    -3015    -2926    -2828    -2721    -2608 
   -2489    -2363    -2234    -2102    -1968    -1836    -1703    -1572 
   -1448    -1332    -1223    -1121    -1026     -934     -850     -767 
    -684     -606     -535     -472     -417     -372     -340     -317 
    -303     -299     -303     -313     -330     -355     -383     -422 
    -471     -526     -588     -652     -715     -785     -851     -920 
    -996    -1075    -1158    -1250    -1352    -1467    -1594    -1733 
   -1883    -2037    -2195    -2358    -2515    -2660    -2801    -2932 
   -3052    -3160    -3261    -3353    -3433    -3508    -3584    -3653 
   -3719    -3786    -3852    -3909    -3958    -4000    -4029    -4044 
   -4041    -4023    -3989    -3943    -3893    -3840    -3785    -3738 
   -3704    -3677    -3662    -3662    -3667    -3674    -3682    -3686 
   -3685    -3678    -3659    -3628    -3589    -3542    -3485    -3429 
   -3376    -3323    -3268    -3210    -3149    -3083    -3010    -2926 
   -2830    -2725    -2612    -2493    -2370    -2245    -2124    -2012 
   -1912    -1833    -1779    -1748    -1741    -1761    -1803    -1858 
   -1930    -2020    -2115    -2212    -2313    -2411    -2508    -2597 
   -2669    -2733    -2786    -2818    -2830    -2829    -2806    -2759 
   -2688    -2594    -2478    -2338    -2177    -2006    -1826    -1636 
   -1449    -1275    -1107     -955     -822     -711     -622     -558 
    -523     -511     -518     -544     -587     -643     -704     -766 
    -832     -897     -963    -1031    -1092    -1150    -1205    -1252 
   -1291    -1327    -1354    -1372    -1382    -1389    -1391    -1390 
   -1393    -1401    -1416    -1443    -1480    -1528    -1587    -1657 
   -1738    -1826    -1918    -2012    -2104    -2192    -2272    -2342 
   -2405    -2461    -2511    -2551    -2589    -2621    -2651    -2679 
   -2709    -2735    -2759    -2782    -2798    -2808    -2811    -2809 
   -2799    -2789    -2778    -2770    -2767    -2770    -2775    -2786 
   -2802    -2818    -2836    -2859    -2882    -2895    -2906    -2913 
   -2913    -2901    -2876    -2840    -2794    -2736    -2662    -2579 
   -2492    -2401    -2309    -2224    -2149    -2079    -2020    -1964 
   -1910    -1863    -1822    -1780    -1745    -1719    -1699    -1684 
   -1677    -1676    -1676    -1676    -1676    -1669    -1663    -1657 
   -1653    -1649    -1648    -1644    -1642    -1636    -1622    -1605 
   -1586    -1560    -1525    -1486    -1445    -1402    -1359    -1320 
   -1287    -1266    -1254    -1250    -1259    -1277    -1300    -1332 
   -1377    -1426    -1485    -1551    -1625    -1703    -1787    -1872 
   -1954    -2037    -2118    -2200    -2281    -2361    -2444    -2535 
   -2628    -2721    -2821    -2920    -3014    -3098    -3175    -3244 
   -3296    -3335    -3360    -3369    -3373    -3364    -3338    -3306 
   -3264    -3213    -3159    -3107    -3059    -3017    -2980    -2949 
   -2925    -2910    -2905    -2901    -2902    -2917    -2936    -2963 
   -3007    -3065    -3130    -3208    -3295    -3385    -3474    -3563 
   -3646    -3711    -3759    -3797    -3809    -3800    -3778    -3743 
   -3688    -3626    -3565    -3500    -3437    -3373    -3308    -3244 
   -3179    -3118    -3060    -3003    -2949    -2898    -2848    -2798 
   -2744    -2682    -2608    -2521    -2424    -2309    -2174    -2025 
   -1861    -1684    -1502    -1321    -1148     -980     -820     -677 
    -548     -427     -319     -225     -141      -67       -8       36 
      65       75       68       41       -5      -72     -160     -268 
    -388     -517     -650     -787     -920    -1050    -1175    -1296 
   -1410    -1526    -1642    -1760    -1880    -2001    -2120    -2238 
   -2349    -2457    -2565    -2666    -2759    -2851    -2940    -3019 
   -3090    -3156    -3218    -3273    -3322    -3364    -3392    -3407 
   -3410    -3399    -3372    -3330    -3277    -3210    -3133    -3048 
   -2957    -2863    -2776    -2700    -2635    -2584    -2551    -2532 
   -2525    -2536    -2563    -2605    -2658    -2724    -2801    -2879 
   -2960    -3040    -3113    -3173    -3222    -3256    -3271    -3269 
   -3260    -3237    -3199    -3160    -3126    -3100    -3084    -3076 
   -3083    -3105    -3136    -3176    -3225    -3273    -3316    -3353 
   -3377    -3384    -3373    -3348    -3306    -3252    -3190    -3118 
   -3045    -2971    -2899    -2828    -2756    -2687    -2624    -2562 
   -2502    -2448    -2403    -2361    -2328    -2307    -2296    -2295 
   -2299    -2311    -2331    -2357    -2381    -2408    -2438    -2465 
   -2484    -2500    -2504    -2494    -2469    -2428    -2373    -2303 
   -2223    -2143    -2066    -2000    -1946    -1906    -1883    -1880 
   -1891    -1914    -1948    -1987    -2033    -2084    -2130    -2173 
   -2219    -2259    -2290    -2317    -2343    -2365    -2389    -2415 
