Origin Time       2016/04/16 01:25:00
Lat.              32.753
Long.             130.762
Depth. (km)       12
Mag.              7.3
Station Code      SMN008
Station Lat.      34.8523
Station Long.     132.5308
Station Height(m) 335
Record Time       2016/04/16 01:25:59
Sampling Freq(Hz) 100Hz
Duration Time(s)  101
Dir.              E-W
Scale Factor      7845(gal)/8223790
Max. Acc. (gal)   5.118
Last Correction   2016/04/16 01:25:59
Memo.             
[...]
    -884    -1112    -1291    -1440    -1554    -1620    -1609    -1490 
   -1301    -1119     -976     -869     -789     -770     -847    -1015 
   -1236    -1436    -1517    -1435    -1230     -961     -649     -355 
    -178     -149     -225     -383     -608     -843    -1013    -1112 
   -1173    -1240    -1334    -1414    -1456    -1462    -1448    -1422 
   -1374    -1304    -1248    -1240    -1297    -1389    -1459    -1478 
   -1451    -1416    -1398    -1371    -1304    -1200    -1093     -994 
    -896     -795     -696     -625     -585     -579     -623     -691 
    -761     -866    -1000    -1100    -1096    -1000     -923     -936 
   -1005    -1062    -1127    -1247    -1428    -1648    -1852    -1972 
   -1975    -1890    -1757    -1615    -1520    -1509    -1556    -1610 
   -1642    -1645    -1617    -1567    -1498    -1412    -1294    -1125 
    -890     -581     -238       58      243      297      229       78 
    -124     -383     -693    -1005    -1256    -1426    -1526    -1559 
   -1535    -1506    -1495    -1495    -1509    -1537    -1559    -1553 
   -1494    -1352    -1128     -896     -718     -568     -409     -271 
    -201     -193     -234     -357     -579     -857    -1146    -1448 
   -1763    -2049    -2270    -2408    -2438    -2353    -2139    -1806 
   -1399     -959     -540     -241     -103     -101     -197     -360 
    -558     -765     -980    -1189    -1347    -1431    -1474    -1483 
   -1455    -1410    -1362    -1273    -1112     -915     -743     -635 
    -621     -728     -918    -1081    -1146    -1119    -1026     -877 
    -714     -587     -545     -591     -668     -745     -831     -928 
   -1008    -1046    -1036     -986     -926     -892     -896     -918 
    -923     -890     -850     -855     -957    -1144    -1350    -1499 
   -1556    -1539    -1497    -1471    -1467    -1462    -1425    -1332 
   -1192    -1031     -881     -784     -749     -727     -696     -662 
    -631     -608     -579     -553     -550     -579     -675     -900 
   -1254    -1656    -2022    -2274    -2373    -2332    -2177    -1903 
   -1502    -1000     -490      -91       94       60      -95     -295 
    -522     -769    -1026    -1270    -1451    -1540    -1559    -1525 
   -1443    -1304    -1086     -823     -588     -409     -279     -211 
    -228     -321     -453     -614     -815    -1036    -1237    -1378 
   -1444    -1491    -1545    -1602    -1683    -1815    -1977    -2130 
   -2231    -2258    -2177    -1989    -1757    -1545    -1371    -1232 
   -1133    -1065     -986     -899     -869     -932    -1067    -1251 
   -1448    -1605    -1672    -1617    -1447    -1193     -889     -599 
    -403     -326     -326     -360     -434     -579     -805    -1093 
   -1416    -1732    -1972    -2076    -2049    -1965    -1867    -1721 
   -1509    -1254     -980     -733     -591     -564     -600     -673 
    -751     -827     -946    -1146    -1405    -1691    -1949    -2123 
   -2201    -2259    -2349    -2438    -2486    -2501    -2490    -2467 
   -2455    -2440    -2376    -2232    -2030    -1791    -1521    -1223 
    -924     -675     -508     -459     -548     -738     -962    -1167 
   -1323    -1443    -1572    -1714    -1811    -1848    -1844    -1788 
   -1686    -1567    -1422    -1198     -924     -704     -604     -598 
    -623     -634     -611     -595     -639     -772     -959    -1140 
   -1271    -1364    -1456    -1570    -1669    -1665    -1516    -1271 
   -1020     -851     -830     -908     -982    -1008     -987     -981 
   -1073    -1256    -1431    -1528    -1530    -1440    -1314    -1271 
   -1347    -1466    -1537    -1520    -1394    -1185     -977     -828 
    -760     -788     -886     -984    -1031    -1043    -1078    -1138 
   -1173    -1183    -1181    -1166    -1166    -1182    -1189    -1209 
   -1285    -1409    -1563    -1746    -1926    -2027    -1979    -1767 
   -1467    -1197    -1044    -1048    -1201    -1447    -1699    -1881 
   -1941    -1873    -1723    -1514    -1244     -946     -630     -294 
      -8      121       78      -58     -233     -421     -558     -606 
    -608     -600     -584     -607     -734     -966    -1244    -1514 
   -1767    -1973    -2097    -2153    -2158    -2095    -1969    -1790 
   -1570    -1344    -1129     -940     -822     -804     -864     -970 
   -1107    -1281    -1476    -1645    -1772    -1857    -1880    -1849 
   -1800    -1728    -1613    -1464    -1279    -1081     -918     -827 
    -830     -920    -1053    -1142    -1156    -1135    -1119    -1107 
   -1080    -1042     -997     -935     -873     -812     -739     -672 
    -656     -697     -746     -722     -596     -411     -244     -167 
    -211     -357     -558     -774     -973    -1146    -1316    -1468 
   -1553    -1551    -1462    -1287    -1047     -805     -630     -548 
    -562     -649     -780     -927    -1073    -1221    -1383    -1548 
   -1682    -1740    -1722    -1663    -1584    -1493    -1364    -1183 
    -987     -842     -789     -838     -951    -1055    -1092    -1039 
    -953     -927     -992    -1105    -1201    -1217    -1123     -943 
    -762     -653     -607     -600     -697     -954    -1318    -1707 
   -2088    -2434    -2691    -2832    -2872    -2840    -2718    -2492 
   -2155    -1721    -1235     -810     -526     -406     -436     -560 
    -688     -783     -858     -909     -909     -842     -726     -611 
    -557     -604     -743     -915    -1078    -1243    -1429    -1636 
   -1795    -1846    -1804    -1698    -1522    -1310    -1107     -928 
    -810     -828     -981    -1174    -1344    -1482    -1591    -1651 
   -1637    -1547    -1394    -1217    -1094    -1081    -1155    -1267 
   -1401    -1516    -1598    -1676    -1723    -1682    -1544    -1339 
   -1085     -823     -598     -413     -244      -79       79      240 
     396      517      564      518      379      171      -64     -319 
    -607     -911    -1202    -1445    -1595    -1636    -1567    -1399 
   -1194    -1021     -924     -908     -953    -1034    -1138    -1258 
   -1399    -1553    -1682    -1764    -1798    -1767    -1661    -1521 
   -1413    -1363    -1328    -1254    -1117     -911     -688     -545 
    -518     -560     -622     -672     -712     -766     -841     -942 
   -1085    -1243    -1352    -1377    -1340    -1302    -1313    -1387 
   -1501    -1615    -1688    -1705    -1692    -1663    -1605    -1516 
   -1405    -1312    -1264    -1217    -1117     -978     -857     -787 
    -773     -770     -739     -719     -739     -791     -864     -942 
   -1030    -1148    -1274    -1377    -1463    -1545    -1632    -1714 
   -1775    -1791    -1734    -1584    -1356    -1107     -895     -734 
    -654     -710     -908    -1170    -1409    -1576    -1645    -1647 
   -1644    -1653    -1674    -1688    -1642    -1494    -1264    -1028 
    -870     -815     -799     -753     -664     -552     -463     -417 
    -383     -352     -309     -220      -72      147      453      795 
    1080     1259     1323     1266     1109      908      696      479 
     249       13     -237     -521     -842    -1171    -1482    -1775 
   -2064    -2335    -2536    -2625    -2604    -2478    -2296    -2130 
   -2022    -1949    -1888    -1830    -1826    -1935    -2126    -2340 
   -2519    -2584    -2513    -2349    -2172    -2042    -1968    -1923 
   -1884    -1813    -1707    -1615    -1576    -1613    -1725    -1833 
   -1837    -1722    -1513    -1252    -1020     -854     -734     -657 
    -626     -652     -766    -1000    -1328    -1664    -1941    -2146 
   -2282    -2316    -2251    -2135    -2001    -1861    -1755    -1719 
   -1761    -1857    -1992    -2153    -2272    -2288    -2223    -2137 
   -2076    -2081    -2154    -2274    -2417    -2540    -2571    -2477 
   -2289    -2053    -1825    -1651    -1540    -1452    -1348    -1225 
   -1107    -1023     -986    -1013    -1073    -1104    -1088    -1036 
    -922     -723     -422       -2      508     1065     1630     2143 
    2569     2882     3057     3086     2990     2810     2605     2412 
    2267     2200     2177     2163     2178     2218     2249     2263 
    2246     2176     2069     1934     1745     1506     1242      962 
     691      445      230       37     -164     -367     -525     -627 
    -707     -797     -926    -1113    -1355    -1645    -1956    -2218 
   -2350    -2304    -2088    -1760    -1347     -882     -417       59 
     553      989     1325     1561     1692     1740     1745     1705 
    1618     1503     1347     1167     1017      892      764      643 
     575      572      572      506      370      141     -197     -612 
   -1059    -1489    -1869    -2215    -2543    -2886    -3310    -3798 
   -4263    -4662    -4962    -5139    -5228    -5256    -5225    -5148 
   -5013    -4828    -4646    -4494    -4382    -4311    -4223    -4064 
   -3811    -3427    -2934    -2427    -1980    -1620    -1328    -1043 
    -714     -344       -5      241      400      488      480      351 
     166       20      -52      -85     -112     -156     -234     -376 
    -600     -919    -1345    -1873    -2455    -3028    -3530    -3928 
   -4213    -4359    -4336    -4164    -3879    -3524    -3191    -2971 
   -2928    -3098    -3450    -3924    -4446    -4915    -5246    -5417 
   -5408    -5179    -4726    -4071    -3279    -2427    -1586     -818 
    -156      390      785     1003     1048      940      762      611 
     491      390      280      126      -76     -326     -633     -999 
   -1425    -1927    -2448    -2906    -3260    -3477    -3532    -3450 
   -3288    -3133    -3048    -3025    -3059    -3142    -3223    -3311 
   -3473    -3693    -3908    -4102    -4238    -4248    -4104    -3812 
   -3422    -2986    -2515    -1984    -1398     -778     -201      225 
     438      433      259      -32     -410     -784    -1050    -1163 
   -1097     -837     -446      -51      221      328      294      124 
    -212     -669    -1125    -1495    -1715    -1738    -1576    -1243 
    -741     -128      517     1096     1495     1669     1620     1344 
     892      351     -175     -611     -934    -1111    -1107     -955 
    -697     -355        0      279      450      498      418      255 
      40     -211     -477     -756    -1026    -1269    -1493    -1711 
   -1956    -2265    -2605    -2876    -3042    -3137    -3227    -3333 
   -3388    -3319    -3090    -2709    -2251    -1809    -1421    -1092 
    -808     -548     -286       -5      280      508      614      573 
     441      337      352      477      652      822      959     1070 
    1182     1298     1394     1449     1443     1360     1213     1063 
     993     1039     1188     1382     1539     1587     1516     1350 
    1117      864      631      405      186       -4     -170     -307 
    -421     -544     -669     -756     -751     -635     -502     -475 
    -595     -837    -1098    -1232    -1159     -903     -542     -186 
      68      141      -21     -388     -851    -1287    -1539    -1435 
    -903      -36      965     1898     2668     3246     3607     3748 
    3665     3314     2708     1960     1223      623      263      152 
     216      357      531      692      780      785      743      679 
     638      673      753      776      645      319     -152     -642 
   -1000    -1155    -1139    -1021     -877     -747     -641     -577 
    -581     -652     -741     -787     -724     -550     -330     -116 
     105      340      548      675      675      523      238     -121 
    -487     -804    -1097    -1413    -1719    -1995    -2278    -2590 
   -2915    -3234    -3520    -3744    -3844    -3711    -3275    -2636 
   -2003    -1544    -1306    -1229    -1242    -1329    -1489    -1711 
   -2056    -2559    -3167    -3800    -4426    -5027    -5544    -5880 
   -5961    -5738    -5213    -4519    -3859    -3314    -2866    -2544 
   -2382    -2361    -2447    -2601    -2798    -3032    -3288    -3566 
   -3861    -4151    -4448    -4801    -5212    -5571    -5725    -5595 
   -5246    -4765    -4202    -3609    -3018    -2416    -1821    -1260 
    -753     -317       31      284      407      344       78     -325 
    -726    -1023    -1216    -1368    -1516    -1614    -1617    -1545 
   -1443    -1350    -1355    -1564    -1981    -2502    -3015    -3423 
   -3639    -3649    -3492    -3225    -2949    -2764    -2632    -2461 
   -2208    -1861    -1428     -980     -627     -437     -394     -442 
    -522     -549     -475     -311      -78      201      459      622 
     660      572      342      -41     -545    -1070    -1516    -1821 
   -2007    -2165    -2365    -2577    -2686    -2551    -2123    -1486 
    -765      -70      537     1065     1532     1918     2195     2357 
    2416     2442     2511     2617     2725     2822     2874     2826 
    2650     2362     1992     1530      990      422     -125     -600 
    -970    -1228    -1332    -1240     -958     -542      -94      295 
     591      822     1053     1312     1606     1968     2419     2938 
    3442     3789     3858     3634     3223     2766     2390     2143 
    1984     1890     1841     1779     1667     1462     1097      560 
     -76     -735    -1410    -2083    -2648    -3019    -3138    -2943 
   -2423    -1621     -629      392     1233     1729     1875     1836 
    1736     1541     1196      715      190     -217     -340      -65 
     626     1603     2658     3566     4131     4268     4008     3472 
    2817     2143     1551     1148      945      909     1000     1088 
    1000      662      109     -562    -1235    -1814    -2274    -2602 
   -2766    -2768    -2668    -2538    -2451    -2485    -2651    -2857 
   -2994    -3028    -2984    -2874    -2695    -2469    -2235    -2064 
   -2037    -2168    -2385    -2639    -2899    -3125    -3261    -3258 
   -3053    -2598    -1939    -1244     -693     -365     -252     -315 
    -440     -472     -334        1      487      977     1316     1414 
    1255      851      225     -526    -1270    -1899    -2367    -2660 
   -2762    -2655    -2374    -1999    -1584    -1197     -928     -795 
    -708     -616     -487     -228      261     1011     1917     2771 
    3407     3719     3709     3508     3227     2814     2185     1366 
     484     -306     -880    -1225    -1476    -1764    -2070    -2257 
   -2196    -1846    -1277     -653     -148      128      174       52 
    -141     -282     -326     -378     -533     -773    -1000    -1150 
   -1170    -1039     -854     -780     -884    -1046    -1065     -841 
    -440      -32      178       47     -376     -870    -1221    -1372 
   -1356    -1221    -1036     -846     -654     -492     -449     -608 
    -940    -1305    -1534    -1509    -1227     -792     -363      -87 
     -23     -129     -318     -468     -495     -363      -78      275 
     595      845     1007     1060     1005      830      532      151 
    -283     -747    -1163    -1410    -1413    -1146     -656      -89 
     433      851     1089     1090      872      487      -21     -584 
   -1093    -1475    -1703    -1757    -1675    -1570    -1568    -1718 
   -2004    -2386    -2743    -2949    -3013    -3005    -2978    -2934 
   -2833    -2659    -2428    -2144    -1831    -1501    -1170     -955 
    -973    -1221    -1632    -2088    -2440    -2555    -2357    -1887 
   -1352     -929     -615     -330      -14      361      758     1098 
    1275     1146      653      -89     -881    -1541    -1923    -1993 
   -1858    -1682    -1610    -1729    -2034    -2431    -2759    -2875 
   -2751    -2438    -1993    -1448     -810     -197      214      321 
      99     -351     -847    -1220    -1345    -1170     -750     -236 
     199      481      672      849      978      959      747      410 
      99      -62      -47      114      386      681      901     1024 
    1093     1113     1030      727      149     -657    -1541    -2278 
   -2731    -2917    -2906    -2789    -2633    -2481    -2373    -2326 
   -2296    -2215    -2056    -1833    -1570    -1275     -978     -685 
    -370      -25      321      611      739      585      141     -484 
   -1152    -1729    -2126    -2322    -2335    -2199    -1961    -1696 
   -1493    -1401    -1397    -1394    -1302    -1100     -872     -728 
    -728     -886    -1169    -1467    -1711    -1899    -2012    -2039 
   -2027    -2041    -2126    -2303    -2551    -2798    -2933    -2874 
   -2629    -2284    -1946    -1688    -1498    -1314    -1104     -903 
    -810     -908    -1167    -1494    -1813    -2076    -2295    -2558 
   -2930    -3369    -3765    -3983    -3955    -3716    -3365    -3021 
   -2759    -2589    -2504    -2471    -2438    -2396    -2403    -2466 
   -2532    -2551    -2525    -2509    -2531    -2560    -2563    -2532 
   -2467    -2385    -2305    -2224    -2126    -2033    -1999    -2046 
   -2107    -2076    -1899    -1618    -1345    -1175    -1084     -999 
    -903     -847     -928    -1196    -1582    -1996    -2398    -2759 
   -3036    -3222    -3349    -3445    -3538    -3653    -3800    -3923 
   -3906    -3685    -3303    -2828    -2346    -1929    -1595    -1371 
   -1304    -1387    -1593    -1903    -2293    -2717    -3114    -3458 
   -3717    -3819    -3730    -3487    -3126    -2710    -2327    -2033 
   -1840    -1736    -1729    -1876    -2200    -2628    -3045    -3339 
   -3480    -3541    -3603    -3689    -3766    -3773    -3686    -3559 
   -3477    -3515    -3661    -3793    -3832    -3773    -3620    -3438 
   -3330    -3291    -3246    -3179    -3099    -3009    -2915    -2776 
   -2496    -2018    -1401     -837     -533     -577     -927    -1476 
   -2089    -2663    -3149    -3527    -3781    -3898    -3879    -3696 
   -3339    -2882    -2444    -2111    -1941    -1949    -2053    -2088 
   -2004    -1900    -1873    -1929    -1964    -1869    -1605    -1233 
    -869     -607     -518     -642     -915    -1228    -1584    -2041 
   -2544    -2967    -3211    -3213    -2988    -2664    -2394    -2246 
   -2215    -2336    -2705    -3329    -4032    -4596    -4899    -4891 
   -4553    -3959    -3238    -2492    -1795    -1267    -1053    -1223 
   -1694    -2288    -2820    -3186    -3380    -3414    -3261    -2870 
   -2211    -1308     -263      737     1460     1742     1594     1147 
     545      -89     -695    -1255    -1725    -2030    -2120    -2010 
   -1748    -1366     -900     -459     -141       55      159      143 
     -22     -313     -727    -1271    -1861    -2380    -2794    -3121 
   -3326    -3341    -3140    -2729    -2158    -1582    -1210    -1162 
   -1425    -1912    -2481    -2934    -3137    -3145    -3111    -3079 
   -3022    -2943    -2782    -2493    -2188    -2025    -2061    -2272 
   -2617    -3086    -3628    -4144    -4514    -4623    -4421    -3987 
   -3453    -2893    -2363    -1914    -1545    -1263    -1102    -1071 
   -1127    -1210    -1321    -1521    -1811    -2087    -2281    -2412 
   -2494    -2513    -2439    -2292    -2138    -1962    -1721    -1462 
   -1237    -1085    -1085    -1269    -1521    -1692    -1698    -1512 
   -1138     -642     -147      222      399      380      172     -216 
    -706    -1165    -1490    -1634    -1601    -1433    -1212     -997 
