Origin Time       2016/04/16 01:25:00
Lat.              32.753
Long.             130.762
Depth. (km)       12
Mag.              7.3
Station Code      SMN011
Station Lat.      34.5718
Station Long.     132.0141
Station Height(m) 265
Record Time       2016/04/16 01:25:48
Sampling Freq(Hz) 100Hz
Duration Time(s)  104
Dir.              E-W
Scale Factor      7845(gal)/8223790
Max. Acc. (gal)   5.983
Last Correction   2016/04/16 01:25:49
Memo.             
[...]
   -3013    -3118    -3079    -2890    -2627    -2419    -2349    -2425 
   -2623    -2860    -3068    -3264    -3500    -3748    -3901    -3842 
   -3574    -3271    -3167    -3339    -3615    -3755    -3677    -3459 
   -3222    -3048    -2960    -2926    -2911    -2921    -2980    -3098 
   -3194    -3142    -2905    -2608    -2417    -2389    -2459    -2544 
   -2597    -2605    -2571    -2525    -2504    -2502    -2470    -2363 
   -2214    -2111    -2126    -2261    -2459    -2648    -2781    -2878 
   -2974    -3051    -3064    -2971    -2772    -2563    -2454    -2474 
   -2574    -2685    -2776    -2880    -3037    -3204    -3288    -3246 
   -3122    -2998    -2955    -3001    -3052    -3071    -3098    -3180 
   -3339    -3546    -3703    -3696    -3518    -3294    -3168    -3167 
   -3226    -3283    -3280    -3173    -3002    -2855    -2762    -2686 
   -2601    -2528    -2513    -2586    -2716    -2818    -2832    -2772 
   -2678    -2565    -2458    -2382    -2369    -2439    -2575    -2754 
   -2986    -3277    -3573    -3773    -3786    -3589    -3246    -2884 
   -2623    -2496    -2469    -2497    -2582    -2764    -3061    -3407 
   -3669    -3712    -3476    -3034    -2613    -2444    -2589    -2887 
   -3113    -3159    -3098    -3094    -3237    -3416    -3446    -3261 
   -2928    -2593    -2435    -2525    -2727    -2853    -2862    -2848 
   -2903    -2982    -2980    -2922    -2920    -3003    -3109    -3172 
   -3157    -3040    -2851    -2709    -2744    -2957    -3222    -3402 
   -3439    -3379    -3284    -3187    -3086    -2967    -2814    -2641 
   -2511    -2484    -2586    -2808    -3075    -3244    -3206    -3006 
   -2817    -2792    -2924    -3059    -3082    -3003    -2933    -2983 
   -3157    -3341    -3430    -3414    -3350    -3311    -3322    -3361 
   -3426    -3487    -3484    -3423    -3349    -3288    -3260    -3265 
   -3269    -3244    -3192    -3136    -3115    -3164    -3232    -3246 
   -3198    -3137    -3114    -3127    -3144    -3126    -3045    -2893 
   -2709    -2596    -2641    -2809    -2961    -3006    -2964    -2896 
   -2833    -2752    -2655    -2571    -2504    -2473    -2529    -2682 
   -2872    -3036    -3118    -3096    -2984    -2835    -2721    -2714 
   -2801    -2903    -2952    -2934    -2905    -2951    -3098    -3275 
   -3415    -3492    -3505    -3495    -3500    -3461    -3294    -3019 
   -2747    -2581    -2550    -2606    -2671    -2701    -2720    -2778 
   -2882    -2992    -3019    -2880    -2600    -2357    -2319    -2520 
   -2835    -3071    -3111    -3030    -2994    -3092    -3257    -3334 
   -3210    -2930    -2693    -2678    -2895    -3210    -3457    -3539 
   -3472    -3360    -3294    -3267    -3210    -3092    -2964    -2903 
   -2930    -3003    -3071    -3115    -3117    -3060    -2949    -2820 
   -2721    -2685    -2685    -2673    -2633    -2604    -2612    -2658 
   -2718    -2747    -2697    -2570    -2432    -2389    -2508    -2748 
   -3017    -3219    -3296    -3240    -3082    -2860    -2606    -2359 
   -2169    -2084    -2130    -2284    -2473    -2641    -2787    -2928 
   -3046    -3094    -3068    -3037    -3037    -3051    -3069    -3130 
   -3291    -3515    -3678    -3699    -3597    -3449    -3319    -3217 
   -3100    -2953    -2824    -2791    -2896    -3071    -3199    -3222 
   -3156    -3040    -2928    -2870    -2852    -2829    -2792    -2770 
   -2772    -2789    -2839    -2944    -3060    -3096    -2998    -2811 
   -2659    -2632    -2736    -2934    -3144    -3249    -3234    -3210 
   -3252    -3306    -3279    -3109    -2801    -2478    -2305    -2343 
   -2517    -2714    -2844    -2870    -2825    -2781    -2758    -2736 
   -2691    -2624    -2559    -2527    -2543    -2616    -2762    -2959 
   -3122    -3154    -3041    -2840    -2646    -2573    -2671    -2848 
   -2947    -2932    -2902    -2975    -3164    -3342    -3353    -3165 
   -2871    -2581    -2371    -2274    -2267    -2299    -2355    -2478 
   -2682    -2903    -3037    -3030    -2940    -2860    -2797    -2688 
   -2517    -2343    -2242    -2249    -2347    -2489    -2636    -2763 
   -2835    -2836    -2809    -2801    -2832    -2910    -3003    -3011 
   -2863    -2656    -2579    -2683    -2852    -2947    -2909    -2802 
   -2778    -2936    -3179    -3280    -3109    -2779    -2494    -2381 
   -2423    -2506    -2525    -2459    -2419    -2552    -2889    -3303 
   -3626    -3731    -3607    -3369    -3165    -3051    -3001    -2971 
   -2914    -2808    -2669    -2560    -2560    -2678    -2795    -2763 
   -2577    -2400    -2396    -2567    -2782    -2920    -2953    -2934 
   -2941    -2994    -3057    -3113    -3149    -3149    -3103    -3049 
   -3061    -3165    -3275    -3273    -3113    -2839    -2551    -2357 
   -2322    -2436    -2571    -2597    -2525    -2466    -2492    -2565 
   -2589    -2521    -2442    -2461    -2596    -2735    -2776    -2764 
   -2798    -2918    -3103    -3262    -3258    -3083    -2911    -2911 
   -3084    -3275    -3291    -3082    -2768    -2552    -2567    -2766 
   -2956    -2978    -2817    -2594    -2457    -2481    -2631    -2795 
   -2882    -2907    -2955    -3051    -3136    -3137    -3022    -2817 
   -2598    -2465    -2466    -2587    -2770    -2972    -3153    -3254 
   -3238    -3107    -2910    -2752    -2736    -2860    -3034    -3161 
   -3219    -3248    -3256    -3206    -3048    -2785    -2515    -2388 
   -2421    -2488    -2481    -2389    -2290    -2331    -2574    -2926 
   -3227    -3372    -3345    -3180    -2964    -2783    -2674    -2583 
   -2458    -2323    -2254    -2319    -2529    -2786    -2934    -2930 
   -2855    -2803    -2839    -2957    -3071    -3106    -3103    -3199 
   -3454    -3735    -3851    -3780    -3630    -3476    -3330    -3206 
   -3115    -3055    -3019    -2991    -2896    -2655    -2311    -2064 
   -2088    -2344    -2612    -2683    -2582    -2515    -2641    -2934 
   -3227    -3338    -3210    -2986    -2894    -3028    -3213    -3203 
   -2970    -2721    -2683    -2899    -3199    -3323    -3141    -2806 
   -2596    -2609    -2740    -2835    -2817    -2728    -2673    -2724 
   -2817    -2816    -2721    -2697    -2832    -3063    -3229    -3223 
   -3125    -3121    -3267    -3404    -3307    -2920    -2473    -2258 
   -2309    -2448    -2532    -2497    -2323    -2114    -2060    -2231 
   -2508    -2721    -2798    -2740    -2609    -2494    -2455    -2463 
   -2474    -2492    -2570    -2762    -3096    -3501    -3707    -3503 
   -3052    -2729    -2763    -3065    -3333    -3326    -3113    -2983 
   -3109    -3349    -3434    -3289    -3051    -2870    -2844    -2948 
   -3003    -2938    -2895    -3003    -3221    -3410    -3456    -3365 
   -3244    -3180    -3179    -3184    -3167    -3152    -3203    -3343 
   -3492    -3595    -3700    -3831    -3901    -3815    -3539    -3146 
   -2855    -2840    -3017    -3121    -3007    -2740    -2515    -2509 
   -2709    -2868    -2763    -2409    -2093    -2160    -2593    -3010 
   -3095    -2844    -2493    -2328    -2509    -2948    -3364    -3555 
   -3546    -3431    -3262    -3136    -3127    -3157    -3087    -2907 
   -2748    -2747    -2928    -3171    -3352    -3445    -3474    -3458 
   -3419    -3404    -3439    -3492    -3528    -3519    -3403    -3137 
   -2830    -2668    -2743    -2984    -3207    -3260    -3229    -3295 
   -3418    -3406    -3235    -2988    -2664    -2328    -2241    -2513 
   -2863    -2997    -2978    -3024    -3180    -3357    -3489    -3538 
   -3451    -3256    -3075    -2997    -2967    -2890    -2783    -2736 
   -2752    -2759    -2739    -2756    -2910    -3194    -3477    -3665 
   -3788    -3861    -3792    -3532    -3169    -2837    -2629    -2560 
   -2574    -2632    -2787    -3080    -3400    -3530    -3362    -2991 
   -2614    -2405    -2417    -2542    -2574    -2442    -2301    -2324 
   -2511    -2732    -2785    -2551    -2203    -2114    -2484    -3134 
   -3662    -3789    -3577    -3258    -2974    -2805    -2852    -3052 
   -3156    -3060    -2922    -2922    -3118    -3385    -3464    -3218 
   -2798    -2478    -2457    -2735    -3032    -3025    -2740    -2504 
   -2494    -2621    -2795    -3002    -3146    -3117    -2991    -2914 
   -2890    -2841    -2762    -2683    -2623    -2586    -2602    -2713 
   -2911    -3063    -3003    -2743    -2488    -2454    -2720    -3148 
   -3453    -3457    -3322    -3383    -3708    -4020    -4028    -3696 
   -3265    -3029    -3040    -3184    -3395    -3584    -3568    -3221 
   -2698    -2353    -2353    -2515    -2565    -2467    -2452    -2704 
   -3148    -3574    -3789    -3682    -3346    -3030    -2963    -3215 
   -3580    -3689    -3395    -2907    -2574    -2620    -3014    -3504 
   -3769    -3620    -3207    -2905    -2898    -3048    -3190    -3279 
   -3330    -3377    -3457    -3551    -3593    -3510    -3296    -3109 
   -3136    -3361    -3576    -3603    -3473    -3330    -3213    -3090 
   -3034    -3111    -3198    -3150    -3006    -2941    -3123    -3508 
   -3823    -3883    -3748    -3558    -3457    -3519    -3636    -3676 
   -3663    -3681    -3755    -3871    -3939    -3874    -3773    -3808 
   -4028    -4294    -4430    -4387    -4205    -3954    -3766    -3765 
   -3915    -4044    -4013    -3854    -3738    -3773    -3882    -3928 
   -3834    -3591    -3268    -2984    -2797    -2656    -2489    -2308 
   -2226    -2338    -2656    -3067    -3375    -3470    -3387    -3260 
   -3222    -3245    -3186    -2998    -2783    -2623    -2512    -2478 
   -2581    -2728    -2747    -2636    -2528    -2490    -2502    -2533 
   -2546    -2524    -2523    -2605    -2720    -2767    -2732    -2648 
   -2550    -2562    -2806    -3176    -3399    -3372    -3291    -3392 
   -3694    -4048    -4248    -4136    -3762    -3410    -3284    -3258 
   -3115    -2843    -2527    -2249    -2124    -2196    -2338    -2377 
   -2278    -2157    -2119    -2188    -2286    -2274    -2124    -2016 
   -2124    -2384    -2535    -2407    -2073    -1748    -1632    -1788 
   -2057    -2226    -2226    -2128    -2106    -2293    -2597    -2791 
   -2748    -2540    -2380    -2446    -2700    -2982    -3191    -3288 
   -3303    -3338    -3473    -3711    -3936    -4002    -3916    -3800 
   -3738    -3751    -3794    -3784    -3701    -3599    -3520    -3459 
   -3407    -3375    -3331    -3211    -3030    -2913    -2876    -2795 
   -2604    -2378    -2242    -2242    -2319    -2442    -2601    -2728 
   -2736    -2651    -2559    -2532    -2583    -2610    -2502    -2286 
   -2050    -1842    -1721    -1707    -1725    -1687    -1598    -1513 
   -1436    -1368    -1350    -1405    -1516    -1696    -1962    -2249 
   -2447    -2490    -2403    -2238    -2041    -1939    -2089    -2452 
   -2813    -3002    -3002    -2868    -2706    -2627    -2631    -2629 
   -2596    -2563    -2570    -2656    -2783    -2821    -2679    -2458 
   -2393    -2624    -3006    -3280    -3338    -3222    -3017    -2843 
   -2794    -2889    -3088    -3252    -3213    -2986    -2705    -2444 
   -2270    -2276    -2477    -2786    -3122    -3440    -3677    -3751 
   -3662    -3553    -3609    -3924    -4393    -4774    -4901    -4880 
   -4974    -5298    -5663    -5776    -5559    -5159    -4772    -4535 
   -4444    -4360    -4187    -3927    -3604    -3287    -3107    -3114 
   -3191    -3222    -3168    -3044    -2917    -2878    -2972    -3168 
   -3369    -3447    -3326    -3067    -2806    -2636    -2565    -2533 
   -2471    -2357    -2204    -2073    -2042    -2137    -2293    -2407 
   -2428    -2408    -2401    -2417    -2440    -2423    -2293    -2046 
   -1764    -1578    -1603    -1825    -2081    -2243    -2326    -2457 
   -2748    -3160    -3511    -3640    -3547    -3412    -3419    -3558 
   -3694    -3763    -3767    -3703    -3584    -3426    -3215    -3022 
   -2986    -3134    -3336    -3468    -3483    -3415    -3362    -3440 
   -3645    -3802    -3805    -3731    -3703    -3811    -4097    -4480 
   -4783    -4943    -5053    -5163    -5255    -5312    -5317    -5265 
   -5205    -5224    -5391    -5689    -5983    -6148    -6184    -6160 
   -6104    -5994    -5813    -5575    -5298    -5032    -4868    -4901 
   -5140    -5404    -5455    -5250    -4916    -4595    -4380    -4284 
   -4210    -4002    -3613    -3194    -2928    -2820    -2732    -2556 
   -2281    -1979    -1775    -1736    -1821    -1953    -2066    -2107 
   -2062    -1958    -1806    -1574    -1277    -1009     -838     -718 
    -577     -434     -359     -414     -603     -858    -1078    -1170 
   -1112     -985     -908     -954    -1101    -1206    -1112     -824 
    -506     -280     -112       89      405      855     1337     1688 
    1842     1883     1965     2144     2285     2243     2042     1815 
    1699     1792     2070     2342     2415     2288     2095     1941 
    1899     1954     1962     1804     1554     1364     1277     1281 
    1350     1336     1067      540      -45     -461     -626     -650 
    -718     -922    -1173    -1325    -1325    -1208    -1032     -903 
    -920    -1062    -1200    -1278    -1394    -1688    -2177    -2720 
   -3156    -3464    -3762    -4163    -4695    -5287    -5780    -6029 
   -6039    -5956    -5921    -5983    -6075    -6068    -5926    -5769 
   -5732    -5825    -5989    -6176    -6356    -6529    -6701    -6901 
   -7145    -7388    -7553    -7589    -7479    -7269    -7132    -7283 
   -7761    -8368    -8873    -9150    -9175    -9031    -8822    -8536 
   -8048    -7322    -6509    -5821    -5387    -5220    -5192    -5103 
   -4860    -4567    -4383    -4338    -4344    -4271    -4052    -3798 
   -3708    -3850    -4145    -4500    -4862    -5209    -5501    -5613 
   -5433    -5035    -4639    -4380    -4213    -4066    -3939    -3861 
   -3848    -3956    -4233    -4557    -4714    -4635    -4468    -4402 
   -4500    -4688    -4869    -5027    -5233    -5540    -5880    -6103 
   -6096    -5849    -5458    -5069    -4769    -4563    -4418    -4286 
   -4099    -3838    -3551    -3291    -3061    -2789    -2354    -1761 
   -1182     -795     -661     -739     -916    -1090    -1260    -1502 
   -1867    -2285    -2589    -2636    -2477    -2296    -2211    -2292 
   -2584    -2982    -3254    -3317    -3317    -3392    -3476    -3435 
   -3225    -2886    -2540    -2309    -2182    -2012    -1656    -1154 
    -722     -537     -622     -877    -1165    -1382    -1551    -1755 
   -1987    -2115    -1975    -1541     -976     -517     -306     -297 
    -380     -529     -731     -929    -1063    -1098    -1019     -830 
    -585     -376     -270     -251     -224      -79      163      337 
     306      109     -167     -531    -1034    -1696    -2517    -3426 
   -4251    -4818    -5113    -5268    -5414    -5552    -5593    -5490 
   -5346    -5293    -5373    -5528    -5649    -5691    -5698    -5709 
   -5738    -5815    -5869    -5760    -5472    -5136    -4881    -4752 
   -4688    -4600    -4431    -4155    -3751    -3221    -2577    -1867 
   -1225     -842     -823    -1129    -1614    -2053    -2246    -2177 
   -2010    -1864    -1711    -1460    -1097     -714     -461     -453 
    -665     -940    -1113    -1124    -1053    -1024    -1074    -1144 
   -1248    -1494    -1877    -2235    -2389    -2230    -1722     -982 
    -268      229      500      650      810     1065     1382     1634 
    1722     1653     1533     1467     1505     1624     1755     1818 
    1748     1568     1358     1156      978      882      915      990 
     926      594      -28     -837    -1598    -2128    -2419    -2573 
   -2679    -2754    -2725    -2513    -2141    -1790    -1669    -1804 
   -1991    -1995    -1719    -1263     -841     -625     -642     -781 
    -855     -747     -532     -430     -618    -1080    -1613    -2006 
   -2176    -2137    -2008    -2043    -2463    -3250    -4170    -4978 
   -5593    -6061    -6435    -6737    -7020    -7296    -7473    -7446 
   -7222    -6858    -6358    -5707    -4978    -4311    -3835    -3634 
   -3686    -3879    -4120    -4357    -4544    -4625    -4544    -4283 
   -3936    -3659    -3539    -3550    -3655    -3858    -4170    -4560 
   -4956    -5225    -5184    -4793    -4253    -3782    -3411    -3029 
   -2577    -2163    -1956    -1993    -2176    -2380    -2528    -2600 
   -2631    -2662    -2659    -2539    -2280    -1992    -1895    -2154 
   -2702    -3279    -3645    -3709    -3511    -3122    -2636    -2151 
   -1728    -1420    -1320    -1455    -1698    -1819    -1622    -1119 
    -491       86      460      481      155     -302     -627     -681 
    -529     -379     -417     -654     -987    -1304    -1503    -1530 
   -1467    -1451    -1447    -1291     -954     -600     -407     -459 
    -723    -1075    -1412    -1763    -2246    -2851    -3384    -3627 
   -3504    -3102    -2646    -2374    -2393    -2612    -2875    -3186 
   -3723    -4577    -5613    -6516    -6902    -6538    -5563    -4425 
   -3577    -3229    -3271    -3377    -3288    -3026    -2852    -3029 
   -3546    -4093    -4357    -4282    -3979    -3554    -3028    -2381 
   -1652     -961     -429     -151     -222     -658    -1275    -1772 
   -2003    -2049    -2061    -2128    -2212    -2181    -1980    -1738 
   -1655    -1819    -2203    -2701    -3183    -3562    -3879    -4214 
   -4553    -4769    -4756    -4564    -4407    -4434    -4568    -4612 
   -4463    -4158    -3858    -3754    -3883    -4035    -3950    -3577 
   -3055    -2587    -2342    -2297    -2251    -2033    -1621    -1081 
    -495        0      272      340      321      248       75     -214 
    -548     -805     -946    -1013    -1090    -1263    -1560    -1937 
   -2336    -2662    -2747    -2544    -2242    -2014    -1836    -1625 
   -1333    -1000     -787     -862    -1264    -1867    -2461    -2905 
   -3199    -3443    -3669    -3804    -3773    -3595    -3376    -3269 
   -3372    -3609    -3788    -3813    -3761    -3776    -3923    -4058 
   -3977    -3682    -3372    -3187    -3114    -3071    -2984    -2821 
   -2651    -2587    -2658    -2775    -2844    -2829    -2739    -2625 
   -2559    -2582    -2678    -2794    -2879    -2913    -2874    -2739 
   -2538    -2370    -2338    -2484    -2766    -3090    -3392    -3674 
   -3962    -4240    -4480    -4645    -4658    -4521    -4368    -4327 
   -4315    -4122    -3653    -3049    -2567    -2440    -2713    -3167 
   -3492    -3503    -3208    -2789    -2481    -2363    -2286    -2128 
   -1968    -1922    -2012    -2212    -2465    -2674    -2752    -2679 
   -2550    -2486    -2481    -2435    -2289    -2018    -1655    -1305 
   -1053     -908     -804     -687     -572     -517     -544     -623 
    -723     -866    -1102    -1437    -1826    -2181    -2380    -2384 
   -2300    -2253    -2272    -2288    -2173    -1863    -1475    -1213 
   -1147    -1185    -1229    -1258    -1291    -1386    -1583    -1838 
   -2020    -2016    -1836    -1622    -1524    -1528    -1517    -1445 
   -1358    -1273    -1144     -899     -506      -70      255      403 
     436      508      764     1152     1440     1366      873      232 
    -203     -336     -292     -246     -375     -792    -1398    -1927 
   -2188    -2201    -2128    -2111    -2143    -2118    -1996    -1836 
