Origin Time       2016/04/16 01:25:00
Lat.              32.753
Long.             130.762
Depth. (km)       12
Mag.              7.3
Station Code      SMN002
Station Lat.      35.4714
Station Long.     133.0682
Station Height(m) 2
Record Time       2016/04/16 01:26:22
Sampling Freq(Hz) 100Hz
Duration Time(s)  116
Dir.              E-W
Scale Factor      7845(gal)/8223790
Max. Acc. (gal)   6.715
Last Correction   2016/04/16 01:26:22
Memo.             
[...]
   -4727    -4810    -4889    -4961    -5026    -5085    -5135    -5178 
   -5209    -5223    -5228    -5220    -5202    -5182    -5159    -5127 
   -5088    -5044    -4989    -4928    -4862    -4789    -4712    -4637 
   -4563    -4495    -4431    -4368    -4310    -4256    -4203    -4149 
   -4099    -4045    -3991    -3948    -3906    -3867    -3836    -3811 
   -3792    -3784    -3788    -3809    -3848    -3906    -3987    -4085 
   -4194    -4311    -4434    -4556    -4672    -4776    -4864    -4934 
   -4984    -5011    -5013    -4994    -4956    -4904    -4842    -4777 
   -4708    -4639    -4580    -4523    -4471    -4428    -4390    -4353 
   -4325    -4301    -4276    -4248    -4223    -4195    -4159    -4120 
   -4074    -4027    -3975    -3923    -3873    -3827    -3790    -3766 
   -3754    -3755    -3770    -3794    -3828    -3871    -3916    -3962 
   -4009    -4054    -4098    -4145    -4190    -4233    -4278    -4324 
   -4368    -4413    -4461    -4513    -4561    -4606    -4646    -4675 
   -4696    -4710    -4710    -4706    -4707    -4706    -4702    -4698 
   -4688    -4672    -4653    -4633    -4611    -4590    -4568    -4538 
   -4507    -4479    -4444    -4402    -4364    -4321    -4270    -4215 
   -4155    -4081    -4006    -3932    -3858    -3790    -3736    -3697 
   -3673    -3657    -3650    -3653    -3663    -3674    -3684    -3688 
   -3685    -3677    -3663    -3646    -3627    -3613    -3599    -3589 
   -3597    -3615    -3643    -3686    -3736    -3793    -3861    -3931 
   -4006    -4086    -4167    -4245    -4317    -4386    -4446    -4496 
   -4542    -4585    -4623    -4660    -4695    -4725    -4757    -4791 
   -4822    -4851    -4881    -4903    -4918    -4930    -4927    -4918 
   -4901    -4865    -4814    -4758    -4691    -4608    -4527    -4450 
   -4371    -4303    -4251    -4199    -4155    -4120    -4087    -4055 
   -4035    -4028    -4028    -4047    -4085    -4135    -4203    -4294 
   -4396    -4518    -4666    -4830    -5001    -5184    -5364    -5537 
   -5706    -5863    -6000    -6127    -6235    -6323    -6401    -6462 
   -6498    -6516    -6517    -6494    -6451    -6392    -6307    -6200 
   -6072    -5918    -5738    -5540    -5313    -5058    -4780    -4483 
   -4168    -3847    -3528    -3215    -2915    -2636    -2378    -2146 
   -1948    -1781    -1656    -1579    -1535    -1524    -1545    -1588 
   -1642    -1715    -1802    -1890    -1987    -2089    -2185    -2278 
   -2371    -2465    -2552    -2639    -2721    -2795    -2870    -2941 
   -2999    -3053    -3103    -3142    -3179    -3222    -3267    -3319 
   -3388    -3470    -3566    -3678    -3796    -3924    -4067    -4217 
   -4369    -4533    -4702    -4864    -5019    -5169    -5300    -5405 
   -5493    -5551    -5572    -5572    -5548    -5494    -5424    -5336 
   -5227    -5108    -4986    -4852    -4718    -4588    -4460    -4329 
   -4209    -4097    -3986    -3886    -3794    -3704    -3630    -3565 
   -3507    -3468    -3453    -3451    -3464    -3497    -3544    -3603 
   -3685    -3784    -3894    -4028    -4180    -4341    -4527    -4733 
   -4949    -5186    -5439    -5697    -5962    -6238    -6505    -6768 
   -7032    -7285    -7527    -7759    -7978    -8174    -8338    -8469 
   -8553    -8583    -8568    -8505    -8385    -8218    -8002    -7732 
   -7414    -7055    -6652    -6218    -5757    -5268    -4760    -4243 
   -3727    -3207    -2702    -2223    -1771    -1355     -989     -675 
    -410     -211      -78       -4        0      -67     -190     -379 
    -635     -939    -1285    -1679    -2107    -2552    -3022    -3504 
   -3979    -4449    -4912    -5347    -5751    -6126    -6458    -6736 
   -6972    -7160    -7287    -7358    -7369    -7314    -7194    -7013 
   -6779    -6500    -6181    -5836    -5463    -5081    -4700    -4324 
   -3962    -3631    -3329    -3063    -2843    -2674    -2556    -2490 
   -2482    -2529    -2625    -2771    -2963    -3190    -3450    -3738 
   -4039    -4345    -4658    -4962    -5247    -5514    -5767    -5995 
   -6192    -6358    -6500    -6615    -6704    -6770    -6822    -6863 
   -6897    -6928    -6959    -6990    -7026    -7063    -7094    -7122 
   -7140    -7141    -7127    -7096    -7042    -6966    -6867    -6752 
   -6623    -6482    -6342    -6197    -6046    -5895    -5745    -5590 
   -5440    -5294    -5147    -5004    -4874    -4753    -4637    -4530 
   -4433    -4345    -4270    -4209    -4167    -4149    -4148    -4159 
   -4178    -4199    -4218    -4241    -4260    -4271    -4280    -4283 
   -4275    -4252    -4214    -4167    -4113    -4052    -3983    -3905 
   -3819    -3721    -3611    -3489    -3360    -3221    -3071    -2917 
   -2754    -2589    -2424    -2263    -2111    -1975    -1856    -1752 
   -1664    -1594    -1539    -1497    -1472    -1464    -1470    -1497 
   -1545    -1609    -1691    -1795    -1911    -2039    -2189    -2358 
   -2548    -2767    -3017    -3298    -3604    -3928    -4261    -4591 
   -4918    -5233    -5524    -5787    -6021    -6218    -6376    -6488 
   -6554    -6574    -6550    -6488    -6389    -6258    -6095    -5910 
   -5709    -5501    -5292    -5089    -4899    -4720    -4557    -4410 
   -4275    -4148    -4035    -3935    -3842    -3761    -3686    -3615 
   -3544    -3476    -3410    -3353    -3307    -3284    -3284    -3312 
   -3373    -3461    -3573    -3713    -3878    -4063    -4271    -4500 
   -4743    -4989    -5240    -5498    -5752    -6002    -6251    -6498 
   -6744    -6988    -7219    -7434    -7628    -7803    -7952    -8073 
   -8160    -8218    -8251    -8251    -8214    -8147    -8052    -7929 
   -7780    -7605    -7411    -7203    -6975    -6723    -6450    -6154 
   -5834    -5498    -5144    -4769    -4383    -3986    -3581    -3173 
   -2770    -2365    -1964    -1567    -1178     -801     -446     -112 
     189      450      673      859      999     1092     1140     1140 
    1096     1011      884      718      510      268        1     -292 
    -604     -927    -1269    -1620    -1972    -2327    -2669    -2997 
   -3314    -3609    -3888    -4163    -4429    -4681    -4928    -5164 
   -5387    -5597    -5791    -5967    -6124    -6262    -6378    -6471 
   -6542    -6588    -6601    -6585    -6535    -6443    -6318    -6158 
   -5964    -5740    -5490    -5213    -4918    -4606    -4276    -3936 
   -3597    -3271    -2971    -2704    -2478    -2295    -2151    -2046 
   -1979    -1935    -1912    -1911    -1929    -1958    -2006    -2068 
   -2130    -2203    -2281    -2358    -2436    -2528    -2635    -2759 
   -2911    -3084    -3275    -3478    -3690    -3904    -4112    -4307 
   -4490    -4654    -4796    -4920    -5027    -5111    -5169    -5211 
   -5233    -5242    -5244    -5246    -5252    -5262    -5273    -5277 
   -5275    -5273    -5265    -5244    -5211    -5159    -5084    -4978 
   -4838    -4662    -4452    -4205    -3932    -3643    -3352    -3069 
   -2801    -2551    -2327    -2130    -1961    -1819    -1711    -1638 
   -1595    -1586    -1606    -1658    -1738    -1852    -1993    -2169 
   -2386    -2640    -2921    -3226    -3544    -3871    -4207    -4548 
   -4880    -5205    -5516    -5800    -6056    -6273    -6442    -6554 
   -6613    -6623    -6582    -6497    -6372    -6214    -6038    -5848 
   -5647    -5448    -5266    -5103    -4961    -4845    -4748    -4669 
   -4604    -4558    -4530    -4510    -4506    -4521    -4554    -4606 
   -4677    -4765    -4868    -4989    -5135    -5300    -5472    -5652 
   -5834    -6006    -6160    -6285    -6381    -6447    -6478    -6470 
   -6419    -6323    -6181    -5998    -5775    -5525    -5251    -4955 
   -4654    -4359    -4074    -3805    -3559    -3345    -3160    -3011 
   -2905    -2832    -2794    -2794    -2826    -2894    -2994    -3114 
   -3252    -3406    -3572    -3743    -3924    -4105    -4278    -4445 
   -4606    -4758    -4904    -5047    -5188    -5320    -5443    -5559 
   -5656    -5733    -5791    -5823    -5830    -5811    -5768    -5706 
   -5628    -5533    -5429    -5306    -5169    -5016    -4847    -4666 
   -4483    -4291    -4090    -3886    -3681    -3481    -3283    -3095 
   -2925    -2774    -2635    -2509    -2404    -2312    -2238    -2193 
   -2173    -2168    -2174    -2196    -2211    -2207    -2199    -2191 
   -2162    -2124    -2093    -2057    -2012    -1975    -1953    -1944 
   -1949    -1982    -2053    -2165    -2316    -2513    -2749    -3019 
   -3321    -3634    -3951    -4278    -4603    -4908    -5204    -5481 
   -5733    -5962    -6170    -6358    -6531    -6687    -6828    -6959 
   -7082    -7191    -7284    -7368    -7434    -7481    -7510    -7520 
   -7510    -7485    -7435    -7366    -7277    -7164    -7033    -6886 
   -6727    -6563    -6399    -6230    -6069    -5929    -5800    -5689 
   -5607    -5552    -5524    -5517    -5526    -5547    -5578    -5613 
   -5640    -5659    -5672    -5676    -5667    -5656    -5652    -5655 
   -5668    -5699    -5748    -5813    -5886    -5958    -6027    -6079 
   -6096    -6079    -6016    -5908    -5757    -5566    -5333    -5066 
   -4770    -4450    -4117    -3778    -3434    -3092    -2759    -2435 
   -2115    -1794    -1472    -1162     -859     -562     -280      -28 
     202      410      579      699      776      810      800      756 
     676      564      430      279      103      -91     -305     -537 
    -781    -1039    -1310    -1591    -1873    -2153    -2427    -2687 
   -2928    -3156    -3372    -3570    -3755    -3915    -4036    -4121 
   -4156    -4143    -4088    -3996    -3866    -3711    -3539    -3360 
   -3183    -3014    -2856    -2712    -2583    -2471    -2377    -2309 
   -2277    -2285    -2335    -2427    -2555    -2712    -2893    -3095 
   -3317    -3554    -3792    -4031    -4261    -4473    -4672    -4864 
   -5040    -5208    -5370    -5516    -5636    -5734    -5806    -5848 
   -5860    -5844    -5790    -5698    -5572    -5416    -5227    -5023 
   -4811    -4598    -4390    -4190    -3998    -3825    -3667    -3520 
   -3391    -3277    -3183    -3109    -3057    -3036    -3044    -3080 
   -3159    -3280    -3447    -3661    -3910    -4197    -4521    -4870 
   -5240    -5618    -5996    -6369    -6732    -7069    -7380    -7668 
   -7931    -8176    -8406    -8627    -8835    -9035    -9229    -9412 
   -9576    -9715    -9825    -9892    -9915    -9894    -9825    -9705 
   -9533    -9316    -9050    -8738    -8395    -8020    -7619    -7203 
   -6768    -6316    -5859    -5402    -4947    -4496    -4055    -3638 
   -3245    -2886    -2569    -2292    -2066    -1894    -1776    -1709 
   -1684    -1703    -1764    -1859    -1987    -2135    -2292    -2451 
   -2605    -2740    -2859    -2964    -3048    -3115    -3173    -3232 
   -3300    -3380    -3481    -3611    -3767    -3951    -4159    -4388 
   -4635    -4892    -5147    -5401    -5648    -5879    -6091    -6285 
   -6463    -6625    -6771    -6903    -7021    -7126    -7207    -7260 
   -7288    -7287    -7250    -7183    -7083    -6947    -6777    -6569 
   -6323    -6046    -5740    -5412    -5074    -4731    -4392    -4060 
   -3731    -3410    -3098    -2795    -2506    -2235    -1981    -1755 
   -1567    -1421    -1320    -1277    -1297    -1364    -1476    -1626 
   -1807    -2014    -2239    -2477    -2724    -2974    -3222    -3473 
   -3728    -3986    -4256    -4535    -4823    -5117    -5421    -5738 
   -6066    -6403    -6739    -7067    -7383    -7673    -7924    -8131 
   -8293    -8391    -8421    -8387    -8281    -8102    -7865    -7581 
   -7256    -6907    -6544    -6161    -5767    -5370    -4963    -4549 
   -4129    -3713    -3307    -2915    -2539    -2181    -1850    -1549 
   -1277    -1039     -842     -688     -577     -504     -464     -460 
    -475     -511     -565     -635     -722     -828     -951    -1096 
   -1269    -1467    -1688    -1930    -2196    -2489    -2803    -3140 
   -3492    -3861    -4240    -4631    -5027    -5416    -5800    -6178 
   -6536    -6870    -7173    -7437    -7654    -7823    -7935    -7986 
   -7978    -7911    -7784    -7603    -7369    -7092    -6786    -6458 
   -6119    -5788    -5478    -5193    -4927    -4679    -4445    -4217 
   -3987    -3751    -3516    -3284    -3053    -2826    -2613    -2415 
   -2238    -2093    -1977    -1890    -1838    -1817    -1819    -1852 
   -1918    -2006    -2116    -2241    -2367    -2501    -2635    -2771 
   -2924    -3092    -3283    -3497    -3724    -3964    -4213    -4469 
   -4734    -4997    -5256    -5510    -5742    -5946    -6120    -6249 
   -6332    -6373    -6363    -6309    -6218    -6093    -5945    -5776 
   -5597    -5412    -5217    -5024    -4838    -4657    -4487    -4324 
   -4159    -3994    -3823    -3646    -3470    -3292    -3114    -2948 
   -2798    -2664    -2555    -2475    -2417    -2373    -2346    -2334 
   -2338    -2363    -2408    -2467    -2546    -2636    -2737    -2855 
   -2984    -3123    -3279    -3443    -3604    -3767    -3935    -4093 
   -4236    -4376    -4507    -4617    -4716    -4810    -4899    -4989 
   -5082    -5175    -5273    -5368    -5462    -5557    -5647    -5729 
   -5811    -5896    -5979    -6068    -6164    -6254    -6339    -6423 
   -6496    -6561    -6629    -6701    -6777    -6876    -6994    -7132 
   -7298    -7480    -7677    -7894    -8127    -8367    -8622    -8893 
   -9174    -9468    -9774   -10075   -10362   -10632   -10866   -11060 
  -11218   -11338   -11421   -11472   -11491   -11462   -11389   -11273 
  -11107   -10908   -10682   -10432   -10172    -9904    -9636    -9363 
   -9084    -8789    -8484    -8168    -7844    -7515    -7184    -6860 
   -6535    -6210    -5890    -5582    -5290    -5024    -4791    -4592 
   -4436    -4318    -4240    -4200    -4197    -4233    -4301    -4398 
   -4515    -4649    -4796    -4956    -5130    -5317    -5519    -5738 
   -5976    -6230    -6497    -6774    -7048    -7312    -7566    -7798 
   -8004    -8179    -8314    -8407    -8457    -8459    -8414    -8322 
   -8194    -8033    -7840    -7627    -7398    -7149    -6886    -6612 
   -6323    -6031    -5738    -5435    -5127    -4823    -4517    -4210 
   -3917    -3634    -3365    -3114    -2891    -2693    -2524    -2400 
   -2311    -2258    -2250    -2280    -2334    -2416    -2531    -2664 
   -2810    -2975    -3154    -3349    -3557    -3781    -4021    -4286 
   -4575    -4877    -5197    -5536    -5883    -6228    -6569    -6886 
   -7172    -7418    -7618    -7761    -7852    -7897    -7894    -7851 
   -7777    -7685    -7584    -7481    -7383    -7285    -7192    -7105 
   -7018    -6932    -6847    -6754    -6643    -6516    -6372    -6207 
   -6025    -5840    -5656    -5472    -5296    -5131    -4977    -4833 
   -4704    -4592    -4487    -4391    -4310    -4241    -4186    -4153 
   -4140    -4140    -4152    -4166    -4171    -4172    -4178    -4202 
   -4241    -4303    -4396    -4517    -4652    -4800    -4959    -5117 
   -5271    -5417    -5547    -5663    -5755    -5814    -5838    -5823 
   -5768    -5670    -5529    -5354    -5146    -4922    -4688    -4444 
   -4190    -3929    -3662    -3397    -3148    -2915    -2714    -2544 
   -2403    -2290    -2196    -2123    -2068    -2030    -2016    -2033 
   -2081    -2163    -2278    -2424    -2601    -2808    -3034    -3284 
   -3554    -3848    -4163    -4492    -4834    -5175    -5509    -5831 
   -6133    -6412    -6681    -6929    -7153    -7358    -7543    -7703 
   -7839    -7951    -8046    -8114    -8158    -8185    -8198    -8193 
   -8170    -8129    -8070    -7992    -7894    -7777    -7646    -7506 
   -7358    -7209    -7061    -6919    -6782    -6648    -6517    -6389 
   -6266    -6154    -6052    -5957    -5869    -5788    -5714    -5640 
   -5570    -5508    -5452    -5402    -5366    -5350    -5350    -5367 
   -5408    -5468    -5547    -5644    -5756    -5876    -6003    -6129 
   -6237    -6327    -6400    -6454    -6485    -6492    -6480    -6457 
   -6419    -6370    -6326    -6292    -6269    -6261    -6268    -6285 
   -6309    -6328    -6338    -6331    -6307    -6254    -6169    -6052 
   -5904    -5729    -5529    -5309    -5082    -4860    -4648    -4449 
   -4258    -4079    -3912    -3746    -3577    -3414    -3256    -3083 
   -2899    -2721    -2540    -2344    -2157    -1980    -1802    -1632 
   -1479    -1340    -1210    -1096    -1000     -926     -869     -837 
    -837     -864     -927    -1024    -1139    -1278    -1445    -1625 
   -1818    -2027    -2239    -2450    -2664    -2875    -3078    -3273 
   -3458    -3628    -3782    -3920    -4039    -4140    -4232    -4306 
   -4360    -4392    -4402    -4388    -4353    -4299    -4223    -4129 
   -4020    -3897    -3763    -3631    -3500    -3376    -3262    -3156 
   -3059    -2978    -2907    -2851    -2810    -2775    -2743    -2714 
   -2675    -2617    -2542    -2455    -2355    -2247    -2130    -2010 
   -1884    -1764    -1652    -1554    -1483    -1448    -1448    -1489 
   -1567    -1675    -1814    -1977    -2157    -2346    -2543    -2744 
   -2953    -3156    -3346    -3528    -3696    -3844    -3975    -4086 
   -4178    -4256    -4318    -4363    -4388    -4398    -4386    -4355 
   -4302    -4228    -4135    -4025    -3899    -3765    -3613    -3446 
   -3265    -3068    -2849    -2610    -2351    -2069    -1768    -1455 
   -1133     -810     -491     -180      120      402      661      901 
    1120     1308     1472     1610     1718     1798     1850     1877 
    1881     1867     1825     1755     1652     1522     1367     1173 
     946      700      432      140     -167     -486     -819    -1166 
   -1517    -1863    -2195    -2501    -2772    -3006    -3199    -3350 
   -3464    -3541    -3581    -3592    -3570    -3507    -3403    -3265 
   -3087    -2875    -2640    -2389    -2134    -1885    -1645    -1418 
   -1213    -1035     -890     -784     -718     -689     -693     -728 
    -788     -869     -972    -1092    -1233    -1395    -1575    -1773 
   -1991    -2230    -2485    -2754    -3042    -3342    -3655    -3983 
   -4317    -4654    -4993    -5321    -5640    -5945    -6230    -6496 
   -6744    -6978    -7187    -7373    -7535    -7666    -7767    -7840 
   -7881    -7892    -7869    -7804    -7696    -7550    -7365    -7136 
   -6866    -6558    -6210    -5827    -5422    -4996    -4553    -4110 
   -3670    -3235    -2816    -2424    -2052    -1701    -1382    -1093 
    -838     -625     -451     -318     -228     -176     -153     -153 
    -178     -228     -292     -380     -486     -608     -749     -912 
   -1100    -1308    -1544    -1800    -2077    -2370    -2673    -2974 
   -3273    -3565    -3838    -4085    -4307    -4498    -4656    -4791 
   -4899    -4985    -5059    -5119    -5169    -5205    -5225    -5235 
   -5231    -5208    -5171    -5123    -5058    -4973    -4868    -4747 
   -4612    -4469    -4330    -4200    -4086    -3993    -3924    -3880 
   -3866    -3888    -3940    -4012    -4098    -4199    -4301    -4393 
   -4483    -4558    -4612    -4650    -4673    -4683    -4688    -4689 
   -4693    -4704    -4720    -4741    -4768    -4799    -4831    -4865 
   -4899    -4922    -4927    -4912    -4877    -4822    -4753    -4679 
   -4602    -4522    -4448    -4383    -4329    -4293    -4274    -4266 
