Origin Time       2016/04/16 01:25:00
Lat.              32.753
Long.             130.762
Depth. (km)       12
Mag.              7.3
Station Code      SMN010
Station Lat.      34.8870
Station Long.     132.0783
Station Height(m) 113
Record Time       2016/04/16 01:26:17
Sampling Freq(Hz) 100Hz
Duration Time(s)  83
Dir.              E-W
Scale Factor      7845(gal)/8223790
Max. Acc. (gal)   5.034
Last Correction   2016/04/16 01:26:17
Memo.             
[...]
    3747     3820     3901     3969     4017     4055     4071     4067 
    4043     4009     3978     3963     3967     3989     4041     4122 
    4205     4288     4364     4415     4452     4486     4510     4514 
    4492     4441     4378     4326     4284     4233     4174     4128 
    4109     4099     4079     4055     4036     4014     3978     3932 
    3877     3815     3771     3757     3771     3800     3832     3869 
    3915     3963     4010     4036     4023     3973     3908     3844 
    3798     3781     3792     3815     3846     3883     3927     3977 
    4025     4068     4102     4122     4128     4122     4124     4145 
    4189     4233     4263     4280     4301     4326     4351     4374 
    4390     4391     4372     4321     4240     4159     4106     4093 
    4099     4094     4069     4027     3967     3905     3852     3802 
    3743     3682     3634     3604     3582     3570     3563     3561 
    3565     3572     3576     3578     3596     3631     3690     3770 
    3855     3935     4000     4045     4079     4112     4137     4144 
    4135     4118     4102     4085     4054     4008     3944     3865 
    3798     3771     3778     3817     3878     3932     3979     4002 
    3987     3946     3902     3859     3815     3780     3776     3808 
    3856     3919     3981     4024     4043     4050     4041     4017 
    4000     3996     4010     4032     4052     4063     4063     4044 
    4010     3994     4016     4055     4102     4140     4144     4106 
    4032     3932     3831     3736     3665     3620     3580     3542 
    3527     3530     3534     3516     3474     3423     3384     3380 
    3416     3477     3543     3607     3662     3705     3730     3728 
    3719     3748     3825     3897     3923     3916     3899     3892 
    3888     3877     3859     3846     3858     3912     3994     4072 
    4148     4215     4261     4280     4271     4228     4176     4149 
    4145     4143     4129     4102     4085     4088     4099     4097 
    4079     4068     4079     4117     4185     4258     4313     4351 
    4384     4410     4414     4396     4365     4332     4302     4270 
    4232     4194     4170     4170     4195     4237     4295     4365 
    4422     4449     4464     4467     4436     4371     4293     4215 
    4147     4086     4036     4006     3973     3915     3832     3751 
    3694     3674     3678     3682     3666     3634     3603     3591 
    3589     3596     3623     3663     3701     3732     3747     3735 
    3690     3620     3551     3499     3461     3433     3419     3427 
    3450     3481     3515     3549     3581     3620     3678     3765 
    3865     3958     4029     4068     4078     4069     4063     4071 
    4077     4060     4033     4010     4002     4002     4010     4035 
    4078     4136     4191     4220     4218     4212     4209     4197 
    4176     4143     4095     4055     4024     3975     3924     3879 
    3834     3797     3769     3721     3645     3562     3499     3443 
    3368     3271     3177     3114     3090     3105     3134     3157 
    3167     3175     3194     3223     3252     3271     3283     3325 
    3403     3483     3549     3615     3684     3731     3742     3742 
    3769     3834     3923     4027     4133     4223     4282     4306 
    4301     4253     4176     4101     4036     3979     3929     3899 
    3916     3975     4058     4135     4178     4180     4159     4121 
    4071     4029     4006     3989     3973     3950     3920     3883 
    3846     3821     3816     3802     3767     3724     3678     3643 
    3634     3655     3696     3735     3759     3789     3832     3877 
    3915     3943     3963     3964     3940     3910     3882     3856 
    3838     3804     3723     3607     3503     3439     3427     3459 
    3514     3573     3632     3689     3744     3802     3858     3892 
    3905     3898     3866     3815     3755     3680     3604     3553 
    3524     3519     3524     3532     3563     3630     3704     3774 
    3852     3960     4101     4248     4374     4456     4509     4537 
    4545     4538     4519     4479     4419     4353     4284     4212 
    4140     4085     4054     4032     4008     3986     3973     3958 
    3942     3939     3955     3978     3991     3986     3978     3970 
    3960     3954     3963     3979     3996     4010     4028     4047 
    4066     4085     4110     4132     4153     4192     4252     4311 
    4349     4368     4375     4363     4325     4276     4225     4180 
    4148     4117     4085     4060     4045     4032     4016     3986 
    3943     3893     3850     3828     3855     3925     4010     4093 
    4163     4207     4220     4209     4170     4098     4003     3899 
    3797     3715     3678     3690     3724     3740     3721     3692 
    3670     3666     3694     3759     3858     3978     4091     4171 
    4203     4197     4167     4128     4091     4068     4052     4035 
    4020     4021     4043     4082     4136     4205     4263     4310 
    4351     4368     4359     4340     4327     4315     4287     4232 
    4151     4044     3924     3817     3728     3642     3557     3485 
    3430     3392     3372     3372     3403     3461     3532     3599 
    3653     3696     3732     3763     3788     3797     3796     3785 
    3769     3748     3707     3632     3550     3492     3480     3514 
    3578     3640     3682     3711     3740     3771     3792     3785 
    3761     3742     3748     3782     3817     3831     3811     3763 
    3704     3638     3566     3497     3443     3418     3416     3426 
    3433     3442     3465     3485     3478     3445     3392     3339 
    3298     3260     3207     3140     3078     3040     3025     3025 
    3021     3013     3010     3002     2990     2972     2943     2917 
    2909     2915     2921     2913     2896     2891     2901     2918 
    2936     2951     2963     2961     2956     2963     2992     3040 
    3090     3121     3129     3121     3106     3098     3100     3115 
    3150     3222     3327     3451     3574     3690     3798     3908 
    4031     4166     4293     4406     4504     4580     4645     4710 
    4773     4833     4885     4938     4997     5054     5101     5127 
    5131     5130     5127     5123     5120     5108     5070     5008 
    4930     4846     4753     4661     4606     4594     4590     4585 
    4581     4565     4545     4533     4535     4565     4619     4704 
    4810     4896     4934     4923     4874     4814     4764     4729 
    4710     4727     4770     4814     4842     4864     4888     4903 
    4893     4839     4737     4588     4425     4275     4151     4062 
    3997     3948     3906     3879     3882     3905     3928     3940 
    3935     3908     3858     3789     3711     3640     3596     3580 
    3574     3572     3572     3568     3569     3582     3599     3618 
    3650     3689     3727     3762     3786     3792     3767     3717 
    3662     3622     3609     3627     3670     3732     3804     3890 
    4006     4148     4291     4406     4480     4517     4522     4519 
    4529     4563     4606     4625     4604     4549     4476     4419 
    4393     4383     4360     4327     4307     4321     4357     4388 
    4384     4327     4223     4095     3964     3835     3713     3595 
    3468     3338     3230     3168     3157     3184     3237     3296 
    3368     3445     3520     3589     3647     3692     3735     3782 
    3844     3932     4064     4230     4399     4544     4649     4727 
    4803     4878     4956     5023     5054     5032     4980     4916 
    4833     4722     4614     4535     4490     4464     4430     4360 
    4260     4144     4029     3936     3863     3800     3738     3651 
    3516     3348     3169     2991     2814     2643     2482     2347 
    2257     2200     2153     2126     2150     2224     2344     2490 
    2621     2708     2758     2792     2828     2882     2949     3017 
    3087     3157     3234     3331     3447     3569     3685     3798 
    3915     4028     4120     4176     4197     4191     4178     4172 
    4167     4163     4159     4164     4175     4183     4185     4174 
    4156     4151     4152     4151     4147     4135     4107     4069 
    4028     3987     3948     3908     3879     3875     3899     3944 
    4010     4093     4176     4258     4332     4390     4457     4541 
    4630     4723     4808     4868     4908     4938     4951     4955 
    4972     5003     5030     5040     5032     5011     4972     4918 
    4858     4795     4742     4710     4696     4684     4661     4618 
    4567     4529     4517     4546     4625     4729     4831     4915 
    4963     4969     4943     4892     4824     4766     4720     4665 
    4594     4511     4417     4306     4164     3991     3788     3541 
    3249     2924     2597     2315     2102     1962     1876     1815 
    1764     1715     1671     1637     1617     1614     1630     1656 
    1687     1729     1780     1837     1884     1914     1941     1987 
    2070     2203     2373     2571     2785     2994     3180     3329 
    3427     3495     3541     3562     3574     3577     3561     3535 
    3514     3496     3489     3496     3520     3557     3589     3595 
    3563     3499     3426     3368     3322     3268     3180     3052 
    2902     2752     2601     2452     2309     2161     2015     1888 
    1784     1705     1642     1584     1524     1459     1405     1374 
    1364     1383     1444     1540     1658     1781     1898     2012 
    2150     2332     2556     2824     3141     3507     3902     4305 
    4696     5060     5387     5686     5962     6214     6457     6689 
    6905     7101     7276     7439     7595     7743     7888     8014 
    8127     8217     8268     8286     8280     8253     8233     8220 
    8179     8104     7996     7850     7674     7491     7315     7160 
    7036     6930     6826     6705     6562     6399     6228     6085 
    5994     5952     5940     5940     5940     5927     5879     5793 
    5691     5598     5540     5526     5539     5541     5518     5479 
    5431     5385     5352     5333     5339     5377     5439     5529 
    5641     5733     5775     5769     5736     5699     5670     5638 
    5568     5436     5256     5057     4852     4661     4495     4348 
    4217     4104     3982     3835     3665     3470     3248     2999 
    2736     2477     2249     2072     1962     1918     1921     1930 
    1917     1888     1876     1902     1966     2049     2114     2141 
    2128     2091     2034     1956     1867     1775     1706     1687 
    1706     1737     1783     1852     1952     2106     2327     2602 
    2910     3230     3543     3835     4101     4332     4517     4666 
    4774     4828     4833     4791     4716     4627     4533     4437 
    4341     4233     4099     3951     3817     3734     3708     3705 
    3681     3615     3518     3406     3299     3211     3138     3064 
    2984     2901     2806     2688     2539     2362     2191     2050 
    1960     1930     1941     1949     1926     1852     1725     1563 
    1393     1236     1109     1038     1028     1062     1107     1132 
    1113     1042      936      824      718      618      526      449 
     378      314      274      271      313      411      565      747 
     940     1121     1269     1375     1456     1522     1574     1620 
    1677     1737     1786     1836     1895     1956     2025     2091 
    2143     2193     2261     2358     2494     2677     2893     3109 
    3317     3511     3694     3883     4078     4256     4421     4564 
    4672     4738     4762     4761     4765     4789     4814     4828 
    4831     4810     4752     4672     4606     4577     4583     4603 
    4614     4596     4529     4399     4220     4017     3816     3640 
    3501     3395     3299     3206     3123     3068     3064     3122 
    3235     3391     3570     3774     4027     4334     4669     5008 
    5333     5630     5876     6031     6060     5976     5823     5664 
    5576     5613     5776     6037     6345     6659     6966     7238 
    7447     7562     7569     7492     7389     7294     7206     7132 
    7068     7007     6949     6891     6822     6743     6659     6583 
    6523     6471     6416     6346     6254     6138     6006     5872 
    5732     5572     5395     5231     5119     5092     5139     5209 
    5286     5374     5467     5571     5676     5764     5826     5850 
    5837     5791     5718     5606     5441     5240     5051     4941 
    4928     4982     5059     5138     5220     5344     5547     5833 
    6165     6500     6798     7026     7156     7184     7126     7015 
    6893     6775     6670     6581     6516     6475     6451     6440 
    6431     6426     6442     6496     6577     6671     6759     6828 
    6878     6916     6952     7010     7078     7127     7134     7113 
    7096     7105     7123     7110     7025     6859     6628     6369 
    6126     5931     5819     5817     5917     6095     6301     6478 
    6602     6662     6629     6484     6239     5938     5630     5344 
    5090     4855     4617     4359     4083     3813     3561     3308 
    3024     2690     2319     1968     1701     1534     1413     1256 
    1009      666      257     -168     -553     -866    -1100    -1254 
   -1317    -1278    -1138     -939     -751     -629     -594     -619 
    -662     -730     -831     -943    -1053    -1124    -1105    -1005 
    -847     -614     -287      144      684     1269     1795     2185 
    2420     2539     2602     2671     2787     2970     3248     3638 
    4099     4557     4936     5196     5331     5364     5300     5146 
    4930     4695     4509     4392     4311     4232     4147     4062 
    3977     3890     3784     3643     3492     3372     3271     3153 
    2998     2835     2727     2720     2828     3015     3215     3376 
    3474     3527     3566     3607     3653     3709     3776     3877 
    4040     4289     4622     4984     5300     5536     5721     5907 
    6137     6408     6667     6864     6978     7030     7060     7088 
    7130     7177     7203     7190     7140     7060     6947     6791 
    6598     6373     6104     5768     5354     4860     4303     3735 
    3217     2797     2477     2218     1996     1822     1692     1597 
    1530     1495     1517     1641     1871     2168     2492     2829 
    3183     3537     3863     4151     4406     4631     4814     4936 
    4996     4996     4976     4980     5024     5096     5161     5223 
    5309     5433     5610     5849     6137     6443     6731     6960 
    7107     7171     7168     7113     7014     6876     6727     6582 
    6432     6262     6068     5853     5638     5443     5265     5093 
    4907     4679     4391     4048     3693     3346     3010     2693 
    2404     2144     1933     1794     1737     1760     1852     2014 
    2274     2636     3064     3516     3965     4418     4872     5300 
    5691     6048     6354     6596     6751     6826     6866     6903 
    6968     7072     7194     7327     7469     7614     7778     7947 
    8064     8094     8027     7831     7504     7086     6629     6193 
    5826     5539     5329     5175     5065     5011     5012     5050 
    5117     5184     5198     5131     4962     4689     4349     3984 
    3639     3355     3144     2983     2863     2790     2751     2717 
    2648     2524     2342     2124     1935     1837     1852     1977 
    2182     2434     2700     2959     3217     3491     3762     4005 
    4194     4321     4401     4428     4379     4284     4174     4062 
    3991     3978     4020     4129     4266     4351     4365     4320 
    4253     4202     4148     4059     3931     3757     3541     3298 
    3034     2758     2474     2192     1941     1734     1580     1483 
    1414     1341     1270     1205     1150     1123     1129     1182 
    1282     1391     1472     1490     1435     1375     1359     1374 
    1429     1528     1665     1844     2043     2241     2439     2639 
    2852     3095     3354     3599     3813     3997     4156     4306 
    4452     4600     4756     4895     5007     5096     5143     5154 
    5136     5067     4943     4787     4642     4560     4557     4618 
    4735     4893     5059     5223     5363     5464     5530     5559 
    5535     5448     5278     5013     4685     4310     3923     3569 
    3299     3153     3133     3167     3184     3154     3090     3049 
    3092     3226     3424     3634     3815     3959     4082     4186 
    4279     4349     4372     4337     4228     4055     3867     3726 
    3700     3821     4051     4344     4679     5043     5451     5875 
    6252     6566     6785     6893     6924     6876     6750     6562 
    6320     6072     5883     5763     5689     5652     5613     5576 
    5555     5539     5532     5518     5470     5389     5273     5131 
    4989     4847     4691     4545     4395     4237     4102     3990 
    3893     3825     3784     3781     3836     3940     4086     4256 
    4426     4604     4787     4966     5139     5271     5319     5290 
    5200     5065     4923     4814     4758     4754     4787     4850 
    4946     5050     5150     5235     5283     5296     5294     5286 
    5278     5267     5238     5174     5071     4943     4826     4729 
    4652     4590     4541     4533     4561     4594     4617     4604 
    4522     4392     4260     4159     4114     4091     4054     3979 
    3867     3750     3669     3638     3657     3700     3721     3723 
    3735     3769     3827     3897     3974     4072     4209     4384 
    4581     4754     4872     4918     4880     4770     4639     4530 
    4488     4533     4634     4739     4765     4657     4433     4151 
    3875     3670     3565     3551     3588     3620     3603     3516 
    3376     3229     3096     2964     2817     2659     2493     2317 
    2130     1945     1777     1637     1509     1379     1240     1121 
    1070     1094     1161     1239     1310     1370     1431     1507 
    1606     1749     1923     2111     2327     2574     2839     3107 
    3342     3510     3615     3684     3742     3813     3882     3931 
    3962     3981     4014     4085     4200     4375     4594     4823 
    5054     5271     5432     5519     5512     5400     5227     5058 
    4953     4938     4976     5012     5009     4939     4806     4639 
    4461     4295     4156     4048     3978     3931     3885     3855 
    3846     3856     3906     3990     4081     4149     4151     4085 
    3981     3858     3743     3655     3585     3528     3487     3456 
    3440     3423     3364     3260     3111     2925     2721     2520 
    2317     2121     1937     1763     1609     1494     1431     1413 
    1436     1499     1580     1658     1749     1846     1944     2047 
    2155     2265     2393     2533     2666     2767     2822     2837 
    2821     2772     2706     2650     2604     2565     2524     2474 
    2442     2463     2554     2677     2786     2876     2951     3021 
    3098     3168     3221     3280     3364     3458     3546     3615 
