Origin Time       2016/04/16 01:25:00
Lat.              32.753
Long.             130.762
Depth. (km)       12
Mag.              7.3
Station Code      SMN005
Station Lat.      35.3611
Station Long.     132.7449
Station Height(m) 9
Record Time       2016/04/16 01:26:20
Sampling Freq(Hz) 100Hz
Duration Time(s)  162
Dir.              E-W
Scale Factor      7845(gal)/8223790
Max. Acc. (gal)   14.947
Last Correction   2016/04/16 01:26:20
Memo.             
[...]
   -2413    -2234    -2016    -1779    -1528    -1260     -980     -685 
    -403     -157       47      228      373      468      513      519 
     506      508      526      548      572      604      637      658 
     653      614      564      521      469      394      274      114 
     -59     -245     -461     -706     -976    -1259    -1537    -1809 
   -2095    -2394    -2668    -2909    -3127    -3329    -3515    -3672 
   -3793    -3899    -4002    -4114    -4247    -4375    -4491    -4627 
   -4811    -5035    -5285    -5532    -5759    -5984    -6201    -6389 
   -6559    -6700    -6806    -6885    -6924    -6929    -6924    -6917 
   -6918    -6921    -6921    -6929    -6961    -7011    -7061    -7103 
   -7122    -7119    -7098    -7060    -7023    -6997    -6955    -6886 
   -6798    -6679    -6523    -6349    -6157    -5935    -5694    -5427 
   -5115    -4780    -4433    -4078    -3724    -3375    -3034    -2704 
   -2374    -2047    -1715    -1381    -1065     -785     -546     -326 
    -118       56      212      376      557      758      965     1162 
    1334     1464     1545     1574     1561     1517     1437     1340 
    1244     1154     1073     1019     1000     1008     1038     1093 
    1166     1250     1327     1386     1436     1487     1554     1652 
    1780     1930     2095     2270     2458     2641     2811     2983 
    3167     3362     3554     3732     3896     4044     4171     4282 
    4383     4471     4548     4629     4731     4845     4962     5096 
    5248     5412     5584     5764     5944     6104     6243     6376 
    6508     6632     6741     6824     6889     6945     6994     7045 
    7107     7168     7210     7233     7234     7222     7198     7149 
    7059     6936     6794     6617     6399     6142     5834     5452 
    5004     4498     3936     3341     2733     2114     1494      882 
     284     -282     -793    -1248    -1649    -2006    -2316    -2582 
   -2808    -2990    -3141    -3292    -3458    -3651    -3897    -4195 
   -4542    -4936    -5371    -5837    -6332    -6848    -7380    -7913 
   -8424    -8896    -9331    -9711   -10031   -10276   -10436   -10525 
  -10551   -10509   -10399   -10212    -9940    -9594    -9197    -8772 
   -8332    -7905    -7510    -7153    -6853    -6624    -6448    -6311 
   -6207    -6118    -6019    -5890    -5726    -5524    -5278    -5000 
   -4683    -4325    -3937    -3523    -3083    -2627    -2166    -1725 
   -1334    -1012     -745     -504     -286      -87      105      289 
     448      575      668      746      826      901     1000     1159 
    1348     1541     1752     1988     2232     2461     2662     2825 
    2936     2972     2934     2847     2705     2494     2223     1888 
    1494     1043      537       16     -487     -967    -1422    -1838 
   -2203    -2539    -2868    -3180    -3483    -3773    -4050    -4320 
   -4575    -4814    -5043    -5270    -5503    -5736    -5953    -6143 
   -6295    -6416    -6500    -6539    -6539    -6513    -6470    -6403 
   -6307    -6174    -5991    -5767    -5512    -5227    -4934    -4664 
   -4409    -4159    -3904    -3642    -3381    -3127    -2899    -2718 
   -2598    -2552    -2578    -2636    -2720    -2825    -2937    -3051 
   -3163    -3262    -3346    -3416    -3473    -3523    -3565    -3597 
   -3619    -3636    -3663    -3696    -3700    -3661    -3580    -3443 
   -3254    -3022    -2756    -2485    -2238    -2019    -1826    -1674 
   -1560    -1452    -1351    -1278    -1215    -1140    -1062     -976 
    -866     -737     -598     -453     -314     -187      -78        8 
      94      193      298      407      513      606      699      801 
     907     1026     1173     1347     1532     1722     1902     2057 
    2193     2312     2416     2509     2598     2685     2771     2872 
    2984     3109     3244     3360     3437     3477     3478     3431 
    3354     3265     3164     3051     2933     2817     2708     2616 
    2544     2496     2475     2488     2533     2609     2704     2809 
    2911     3018     3123     3221     3314     3402     3485     3566 
    3640     3703     3746     3762     3759     3735     3673     3573 
    3447     3295     3106     2882     2632     2365     2084     1802 
    1530     1266     1000      728      454      178      -95     -351 
    -576     -764     -918    -1038    -1135    -1215    -1266    -1286 
   -1275    -1227    -1139    -1034     -918     -797     -677     -571 
    -481     -399     -330     -268     -195     -117      -35       51 
     122      176      234      310      406      525      657      784 
     895      976     1017     1030     1012      967      901      818 
     723      623      513      383      236       64     -129     -355 
    -611     -888    -1177    -1479    -1787    -2093    -2401    -2713 
   -3030    -3346    -3663    -3973    -4263    -4530    -4770    -4992 
   -5212    -5424    -5623    -5806    -5965    -6110    -6246    -6384 
   -6519    -6647    -6772    -6881    -6968    -7028    -7074    -7130 
   -7195    -7264    -7353    -7453    -7553    -7657    -7751    -7827 
   -7879    -7911    -7929    -7924    -7892    -7842    -7770    -7672 
   -7553    -7420    -7268    -7101    -6928    -6754    -6559    -6336 
   -6089    -5811    -5495    -5154    -4791    -4411    -4029    -3658 
   -3296    -2944    -2609    -2286    -1965    -1652    -1358    -1089 
    -838     -608     -407     -225      -49      105      222      315 
     405      492      579      681      804      939     1070     1177 
    1247     1279     1285     1270     1230     1174     1105     1015 
     892      730      525      279        5     -266     -530     -781 
   -1013    -1220    -1398    -1559    -1706    -1838    -1958    -2083 
   -2224    -2385    -2563    -2755    -2955    -3157    -3348    -3507 
   -3622    -3690    -3699    -3639    -3527    -3373    -3188    -2980 
   -2752    -2515    -2296    -2107    -1949    -1833    -1768    -1732 
   -1717    -1726    -1777    -1891    -2050    -2243    -2459    -2682 
   -2898    -3113    -3323    -3514    -3690    -3861    -4017    -4145 
   -4225    -4247    -4203    -4098    -3932    -3719    -3472    -3207 
   -2933    -2658    -2380    -2092    -1811    -1547    -1300    -1085 
    -915     -789     -707     -666     -664     -700     -774     -882 
   -1026    -1219    -1468    -1761    -2077    -2420    -2767    -3084 
   -3372    -3642    -3890    -4110    -4307    -4502    -4703    -4899 
   -5088    -5266    -5422    -5557    -5678    -5798    -5937    -6102 
   -6289    -6509    -6767    -7051    -7327    -7574    -7771    -7913 
   -8004    -8059    -8081    -8067    -8035    -7993    -7942    -7873 
   -7784    -7657    -7497    -7321    -7110    -6872    -6623    -6356 
   -6081    -5813    -5563    -5324    -5093    -4866    -4634    -4401 
   -4168    -3921    -3665    -3404    -3127    -2839    -2538    -2218 
   -1885    -1556    -1239     -931     -637     -364     -108      133 
     351      540      712      880     1062     1252     1443     1656 
    1900     2163     2434     2709     2992     3277     3551     3817 
    4085     4349     4585     4773     4930     5065     5140     5162 
    5169     5158     5109     5034     4943     4824     4673     4499 
    4305     4079     3831     3570     3287     2997     2721     2458 
    2203     1973     1759     1559     1390     1258     1151     1081 
    1053     1048     1059     1092     1155     1233     1316     1410 
    1520     1628     1738     1858     1960     2034     2098     2143 
    2154     2141     2114     2098     2115     2153     2215     2299 
    2401     2525     2648     2749     2832     2896     2949     3017 
    3109     3213     3330     3459     3593     3719     3808     3842 
    3842     3820     3773     3705     3615     3500     3349     3165 
    2957     2728     2494     2253     1999     1748     1490     1198 
     882      546      193     -163     -538     -961    -1413    -1837 
   -2223    -2600    -2965    -3312    -3636    -3948    -4283    -4645 
   -4989    -5285    -5526    -5713    -5844    -5946    -6054    -6166 
   -6285    -6446    -6659    -6917    -7211    -7522    -7838    -8164 
   -8494    -8804    -9088    -9350    -9576    -9771    -9936   -10065 
  -10158   -10210   -10219   -10189   -10126   -10026    -9898    -9748 
   -9572    -9386    -9188    -8954    -8694    -8421    -8135    -7832 
   -7541    -7275    -7022    -6790    -6592    -6411    -6252    -6143 
   -6073    -6003    -5926    -5864    -5803    -5711    -5584    -5414 
   -5181    -4897    -4568    -4178    -3728    -3246    -2748    -2241 
   -1740    -1260     -789     -309      182      684     1201     1722 
    2231     2717     3179     3593     3942     4223     4450     4631 
    4765     4841     4857     4826     4758     4653     4519     4391 
    4261     4114     3960     3812     3659     3481     3269     3022 
    2743     2432     2101     1763     1426     1089      745      387 
      -2     -446     -945    -1464    -1987    -2512    -3034    -3565 
   -4112    -4676    -5262    -5849    -6417    -6967    -7497    -8009 
   -8506    -8984    -9454    -9919   -10361   -10785   -11196   -11573 
  -11911   -12231   -12546   -12854   -13149   -13435   -13697   -13923 
  -14135   -14330   -14481   -14588   -14658   -14696   -14708   -14681 
  -14615   -14527   -14426   -14307   -14173   -14030   -13890   -13748 
  -13585   -13393   -13185   -12961   -12718   -12455   -12177   -11888 
  -11581   -11244   -10862   -10430    -9945    -9400    -8797    -8160 
   -7510    -6864    -6219    -5552    -4855    -4145    -3456    -2798 
   -2155    -1513     -886     -279      309      872     1405     1912 
    2389     2825     3230     3628     4029     4426     4804     5154 
    5487     5817     6139     6446     6716     6943     7140     7312 
    7452     7535     7553     7510     7443     7375     7302     7222 
    7141     7063     6967     6855     6751     6663     6601     6567 
    6536     6493     6432     6328     6173     5972     5724     5429 
    5103     4733     4299     3820     3316     2792     2253     1710 
    1177      668      216     -180     -564     -935    -1275    -1595 
   -1885    -2143    -2397    -2650    -2868    -3055    -3223    -3376 
   -3503    -3595    -3665    -3723    -3763    -3798    -3836    -3869 
   -3909    -3977    -4067    -4185    -4345    -4534    -4710    -4837 
   -4914    -4946    -4942    -4926    -4912    -4887    -4837    -4788 
   -4780    -4811    -4820    -4777    -4719    -4669    -4606    -4519 
   -4418    -4302    -4190    -4102    -4031    -3948    -3831    -3681 
   -3519    -3361    -3202    -3013    -2790    -2546    -2286    -2007 
   -1725    -1443    -1152     -868     -604     -337      -45      243 
     519      805     1089     1355     1610     1850     2088     2347 
    2636     2949     3284     3665     4082     4511     4945     5370 
    5783     6186     6588     6980     7344     7678     7990     8263 
    8509     8750     8988     9212     9406     9568     9714     9849 
    9979    10120    10263    10365    10422    10453    10449    10390 
   10254    10042     9783     9472     9112     8729     8330     7913 
    7472     6995     6478     5917     5313     4676     4000     3280 
    2531     1769     1012      288     -383    -1043    -1715    -2377 
   -2995    -3577    -4159    -4770    -5421    -6106    -6786    -7426 
   -8029    -8606    -9174    -9747   -10295   -10782   -11191   -11539 
  -11858   -12185   -12534   -12862   -13123   -13340   -13543   -13720 
  -13846   -13925   -13961   -13952   -13890   -13760   -13552   -13292 
  -13007   -12687   -12306   -11873   -11410   -10912   -10381    -9819 
   -9216    -8615    -8067    -7538    -6968    -6351    -5713    -5081 
   -4467    -3858    -3227    -2563    -1878    -1175     -463      234 
     928     1618     2293     2965     3628     4278     4922     5557 
    6185     6774     7272     7689     8078     8454     8797     9078 
    9270     9404     9530     9657     9771     9877     9979    10072 
   10164    10263    10354    10400    10392    10354    10309    10233 
   10104     9946     9787     9634     9477     9293     9082     8863 
    8649     8447     8257     8073     7882     7684     7482     7279 
    7072     6890     6751     6642     6544     6454     6392     6354 
    6311     6247     6158     6056     5945     5822     5678     5490 
    5246     4977     4692     4374     4005     3578     3102     2586 
    2034     1447      831      216     -395    -1026    -1683    -2346 
   -3002    -3655    -4314    -4974    -5610    -6200    -6750    -7291 
   -7835    -8348    -8797    -9198    -9593   -10002   -10407   -10771 
  -11079   -11358   -11627   -11871   -12089   -12286   -12459   -12617 
  -12771   -12907   -12989   -13026   -13041   -13028   -12985   -12914 
  -12818   -12715   -12621   -12538   -12459   -12393   -12360   -12340 
  -12291   -12217   -12117   -11971   -11777   -11541   -11247   -10893 
  -10474    -9977    -9397    -8756    -8073    -7354    -6601    -5814 
   -4986    -4110    -3223    -2354    -1495     -649      180      999 
    1794     2558     3296     4005     4672     5313     5942     6551 
    7132     7672     8182     8681     9161     9626    10102    10588 
   11075    11551    12006    12429    12807    13124    13394    13621 
   13801    13936    14056    14170    14258    14292    14272    14212 
   14113    13976    13806    13598    13336    13020    12644    12214 
   11750    11261    10759    10257     9755     9238     8710     8186 
    7650     7080     6496     5908     5301     4650     3955     3248 
    2560     1902     1258      626       32     -506    -1020    -1513 
   -1980    -2424    -2851    -3261    -3662    -4058    -4460    -4865 
   -5258    -5641    -6029    -6431    -6855    -7290    -7709    -8124 
   -8542    -8951    -9342    -9718   -10072   -10397   -10679   -10893 
  -11057   -11207   -11329   -11395   -11391   -11325   -11214   -11068 
  -10890   -10675   -10427   -10158    -9869    -9568    -9263    -8932 
   -8572    -8197    -7812    -7427    -7045    -6655    -6242    -5798 
   -5337    -4866    -4390    -3894    -3373    -2828    -2258    -1682 
   -1120     -557        9      552     1075     1620     2168     2688 
    3207     3747     4278     4768     5219     5634     6021     6384 
    6711     7010     7283     7531     7765     7987     8214     8437 
    8627     8795     8962     9104     9207     9266     9292     9278 
    9231     9158     9058     8926     8770     8598     8426     8276 
    8121     7931     7715     7493     7264     7028     6793     6573 
    6353     6129     5902     5678     5447     5196     4926     4646 
    4349     4025     3669     3279     2855     2409     1953     1493 
    1031      569       99     -368     -810    -1216    -1588    -1948 
   -2299    -2636    -2949    -3218    -3447    -3657    -3870    -4105 
   -4347    -4592    -4862    -5174    -5524    -5895    -6269    -6642 
   -7026    -7430    -7850    -8280    -8706    -9096    -9437    -9742 
  -10033   -10308   -10574   -10843   -11084   -11269   -11429   -11591 
  -11739   -11865   -11973   -12067   -12160   -12259   -12351   -12441 
  -12540   -12630   -12690   -12719   -12731   -12739   -12756   -12761 
  -12719   -12656   -12594   -12502   -12391   -12276   -12140   -11988 
  -11830   -11665   -11488   -11302   -11105   -10893   -10669   -10454 
  -10251   -10054    -9861    -9668    -9470    -9275    -9070    -8835 
   -8590    -8347    -8100    -7862    -7645    -7429    -7198    -6961 
   -6716    -6442    -6145    -5846    -5545    -5248    -4966    -4691 
   -4419    -4153    -3879    -3593    -3306    -3018    -2725    -2412 
   -2085    -1763    -1426    -1067     -704     -340       35      417 
     811     1216     1617     2018     2415     2795     3164     3532 
    3894     4238     4564     4868     5152     5418     5659     5864 
    6039     6191     6323     6447     6552     6610     6624     6598 
    6512     6346     6114     5836     5510     5155     4796     4421 
    4031     3646     3258     2852     2438     2018     1586     1158 
     750      360      -11     -364     -706    -1048    -1405    -1771 
   -2143    -2524    -2896    -3249    -3589    -3927    -4261    -4584 
   -4904    -5232    -5551    -5875    -6214    -6543    -6864    -7176 
   -7458    -7719    -7989    -8257    -8510    -8745    -8968    -9196 
   -9421    -9636    -9822    -9964   -10053   -10077   -10049   -10000 
   -9930    -9823    -9688    -9509    -9281    -9026    -8741    -8410 
   -8044    -7643    -7211    -6747    -6258    -5771    -5273    -4757 
   -4237    -3721    -3204    -2677    -2126    -1561    -1004     -480 
       1      463      931     1422     1927     2427     2921     3411 
    3880     4325     4754     5174     5582     5952     6264     6535 
    6791     7018     7209     7361     7464     7507     7491     7420 
    7296     7115     6886     6623     6309     5944     5549     5139 
    4718     4289     3856     3412     2963     2505     2042     1582 
    1120      662      212     -245     -734    -1256    -1817    -2407 
   -3021    -3661    -4313    -4959    -5590    -6200    -6775    -7311 
   -7807    -8248    -8649    -9031    -9383    -9697    -9971   -10210 
  -10409   -10561   -10667   -10739   -10779   -10800   -10790   -10755 
  -10700   -10609   -10481   -10320   -10142    -9952    -9748    -9533 
   -9296    -9032    -8765    -8487    -8199    -7905    -7591    -7258 
   -6910    -6542    -6166    -5786    -5395    -4993    -4590    -4170 
   -3728    -3281    -2836    -2397    -1975    -1568    -1185     -835 
    -510     -194      109      387      650      912     1173     1435 
    1706     1993     2305     2636     2974     3314     3646     3951 
    4218     4441     4625     4780     4904     5004     5084     5140 
    5188     5229     5259     5273     5265     5235     5188     5119 
    5027     4903     4750     4579     4384     4168     3935     3670 
    3369     3042     2700     2334     1962     1588     1202      808 
     413       17     -372     -756    -1123    -1487    -1857    -2231 
   -2606    -2986    -3369    -3743    -4101    -4444    -4766    -5070 
   -5362    -5661    -5967    -6246    -6504    -6755    -7006    -7268 
   -7527    -7759    -7959    -8129    -8281    -8401    -8484    -8542 
   -8594    -8633    -8645    -8631    -8591    -8509    -8401    -8290 
   -8149    -7954    -7707    -7423    -7091    -6721    -6340    -5967 
   -5587    -5186    -4762    -4327    -3890    -3454    -3005    -2532 
   -2060    -1590    -1109     -626     -147      341      843     1355 
    1875     2403     2928     3461     4009     4554     5092     5611 
    6096     6558     7029     7495     7933     8361     8777     9151 
    9490     9813    10106    10361    10582    10760    10883    10959 
   10994    10982    10922    10813    10646    10432    10180     9887 
    9551     9180     8775     8334     7881     7418     6936     6435 
    5925     5402     4869     4321     3751     3163     2569     1968 
    1363      773      198     -349     -866    -1360    -1830    -2272 
