Origin Time       2016/04/16 01:25:00
Lat.              32.753
Long.             130.762
Depth. (km)       12
Mag.              7.3
Station Code      SMN003
Station Lat.      35.1795
Station Long.     133.0929
Station Height(m) 332
Record Time       2016/04/16 01:26:47
Sampling Freq(Hz) 100Hz
Duration Time(s)  60
Dir.              N-S
Scale Factor      7845(gal)/8223790
Max. Acc. (gal)   1.740
Last Correction   2016/04/16 01:26:47
Memo.             
[...]
   -3232    -3227    -3244    -3289    -3308    -3308    -3317    -3319 
   -3304    -3289    -3280    -3269    -3244    -3203    -3183    -3169 
   -3144    -3157    -3219    -3275    -3307    -3339    -3366    -3381 
   -3388    -3402    -3429    -3456    -3477    -3500    -3500    -3478 
   -3456    -3430    -3395    -3354    -3316    -3289    -3284    -3292 
   -3296    -3302    -3316    -3315    -3284    -3260    -3232    -3186 
   -3137    -3109    -3109    -3119    -3133    -3169    -3230    -3283 
   -3331    -3388    -3433    -3447    -3446    -3433    -3410    -3369 
   -3330    -3303    -3284    -3276    -3284    -3300    -3295    -3288 
   -3287    -3277    -3261    -3260    -3265    -3260    -3273    -3306 
   -3325    -3329    -3327    -3326    -3336    -3348    -3336    -3322 
   -3323    -3329    -3338    -3348    -3341    -3311    -3275    -3258 
   -3267    -3268    -3262    -3283    -3316    -3331    -3339    -3338 
   -3317    -3279    -3235    -3196    -3146    -3082    -3017    -2974 
   -2955    -2960    -3003    -3069    -3115    -3134    -3156    -3175 
   -3169    -3160    -3160    -3177    -3208    -3238    -3277    -3341 
   -3404    -3443    -3474    -3492    -3472    -3420    -3364    -3325 
   -3284    -3242    -3225    -3225    -3210    -3183    -3173    -3161 
   -3144    -3146    -3161    -3184    -3217    -3262    -3321    -3366 
   -3369    -3346    -3325    -3296    -3264    -3237    -3210    -3175 
   -3138    -3109    -3079    -3045    -3009    -2983    -2972    -2956 
   -2949    -2967    -2994    -3015    -3056    -3115    -3163    -3192 
   -3213    -3229    -3249    -3264    -3276    -3288    -3296    -3311 
   -3343    -3366    -3360    -3355    -3365    -3369    -3361    -3327 
   -3284    -3253    -3240    -3227    -3229    -3237    -3215    -3187 
   -3180    -3161    -3125    -3094    -3078    -3078    -3090    -3096 
   -3099    -3099    -3086    -3087    -3109    -3119    -3121    -3148 
   -3188    -3218    -3245    -3264    -3269    -3250    -3217    -3200 
   -3187    -3157    -3153    -3192    -3238    -3273    -3310    -3346 
   -3373    -3383    -3381    -3376    -3349    -3303    -3275    -3277 
   -3281    -3280    -3291    -3302    -3300    -3284    -3260    -3248 
   -3242    -3229    -3221    -3222    -3203    -3179    -3180    -3200 
   -3219    -3234    -3245    -3253    -3240    -3204    -3177    -3164 
   -3141    -3122    -3129    -3140    -3137    -3136    -3149    -3165 
   -3179    -3194    -3221    -3240    -3242    -3253    -3265    -3267 
   -3254    -3234    -3217    -3199    -3196    -3213    -3232    -3246 
   -3262    -3281    -3284    -3264    -3238    -3244    -3256    -3244 
   -3246    -3268    -3275    -3277    -3281    -3269    -3238    -3213 
   -3215    -3257    -3326    -3395    -3472    -3544    -3573    -3557 
   -3522    -3465    -3380    -3299    -3235    -3180    -3123    -3071 
   -3051    -3044    -3033    -3024    -3019    -3011    -2995    -2967 
   -2937    -2913    -2880    -2844    -2847    -2879    -2906    -2929 
   -2975    -3025    -3052    -3069    -3082    -3080    -3064    -3033 
   -2999    -2961    -2921    -2909    -2933    -2947    -2947    -2959 
   -2971    -2976    -2992    -3007    -2999    -2986    -2982    -2980 
   -2997    -3032    -3088    -3160    -3221    -3261    -3280    -3268 
   -3240    -3225    -3208    -3168    -3113    -3046    -2992    -2967 
   -2957    -2959    -2984    -3015    -3036    -3067    -3094    -3090 
   -3052    -2994    -2944    -2896    -2844    -2824    -2844    -2862 
   -2857    -2863    -2868    -2830    -2783    -2758    -2744    -2739 
   -2756    -2806    -2889    -2975    -3042    -3098    -3130    -3122 
   -3090    -3055    -3006    -2940    -2866    -2809    -2797    -2801 
   -2801    -2839    -2914    -2979    -3033    -3102    -3164    -3213 
   -3277    -3343    -3380    -3392    -3407    -3447    -3492    -3528 
   -3570    -3615    -3634    -3646    -3673    -3692    -3705    -3719 
   -3707    -3662    -3603    -3542    -3481    -3422    -3364    -3319 
   -3276    -3208    -3133    -3068    -3029    -3017    -3018    -3036 
   -3067    -3103    -3149    -3221    -3304    -3360    -3388    -3424 
   -3461    -3472    -3473    -3487    -3500    -3511    -3530    -3568 
   -3607    -3612    -3592    -3578    -3565    -3530    -3511    -3518 
   -3524    -3524    -3522    -3534    -3551    -3549    -3550    -3558 
   -3541    -3500    -3483    -3492    -3507    -3527    -3555    -3578 
   -3576    -3546    -3503    -3459    -3399    -3326    -3271    -3225 
   -3171    -3127    -3106    -3090    -3059    -3017    -2972    -2941 
   -2932    -2947    -2986    -3026    -3060    -3106    -3154    -3184 
   -3194    -3194    -3188    -3203    -3235    -3269    -3314    -3377 
   -3442    -3508    -3563    -3584    -3588    -3604    -3612    -3605 
   -3601    -3608    -3615    -3628    -3662    -3704    -3746    -3773 
   -3788    -3796    -3776    -3734    -3703    -3699    -3703    -3713 
   -3728    -3726    -3700    -3663    -3634    -3622    -3597    -3558 
   -3523    -3480    -3416    -3375    -3372    -3383    -3404    -3424 
   -3445    -3465    -3466    -3466    -3501    -3542    -3554    -3541 
   -3496    -3422    -3345    -3277    -3221    -3173    -3133    -3113 
   -3115    -3118    -3118    -3137    -3152    -3142    -3117    -3069 
   -3009    -2959    -2933    -2938    -2976    -3034    -3103    -3183 
   -3240    -3250    -3241    -3219    -3191    -3177    -3191    -3231 
   -3294    -3364    -3434    -3515    -3581    -3595    -3561    -3507 
   -3430    -3338    -3268    -3221    -3194    -3194    -3213    -3238 
   -3260    -3264    -3264    -3262    -3234    -3180    -3142    -3109 
   -3090    -3102    -3145    -3186    -3204    -3222    -3258    -3283 
   -3265    -3240    -3222    -3180    -3134    -3119    -3118    -3111 
   -3109    -3123    -3149    -3191    -3231    -3265    -3298    -3325 
   -3357    -3404    -3451    -3492    -3527    -3547    -3559    -3585 
   -3601    -3601    -3599    -3584    -3553    -3522    -3483    -3434 
   -3415    -3431    -3439    -3434    -3434    -3450    -3457    -3437 
   -3415    -3411    -3403    -3372    -3336    -3294    -3218    -3125 
   -3052    -3007    -2975    -2952    -2948    -2961    -2986    -3019 
   -3076    -3138    -3194    -3271    -3348    -3388    -3404    -3431 
   -3465    -3492    -3501    -3489    -3462    -3424    -3399    -3419 
   -3461    -3470    -3468    -3476    -3462    -3434    -3434    -3461 
   -3492    -3511    -3508    -3497    -3483    -3453    -3429    -3426 
   -3410    -3377    -3368    -3373    -3381    -3399    -3430    -3466 
   -3496    -3499    -3489    -3484    -3454    -3400    -3353    -3322 
   -3307    -3299    -3298    -3304    -3306    -3287    -3265    -3254 
   -3235    -3213    -3210    -3208    -3180    -3144    -3129    -3127 
   -3134    -3148    -3156    -3148    -3126    -3122    -3140    -3146 
   -3137    -3134    -3132    -3123    -3126    -3149    -3192    -3231 
   -3250    -3273    -3296    -3284    -3238    -3190    -3148    -3111 
   -3084    -3063    -3045    -3037    -3030    -3015    -2992    -2953 
   -2909    -2878    -2853    -2832    -2832    -2856    -2882    -2893 
   -2895    -2896    -2899    -2901    -2905    -2928    -2959    -3005 
   -3080    -3176    -3265    -3331    -3383    -3424    -3474    -3530 
   -3573    -3607    -3624    -3613    -3603    -3593    -3561    -3526 
   -3530    -3557    -3584    -3615    -3653    -3692    -3731    -3774 
   -3811    -3827    -3819    -3815    -3834    -3850    -3867    -3901 
   -3932    -3958    -3989    -4005    -3987    -3955    -3929    -3915 
   -3898    -3874    -3852    -3838    -3820    -3796    -3765    -3719 
   -3682    -3663    -3651    -3638    -3619    -3588    -3547    -3497 
   -3437    -3383    -3358    -3352    -3346    -3364    -3393    -3400 
   -3385    -3360    -3323    -3277    -3221    -3161    -3125    -3114 
   -3122    -3172    -3254    -3317    -3339    -3350    -3353    -3315 
   -3231    -3138    -3067    -2997    -2930    -2911    -2938    -2986 
   -3045    -3115    -3167    -3188    -3200    -3229    -3279    -3317 
   -3329    -3339    -3353    -3343    -3330    -3349    -3364    -3350 
   -3321    -3284    -3244    -3215    -3210    -3221    -3237    -3237 
   -3218    -3203    -3194    -3208    -3256    -3322    -3380    -3393 
   -3379    -3377    -3383    -3369    -3361    -3353    -3326    -3311 
   -3331    -3361    -3385    -3414    -3445    -3451    -3419    -3349 
   -3260    -3172    -3095    -3059    -3063    -3080    -3106    -3152 
   -3213    -3289    -3372    -3447    -3514    -3572    -3613    -3657 
   -3696    -3713    -3740    -3808    -3871    -3890    -3889    -3879 
   -3851    -3804    -3759    -3736    -3717    -3686    -3667    -3665 
   -3646    -3628    -3653    -3693    -3705    -3692    -3661    -3603 
   -3527    -3458    -3399    -3341    -3273    -3204    -3150    -3090 
   -3011    -2936    -2890    -2852    -2810    -2771    -2745    -2732 
   -2728    -2747    -2789    -2818    -2816    -2805    -2814    -2826 
   -2829    -2855    -2911    -2972    -3022    -3071    -3113    -3126 
   -3123    -3132    -3150    -3148    -3126    -3109    -3103    -3090 
   -3044    -2964    -2863    -2758    -2660    -2583    -2536    -2501 
   -2489    -2523    -2596    -2698    -2818    -2929    -3014    -3075 
   -3109    -3136    -3167    -3198    -3253    -3333    -3402    -3453 
   -3503    -3549    -3580    -3597    -3588    -3544    -3478    -3396 
   -3327    -3279    -3229    -3196    -3203    -3215    -3204    -3204 
   -3222    -3245    -3277    -3314    -3339    -3353    -3365    -3404 
   -3472    -3527    -3563    -3592    -3581    -3520    -3430    -3333 
   -3232    -3129    -3024    -2929    -2859    -2792    -2721    -2671 
   -2641    -2616    -2600    -2583    -2552    -2505    -2473    -2466 
   -2478    -2501    -2531    -2573    -2616    -2646    -2691    -2759 
   -2813    -2849    -2889    -2926    -2960    -2991    -3037    -3100 
   -3141    -3145    -3145    -3148    -3117    -3065    -3021    -2961 
   -2894    -2843    -2826    -2843    -2859    -2863    -2875    -2895 
   -2910    -2943    -2999    -3046    -3071    -3099    -3119    -3103 
   -3075    -3046    -3026    -3036    -3060    -3105    -3180    -3261 
   -3346    -3446    -3542    -3624    -3715    -3804    -3883    -3951 
   -3991    -4017    -4048    -4081    -4098    -4114    -4122    -4107 
   -4078    -4031    -3971    -3898    -3820    -3763    -3732    -3711 
   -3699    -3705    -3717    -3709    -3696    -3674    -3620    -3554 
   -3511    -3492    -3504    -3546    -3597    -3642    -3669    -3684 
   -3717    -3765    -3816    -3882    -3946    -3967    -3942    -3892 
   -3828    -3773    -3738    -3716    -3708    -3694    -3653    -3615 
   -3592    -3551    -3511    -3497    -3489    -3488    -3496    -3514 
   -3550    -3588    -3615    -3628    -3611    -3557    -3515    -3500 
   -3492    -3505    -3539    -3574    -3597    -3595    -3562    -3516 
   -3464    -3407    -3376    -3366    -3348    -3335    -3350    -3375 
   -3388    -3406    -3440    -3480    -3511    -3539    -3570    -3580 
   -3538    -3473    -3420    -3362    -3272    -3187    -3134    -3100 
   -3078    -3068    -3068    -3049    -3001    -2957    -2938    -2921 
   -2889    -2866    -2860    -2855    -2860    -2886    -2921    -2943 
   -2949    -2956    -2975    -2988    -2986    -3001    -3019    -3005 
   -2982    -2974    -2967    -2971    -3003    -3053    -3115    -3191 
   -3269    -3349    -3426    -3492    -3527    -3527    -3511    -3483 
   -3442    -3391    -3331    -3264    -3194    -3149    -3146    -3175 
   -3218    -3272    -3302    -3298    -3281    -3257    -3241    -3254 
   -3296    -3346    -3379    -3403    -3449    -3523    -3601    -3669 
   -3726    -3757    -3774    -3800    -3844    -3896    -3955    -4021 
   -4066    -4064    -4036    -4014    -3991    -3947    -3894    -3842 
   -3771    -3693    -3643    -3634    -3642    -3646    -3627    -3595 
   -3549    -3464    -3355    -3242    -3106    -2959    -2833    -2713 
   -2577    -2446    -2343    -2285    -2265    -2259    -2274    -2327 
   -2405    -2500    -2610    -2694    -2720    -2710    -2678    -2617 
   -2527    -2428    -2366    -2361    -2378    -2389    -2409    -2427 
   -2413    -2371    -2326    -2267    -2191    -2142    -2144    -2180 
   -2236    -2319    -2431    -2539    -2619    -2675    -2702    -2682 
   -2667    -2704    -2795    -2936    -3088    -3238    -3402    -3554 
   -3666    -3743    -3790    -3797    -3775    -3744    -3707    -3658 
   -3603    -3555    -3542    -3561    -3605    -3688    -3801    -3936 
   -4097    -4270    -4423    -4550    -4648    -4700    -4698    -4654 
   -4590    -4521    -4460    -4413    -4392    -4391    -4388    -4405 
   -4448    -4494    -4529    -4567    -4625    -4687    -4737    -4780 
   -4823    -4857    -4868    -4864    -4838    -4758    -4639    -4530 
   -4422    -4293    -4162    -4055    -3987    -3940    -3899    -3896 
   -3931    -3967    -3987    -4009    -4014    -3991    -3963    -3950 
   -3955    -3969    -3984    -4023    -4094    -4185    -4302    -4440 
   -4549    -4602    -4623    -4619    -4575    -4491    -4391    -4289 
   -4185    -4083    -4003    -3946    -3898    -3875    -3897    -3946 
   -3989    -4029    -4086    -4158    -4260    -4388    -4507    -4621 
   -4737    -4831    -4908    -4982    -5042    -5080    -5093    -5081 
   -5050    -5009    -4947    -4869    -4797    -4761    -4758    -4753 
   -4716    -4665    -4610    -4531    -4442    -4357    -4276    -4205 
   -4152    -4120    -4098    -4074    -4054    -4035    -3998    -3921 
   -3825    -3742    -3676    -3623    -3578    -3520    -3433    -3335 
   -3249    -3180    -3123    -3073    -3067    -3100    -3119    -3105 
   -3088    -3084    -3086    -3095    -3111    -3132    -3126    -3082 
   -3034    -2994    -2930    -2859    -2809    -2767    -2724    -2702 
   -2713    -2739    -2767    -2811    -2884    -2975    -3055    -3118 
   -3210    -3331    -3454    -3584    -3709    -3808    -3873    -3931 
   -4005    -4086    -4149    -4202    -4261    -4318    -4372    -4431 
   -4479    -4518    -4558    -4583    -4571    -4506    -4387    -4228 
   -4044    -3839    -3639    -3469    -3335    -3234    -3164    -3130 
   -3111    -3094    -3076    -3055    -3013    -2943    -2882    -2856 
   -2841    -2833    -2856    -2893    -2922    -2975    -3056    -3130 
   -3184    -3244    -3323    -3399    -3446    -3474    -3492    -3481 
   -3431    -3360    -3256    -3114    -2965    -2837    -2740    -2668 
   -2621    -2604    -2609    -2628    -2636    -2627    -2613    -2596 
   -2574    -2577    -2606    -2644    -2681    -2709    -2728    -2712 
   -2647    -2554    -2446    -2331    -2208    -2091    -1999    -1935 
   -1926    -1991    -2092    -2196    -2303    -2401    -2485    -2540 
   -2555    -2546    -2516    -2461    -2409    -2380    -2359    -2367 
   -2419    -2496    -2565    -2619    -2651    -2658    -2646    -2656 
   -2712    -2785    -2866    -2960    -3059    -3142    -3196    -3249 
   -3321    -3385    -3426    -3462    -3497    -3519    -3527    -3542 
   -3570    -3569    -3519    -3454    -3392    -3342    -3311    -3316 
   -3348    -3372    -3379    -3397    -3433    -3469    -3519    -3608 
   -3731    -3861    -3983    -4101    -4200    -4268    -4309    -4326 
   -4317    -4284    -4238    -4200    -4197    -4212    -4233    -4258 
   -4256    -4207    -4133    -4058    -3994    -3970    -4017    -4114 
   -4212    -4307    -4411    -4506    -4579    -4648    -4710    -4734 
   -4707    -4657    -4599    -4525    -4464    -4431    -4411    -4369 
   -4294    -4194    -4091    -3990    -3888    -3804    -3744    -3676 
   -3589    -3516    -3485    -3489    -3526    -3609    -3708    -3775 
   -3823    -3866    -3873    -3823    -3743    -3667    -3592    -3504 
   -3422    -3369    -3336    -3327    -3326    -3312    -3269    -3202 
   -3134    -3082    -3038    -3009    -3003    -3019    -3024    -2970 
   -2876    -2787    -2693    -2586    -2475    -2362    -2258    -2170 
   -2107    -2069    -2027    -1992    -1998    -2026    -2038    -2029 
   -2011    -1975    -1914    -1846    -1798    -1755    -1694    -1621 
   -1547    -1485    -1457    -1485    -1557    -1642    -1717    -1771 
   -1803    -1829    -1867    -1911    -1956    -2012    -2053    -2077 
   -2110    -2149    -2187    -2234    -2292    -2367    -2466    -2574 
   -2675    -2767    -2853    -2955    -3059    -3142    -3206    -3258 
   -3296    -3311    -3316    -3315    -3295    -3268    -3272    -3298 
   -3315    -3323    -3323    -3317    -3307    -3303    -3323    -3348 
   -3346    -3341    -3348    -3335    -3299    -3267    -3253    -3260 
   -3273    -3306    -3369    -3439    -3523    -3626    -3743    -3854 
   -3936    -4013    -4093    -4153    -4205    -4260    -4311    -4344 
   -4363    -4391    -4441    -4488    -4522    -4563    -4606    -4639 
   -4666    -4716    -4784    -4827    -4841    -4847    -4820    -4735 
   -4625    -4488    -4321    -4139    -3962    -3821    -3709    -3597 
   -3507    -3449    -3403    -3365    -3343    -3341    -3350    -3361 
   -3369    -3364    -3327    -3268    -3190    -3109    -3038    -2945 
   -2841    -2768    -2706    -2651    -2640    -2663    -2688    -2718 
   -2759    -2811    -2859    -2909    -2986    -3056    -3103    -3159 
   -3196    -3186    -3171    -3191    -3229    -3244    -3217    -3183 
   -3161    -3137    -3145    -3190    -3235    -3287    -3358    -3456 
   -3554    -3632    -3709    -3785    -3812    -3781    -3716    -3623 
   -3534    -3472    -3446    -3466    -3499    -3510    -3503    -3488 
   -3458    -3406    -3334    -3256    -3160    -3038    -2940    -2882 
   -2847    -2835    -2851    -2889    -2914    -2921    -2933    -2948 
   -2963    -2994    -3041    -3090    -3123    -3134    -3142    -3154 
   -3148    -3144    -3150    -3123    -3067    -3006    -2960    -2928 
   -2887    -2843    -2805    -2786    -2825    -2943    -3079    -3184 
   -3242    -3235    -3183    -3115    -3055    -3021    -2998    -2986 
   -3024    -3111    -3199    -3271    -3331    -3383    -3426    -3456 
   -3465    -3430    -3339    -3234    -3150    -3100    -3049    -2972 
   -2893    -2835    -2789    -2748    -2712    -2655    -2569    -2474 
   -2404    -2366    -2344    -2366    -2442    -2535    -2620    -2714 
   -2818    -2913    -2990    -3037    -3067    -3071    -3037    -2988 
   -2934    -2860    -2770    -2685    -2623    -2574    -2524    -2471 
   -2407    -2315    -2196    -2062    -1919    -1780    -1660    -1588 
   -1568    -1582    -1620    -1667    -1717    -1777    -1844    -1904 
   -1949    -1977    -1999    -2023    -2047    -2064    -2074    -2089 
   -2097    -2088    -2066    -2023    -1954    -1894    -1852    -1807 
   -1746    -1674    -1615    -1579    -1547    -1549    -1599    -1658 
   -1709    -1746    -1771    -1783    -1769    -1755    -1764    -1775 
   -1803    -1872    -1964    -2061    -2150    -2241    -2336    -2392 
   -2385    -2340    -2276    -2200    -2114    -2020    -1939    -1881 
   -1857    -1868    -1896    -1949    -2033    -2111    -2170    -2200 
