Origin Time       2016/04/16 01:25:00
Lat.              32.753
Long.             130.762
Depth. (km)       12
Mag.              7.3
Station Code      SMN020
Station Lat.      35.5347
Station Long.     133.1652
Station Height(m) 6
Record Time       2016/04/16 01:26:57
Sampling Freq(Hz) 100Hz
Duration Time(s)  70
Dir.              N-S
Scale Factor      7845(gal)/8223790
Max. Acc. (gal)   2.498
Last Correction   2016/04/16 01:26:58
Memo.             
[...]
  -19487   -19475   -19469   -19469   -19473   -19484   -19498   -19512 
  -19535   -19558   -19579   -19607   -19635   -19664   -19693   -19720 
  -19741   -19761   -19778   -19791   -19801   -19811   -19819   -19827 
  -19838   -19850   -19865   -19876   -19888   -19901   -19911   -19916 
  -19921   -19923   -19924   -19927   -19930   -19938   -19948   -19957 
  -19961   -19962   -19959   -19955   -19947   -19935   -19920   -19901 
  -19881   -19862   -19839   -19809   -19778   -19749   -19716   -19687 
  -19660   -19633   -19608   -19589   -19572   -19553   -19535   -19519 
  -19504   -19489   -19476   -19465   -19457   -19453   -19456   -19460 
  -19462   -19468   -19473   -19476   -19476   -19472   -19464   -19460 
  -19456   -19453   -19450   -19450   -19450   -19449   -19449   -19445 
  -19437   -19431   -19429   -19426   -19430   -19434   -19440   -19446 
  -19456   -19467   -19484   -19503   -19526   -19558   -19591   -19622 
  -19656   -19689   -19726   -19761   -19801   -19845   -19882   -19917 
  -19954   -19986   -20015   -20039   -20061   -20077   -20092   -20105 
  -20111   -20117   -20120   -20121   -20117   -20111   -20102   -20090 
  -20077   -20065   -20050   -20034   -20020   -20005   -19993   -19984 
  -19974   -19969   -19962   -19951   -19942   -19931   -19916   -19905 
  -19896   -19885   -19876   -19866   -19855   -19849   -19843   -19835 
  -19830   -19827   -19822   -19818   -19815   -19809   -19800   -19793 
  -19788   -19780   -19769   -19759   -19747   -19735   -19724   -19712 
  -19700   -19693   -19688   -19681   -19673   -19669   -19666   -19660 
  -19647   -19635   -19618   -19595   -19570   -19541   -19511   -19480 
  -19446   -19414   -19390   -19365   -19345   -19333   -19323   -19317 
  -19314   -19314   -19319   -19332   -19341   -19352   -19365   -19379 
  -19391   -19403   -19417   -19430   -19444   -19460   -19477   -19495 
  -19512   -19530   -19546   -19564   -19581   -19596   -19608   -19622 
  -19638   -19656   -19675   -19701   -19728   -19754   -19778   -19797 
  -19816   -19834   -19847   -19859   -19866   -19872   -19878   -19880 
  -19882   -19886   -19885   -19876   -19865   -19854   -19842   -19823 
  -19804   -19784   -19766   -19750   -19734   -19715   -19700   -19691 
  -19683   -19674   -19668   -19662   -19652   -19642   -19633   -19618 
  -19599   -19581   -19564   -19545   -19529   -19512   -19502   -19494 
  -19487   -19484   -19485   -19489   -19499   -19510   -19523   -19541 
  -19560   -19579   -19596   -19612   -19634   -19654   -19669   -19685 
  -19701   -19714   -19726   -19743   -19759   -19776   -19792   -19808 
  -19824   -19842   -19857   -19866   -19874   -19881   -19888   -19893 
  -19896   -19897   -19899   -19900   -19899   -19896   -19893   -19888 
  -19878   -19870   -19863   -19857   -19854   -19854   -19857   -19863 
  -19877   -19892   -19908   -19924   -19942   -19955   -19969   -19982 
  -19997   -20008   -20017   -20027   -20031   -20035   -20036   -20031 
  -20020   -20008   -19996   -19982   -19966   -19951   -19938   -19919 
  -19896   -19876   -19850   -19822   -19792   -19765   -19739   -19718 
  -19701   -19691   -19680   -19668   -19656   -19643   -19630   -19614 
  -19596   -19580   -19565   -19553   -19548   -19543   -19541   -19539 
  -19539   -19535   -19530   -19529   -19525   -19523   -19527   -19533 
  -19539   -19553   -19568   -19585   -19603   -19619   -19638   -19652 
  -19668   -19685   -19703   -19722   -19741   -19761   -19784   -19805 
  -19824   -19843   -19862   -19884   -19907   -19928   -19951   -19973 
  -19989   -20007   -20024   -20042   -20055   -20063   -20068   -20073 
  -20073   -20068   -20061   -20048   -20036   -20019   -19996   -19967 
  -19934   -19897   -19857   -19818   -19778   -19739   -19699   -19661 
  -19623   -19588   -19556   -19529   -19506   -19488   -19480   -19477 
  -19475   -19479   -19488   -19502   -19523   -19545   -19566   -19593 
  -19620   -19645   -19675   -19710   -19743   -19777   -19809   -19840 
  -19866   -19886   -19903   -19912   -19912   -19904   -19890   -19866 
  -19835   -19804   -19769   -19728   -19685   -19643   -19597   -19554 
  -19512   -19475   -19442   -19414   -19387   -19367   -19348   -19330 
  -19318   -19305   -19295   -19296   -19300   -19302   -19317   -19342 
  -19372   -19403   -19445   -19492   -19543   -19596   -19651   -19708 
  -19766   -19826   -19885   -19943   -20000   -20056   -20113   -20169 
  -20214   -20252   -20290   -20321   -20343   -20358   -20367   -20374 
  -20375   -20375   -20375   -20375   -20375   -20375   -20378   -20385 
  -20394   -20402   -20413   -20428   -20447   -20468   -20494   -20524 
  -20553   -20586   -20621   -20649   -20675   -20702   -20727   -20752 
  -20776   -20802   -20825   -20846   -20869   -20893   -20919   -20949 
  -20981   -21011   -21045   -21078   -21109   -21139   -21165   -21184 
  -21203   -21216   -21219   -21212   -21201   -21195   -21174   -21127 
  -21088   -21064   -21022   -20958   -20899   -20853   -20784   -20686 
  -20622   -20567   -20464   -20374   -20298   -20197   -20100   -19998 
  -19889   -19782   -19666   -19554   -19448   -19340   -19244   -19155 
  -19072   -19006   -18954   -18905   -18864   -18835   -18812   -18797 
  -18790   -18787   -18792   -18796   -18800   -18814   -18836   -18858 
  -18885   -18921   -18960   -18997   -19040   -19087   -19136   -19187 
  -19245   -19300   -19356   -19411   -19464   -19516   -19568   -19618 
  -19666   -19712   -19757   -19801   -19843   -19882   -19924   -19962 
  -19997   -20032   -20066   -20098   -20129   -20156   -20177   -20196 
  -20202   -20198   -20183   -20159   -20125   -20082   -20031   -19970 
  -19901   -19827   -19746   -19661   -19581   -19500   -19425   -19356 
  -19292   -19236   -19190   -19150   -19116   -19090   -19072   -19064 
  -19068   -19084   -19105   -19134   -19170   -19209   -19249   -19294 
  -19332   -19364   -19395   -19419   -19431   -19437   -19434   -19425 
  -19414   -19403   -19386   -19373   -19367   -19359   -19350   -19345 
  -19340   -19330   -19322   -19313   -19300   -19288   -19282   -19275 
  -19271   -19272   -19273   -19283   -19302   -19325   -19359   -19403 
  -19452   -19506   -19569   -19635   -19703   -19777   -19853   -19930 
  -20008   -20088   -20163   -20235   -20304   -20366   -20418   -20470 
  -20520   -20560   -20598   -20636   -20671   -20699   -20725   -20748 
  -20771   -20795   -20815   -20833   -20854   -20872   -20887   -20896 
  -20903   -20907   -20907   -20895   -20883   -20866   -20842   -20817 
  -20794   -20771   -20757   -20750   -20749   -20757   -20768   -20787 
  -20814   -20848   -20883   -20927   -20976   -21024   -21074   -21126 
  -21176   -21219   -21262   -21297   -21327   -21355   -21375   -21390 
  -21402   -21413   -21420   -21423   -21421   -21416   -21406   -21394 
  -21375   -21354   -21325   -21292   -21254   -21211   -21161   -21107 
  -21042   -20970   -20891   -20803   -20709   -20611   -20513   -20414 
  -20314   -20214   -20117   -20024   -19938   -19853   -19769   -19689 
  -19622   -19560   -19504   -19457   -19419   -19384   -19352   -19323 
  -19294   -19271   -19249   -19225   -19201   -19178   -19155   -19133 
  -19113   -19091   -19066   -19033   -18995   -18951   -18897   -18836 
  -18773   -18702   -18627   -18549   -18466   -18378   -18287   -18193 
  -18100   -18010   -17925   -17845   -17772   -17709   -17658   -17613 
  -17582   -17563   -17548   -17544   -17554   -17574   -17605   -17649 
  -17707   -17778   -17855   -17942   -18040   -18142   -18247   -18361 
  -18482   -18598   -18717   -18836   -18951   -19066   -19186   -19302 
  -19414   -19530   -19641   -19741   -19836   -19927   -20005   -20077 
  -20144   -20202   -20251   -20295   -20332   -20352   -20371   -20385 
  -20387   -20394   -20394   -20387   -20386   -20383   -20375   -20362 
  -20344   -20321   -20293   -20255   -20206   -20154   -20092   -20024 
  -19955   -19884   -19809   -19737   -19666   -19595   -19522   -19456 
  -19398   -19344   -19296   -19261   -19234   -19219   -19221   -19232 
  -19249   -19278   -19317   -19359   -19399   -19442   -19489   -19537 
  -19580   -19619   -19657   -19695   -19727   -19755   -19780   -19795 
  -19799   -19800   -19791   -19772   -19750   -19718   -19673   -19626 
  -19576   -19522   -19468   -19419   -19376   -19334   -19292   -19255 
  -19221   -19188   -19159   -19133   -19111   -19097   -19090   -19094 
  -19103   -19121   -19147   -19179   -19217   -19263   -19310   -19357 
  -19415   -19477   -19543   -19627   -19718   -19815   -19924   -20042 
  -20158   -20274   -20389   -20499   -20603   -20700   -20795   -20884 
  -20962   -21031   -21089   -21138   -21177   -21200   -21211   -21212 
  -21201   -21180   -21150   -21108   -21061   -21007   -20943   -20876 
  -20807   -20737   -20659   -20579   -20497   -20407   -20309   -20205 
  -20100   -19985   -19869   -19753   -19638   -19522   -19411   -19309 
  -19214   -19132   -19063   -19009   -18972   -18949   -18940   -18947 
  -18967   -18999   -19037   -19078   -19121   -19167   -19213   -19257 
  -19302   -19348   -19392   -19438   -19481   -19526   -19576   -19626 
  -19674   -19724   -19777   -19827   -19880   -19931   -19981   -20028 
  -20071   -20111   -20150   -20185   -20214   -20243   -20266   -20286 
  -20305   -20320   -20333   -20347   -20363   -20382   -20407   -20434 
  -20472   -20524   -20579   -20642   -20718   -20798   -20881   -20969 
  -21060   -21149   -21234   -21315   -21388   -21452   -21510   -21556 
  -21593   -21620   -21633   -21635   -21627   -21609   -21581   -21546 
  -21508   -21465   -21419   -21371   -21321   -21273   -21224   -21173 
  -21122   -21075   -21029   -20985   -20942   -20902   -20866   -20837 
  -20810   -20784   -20756   -20725   -20692   -20649   -20596   -20544 
  -20487   -20421   -20349   -20279   -20205   -20125   -20043   -19963 
  -19880   -19799   -19718   -19635   -19556   -19484   -19417   -19356 
  -19305   -19255   -19213   -19182   -19157   -19141   -19134   -19138 
  -19153   -19180   -19214   -19259   -19307   -19357   -19411   -19464 
  -19511   -19554   -19599   -19637   -19669   -19699   -19722   -19737 
  -19743   -19743   -19738   -19724   -19705   -19681   -19652   -19619 
  -19576   -19525   -19473   -19425   -19373   -19325   -19286   -19251 
  -19221   -19198   -19180   -19167   -19159   -19159   -19167   -19184 
  -19211   -19246   -19287   -19332   -19376   -19422   -19471   -19518 
  -19562   -19606   -19650   -19692   -19731   -19768   -19800   -19830 
  -19857   -19877   -19892   -19900   -19903   -19900   -19892   -19880 
  -19862   -19839   -19813   -19784   -19746   -19704   -19652   -19596 
  -19537   -19473   -19408   -19348   -19291   -19232   -19172   -19114 
  -19057   -19003   -18948   -18894   -18841   -18789   -18739   -18693 
  -18648   -18609   -18570   -18535   -18509   -18488   -18473   -18462 
  -18457   -18457   -18458   -18461   -18470   -18480   -18489   -18500 
  -18517   -18535   -18555   -18584   -18613   -18645   -18688   -18729 
  -18766   -18808   -18856   -18901   -18945   -18995   -19043   -19083 
  -19125   -19168   -19210   -19251   -19291   -19329   -19367   -19399 
  -19429   -19458   -19489   -19523   -19554   -19586   -19622   -19657 
  -19689   -19727   -19766   -19807   -19849   -19892   -19931   -19965 
  -19998   -20027   -20048   -20066   -20078   -20081   -20077   -20066 
  -20051   -20028   -20000   -19969   -19938   -19908   -19878   -19847 
  -19822   -19805   -19796   -19796   -19800   -19811   -19835   -19866 
  -19903   -19944   -19994   -20051   -20111   -20173   -20241   -20316 
  -20393   -20474   -20557   -20644   -20729   -20811   -20888   -20953 
  -21009   -21060   -21097   -21127   -21147   -21157   -21157   -21149 
  -21131   -21109   -21081   -21043   -21004   -20961   -20916   -20873 
  -20830   -20788   -20745   -20709   -20679   -20656   -20632   -20610 
  -20595   -20583   -20569   -20557   -20548   -20538   -20530   -20525 
  -20524   -20524   -20526   -20526   -20524   -20520   -20514   -20506 
  -20494   -20482   -20472   -20464   -20455   -20451   -20449   -20444 
  -20434   -20424   -20409   -20390   -20366   -20336   -20302   -20263 
  -20218   -20173   -20125   -20074   -20021   -19970   -19919   -19862 
  -19805   -19751   -19701   -19656   -19616   -19583   -19554   -19527 
  -19503   -19480   -19460   -19438   -19417   -19395   -19373   -19349 
  -19325   -19302   -19276   -19255   -19238   -19225   -19217   -19219 
  -19230   -19248   -19278   -19318   -19361   -19408   -19461   -19510 
  -19554   -19597   -19635   -19668   -19697   -19724   -19746   -19765 
  -19782   -19792   -19797   -19801   -19797   -19782   -19764   -19742 
  -19715   -19681   -19643   -19602   -19552   -19492   -19429   -19361 
  -19290   -19219   -19153   -19087   -19020   -18958   -18901   -18847 
  -18796   -18750   -18709   -18678   -18657   -18638   -18620   -18609 
  -18600   -18589   -18586   -18584   -18580   -18578   -18578   -18578 
  -18574   -18567   -18566   -18567   -18566   -18566   -18573   -18580 
  -18586   -18594   -18604   -18616   -18628   -18640   -18654   -18666 
  -18674   -18678   -18681   -18679   -18665   -18642   -18617   -18593 
  -18562   -18523   -18482   -18446   -18411   -18370   -18327   -18291 
  -18262   -18229   -18191   -18160   -18122   -18083   -18052   -18014 
  -17972   -17937   -17896   -17849   -17807   -17763   -17716   -17666 
  -17610   -17555   -17502   -17448   -17397   -17351   -17305   -17265 
  -17232   -17204   -17181   -17163   -17149   -17136   -17130   -17131 
  -17138   -17145   -17162   -17193   -17230   -17271   -17320   -17374 
  -17432   -17493   -17556   -17624   -17691   -17760   -17833   -17905 
  -17977   -18050   -18120   -18186   -18247   -18304   -18357   -18404 
  -18445   -18480   -18512   -18540   -18562   -18582   -18601   -18616 
  -18631   -18647   -18659   -18675   -18693   -18709   -18727   -18743 
  -18751   -18754   -18752   -18742   -18723   -18704   -18678   -18648 
  -18617   -18584   -18550   -18515   -18481   -18453   -18427   -18408 
  -18396   -18387   -18382   -18392   -18412   -18438   -18469   -18512 
  -18565   -18620   -18684   -18751   -18820   -18890   -18962   -19040 
  -19121   -19209   -19300   -19392   -19483   -19572   -19654   -19731 
  -19801   -19862   -19915   -19959   -19993   -20017   -20032   -20036 
  -20031   -20017   -19993   -19961   -19919   -19870   -19819   -19761 
  -19701   -19645   -19588   -19537   -19489   -19446   -19404   -19364 
  -19327   -19294   -19264   -19244   -19232   -19229   -19236   -19248 
  -19265   -19284   -19309   -19332   -19350   -19368   -19388   -19403 
  -19414   -19423   -19431   -19440   -19446   -19450   -19452   -19450 
  -19448   -19446   -19440   -19427   -19423   -19423   -19414   -19411 
  -19422   -19427   -19430   -19448   -19461   -19469   -19481   -19484 
  -19484   -19489   -19484   -19467   -19450   -19442   -19434   -19410 
  -19402   -19413   -19399   -19390   -19408   -19426   -19444   -19464 
  -19492   -19542   -19588   -19624   -19680   -19738   -19786   -19840 
  -19897   -19950   -20004   -20054   -20098   -20150   -20206   -20243 
  -20258   -20277   -20320   -20340   -20326   -20341   -20352   -20322 
  -20298   -20278   -20233   -20179   -20116   -20052   -19982   -19899 
  -19820   -19739   -19656   -19576   -19498   -19415   -19329   -19248 
  -19176   -19097   -19016   -18955   -18893   -18823   -18769   -18725 
  -18675   -18640   -18623   -18601   -18584   -18582   -18586   -18586 
  -18594   -18602   -18608   -18620   -18636   -18652   -18674   -18700 
  -18732   -18763   -18794   -18829   -18863   -18901   -18947   -18993 
  -19043   -19094   -19147   -19203   -19257   -19314   -19373   -19427 
  -19477   -19527   -19568   -19604   -19638   -19660   -19672   -19678 
  -19681   -19675   -19666   -19652   -19634   -19612   -19591   -19566 
  -19537   -19511   -19489   -19465   -19442   -19426   -19413   -19399 
  -19390   -19386   -19384   -19384   -19386   -19390   -19398   -19407 
  -19419   -19438   -19458   -19480   -19510   -19541   -19572   -19609 
  -19649   -19688   -19738   -19789   -19840   -19893   -19947   -19997 
  -20045   -20089   -20131   -20170   -20202   -20237   -20271   -20305 
  -20337   -20368   -20397   -20424   -20444   -20460   -20472   -20479 
  -20483   -20480   -20474   -20464   -20451   -20434   -20416   -20395 
  -20378   -20363   -20347   -20336   -20332   -20326   -20328   -20339 
  -20351   -20370   -20398   -20428   -20457   -20493   -20533   -20574 
  -20617   -20663   -20711   -20761   -20810   -20860   -20904   -20949 
  -20993   -21034   -21074   -21114   -21142   -21161   -21178   -21182 
  -21176   -21161   -21141   -21108   -21070   -21026   -20974   -20915 
  -20850   -20780   -20702   -20622   -20541   -20455   -20370   -20289 
  -20209   -20134   -20075   -20023   -19974   -19938   -19915   -19899 
  -19893   -19897   -19909   -19924   -19944   -19971   -20000   -20029 
  -20061   -20093   -20123   -20151   -20181   -20208   -20233   -20258 
  -20275   -20293   -20306   -20314   -20317   -20317   -20314   -20308 
  -20299   -20293   -20286   -20285   -20283   -20289   -20297   -20306 
  -20318   -20336   -20360   -20387   -20421   -20459   -20504   -20556 
  -20611   -20675   -20742   -20810   -20877   -20945   -21007   -21068 
  -21128   -21186   -21243   -21298   -21352   -21401   -21445   -21482 
  -21508   -21525   -21534   -21532   -21520   -21498   -21473   -21440 
  -21401   -21361   -21319   -21274   -21231   -21190   -21150   -21114 
  -21078   -21043   -21011   -20981   -20946   -20910   -20875   -20834 
  -20791   -20745   -20694   -20634   -20570   -20503   -20429   -20358 
  -20283   -20208   -20137   -20067   -19992   -19920   -19850   -19780 
  -19711   -19647   -19586   -19527   -19473   -19425   -19381   -19342 
  -19307   -19276   -19252   -19233   -19218   -19214   -19218   -19233 
  -19256   -19288   -19332   -19384   -19448   -19519   -19596   -19678 
  -19765   -19850   -19936   -20023   -20109   -20191   -20270   -20345 
  -20417   -20484   -20549   -20607   -20665   -20727   -20787   -20845 
  -20906   -20965   -21020   -21072   -21123   -21172   -21211   -21244 
  -21274   -21298   -21317   -21331   -21339   -21347   -21348   -21342 
  -21335   -21321   -21304   -21286   -21269   -21250   -21235   -21222 
  -21207   -21199   -21195   -21193   -21200   -21208   -21216   -21231 
  -21250   -21270   -21290   -21316   -21343   -21369   -21393   -21419 
  -21444   -21470   -21494   -21516   -21534   -21551   -21562   -21568 
  -21570   -21564   -21554   -21540   -21516   -21485   -21452   -21413 
  -21363   -21308   -21247   -21178   -21107   -21028   -20945   -20860 
  -20771   -20679   -20595   -20514   -20436   -20366   -20299   -20239 
  -20190   -20151   -20120   -20097   -20083   -20082   -20088   -20100 
  -20120   -20146   -20169   -20191   -20220   -20247   -20268   -20286 
  -20304   -20321   -20335   -20345   -20358   -20367   -20375   -20382 
  -20380   -20374   -20367   -20359   -20344   -20328   -20313   -20299 
  -20283   -20274   -20274   -20274   -20277   -20291   -20313   -20339 
  -20374   -20416   -20463   -20515   -20572   -20636   -20702   -20768 
  -20833   -20892   -20947   -20995   -21035   -21069   -21093   -21109 
  -21118   -21120   -21112   -21099   -21085   -21064   -21039   -21018 
