Origin Time       2016/04/16 01:25:00
Lat.              32.753
Long.             130.762
Depth. (km)       12
Mag.              7.3
Station Code      SMN020
Station Lat.      35.5347
Station Long.     133.1652
Station Height(m) 6
Record Time       2016/04/16 01:26:57
Sampling Freq(Hz) 100Hz
Duration Time(s)  70
Dir.              E-W
Scale Factor      7845(gal)/8223790
Max. Acc. (gal)   2.981
Last Correction   2016/04/16 01:26:58
Memo.             
[...]
   -7697    -7701    -7709    -7720    -7746    -7780    -7817    -7865 
   -7919    -7974    -8039    -8109    -8182    -8253    -8326    -8398 
   -8464    -8527    -8579    -8625    -8667    -8695    -8711    -8721 
   -8727    -8729    -8718    -8695    -8672    -8645    -8614    -8579 
   -8545    -8506    -8473    -8447    -8426    -8407    -8403    -8407 
   -8413    -8424    -8446    -8476    -8510    -8548    -8584    -8623 
   -8658    -8691    -8719    -8742    -8756    -8761    -8757    -8749 
   -8738    -8723    -8707    -8687    -8664    -8641    -8615    -8584 
   -8559    -8533    -8502    -8474    -8454    -8434    -8418    -8410 
   -8401    -8394    -8391    -8391    -8395    -8407    -8424    -8437 
   -8454    -8472    -8490    -8506    -8517    -8527    -8536    -8540 
   -8545    -8543    -8538    -8533    -8522    -8507    -8490    -8469 
   -8441    -8413    -8385    -8359    -8332    -8310    -8294    -8279 
   -8268    -8266    -8271    -8280    -8295    -8322    -8357    -8395 
   -8436    -8480    -8532    -8588    -8642    -8699    -8757    -8815 
   -8866    -8911    -8953    -8986    -9013    -9038    -9059    -9076 
   -9090    -9094    -9092    -9084    -9069    -9050    -9031    -9007 
   -8976    -8942    -8904    -8865    -8826    -8787    -8758    -8737 
   -8721    -8716    -8723    -8737    -8749    -8765    -8785    -8797 
   -8810    -8823    -8829    -8824    -8820    -8808    -8792    -8772 
   -8743    -8710    -8681    -8650    -8615    -8579    -8543    -8513 
   -8483    -8451    -8426    -8398    -8367    -8336    -8305    -8270 
   -8237    -8208    -8182    -8163    -8148    -8136    -8122    -8117 
   -8127    -8136    -8124    -8137    -8205    -8224    -8167    -8191 
   -8267    -8241    -8215    -8243    -8215    -8208    -8230    -8208 
   -8210    -8235    -8221    -8221    -8241    -8248    -8260    -8270 
   -8274    -8293    -8311    -8316    -8328    -8352    -8370    -8384 
   -8408    -8424    -8433    -8444    -8451    -8454    -8457    -8449 
   -8437    -8428    -8413    -8385    -8356    -8321    -8278    -8228 
   -8175    -8113    -8044    -7969    -7892    -7812    -7730    -7646 
   -7566    -7489    -7415    -7345    -7280    -7221    -7169    -7127 
   -7094    -7068    -7051    -7045    -7048    -7056    -7072    -7094 
   -7126    -7155    -7183    -7221    -7258    -7291    -7325    -7364 
   -7399    -7430    -7458    -7487    -7507    -7520    -7531    -7538 
   -7538    -7535    -7533    -7527    -7520    -7514    -7506    -7496 
   -7482    -7470    -7458    -7441    -7422    -7402    -7376    -7346 
   -7321    -7292    -7268    -7250    -7231    -7218    -7213    -7206 
   -7203    -7203    -7206    -7210    -7213    -7215    -7221    -7230 
   -7238    -7252    -7268    -7284    -7302    -7330    -7375    -7429 
   -7476    -7531    -7612    -7695    -7780    -7875    -7969    -8058 
   -8144    -8235    -8318    -8391    -8461    -8527    -8587    -8635 
   -8676    -8712    -8742    -8764    -8783    -8802    -8819    -8835 
   -8849    -8863    -8880    -8896    -8910    -8918    -8920    -8924 
   -8922    -8910    -8893    -8873    -8849    -8824    -8802    -8779 
   -8762    -8753    -8746    -8748    -8754    -8764    -8777    -8792 
   -8810    -8833    -8854    -8877    -8903    -8927    -8951    -8977 
   -9000    -9018    -9035    -9049    -9061    -9069    -9071    -9071 
   -9066    -9055    -9042    -9026    -9005    -8981    -8954    -8926 
   -8895    -8857    -8823    -8789    -8750    -8714    -8680    -8646 
   -8618    -8598    -8579    -8567    -8567    -8569    -8581    -8604 
   -8626    -8653    -8688    -8723    -8757    -8793    -8830    -8866 
   -8899    -8929    -8959    -8984    -9005    -9026    -9043    -9055 
   -9069    -9081    -9092    -9107    -9121    -9134    -9143    -9151 
   -9158    -9167    -9174    -9178    -9180    -9184    -9180    -9170 
   -9166    -9159    -9154    -9157    -9165    -9178    -9200    -9221 
   -9246    -9279    -9309    -9335    -9352    -9359    -9363    -9359 
   -9346    -9321    -9292    -9259    -9221    -9175    -9131    -9084 
   -9034    -8984    -8937    -8892    -8847    -8804    -8762    -8721 
   -8683    -8646    -8614    -8583    -8553    -8529    -8506    -8484 
   -8461    -8440    -8418    -8394    -8363    -8326    -8286    -8239 
   -8191    -8141    -8090    -8035    -7978    -7923    -7867    -7808 
   -7750    -7695    -7639    -7584    -7528    -7468    -7411    -7362 
   -7317    -7275    -7242    -7215    -7190    -7169    -7150    -7132 
   -7122    -7111    -7107    -7110    -7113    -7118    -7130    -7148 
   -7171    -7203    -7242    -7284    -7331    -7388    -7446    -7500 
   -7553    -7605    -7649    -7684    -7713    -7738    -7753    -7761 
   -7771    -7782    -7792    -7804    -7815    -7825    -7838    -7848 
   -7858    -7867    -7877    -7889    -7903    -7913    -7920    -7928 
   -7933    -7936    -7942    -7943    -7946    -7951    -7959    -7971 
   -7996    -8023    -8056    -8098    -8144    -8194    -8248    -8302 
   -8364    -8428    -8486    -8540    -8594    -8641    -8687    -8737 
   -8785    -8834    -8884    -8937    -8988    -9035    -9077    -9115 
   -9144    -9167    -9180    -9184    -9178    -9169    -9150    -9123 
   -9094    -9062    -9023    -8981    -8934    -8883    -8827    -8761 
   -8688    -8617    -8533    -8447    -8360    -8264    -8162    -8056 
   -7952    -7844    -7735    -7628    -7526    -7422    -7323    -7236 
   -7155    -7083    -7025    -6976    -6936    -6905    -6885    -6870 
   -6864    -6870    -6883    -6906    -6936    -6972    -7014    -7063 
   -7113    -7167    -7219    -7268    -7319    -7368    -7410    -7452 
   -7487    -7515    -7539    -7560    -7572    -7578    -7581    -7592 
   -7599    -7607    -7623    -7639    -7655    -7674    -7693    -7712 
   -7731    -7750    -7776    -7799    -7825    -7862    -7902    -7938 
   -7974    -8019    -8059    -8094    -8125    -8156    -8187    -8213 
   -8235    -8251    -8264    -8279    -8291    -8299    -8305    -8309 
   -8311    -8310    -8306    -8306    -8309    -8311    -8321    -8340 
   -8361    -8387    -8418    -8457    -8496    -8538    -8587    -8638 
   -8694    -8750    -8804    -8863    -8931    -8999    -9070    -9147 
   -9223    -9298    -9378    -9454    -9528    -9602    -9672    -9736 
   -9790    -9840    -9886    -9923    -9950    -9972    -9988   -10000 
  -10007   -10007   -10003    -9998    -9988    -9973    -9953    -9930 
   -9906    -9873    -9837    -9798    -9755    -9711    -9664    -9610 
   -9558    -9505    -9448    -9390    -9333    -9275    -9220    -9169 
   -9117    -9069    -9030    -8991    -8950    -8910    -8872    -8830 
   -8787    -8746    -8702    -8653    -8602    -8550    -8502    -8453 
   -8403    -8359    -8319    -8286    -8262    -8241    -8235    -8240 
   -8248    -8266    -8294    -8330    -8370    -8417    -8469    -8529 
   -8592    -8657    -8725    -8792    -8863    -8935    -9001    -9058 
   -9107    -9147    -9184    -9207    -9224    -9239    -9250    -9255 
   -9261    -9263    -9262    -9251    -9238    -9220    -9200    -9171 
   -9137    -9103    -9070    -9035    -8997    -8958    -8919    -8876 
   -8830    -8785    -8735    -8680    -8625    -8567    -8505    -8441 
   -8380    -8321    -8264    -8214    -8176    -8144    -8121    -8114 
   -8122    -8137    -8160    -8195    -8235    -8276    -8326    -8376 
   -8424    -8474    -8522    -8565    -8604    -8638    -8665    -8685 
   -8702    -8718    -8731    -8738    -8743    -8746    -8742    -8737 
   -8726    -8710    -8694    -8675    -8652    -8629    -8604    -8586 
   -8571    -8557    -8545    -8536    -8527    -8523    -8520    -8517 
   -8513    -8510    -8503    -8490    -8473    -8447    -8418    -8380 
   -8334    -8289    -8237    -8181    -8121    -8062    -7998    -7931 
   -7862    -7792    -7720    -7647    -7574    -7506    -7442    -7378 
   -7317    -7253    -7190    -7123    -7056    -6985    -6913    -6840 
   -6764    -6691    -6621    -6556    -6497    -6440    -6393    -6356 
   -6323    -6292    -6270    -6257    -6246    -6245    -6250    -6257 
   -6272    -6295    -6323    -6359    -6408    -6462    -6523    -6594 
   -6669    -6744    -6825    -6903    -6983    -7063    -7137    -7203 
   -7267    -7323    -7372    -7408    -7437    -7457    -7466    -7458 
   -7441    -7420    -7391    -7360    -7330    -7300    -7272    -7253 
   -7238    -7225    -7221    -7225    -7234    -7249    -7271    -7300 
   -7334    -7371    -7419    -7477    -7539    -7614    -7700    -7785 
   -7877    -7974    -8063    -8147    -8230    -8310    -8390    -8469 
   -8543    -8618    -8698    -8777    -8858    -8946    -9036    -9127 
   -9215    -9302    -9391    -9482    -9570    -9653    -9734    -9811 
   -9883    -9953   -10018   -10076   -10133   -10187   -10238   -10277 
  -10312   -10346   -10361   -10365   -10374   -10378   -10372   -10350 
  -10315   -10284   -10250   -10207   -10162   -10119   -10076   -10031 
   -9987    -9944    -9894    -9846    -9804    -9763    -9730    -9709 
   -9691    -9682    -9680    -9680    -9688    -9701    -9715    -9736 
   -9759    -9778    -9801    -9826    -9850    -9877    -9906    -9934 
   -9961    -9991   -10018   -10039   -10060   -10081   -10098   -10111 
  -10127   -10143   -10158   -10174   -10195   -10215   -10239   -10270 
  -10301   -10335   -10381   -10420   -10446   -10488   -10535   -10573 
  -10617   -10666   -10708   -10755   -10802   -10833   -10871   -10912 
  -10936   -10956   -10980   -10989   -10993   -10998   -10990   -10975 
  -10962   -10944   -10926   -10906   -10883   -10863   -10843   -10820 
  -10809   -10801   -10782   -10777   -10783   -10775   -10768   -10777 
  -10783   -10779   -10773   -10774   -10781   -10777   -10760   -10748 
  -10744   -10729   -10702   -10677   -10659   -10643   -10620   -10596 
  -10580   -10565   -10532   -10504   -10482   -10458   -10430   -10401 
  -10368   -10324   -10309   -10300   -10245   -10185   -10161   -10134 
  -10106   -10091   -10072   -10042   -10031   -10053   -10057   -10049 
  -10075   -10093   -10088   -10093   -10100   -10091   -10073   -10052 
  -10029   -10000    -9969    -9945    -9921    -9894    -9876    -9865 
   -9846    -9828    -9814    -9796    -9771    -9744    -9705    -9659 
   -9605    -9540    -9472    -9406    -9337    -9269    -9202    -9142 
   -9088    -9038    -8989    -8941    -8895    -8845    -8789    -8737 
   -8684    -8629    -8577    -8533    -8490    -8454    -8428    -8408 
   -8395    -8394    -8401    -8411    -8428    -8444    -8461    -8480 
   -8496    -8515    -8537    -8559    -8579    -8607    -8637    -8662 
   -8694    -8727    -8758    -8791    -8826    -8854    -8876    -8893 
   -8905    -8918    -8926    -8931    -8943    -8958    -8972    -8991 
   -9007    -9018    -9028    -9038    -9046    -9055    -9067    -9080 
   -9088    -9099    -9113    -9124    -9130    -9135    -9144    -9151 
   -9158    -9167    -9175    -9184    -9194    -9201    -9207    -9212 
   -9215    -9213    -9211    -9207    -9201    -9196    -9190    -9178 
   -9158    -9132    -9109    -9086    -9062    -9046    -9032    -9019 
   -9009    -9007    -9007    -9012    -9023    -9035    -9050    -9067 
   -9088    -9108    -9130    -9151    -9174    -9202    -9231    -9259 
   -9286    -9312    -9335    -9355    -9373    -9388    -9405    -9420 
   -9435    -9454    -9477    -9501    -9532    -9570    -9617    -9676 
   -9747    -9810    -9873    -9958   -10053   -10121   -10195   -10296 
  -10378   -10440   -10525   -10611   -10685   -10758   -10833   -10924 
  -11006   -11064   -11107   -11165   -11249   -11302   -11311   -11341 
  -11376   -11377   -11377   -11375   -11362   -11360   -11333   -11294 
  -11286   -11267   -11219   -11190   -11164   -11117   -11075   -11041 
  -10998   -10947   -10890   -10829   -10781   -10767   -10728   -10601 
  -10504   -10536   -10508   -10370   -10339   -10347   -10268   -10237 
  -10258   -10250   -10219   -10199   -10228   -10250   -10233   -10246 
  -10270   -10268   -10274   -10315   -10332   -10280   -10257   -10304 
  -10291   -10222   -10200   -10187   -10127   -10077   -10039    -9972 
   -9896    -9850    -9794    -9705    -9633    -9571    -9487    -9409 
   -9332    -9246    -9158    -9062    -8966    -8874    -8776    -8672 
   -8567    -8459    -8351    -8241    -8131    -8020    -7911    -7808 
   -7707    -7609    -7519    -7430    -7342    -7260    -7176    -7091 
   -7009    -6928    -6851    -6777    -6698    -6623    -6556    -6493 
   -6430    -6376    -6328    -6284    -6247    -6219    -6191    -6164 
   -6143    -6134    -6126    -6119    -6115    -6120    -6122    -6120 
   -6120    -6120    -6115    -6106    -6097    -6085    -6066    -6049 
   -6034    -6015    -5995    -5980    -5967    -5958    -5954    -5953 
   -5957    -5965    -5980    -5998    -6021    -6046    -6075    -6107 
   -6143    -6183    -6227    -6274    -6330    -6389    -6454    -6527 
   -6601    -6673    -6750    -6826    -6899    -6971    -7042    -7107 
   -7168    -7223    -7275    -7319    -7352    -7378    -7402    -7410 
   -7410    -7406    -7395    -7376    -7354    -7329    -7295    -7261 
   -7226    -7186    -7141    -7091    -7033    -6972    -6905    -6828 
   -6747    -6658    -6561    -6462    -6361    -6251    -6145    -6038 
   -5933    -5836    -5744    -5660    -5587    -5524    -5471    -5428 
   -5395    -5371    -5360    -5363    -5371    -5390    -5424    -5466 
   -5514    -5572    -5633    -5697    -5768    -5845    -5926    -6006 
   -6092    -6181    -6274    -6367    -6457    -6546    -6637    -6727 
   -6809    -6886    -6961    -7028    -7083    -7130    -7168    -7198 
   -7217    -7229    -7241    -7245    -7241    -7236    -7233    -7223 
   -7215    -7207    -7196    -7187    -7177    -7169    -7159    -7145 
   -7134    -7126    -7119    -7117    -7118    -7125    -7136    -7150 
   -7167    -7187    -7213    -7240    -7268    -7300    -7333    -7364 
   -7398    -7426    -7450    -7477    -7506    -7530    -7553    -7578 
   -7605    -7627    -7646    -7662    -7672    -7676    -7678    -7677 
   -7674    -7670    -7666    -7657    -7647    -7638    -7624    -7611 
   -7604    -7600    -7600    -7609    -7619    -7635    -7655    -7677 
   -7701    -7732    -7767    -7805    -7844    -7886    -7925    -7962 
   -7993    -8014    -8031    -8040    -8044    -8040    -8033    -8019 
   -7996    -7971    -7940    -7906    -7873    -7838    -7803    -7769 
   -7735    -7708    -7685    -7662    -7636    -7618    -7596    -7574 
   -7557    -7542    -7531    -7523    -7515    -7508    -7507    -7507 
   -7501    -7499    -7497    -7493    -7491    -7485    -7476    -7461 
   -7444    -7423    -7396    -7364    -7329    -7290    -7250    -7207 
   -7160    -7113    -7061    -7011    -6966    -6919    -6878    -6844 
   -6821    -6809    -6808    -6820    -6843    -6874    -6914    -6963 
   -7018    -7075    -7136    -7200    -7261    -7318    -7369    -7418 
   -7462    -7506    -7543    -7573    -7599    -7618    -7628    -7632 
   -7627    -7618    -7607    -7593    -7577    -7555    -7531    -7504 
   -7474    -7438    -7396    -7353    -7304    -7252    -7198    -7144 
   -7084    -7025    -6968    -6916    -6867    -6822    -6782    -6747 
   -6711    -6682    -6655    -6621    -6586    -6554    -6521    -6489 
   -6455    -6420    -6389    -6365    -6346    -6334    -6326    -6326 
   -6334    -6349    -6366    -6388    -6413    -6440    -6474    -6511 
   -6547    -6585    -6627    -6675    -6721    -6767    -6813    -6858 
   -6898    -6933    -6966    -6994    -7020    -7041    -7059    -7069 
   -7078    -7079    -7078    -7075    -7068    -7061    -7055    -7045 
   -7040    -7038    -7032    -7028    -7030    -7030    -7037    -7052 
   -7063    -7078    -7099    -7121    -7140    -7159    -7177    -7192 
   -7203    -7214    -7226    -7234    -7236    -7245    -7258    -7269 
   -7284    -7304    -7326    -7352    -7385    -7426    -7476    -7528 
   -7584    -7646    -7709    -7776    -7843    -7912    -7979    -8047 
   -8110    -8170    -8226    -8279    -8324    -8363    -8401    -8434 
   -8460    -8487    -8507    -8520    -8532    -8538    -8542    -8543 
   -8542    -8545    -8545    -8548    -8553    -8564    -8576    -8595 
   -8612    -8635    -8661    -8688    -8721    -8752    -8783    -8815 
   -8847    -8877    -8903    -8926    -8945    -8955    -8961    -8961 
   -8957    -8950    -8935    -8914    -8891    -8862    -8830    -8796 
   -8757    -8721    -8687    -8654    -8626    -8606    -8594    -8587 
   -8588    -8598    -8615    -8638    -8667    -8700    -8738    -8781 
   -8827    -8874    -8923    -8972    -9023    -9076    -9127    -9177 
   -9220    -9261    -9297    -9327    -9346    -9363    -9370    -9371 
   -9370    -9360    -9344    -9329    -9310    -9286    -9266    -9246 
   -9224    -9204    -9188    -9175    -9171    -9173    -9178    -9185 
   -9200    -9221    -9246    -9269    -9297    -9331    -9363    -9398 
   -9437    -9471    -9506    -9545    -9582    -9616    -9647    -9672 
   -9694    -9711    -9724    -9734    -9742    -9744    -9742    -9738 
   -9733    -9728    -9718    -9709    -9703    -9697    -9684    -9675 
   -9668    -9660    -9647    -9632    -9617    -9602    -9585    -9562 
   -9537    -9513    -9483    -9450    -9420    -9386    -9352    -9320 
   -9288    -9254    -9224    -9193    -9162    -9136    -9115    -9096 
   -9082    -9076    -9069    -9070    -9078    -9089    -9108    -9132 
   -9157    -9185    -9213    -9246    -9283    -9319    -9351    -9383 
   -9414    -9441    -9464    -9483    -9501    -9518    -9532    -9541 
   -9551    -9556    -9555    -9552    -9548    -9539    -9530    -9522 
   -9510    -9497    -9490    -9482    -9468    -9454    -9444    -9425 
   -9401    -9374    -9343    -9310    -9274    -9235    -9196    -9159 
   -9124    -9089    -9053    -9019    -8991    -8968    -8942    -8915 
   -8892    -8868    -8838    -8807    -8769    -8721    -8680    -8641 
   -8590    -8538    -8487    -8434    -8383    -8328    -8274    -8226 
   -8181    -8136    -8102    -8071    -8051    -8040    -8032    -8032 
   -8040    -8051    -8066    -8085    -8105    -8131    -8158    -8187 
   -8229    -8274    -8322    -8379    -8440    -8500    -8567    -8634 
   -8700    -8768    -8833    -8895    -8955    -9018    -9080    -9140 
   -9197    -9254    -9315    -9375    -9429    -9483    -9537    -9582 
   -9617    -9653    -9688    -9714    -9733    -9751    -9767    -9778 
   -9788    -9796    -9799    -9806    -9814    -9815    -9813    -9817 
   -9817    -9814    -9813    -9810    -9809    -9810    -9807    -9806 
   -9811    -9821    -9832    -9845    -9863    -9886    -9909    -9934 
   -9968   -10007   -10049   -10093   -10141   -10196   -10255   -10311 
  -10362   -10426   -10500   -10562   -10611   -10659   -10705   -10751 
  -10801   -10840   -10860   -10874   -10885   -10883   -10874   -10862 
  -10844   -10813   -10781   -10748   -10697   -10635   -10588   -10531 
  -10458   -10388   -10318   -10246   -10180   -10106   -10029    -9963 
   -9894    -9825    -9768    -9710    -9653    -9612    -9572    -9536 
   -9509    -9487    -9466    -9450    -9439    -9433    -9435    -9436 
