Origin Time       2016/04/16 01:25:00
Lat.              32.753
Long.             130.762
Depth. (km)       12
Mag.              7.3
Station Code      SMN009
Station Lat.      35.0112
Station Long.     132.2227
Station Height(m) 20
Record Time       2016/04/16 01:25:53
Sampling Freq(Hz) 100Hz
Duration Time(s)  98
Dir.              E-W
Scale Factor      7845(gal)/8223790
Max. Acc. (gal)   6.916
Last Correction   2016/04/16 01:25:53
Memo.             
[...]
   11635    11692    11821    12025    12317    12590    12731    12779 
   12870    13066    13316    13493    13485    13296    13051    12876 
   12772    12653    12461    12197    11898    11635    11479    11472 
   11628    11907    12186    12356    12437    12533    12679    12822 
   12912    12931    12895    12852    12874    12985    13117    13225 
   13319    13331    13146    12796    12444    12186    12002    11827 
   11654    11564    11645    11894    12221    12492    12626    12629 
   12534    12359    12154    12017    12008    12101    12241    12359 
   12424    12490    12630    12789    12798    12552    12114    11692 
   11523    11701    12110    12505    12690    12637    12479    12395 
   12526    12827    13088    13127    12935    12631    12348    12158 
   12063    12031    12031    12073    12162    12248    12274    12293 
   12449    12825    13328    13726    13794    13489    12954    12395 
   11979    11803    11840    11954    12035    12101    12225    12447 
   12742    12999    13050    12858    12579    12366    12243    12177 
   12155    12194    12352    12650    12966    13085    12872    12367 
   11774    11308    11041    10987    11160    11495    11897    12316 
   12684    12918    12982    12908    12764    12614    12510    12447 
   12386    12345    12398    12526    12600    12503    12195    11770 
   11439    11364    11562    11944    12414    12895    13284    13502 
   13525    13333    12942    12460    12037    11770    11682    11766 
   12000    12286    12476    12492    12330    12002    11562    11171 
   10974    10986    11164    11435    11729    12089    12588    13163 
   13635    13867    13859    13703    13487    13244    12966    12636 
   12251    11838    11479    11250    11151    11101    11020    10912 
   10926    11222    11794    12478    13062    13417    13591    13761 
   14023    14272    14314    14038    13494    12853    12280    11843 
   11507    11244    11107    11133    11241    11313    11299    11233 
   11171    11152    11256    11587    12147    12799    13408    13907 
   14218    14227    13907    13327    12619    11978    11526    11259 
   11164    11245    11461    11720    11919    11973    11886    11769 
   11774    11969    12272    12540    12704    12825    12996    13201 
   13325    13302    13146    12900    12664    12567    12631    12726 
   12669    12415    12094    11835    11662    11562    11518    11500 
   11507    11622    11932    12436    13076    13721    14145    14207 
   14002    13683    13342    13032    12764    12509    12313    12280 
   12393    12487    12455    12353    12299    12325    12361    12297 
   12110    11959    12012    12262    12563    12779    12822    12684 
   12460    12272    12178    12158    12121    11989    11812    11745 
   11838    11963    11966    11828    11649    11520    11475    11541 
   11793    12312    13046    13770    14206    14222    13883    13344 
   12749    12191    11769    11570    11635    11947    12445    12999 
   13451    13671    13579    13165    12503    11830    11445    11437 
   11647    11911    12160    12386    12565    12680    12760    12861 
   13004    13128    13184    13188    13163    13108    12992    12822 
   12642    12503    12417    12330    12166    11900    11596    11368 
   11303    11418    11684    12056    12460    12818    13073    13211 
   13266    13294    13355    13437    13446    13293    13004    12664 
   12366    12205    12174    12168    12128    12071    12013    11944 
   11855    11746    11616    11521    11551    11713    11950    12190 
   12349    12410    12459    12600    12857    13134    13312    13346 
   13238    13050    12845    12629    12376    12097    11797    11506 
   11288    11199    11294    11605    12055    12476    12718    12745 
   12631    12474    12353    12349    12501    12741    12935    13004 
   12954    12802    12536    12164    11732    11344    11145    11223 
   11485    11782    12059    12357    12727    13146    13482    13609 
   13528    13351    13180    13001    12754    12461    12240    12185 
   12271    12405    12517    12586    12617    12617    12546    12382 
   12188    12073    12098    12245    12413    12484    12406    12185 
   11890    11641    11534    11618    11854    12135    12341    12449 
   12514    12569    12600    12599    12584    12571    12564    12553 
   12538    12525    12515    12474    12376    12249    12118    11988 
   11908    11955    12102    12245    12357    12480    12622    12768 
   12904    12984    12933    12694    12279    11784    11369    11183 
   11263    11518    11857    12220    12526    12729    12854    12912 
   12866    12713    12553    12491    12509    12479    12310    12016 
   11678    11383    11153    10949    10778    10712    10805    11059 
   11438    11840    12148    12287    12231    12029    11808    11681 
   11696    11807    11921    12006    12071    12114    12106    12005 
   11803    11573    11430    11426    11519    11668    11885    12202 
   12594    12939    13088    13005    12787    12548    12359    12193 
   11973    11709    11550    11600    11800    12019    12175    12220 
   12141    11983    11838    11812    11925    12085    12216    12339 
   12496    12671    12807    12892    12927    12912    12891    12888 
   12877    12834    12804    12853    12991    13177    13366    13463 
   13347    13019    12645    12422    12467    12753    13135    13435 
   13574    13610    13670    13787    13855    13799    13701    13660 
   13686    13736    13755    13662    13463    13247    13022    12715 
   12303    11848    11481    11342    11488    11843    12276    12707 
   13088    13392    13616    13729    13691    13541    13380    13223 
   13014    12706    12287    11805    11365    11070    10959    10999 
   11103    11188    11229    11234    11218    11225    11327    11556 
   11863    12190    12488    12691    12729    12584    12328    12085 
   11937    11919    12010    12140    12258    12370    12482    12544 
   12471    12226    11904    11689    11711    11969    12347    12699 
   12915    12962    12885    12715    12464    12182    11961    11871 
   11946    12191    12560    12901    13082    13109    13065    13012 
   12982    12953    12855    12687    12557    12617    12941    13454 
   13975    14295    14283    13992    13581    13150    12756    12457 
   12313    12357    12557    12831    13096    13320    13473    13522 
   13448    13281    13093    12941    12852    12818    12777    12688 
   12588    12519    12449    12317    12145    12008    11920    11804 
   11537    11079    10566    10215    10107    10203    10455    10828 
   11229    11507    11561    11454    11377    11488    11770    12054 
   12178    12093    11850    11550    11296    11156    11152    11223 
   11267    11250    11259    11377    11580    11762    11838    11794 
   11732    11745    11800    11823    11823    11850    11885    11885 
   11834    11743    11658    11632    11678    11781    11914    12029 
   12069    11986    11817    11691    11743    12010    12395    12762 
   13018    13113    13059    12906    12704    12537    12507    12642 
   12820    12904    12898    12937    13124    13431    13721    13884 
   13921    13917    13938    13992    14064    14107    14017    13729 
   13306    12869    12528    12355    12309    12241    12054    11809 
   11670    11759    12082    12542    13015    13387    13583    13578 
   13380    13063    12765    12604    12610    12791    13144    13595 
   13995    14204    14181    13973    13645    13271    12927    12653 
   12464    12418    12537    12704    12733    12523    12158    11835 
   11708    11776    11928    12083    12225    12353    12492    12679 
   12879    12970    12873    12602    12206    11758    11358    11062 
   10836    10609    10376    10189    10058     9963     9937    10022 
   10189    10408    10689    11048    11472    11928    12356    12652 
   12735    12640    12472    12329    12272    12322    12483    12779 
   13198    13609    13791    13620    13170    12623    12160    11916 
   11944    12224    12684    13246    13806    14258    14536    14596 
   14397    13986    13474    12953    12475    12114    11977    12120 
   12488    12960    13383    13620    13618    13431    13134    12788 
   12492    12322    12237    12140    11978    11782    11624    11543 
   11538    11610    11767    12035    12406    12791    13096    13382 
   13753    14227    14719    15090    15199    14962    14415    13718 
   13046    12479    12043    11727    11499    11340    11242    11198 
   11214    11315    11477    11610    11661    11677    11711    11758 
   11808    11894    11994    12033    12008    11962    11908    11846 
   11811    11834    11886    11925    11927    11813    11477    10932 
   10318     9784     9439     9324     9391     9520     9610     9632 
    9614     9613     9679     9825    10008    10201    10428    10705 
   11028    11404    11832    12224    12465    12514    12391    12121 
   11765    11448    11292    11364    11642    12010    12322    12538 
   12677    12680    12474    12128    11828    11700    11754    11921 
   12112    12258    12357    12449    12514    12518    12511    12595 
   12835    13234    13732    14202    14508    14608    14535    14304 
   13923    13473    13055    12702    12413    12218    12112    12056 
   12027    12040    12093    12117    12083    12104    12299    12696 
   13231    13748    14103    14300    14428    14539    14647    14747 
   14797    14720    14513    14287    14112    13971    13890    13917 
   13988    14026    14047    14087    14152    14253    14399    14563 
   14696    14778    14823    14839    14867    15006    15233    15417 
   15480    15407    15173    14775    14303    13909    13694    13679 
   13845    14090    14254    14283    14234    14141    14017    13907 
   13813    13647    13350    12943    12444    11835    11191    10624 
   10185     9957    10049    10419    10878    11313    11734    12100 
   12286    12236    11965    11475    10881    10424    10249    10332 
   10611    11022    11491    11940    12316    12571    12663    12584 
   12425    12290    12209    12162    12127    12114    12206    12451 
   12754    13015    13277    13618    13983    14235    14298    14156 
   13828    13405    13014    12676    12339    11961    11538    11086 
   10621    10181     9807     9487     9189     8968     8922     9078 
    9425     9940    10534    11086    11499    11701    11678    11506 
   11287    11053    10744    10328     9877     9486     9244     9261 
    9571    10087    10665    11153    11439    11524    11521    11516 
   11502    11479    11495    11603    11838    12225    12729    13224 
   13544    13570    13285    12725    11928    10978    10042     9320 
    8947     8972     9335     9930    10671    11407    11973    12347 
   12617    12825    12945    12947    12816    12546    12208    11954 
   11904    12009    12046    11813    11261    10537     9913     9670 
    9968    10810    12071    13487    14706    15468    15726    15584 
   15165    14623    14113    13656    13144    12542    11874    11157 
   10457     9895     9509     9238     9045     8942     8982     9267 
    9864    10692    11578    12370    12954    13275    13363    13355 
   13416    13637    14044    14615    15234    15709    15869    15637 
   15005    14045    12945    11925    11134    10693    10689    11044 
   11580    12198    12830    13312    13521    13508    13410    13380 
   13555    14003    14609    15163    15506    15534    15209    14619 
   13925    13246    12667    12279    12128    12144    12235    12340 
   12363    12216    11983    11847    11912    12193    12700    13456 
   14424    15483    16464    17166    17424    17239    16717    15947 
   15025    14106    13365    12901    12717    12769    12995    13244 
   13338    13205    12907    12545    12236    12058    12005    12086 
   12367    12846    13432    14017    14463    14628    14544    14385 
   14234    14061    13888    13760    13581    13220    12711    12224 
   11885    11699    11635    11723    11971    12317    12668    12961 
   13158    13238    13174    12941    12580    12209    11912    11700 
   11568    11499    11457    11446    11526    11666    11739    11726 
   11716    11776    11920    12182    12595    13135    13736    14288 
   14598    14511    14131    13721    13393    13062    12633    12037 
   11211    10257     9494     9153     9150     9277     9337     9190 
    8924     8869     9283    10164    11358    12677    13965    15140 
   16152    16872    17134    16906    16291    15457    14629    14004 
   13639    13466    13335    13076    12614    12016    11442    11119 
   11240    11908    13086    14538    15896    16857    17307    17290 
   16885    16171    15253    14208    13158    12351    11955    11902 
   12010    12096    11990    11620    11084    10601    10345    10401 
   10824    11556    12436    13362    14254    14932    15218    15052 
   14501    13691    12785    12008    11514    11249    11022    10674 
   10106     9294     8359     7491     6815     6415     6400     6822 
    7599     8607     9657    10508    11083    11554    12155    13055 
   14296    15736    17020    17755    17763    17081    15878    14419 
   12903    11344     9748     8194     6786     5705     5171     5314 
    6093     7353     8939    10666    12295    13640    14584    15095 
   15242    15106    14780    14453    14311    14450    14914    15589 
   16204    16536    16449    15777    14439    12667    10908     9548 
    8837     8854     9439    10354    11449    12536    13402    13871 
   13799    13234    12428    11701    11337    11422    11832    12413 
   13077    13711    14160    14330    14153    13602    12869    12276 
   12051    12259    12804    13458    13969    14197    14134    13905 
   13694    13605    13621    13699    13768    13724    13471    12964 
   12278    11639    11286    11279    11508    11790    11988    12136 
   12434    12931    13479    14021    14588    15148    15685    16271 
   16954    17675    18339    18827    19001    18820    18295    17490 
   16600    15777    15045    14490    14080    13637    13159    12725 
   12371    12194    12237    12437    12765    13252    13919    14751 
   15684    16534    17053    17101    16733    16094    15337    14580 
   13857    13169    12541    12016    11706    11745    12085    12526 
   12915    13184    13265    13057    12482    11619    10737    10060 
    9644     9499     9668    10195    11045    12044    12888    13284 
   13139    12647    12101    11611    11136    10643    10123     9594 
    9167     9022     9263     9834    10658    11708    12862    13945 
   14939    15854    16588    17032    17081    16568    15471    14068 
   12779    11844    11169    10558     9958     9423     9020     8841 
    8945     9367    10085    10920    11637    12194    12764    13468 
   14197    14725    14918    14729    14179    13443    12781    12390 
   12376    12718    13177    13477    13510    13279    12754    11958 
   11074    10315     9842     9817    10238    10879    11587    12373 
   13277    14250    15122    15707    15924    15828    15583    15329 
   15071    14716    14202    13522    12673    11732    10901    10270 
    9774     9439     9423     9771    10366    11074    11758    12229 
   12413    12488    12680    13073    13666    14395    15094    15520 
   15569    15280    14731    14079    13516    13081    12702    12382 
   12252    12434    12910    13498    13956    14112    13903    13350 
   12573    11743    10994    10493    10416    10790    11531    12519 
   13579    14490    15068    15195    14852    14208    13547    13084 
   12954    13198    13649    14002    14049    13860    13660    13571 
   13565    13585    13513    13185    12548    11780    11128    10716 
   10485    10272     9985     9701     9537     9566     9865    10446 
   11079    11450    11439    11128    10671    10219     9847     9618 
    9616     9873    10307    10782    11271    11862    12606    13400 
   14031    14255    13915    13105    12151    11358    10839    10482 
   10069     9462     8764     8280     8329     9034    10274    11827 
   13421    14756    15660    16112    16127    15768    15187    14532 
   13921    13493    13392    13640    14038    14298    14270    13953 
   13421    12804    12252    11874    11732    11867    12231    12640 
   12888    12912    12752    12510    12343    12351    12498    12719 
   13011    13375    13776    14129    14307    14212    13845    13312 
   12734    12155    11549    10870    10077     9244     8556     8128 
    7931     7958     8326     9180    10484    12075    13770    15340 
   16545    17224    17350    17015    16394    15651    14928    14246 
   13527    12734    11897    11075    10449    10241    10478    10952 
   11372    11556    11561    11646    12031    12738    13640    14538 
   15265    15728    15865    15628    15067    14315    13558    12985 
   12695    12667    12804    12914    12815    12548    12306    12202 
   12221    12356    12613    12954    13342    13791    14346    14994 
   15614    16021    16013    15421    14268    12742    11110     9680 
    8718     8262     8151     8190     8280     8449     8810     9444 
   10305    11203    11924    12380    12633    12812    13020    13258 
   13459    13581    13639    13687    13720    13690    13625    13598 
   13633    13687    13659    13410    12911    12297    11757    11411 
   11379    11727    12316    12879    13271    13527    13722    13921 
   14146    14369    14559    14750    14935    14965    14697    14126 
   13323    12367    11419    10673    10195     9923     9798     9837 
   10120    10666    11360    12013    12479    12735    12869    12991 
   13174    13451    13791    14125    14405    14575    14488    14019 
   13271    12515    11937    11537    11307    11277    11392    11545 
   11689    11838    12027    12264    12496    12707    12970    13367 
   13898    14509    15111    15529    15562    15210    14692    14200 
   13773    13458    13371    13509    13736    13959    14095    14006 
   13644    13157    12725    12390    12150    12042    12093    12324 
   12745    13259    13663    13783    13583    13143    12569    11963 
   11415    10943    10543    10320    10378    10650    10955    11142 
   11204    11313    11630    12135    12699    13200    13505    13489 
   13153    12669    12183    11659    11044    10422     9956     9760 
    9810     9983    10133    10135     9960     9734     9629     9726 
   10021    10469    10982    11455    11826    12052    12073    11805 
   11260    10620    10169    10121    10477    11013    11435    11531 
   11211    10544     9767     9119     8748     8733     9069     9629 
   10181    10544    10722    10831    10967    11159    11330    11369 
   11236    11001    10785    10675    10656    10667    10652    10604 
   10570    10636    10831    11065    11203    11148    10889    10521 
   10223    10120    10243    10536    10902    11244    11504    11650 
