Origin Time       2016/04/16 01:25:00
Lat.              32.753
Long.             130.762
Depth. (km)       12
Mag.              7.3
Station Code      SMN004
Station Lat.      35.2881
Station Long.     132.9004
Station Height(m) 45
Record Time       2016/04/16 01:26:42
Sampling Freq(Hz) 100Hz
Duration Time(s)  63
Dir.              E-W
Scale Factor      7845(gal)/8223790
Max. Acc. (gal)   3.754
Last Correction   2016/04/16 01:26:42
Memo.             
[...]
   -3141    -3171    -3194    -3211    -3215    -3202    -3177    -3148 
   -3121    -3105    -3102    -3106    -3094    -3057    -3009    -2945 
   -2876    -2824    -2792    -2789    -2817    -2860    -2907    -2955 
   -2986    -3001    -2997    -2978    -2960    -2959    -2971    -2986 
   -2998    -3001    -3002    -2994    -2974    -2945    -2907    -2871 
   -2848    -2830    -2818    -2808    -2786    -2754    -2704    -2632 
   -2559    -2506    -2482    -2493    -2544    -2629    -2733    -2849 
   -2964    -3064    -3141    -3191    -3217    -3217    -3204    -3191 
   -3183    -3187    -3204    -3232    -3269    -3299    -3310    -3295 
   -3257    -3199    -3133    -3067    -3002    -2944    -2903    -2882 
   -2882    -2896    -2915    -2929    -2937    -2945    -2957    -2959 
   -2947    -2928    -2909    -2896    -2899    -2911    -2925    -2940 
   -2953    -2980    -3033    -3107    -3180    -3240    -3271    -3271 
   -3244    -3203    -3154    -3100    -3055    -3040    -3056    -3100 
   -3165    -3237    -3298    -3338    -3360    -3373    -3383    -3385 
   -3384    -3380    -3372    -3353    -3319    -3272    -3215    -3152 
   -3071    -2979    -2887    -2799    -2714    -2641    -2584    -2546 
   -2536    -2565    -2631    -2713    -2799    -2882    -2959    -3026 
   -3084    -3133    -3175    -3215    -3250    -3283    -3312    -3330 
   -3333    -3323    -3304    -3281    -3253    -3219    -3175    -3117 
   -3044    -2959    -2857    -2749    -2647    -2558    -2488    -2447 
   -2438    -2459    -2509    -2586    -2679    -2772    -2866    -2967 
   -3069    -3164    -3262    -3355    -3437    -3516    -3593    -3650 
   -3684    -3686    -3661    -3618    -3566    -3511    -3453    -3388 
   -3321    -3245    -3159    -3061    -2952    -2839    -2731    -2641 
   -2581    -2559    -2573    -2612    -2674    -2755    -2844    -2928 
   -3001    -3063    -3115    -3169    -3237    -3304    -3353    -3388 
   -3418    -3449    -3483    -3519    -3561    -3592    -3601    -3585 
   -3538    -3456    -3339    -3199    -3051    -2907    -2779    -2678 
   -2610    -2577    -2573    -2592    -2624    -2660    -2698    -2736 
   -2778    -2832    -2903    -3002    -3118    -3234    -3338    -3437 
   -3527    -3601    -3666    -3731    -3790    -3844    -3886    -3894 
   -3859    -3774    -3638    -3464    -3275    -3095    -2936    -2798 
   -2682    -2579    -2486    -2408    -2344    -2290    -2253    -2236 
   -2247    -2292    -2374    -2490    -2625    -2763    -2895    -3019 
   -3138    -3260    -3403    -3570    -3748    -3923    -4071    -4178 
   -4237    -4252    -4225    -4159    -4063    -3956    -3842    -3719 
   -3589    -3445    -3294    -3149    -3024    -2922    -2844    -2790 
   -2756    -2739    -2728    -2710    -2686    -2664    -2651    -2651 
   -2669    -2710    -2767    -2828    -2902    -2991    -3090    -3190 
   -3275    -3341    -3388    -3419    -3429    -3424    -3412    -3399 
   -3377    -3346    -3304    -3249    -3175    -3090    -3001    -2914 
   -2841    -2775    -2714    -2659    -2600    -2535    -2475    -2417 
   -2362    -2327    -2324    -2357    -2424    -2515    -2608    -2686 
   -2747    -2797    -2843    -2903    -2976    -3046    -3119    -3194 
   -3261    -3323    -3379    -3422    -3439    -3419    -3369    -3302 
   -3221    -3148    -3095    -3052    -3013    -2979    -2951    -2928 
   -2918    -2917    -2920    -2925    -2941    -2970    -3017    -3082 
   -3153    -3215    -3273    -3339    -3407    -3476    -3542    -3605 
   -3672    -3734    -3778    -3792    -3771    -3709    -3611    -3492 
   -3362    -3245    -3154    -3090    -3049    -3025    -3013    -3013 
   -3026    -3044    -3051    -3036    -2997    -2952    -2926    -2928 
   -2956    -3003    -3053    -3105    -3160    -3211    -3250    -3271 
   -3267    -3235    -3177    -3113    -3056    -3014    -2991    -2982 
   -2979    -2988    -3005    -3014    -3010    -3003    -3001    -3005 
   -3021    -3067    -3134    -3211    -3284    -3346    -3396    -3431 
   -3453    -3472    -3489    -3504    -3515    -3511    -3481    -3429 
   -3362    -3283    -3183    -3069    -2940    -2787    -2633    -2496 
   -2374    -2269    -2182    -2119    -2083    -2073    -2079    -2092 
   -2104    -2119    -2150    -2208    -2295    -2411    -2559    -2732 
   -2914    -3096    -3275    -3449    -3615    -3767    -3908    -4024 
   -4105    -4143    -4137    -4095    -4024    -3931    -3823    -3697 
   -3559    -3420    -3284    -3153    -3026    -2902    -2789    -2697 
   -2625    -2573    -2540    -2525    -2520    -2515    -2506    -2508 
   -2525    -2565    -2625    -2705    -2791    -2870    -2934    -2986 
   -3024    -3057    -3103    -3163    -3231    -3295    -3339    -3355 
   -3336    -3284    -3211    -3137    -3071    -3011    -2957    -2905 
   -2844    -2775    -2701    -2629    -2571    -2528    -2489    -2461 
   -2458    -2477    -2517    -2583    -2671    -2763    -2852    -2936 
   -3006    -3052    -3069    -3065    -3053    -3042    -3032    -3034 
   -3056    -3086    -3121    -3157    -3186    -3203    -3204    -3173 
   -3111    -3032    -2947    -2867    -2805    -2762    -2733    -2721 
   -2706    -2675    -2629    -2574    -2509    -2438    -2365    -2301 
   -2255    -2236    -2251    -2301    -2371    -2466    -2578    -2690 
   -2801    -2906    -2992    -3060    -3118    -3168    -3210    -3246 
   -3272    -3287    -3291    -3291    -3295    -3303    -3315    -3327 
   -3334    -3333    -3323    -3311    -3289    -3256    -3213    -3163 
   -3111    -3068    -3037    -3019    -3017    -3030    -3049    -3063 
   -3060    -3034    -2990    -2932    -2868    -2809    -2762    -2728 
   -2710    -2720    -2752    -2797    -2853    -2920    -2990    -3057 
   -3126    -3194    -3260    -3326    -3399    -3473    -3546    -3622 
   -3699    -3770    -3834    -3886    -3924    -3948    -3951    -3929 
   -3879    -3805    -3709    -3592    -3464    -3339    -3230    -3133 
   -3053    -2986    -2921    -2855    -2802    -2759    -2718    -2687 
   -2663    -2646    -2641    -2655    -2675    -2701    -2732    -2764 
   -2799    -2844    -2894    -2936    -2967    -2980    -2964    -2920 
   -2857    -2786    -2713    -2646    -2590    -2548    -2520    -2515 
   -2531    -2559    -2584    -2613    -2640    -2663    -2694    -2735 
   -2775    -2806    -2829    -2848    -2874    -2914    -2980    -3073 
   -3191    -3331    -3474    -3595    -3682    -3736    -3757    -3762 
   -3765    -3774    -3801    -3854    -3917    -3975    -4021    -4043 
   -4031    -3981    -3890    -3767    -3615    -3443    -3267    -3103 
   -2970    -2867    -2781    -2704    -2635    -2571    -2516    -2471 
   -2438    -2408    -2397    -2409    -2431    -2463    -2527    -2613 
   -2705    -2816    -2951    -3088    -3222    -3348    -3451    -3522 
   -3558    -3563    -3538    -3485    -3414    -3331    -3246    -3171 
   -3109    -3063    -3021    -2975    -2924    -2870    -2816    -2770 
   -2739    -2720    -2708    -2712    -2739    -2790    -2857    -2937 
   -3024    -3118    -3211    -3292    -3355    -3391    -3395    -3369 
   -3326    -3275    -3219    -3154    -3084    -3014    -2943    -2874 
   -2798    -2713    -2628    -2546    -2475    -2421    -2384    -2359 
   -2353    -2376    -2435    -2527    -2646    -2790    -2941    -3090 
   -3231    -3365    -3488    -3597    -3681    -3732    -3757    -3759 
   -3747    -3740    -3748    -3759    -3770    -3778    -3767    -3728 
   -3661    -3566    -3451    -3329    -3206    -3094    -3001    -2925 
   -2876    -2855    -2849    -2857    -2875    -2893    -2914    -2945 
   -2983    -3026    -3080    -3138    -3199    -3256    -3302    -3338 
   -3366    -3379    -3375    -3353    -3312    -3250    -3168    -3069 
   -2953    -2824    -2698    -2593    -2515    -2471    -2461    -2467 
   -2485    -2520    -2569    -2625    -2683    -2744    -2814    -2893 
   -2979    -3073    -3176    -3276    -3364    -3435    -3483    -3505 
   -3500    -3461    -3387    -3284    -3165    -3032    -2886    -2755 
   -2655    -2586    -2544    -2520    -2498    -2486    -2481    -2470 
   -2458    -2447    -2436    -2436    -2455    -2492    -2551    -2641 
   -2764    -2909    -3064    -3222    -3369    -3492    -3599    -3690 
   -3762    -3813    -3850    -3869    -3867    -3852    -3827    -3781 
   -3709    -3609    -3488    -3355    -3221    -3083    -2944    -2810 
   -2682    -2563    -2463    -2384    -2328    -2304    -2322    -2390 
   -2498    -2629    -2779    -2934    -3080    -3199    -3284    -3346 
   -3395    -3435    -3466    -3488    -3505    -3505    -3473    -3415 
   -3333    -3231    -3114    -2992    -2868    -2736    -2601    -2471 
   -2351    -2254    -2187    -2147    -2144    -2177    -2224    -2276 
   -2330    -2382    -2428    -2475    -2527    -2584    -2644    -2712 
   -2791    -2871    -2933    -2965    -2955    -2901    -2824    -2733 
   -2640    -2550    -2461    -2362    -2245    -2107    -1960    -1819 
   -1694    -1597    -1537    -1507    -1498    -1518    -1574    -1664 
   -1790    -1949    -2137    -2340    -2546    -2749    -2940    -3117 
   -3283    -3440    -3599    -3757    -3909    -4043    -4148    -4200 
   -4190    -4109    -3973    -3805    -3628    -3451    -3283    -3123 
   -2978    -2852    -2751    -2675    -2620    -2584    -2569    -2563 
   -2565    -2577    -2589    -2604    -2619    -2636    -2668    -2716 
   -2782    -2875    -2994    -3127    -3268    -3400    -3516    -3619 
   -3697    -3742    -3757    -3747    -3713    -3663    -3605    -3544 
   -3483    -3420    -3364    -3312    -3260    -3200    -3132    -3051 
   -2971    -2902    -2855    -2839    -2848    -2887    -2952    -3026 
   -3098    -3164    -3219    -3264    -3294    -3303    -3287    -3250 
   -3192    -3127    -3060    -2975    -2879    -2778    -2667    -2548 
   -2421    -2280    -2126    -1960    -1795    -1652    -1534    -1447 
   -1395    -1368    -1360    -1371    -1397    -1447    -1528    -1642 
   -1791    -1977    -2192    -2427    -2664    -2889    -3090    -3265 
   -3407    -3515    -3592    -3636    -3663    -3685    -3703    -3716 
   -3724    -3716    -3685    -3630    -3547    -3443    -3333    -3221 
   -3109    -3010    -2932    -2878    -2844    -2833    -2851    -2894 
   -2960    -3036    -3114    -3194    -3271    -3346    -3418    -3485 
   -3539    -3570    -3581    -3580    -3568    -3546    -3524    -3508 
   -3500    -3503    -3519    -3542    -3565    -3585    -3611    -3649 
   -3697    -3751    -3811    -3875    -3954    -4045    -4151    -4261 
   -4360    -4434    -4480    -4504    -4507    -4491    -4464    -4429 
   -4383    -4326    -4258    -4178    -4083    -3986    -3889    -3796 
   -3703    -3600    -3484    -3357    -3222    -3079    -2929    -2770 
   -2610    -2463    -2334    -2227    -2134    -2043    -1952    -1857 
   -1764    -1686    -1630    -1601    -1597    -1624    -1691    -1794 
   -1919    -2052    -2174    -2292    -2424    -2575    -2743    -2914 
   -3086    -3254    -3414    -3550    -3653    -3712    -3728    -3701 
   -3646    -3586    -3535    -3491    -3447    -3403    -3346    -3269 
   -3179    -3084    -2988    -2896    -2821    -2762    -2721    -2718 
   -2758    -2835    -2943    -3082    -3237    -3395    -3546    -3685 
   -3811    -3921    -4012    -4078    -4120    -4129    -4105    -4050 
   -3970    -3871    -3755    -3615    -3446    -3256    -3045    -2817 
   -2593    -2384    -2191    -2023    -1884    -1776    -1687    -1617 
   -1571    -1549    -1561    -1621    -1736    -1902    -2100    -2313 
   -2533    -2743    -2928    -3071    -3172    -3244    -3298    -3341 
   -3381    -3412    -3403    -3335    -3207    -3036    -2852    -2681 
   -2523    -2376    -2247    -2135    -2015    -1880    -1745    -1614 
   -1486    -1375    -1302    -1278    -1308    -1383    -1502    -1668 
   -1868    -2081    -2304    -2539    -2776    -3002    -3218    -3426 
   -3609    -3753    -3846    -3888    -3879    -3835    -3755    -3645 
   -3515    -3369    -3203    -3019    -2824    -2620    -2407    -2184 
   -1969    -1777    -1606    -1482    -1418    -1408    -1437    -1509 
   -1624    -1803    -2058    -2370    -2720    -3083    -3423    -3716 
   -3956    -4153    -4311    -4430    -4521    -4592    -4646    -4677 
   -4669    -4614    -4517    -4384    -4210    -3998    -3753    -3465 
   -3140    -2797    -2469    -2181    -1952    -1790    -1692    -1651 
   -1652    -1688    -1753    -1840    -1953    -2092    -2246    -2423 
   -2631    -2867    -3144    -3468    -3828    -4209    -4579    -4899 
   -5135    -5268    -5309    -5267    -5140    -4927    -4634    -4287 
   -3920    -3568    -3242    -2951    -2685    -2434    -2192    -1961 
   -1738    -1518    -1294    -1086     -928     -842     -849     -965 
   -1190    -1526    -1972    -2501    -3076    -3653    -4197    -4680 
   -5096    -5445    -5729    -5948    -6104    -6197    -6238    -6242 
   -6212    -6142    -6022    -5842    -5590    -5270    -4881    -4434 
   -3946    -3433    -2914    -2416    -1958    -1559    -1240    -1012 
    -876     -846     -907    -1019    -1161    -1324    -1512    -1737 
   -2007    -2322    -2681    -3079    -3495    -3908    -4305    -4664 
   -4968    -5205    -5367    -5454    -5470    -5409    -5260    -5013 
   -4661    -4217    -3707    -3150    -2577    -2008    -1460     -943 
    -483      -95      217      464      654      795      884      912 
     864      718      467      110     -341     -868    -1436    -2008 
   -2562    -3080    -3549    -3951    -4279    -4515    -4658    -4716 
   -4712    -4661    -4577    -4476    -4351    -4176    -3932    -3596 
   -3176    -2710    -2231    -1761    -1333     -966     -672     -454 
    -319     -270     -289     -348     -438     -564     -706     -853 
   -1008    -1171    -1344    -1537    -1765    -2029    -2323    -2643 
   -2974    -3296    -3596    -3848    -4028    -4110    -4074    -3917 
   -3673    -3388    -3084    -2785    -2529    -2327    -2143    -1969 
   -1798    -1618    -1441    -1290    -1171    -1092    -1062    -1071 
   -1104    -1152    -1220    -1320    -1466    -1649    -1861    -2084 
   -2301    -2493    -2641    -2740    -2782    -2768    -2718    -2644 
   -2558    -2469    -2376    -2276    -2172    -2053    -1904    -1737 
   -1564    -1402    -1273    -1196    -1171    -1193    -1260    -1367 
   -1507    -1674    -1861    -2076    -2326    -2594    -2862    -3121 
   -3368    -3581    -3744    -3854    -3910    -3916    -3871    -3785 
   -3670    -3530    -3369    -3187    -2994    -2810    -2650    -2506 
   -2373    -2242    -2107    -1954    -1786    -1611    -1451    -1317 
   -1224    -1188    -1221    -1325    -1483    -1671    -1869    -2050 
   -2189    -2272    -2300    -2284    -2254    -2246    -2276    -2340 
   -2431    -2533    -2631    -2706    -2755    -2776    -2782    -2779 
   -2779    -2799    -2851    -2922    -2995    -3079    -3176    -3277 
   -3379    -3465    -3530    -3574    -3607    -3632    -3645    -3636 
   -3612    -3576    -3530    -3487    -3459    -3456    -3472    -3500 
   -3527    -3539    -3528    -3497    -3458    -3419    -3385    -3368 
   -3361    -3362    -3373    -3395    -3400    -3369    -3306    -3213 
   -3102    -2983    -2871    -2774    -2702    -2673    -2687    -2754 
   -2876    -3038    -3217    -3385    -3522    -3623    -3686    -3708 
   -3704    -3688    -3665    -3653    -3653    -3666    -3696    -3732 
   -3765    -3788    -3797    -3796    -3773    -3726    -3646    -3527 
   -3385    -3238    -3090    -2948    -2839    -2781    -2786    -2849 
   -2943    -3028    -3080    -3098    -3086    -3059    -3037    -3032 
   -3048    -3082    -3113    -3121    -3087    -3005    -2903    -2820 
   -2781    -2785    -2811    -2844    -2870    -2880    -2887    -2898 
   -2907    -2911    -2918    -2944    -2997    -3071    -3163    -3256 
   -3335    -3387    -3402    -3387    -3354    -3314    -3284    -3275 
   -3273    -3265    -3240    -3196    -3127    -3028    -2913    -2810 
   -2721    -2644    -2575    -2525    -2489    -2458    -2434    -2413 
   -2374    -2301    -2189    -2042    -1895    -1787    -1737    -1750 
   -1810    -1900    -2011    -2137    -2259    -2370    -2479    -2584 
   -2677    -2759    -2848    -2937    -3022    -3105    -3180    -3253 
   -3307    -3333    -3317    -3260    -3160    -3021    -2843    -2632 
   -2409    -2196    -1991    -1784    -1579    -1383    -1206    -1053 
    -926     -827     -776     -781     -837     -953    -1135    -1362 
   -1614    -1899    -2215    -2550    -2902    -3262    -3615    -3948 
   -4233    -4457    -4604    -4680    -4683    -4604    -4452    -4258 
   -4041    -3794    -3543    -3289    -3002    -2673    -2327    -1962 
   -1575    -1202     -881     -611     -407     -303     -302     -398 
    -583     -830    -1116    -1436    -1786    -2161    -2570    -3017 
   -3487    -3955    -4406    -4816    -5151    -5395    -5555    -5637 
   -5644    -5579    -5460    -5292    -5077    -4831    -4564    -4270 
   -3948    -3612    -3269    -2922    -2593    -2295    -2027    -1814 
   -1677    -1622    -1644    -1742    -1903    -2106    -2342    -2594 
   -2829    -3030    -3211    -3393    -3605    -3878    -4199    -4523 
   -4814    -5022    -5115    -5103    -5016    -4877    -4693    -4472 
   -4222    -3958    -3673    -3353    -3003    -2648    -2300    -1975 
   -1699    -1485    -1312    -1162    -1050     -967     -892     -835 
    -808     -822     -903    -1065    -1287    -1559    -1878    -2220 
   -2555    -2884    -3213    -3524    -3812    -4067    -4266    -4422 
   -4550    -4646    -4718    -4783    -4850    -4926    -4988    -4996 
   -4918    -4737    -4442    -4060    -3624    -3180    -2766    -2377 
   -2012    -1688    -1408    -1174     -993     -855     -761     -720 
    -727     -788     -915    -1111    -1371    -1675    -1998    -2340 
   -2708    -3107    -3543    -3998    -4437    -4822    -5128    -5347 
   -5485    -5537    -5519    -5451    -5319    -5116    -4858    -4552 
   -4205    -3846    -3496    -3187    -2932    -2718    -2525    -2338 
   -2144    -1949    -1792    -1695    -1669    -1732    -1872    -2058 
   -2290    -2567    -2874    -3186    -3468    -3701    -3883    -3990 
   -4045    -4082    -4090    -4074    -4048    -4002    -3940    -3875 
   -3808    -3731    -3649    -3546    -3400    -3218    -3013    -2798 
   -2598    -2436    -2330    -2296    -2328    -2411    -2535    -2691 
   -2853    -3017    -3180    -3302    -3381    -3453    -3511    -3557 
   -3603    -3655    -3719    -3800    -3905    -4029    -4149    -4263 
   -4376    -4483    -4585    -4683    -4745    -4752    -4703    -4603 
   -4471    -4334    -4200    -4077    -3979    -3919    -3885    -3847 
   -3759    -3612    -3400    -3123    -2832    -2593    -2425    -2313 
   -2250    -2243    -2297    -2413    -2579    -2778    -2991    -3173 
   -3295    -3373    -3442    -3528    -3634    -3770    -3947    -4132 
   -4301    -4460    -4587    -4649    -4666    -4669    -4644    -4565 
   -4463    -4359    -4222    -4055    -3904    -3775    -3653    -3555 
   -3492    -3461    -3472    -3522    -3566    -3592    -3620    -3642 
