Origin Time       2016/04/16 01:25:00
Lat.              32.753
Long.             130.762
Depth. (km)       12
Mag.              7.3
Station Code      SMN010
Station Lat.      34.8870
Station Long.     132.0783
Station Height(m) 113
Record Time       2016/04/16 01:26:17
Sampling Freq(Hz) 100Hz
Duration Time(s)  83
Dir.              N-S
Scale Factor      7845(gal)/8223790
Max. Acc. (gal)   5.973
Last Correction   2016/04/16 01:26:17
Memo.             
[...]
   -4692    -4645    -4573    -4502    -4442    -4409    -4403    -4411 
   -4414    -4407    -4383    -4347    -4309    -4279    -4263    -4261 
   -4266    -4252    -4197    -4116    -4036    -3987    -3965    -3974 
   -4005    -4055    -4133    -4225    -4326    -4422    -4510    -4575 
   -4603    -4600    -4573    -4529    -4484    -4452    -4419    -4383 
   -4344    -4306    -4287    -4302    -4348    -4395    -4419    -4429 
   -4456    -4525    -4652    -4837    -5035    -5188    -5266    -5271 
   -5215    -5125    -5020    -4904    -4797    -4722    -4666    -4618 
   -4587    -4568    -4567    -4603    -4680    -4777    -4887    -4999 
   -5101    -5178    -5232    -5270    -5271    -5225    -5131    -4977 
   -4783    -4588    -4415    -4278    -4182    -4116    -4086    -4104 
   -4155    -4240    -4344    -4448    -4565    -4689    -4792    -4860 
   -4892    -4884    -4847    -4804    -4772    -4769    -4800    -4846 
   -4889    -4928    -4953    -4963    -4994    -5067    -5169    -5281 
   -5377    -5440    -5462    -5443    -5400    -5356    -5320    -5302 
   -5305    -5301    -5273    -5217    -5158    -5119    -5100    -5109 
   -5151    -5201    -5244    -5275    -5293    -5312    -5350    -5400 
   -5443    -5458    -5432    -5379    -5327    -5302    -5309    -5310 
   -5279    -5232    -5201    -5185    -5173    -5184    -5221    -5271 
   -5309    -5309    -5265    -5184    -5080    -4985    -4931    -4928 
   -4974    -5038    -5073    -5076    -5077    -5096    -5130    -5167 
   -5196    -5221    -5252    -5283    -5308    -5312    -5301    -5289 
   -5270    -5220    -5146    -5070    -5016    -5011    -5042    -5059 
   -5027    -4969    -4928    -4923    -4945    -4980    -5015    -5031 
   -5042    -5042    -5016    -4963    -4880    -4779    -4700    -4660 
   -4637    -4627    -4627    -4619    -4596    -4567    -4558    -4599 
   -4698    -4845    -4997    -5104    -5154    -5177    -5190    -5179 
   -5135    -5073    -5004    -4923    -4831    -4747    -4699    -4708 
   -4770    -4841    -4887    -4899    -4878    -4855    -4845    -4833 
   -4810    -4772    -4715    -4653    -4595    -4537    -4475    -4413 
   -4359    -4330    -4327    -4355    -4413    -4483    -4554    -4627 
   -4693    -4742    -4784    -4824    -4870    -4928    -4984    -5007 
   -4997    -4966    -4934    -4923    -4936    -4936    -4904    -4858 
   -4819    -4803    -4830    -4900    -4977    -5024    -5046    -5039 
   -4994    -4936    -4901    -4903    -4927    -4958    -4980    -4996 
   -5009    -5012    -4989    -4947    -4912    -4893    -4882    -4892 
   -4939    -5007    -5081    -5151    -5198    -5238    -5279    -5314 
   -5363    -5439    -5509    -5544    -5516    -5433    -5333    -5239 
   -5155    -5088    -5038    -5019    -5046    -5098    -5163    -5225 
   -5262    -5271    -5263    -5235    -5196    -5136    -5058    -4978 
   -4896    -4801    -4729    -4703    -4719    -4777    -4862    -4946 
   -5008    -5050    -5071    -5082    -5088    -5089    -5086    -5073 
   -5050    -5042    -5060    -5092    -5125    -5159    -5175    -5164 
   -5136    -5098    -5051    -4989    -4936    -4927    -4959    -5003 
   -5049    -5081    -5065    -5007    -4941    -4873    -4827    -4824 
   -4862    -4923    -4989    -5054    -5116    -5155    -5164    -5152 
   -5127    -5096    -5065    -5022    -4959    -4885    -4803    -4719 
   -4656    -4626    -4619    -4618    -4626    -4665    -4738    -4830 
   -4911    -4949    -4945    -4923    -4889    -4827    -4773    -4758 
   -4784    -4846    -4930    -5004    -5047    -5046    -5005    -4962 
   -4951    -4978    -5032    -5093    -5136    -5146    -5125    -5093 
   -5073    -5080    -5105    -5131    -5135    -5111    -5070    -5016 
   -4943    -4850    -4747    -4652    -4581    -4548    -4540    -4537 
   -4538    -4548    -4563    -4575    -4598    -4650    -4733    -4819 
   -4874    -4903    -4914    -4888    -4831    -4776    -4727    -4684 
   -4649    -4606    -4542    -4468    -4392    -4321    -4258    -4218 
   -4210    -4228    -4247    -4241    -4207    -4147    -4093    -4078 
   -4090    -4117    -4158    -4199    -4218    -4209    -4183    -4167 
   -4182    -4209    -4228    -4240    -4245    -4263    -4313    -4378 
   -4446    -4530    -4625    -4704    -4756    -4776    -4766    -4737 
   -4704    -4681    -4664    -4661    -4669    -4672    -4661    -4661 
   -4692    -4752    -4820    -4878    -4918    -4935    -4928    -4914 
   -4912    -4931    -4969    -5013    -5042    -5031    -4977    -4905 
   -4842    -4791    -4758    -4750    -4764    -4797    -4851    -4918 
   -4980    -5007    -5008    -5008    -5015    -5017    -4999    -4963 
   -4923    -4874    -4819    -4779    -4753    -4725    -4692    -4639 
   -4553    -4453    -4372    -4315    -4289    -4289    -4298    -4306 
   -4324    -4348    -4371    -4396    -4437    -4483    -4534    -4587 
   -4638    -4688    -4734    -4762    -4766    -4758    -4761    -4777 
   -4804    -4830    -4846    -4861    -4868    -4854    -4811    -4738 
   -4665    -4602    -4548    -4522    -4535    -4584    -4662    -4753 
   -4838    -4908    -4931    -4897    -4846    -4811    -4803    -4830 
   -4897    -4989    -5081    -5147    -5178    -5164    -5092    -4996 
   -4912    -4846    -4796    -4756    -4707    -4658    -4627    -4612 
   -4596    -4577    -4571    -4561    -4544    -4533    -4525    -4514 
   -4502    -4475    -4436    -4409    -4392    -4368    -4321    -4252 
   -4175    -4109    -4074    -4079    -4117    -4166    -4199    -4200 
   -4167    -4106    -4039    -3977    -3915    -3848    -3801    -3757 
   -3699    -3630    -3558    -3496    -3461    -3449    -3437    -3410 
   -3376    -3355    -3330    -3288    -3250    -3234    -3246    -3281 
   -3321    -3343    -3336    -3319    -3312    -3316    -3327    -3362 
   -3434    -3535    -3657    -3792    -3915    -4009    -4086    -4148 
   -4214    -4321    -4475    -4650    -4822    -4968    -5070    -5142 
   -5197    -5242    -5282    -5319    -5363    -5400    -5409    -5418 
   -5443    -5456    -5467    -5493    -5522    -5540    -5566    -5620 
   -5687    -5765    -5857    -5958    -6073    -6196    -6305    -6386 
   -6444    -6489    -6521    -6520    -6478    -6426    -6381    -6353 
   -6335    -6312    -6284    -6258    -6223    -6177    -6120    -6054 
   -5998    -5957    -5919    -5869    -5790    -5698    -5602    -5508 
   -5427    -5363    -5321    -5305    -5304    -5306    -5302    -5286 
   -5270    -5258    -5256    -5265    -5282    -5312    -5325    -5302 
   -5265    -5229    -5188    -5131    -5057    -4956    -4865    -4820 
   -4810    -4812    -4831    -4865    -4900    -4923    -4926    -4914 
   -4904    -4889    -4862    -4826    -4781    -4737    -4696    -4648 
   -4577    -4487    -4395    -4310    -4232    -4163    -4098    -4025 
   -3937    -3821    -3661    -3483    -3330    -3227    -3172    -3145 
   -3127    -3114    -3133    -3202    -3307    -3450    -3619    -3785 
   -3924    -4031    -4107    -4171    -4245    -4342    -4461    -4592 
   -4725    -4850    -4959    -5059    -5162    -5259    -5336    -5389 
   -5404    -5391    -5371    -5346    -5308    -5258    -5192    -5115 
   -5035    -4949    -4849    -4738    -4637    -4572    -4548    -4554 
   -4579    -4612    -4652    -4676    -4672    -4648    -4625    -4626 
   -4666    -4741    -4831    -4918    -4999    -5074    -5147    -5229 
   -5317    -5382    -5412    -5389    -5309    -5173    -4999    -4838 
   -4727    -4671    -4661    -4691    -4757    -4846    -4923    -4985 
   -5039    -5085    -5140    -5200    -5215    -5169    -5085    -4976 
   -4861    -4750    -4653    -4575    -4509    -4448    -4390    -4322 
   -4261    -4218    -4176    -4145    -4126    -4099    -4077    -4071 
   -4069    -4068    -4055    -4028    -4016    -4044    -4091    -4136 
   -4171    -4189    -4190    -4174    -4145    -4124    -4128    -4158 
   -4203    -4256    -4299    -4330    -4360    -4411    -4502    -4661 
   -4881    -5123    -5359    -5590    -5805    -5995    -6178    -6345 
   -6489    -6612    -6709    -6759    -6755    -6721    -6678    -6624 
   -6573    -6539    -6521    -6525    -6559    -6606    -6658    -6709 
   -6748    -6774    -6809    -6860    -6914    -6941    -6921    -6866 
   -6798    -6748    -6741    -6754    -6752    -6732    -6683    -6606 
   -6513    -6411    -6318    -6249    -6200    -6169    -6164    -6178 
   -6208    -6250    -6293    -6338    -6382    -6403    -6388    -6339 
   -6265    -6185    -6096    -5989    -5880    -5772    -5664    -5567 
   -5491    -5431    -5381    -5335    -5281    -5216    -5143    -5055 
   -4958    -4850    -4715    -4549    -4359    -4153    -3943    -3742 
   -3569    -3412    -3264    -3127    -3001    -2905    -2849    -2811 
   -2766    -2710    -2651    -2581    -2505    -2430    -2359    -2316 
   -2317    -2362    -2427    -2481    -2519    -2546    -2578    -2628 
   -2694    -2776    -2893    -3019    -3119    -3173    -3176    -3141 
   -3090    -3037    -2967    -2867    -2748    -2639    -2551    -2493 
   -2459    -2439    -2424    -2427    -2457    -2512    -2583    -2666 
   -2751    -2833    -2922    -3022    -3129    -3232    -3315    -3362 
   -3392    -3426    -3474    -3530    -3599    -3690    -3801    -3939 
   -4114    -4320    -4540    -4766    -4984    -5174    -5336    -5464 
   -5549    -5599    -5632    -5661    -5707    -5782    -5881    -5989 
   -6097    -6210    -6319    -6423    -6529    -6635    -6731    -6821 
   -6913    -7006    -7094    -7165    -7217    -7268    -7335    -7426 
   -7530    -7646    -7777    -7909    -8029    -8120    -8167    -8179 
   -8171    -8144    -8113    -8095    -8086    -8078    -8062    -8028 
   -7998    -7986    -7997    -8029    -8070    -8090    -8064    -7998 
   -7902    -7785    -7646    -7482    -7294    -7092    -6890    -6675 
   -6434    -6169    -5899    -5651    -5443    -5294    -5211    -5173 
   -5166    -5184    -5216    -5258    -5300    -5324    -5329    -5310 
   -5278    -5240    -5186    -5105    -5011    -4900    -4761    -4587 
   -4375    -4140    -3909    -3727    -3613    -3555    -3553    -3611 
   -3704    -3804    -3885    -3920    -3915    -3897    -3879    -3861 
   -3846    -3824    -3773    -3690    -3593    -3500    -3424    -3369 
   -3333    -3307    -3300    -3323    -3362    -3407    -3464    -3526 
   -3592    -3677    -3784    -3889    -3981    -4050    -4074    -4063 
   -4047    -4040    -4058    -4114    -4207    -4329    -4475    -4634 
   -4810    -5005    -5213    -5413    -5585    -5711    -5776    -5782 
   -5737    -5679    -5636    -5602    -5551    -5459    -5317    -5143 
   -4966    -4810    -4685    -4590    -4499    -4372    -4166    -3869 
   -3496    -3090    -2706    -2377    -2115    -1904    -1698    -1452 
   -1161     -842     -529     -263      -79       32       71       37 
     -56     -211     -434     -720    -1074    -1498    -1984    -2524 
   -3082    -3600    -4047    -4403    -4664    -4858    -5007    -5105 
   -5167    -5206    -5233    -5263    -5305    -5339    -5343    -5301 
   -5205    -5066    -4915    -4773    -4639    -4500    -4359    -4218 
   -4079    -3929    -3748    -3530    -3283    -3042    -2849    -2754 
   -2779    -2914    -3122    -3345    -3530    -3646    -3690    -3701 
   -3738    -3828    -3990    -4222    -4494    -4762    -4996    -5175 
   -5313    -5435    -5532    -5594    -5618    -5603    -5582    -5602 
   -5678    -5798    -5964    -6160    -6334    -6411    -6354    -6168 
   -5868    -5499    -5131    -4814    -4573    -4409    -4301    -4218 
   -4155    -4093    -4021    -3935    -3852    -3800    -3778    -3778 
   -3817    -3915    -4081    -4301    -4538    -4746    -4915    -5069 
   -5231    -5422    -5672    -6011    -6459    -7002    -7604    -8213 
   -8764    -9197    -9479    -9614    -9644    -9621    -9566    -9468 
   -9332    -9163    -8968    -8750    -8503    -8233    -7985    -7804 
   -7689    -7600    -7477    -7273    -6990    -6659    -6300    -5954 
   -5684    -5509    -5417    -5390    -5398    -5435    -5494    -5552 
   -5590    -5602    -5580    -5533    -5474    -5420    -5404    -5447 
   -5551    -5698    -5861    -6022    -6164    -6277    -6388    -6539 
   -6755    -7033    -7329    -7605    -7843    -8014    -8097    -8063 
   -7909    -7668    -7387    -7102    -6825    -6550    -6261    -5958 
   -5651    -5360    -5124    -4958    -4846    -4764    -4671    -4531 
   -4325    -4033    -3666    -3281    -2960    -2771    -2752    -2895 
   -3137    -3406    -3661    -3897    -4110    -4301    -4487    -4683 
   -4874    -5057    -5252    -5490    -5757    -6012    -6216    -6336 
   -6363    -6335    -6303    -6311    -6385    -6519    -6686    -6856 
   -7023    -7198    -7377    -7524    -7601    -7593    -7495    -7321 
   -7110    -6883    -6667    -6500    -6389    -6297    -6178    -6030 
   -5864    -5714    -5626    -5634    -5730    -5854    -5929    -5906 
   -5798    -5670    -5582    -5578    -5665    -5813    -5983    -6156 
   -6326    -6467    -6555    -6571    -6520    -6426    -6313    -6184 
   -6022    -5810    -5555    -5293    -5069    -4904    -4801    -4716 
   -4581    -4387    -4174    -3979    -3838    -3731    -3609    -3462 
   -3292    -3088    -2837    -2542    -2214    -1875    -1554    -1282 
   -1058     -851     -649     -446     -225       31      334      688 
    1039     1305     1413     1367     1204      965      702      464 
     284      166       98       32      -89     -289     -552     -846 
   -1170    -1551    -1981    -2450    -2929    -3352    -3669    -3889 
   -4017    -4088    -4163    -4301    -4553    -4923    -5346    -5725 
   -5998    -6146    -6203    -6219    -6237    -6277    -6327    -6363 
   -6373    -6359    -6359    -6415    -6504    -6589    -6647    -6648 
   -6574    -6444    -6293    -6154    -6057    -6029    -6072    -6168 
   -6288    -6413    -6528    -6628    -6717    -6790    -6848    -6886 
   -6889    -6848    -6763    -6613    -6412    -6162    -5864    -5543 
   -5225    -4966    -4811    -4769    -4804    -4846    -4831    -4734 
   -4606    -4531    -4545    -4627    -4742    -4873    -5016    -5152 
   -5271    -5373    -5459    -5526    -5552    -5505    -5390    -5266 
   -5185    -5182    -5275    -5433    -5606    -5771    -5927    -6056 
   -6108    -6052    -5892    -5670    -5443    -5258    -5116    -4985 
   -4833    -4653    -4452    -4252    -4083    -3982    -3964    -4006 
   -4074    -4129    -4167    -4215    -4293    -4395    -4502    -4610 
   -4715    -4787    -4816    -4819    -4799    -4760    -4698    -4622 
   -4557    -4525    -4541    -4614    -4726    -4854    -4959    -5009 
   -5007    -4980    -4956    -4980    -5076    -5205    -5308    -5352 
   -5343    -5312    -5286    -5289    -5339    -5420    -5479    -5472 
   -5381    -5232    -5084    -4980    -4959    -5051    -5229    -5441 
   -5648    -5817    -5926    -5944    -5831    -5597    -5308    -5057 
   -4914    -4907    -5012    -5173    -5339    -5471    -5552    -5607 
   -5649    -5661    -5643    -5629    -5664    -5769    -5956    -6197 
   -6430    -6588    -6640    -6592    -6478    -6339    -6203    -6091 
   -6016    -5976    -5965    -5991    -6046    -6110    -6178    -6264 
   -6392    -6585    -6828    -7086    -7344    -7591    -7811    -7997 
   -8137    -8228    -8271    -8286    -8301    -8299    -8237    -8077 
   -7803    -7441    -7048    -6677    -6350    -6058    -5795    -5551 
   -5344    -5221    -5181    -5175    -5185    -5200    -5229    -5265 
   -5271    -5228    -5124    -4980    -4823    -4677    -4568    -4515 
   -4525    -4600    -4727    -4887    -5034    -5131    -5148    -5058 
   -4891    -4716    -4572    -4469    -4401    -4317    -4195    -4055 
   -3867    -3626    -3355    -3063    -2794    -2592    -2450    -2386 
   -2393    -2448    -2567    -2743    -2949    -3145    -3277    -3314 
   -3283    -3225    -3157    -3105    -3060    -2988    -2886    -2771 
   -2683    -2656    -2685    -2745    -2813    -2886    -2979    -3079 
   -3165    -3217    -3226    -3223    -3210    -3153    -3032    -2862 
   -2679    -2523    -2432    -2424    -2505    -2683    -2928    -3199 
   -3446    -3628    -3753    -3846    -3967    -4152    -4383    -4630 
   -4866    -5065    -5215    -5301    -5336    -5356    -5391    -5460 
   -5568    -5683    -5760    -5788    -5776    -5752    -5753    -5784 
   -5810    -5795    -5719    -5584    -5410    -5213    -4988    -4731 
   -4480    -4268    -4133    -4098    -4144    -4245    -4379    -4522 
   -4664    -4792    -4905    -5017    -5161    -5370    -5644    -5960 
   -6255    -6474    -6619    -6708    -6762    -6770    -6694    -6519 
   -6261    -5975    -5724    -5537    -5412    -5316    -5244    -5197 
   -5169    -5177    -5231    -5317    -5432    -5575    -5722    -5846 
   -5915    -5907    -5857    -5811    -5792    -5829    -5927    -6076 
   -6264    -6465    -6654    -6789    -6841    -6818    -6743    -6647 
   -6554    -6471    -6424    -6403    -6370    -6320    -6242    -6112 
   -5938    -5730    -5489    -5248    -5053    -4899    -4792    -4739 
   -4715    -4699    -4672    -4606    -4483    -4321    -4163    -4040 
   -3977    -3977    -4016    -4063    -4116    -4186    -4271    -4382 
   -4515    -4665    -4814    -4941    -5047    -5139    -5193    -5229 
   -5266    -5289    -5321    -5366    -5398    -5420    -5431    -5410 
   -5355    -5258    -5100    -4901    -4693    -4511    -4393    -4324 
   -4248    -4140    -3989    -3815    -3661    -3562    -3532    -3555 
   -3593    -3609    -3577    -3488    -3362    -3249    -3203    -3253 
   -3391    -3574    -3753    -3909    -4069    -4241    -4402    -4544 
   -4688    -4846    -4997    -5127    -5240    -5344    -5456    -5580 
   -5678    -5713    -5692    -5634    -5552    -5456    -5355    -5290 
   -5297    -5374    -5487    -5601    -5689    -5740    -5749    -5715 
   -5670    -5638    -5614    -5594    -5568    -5522    -5471    -5448 
   -5462    -5509    -5598    -5687    -5738    -5760    -5746    -5706 
   -5668    -5633    -5609    -5622    -5675    -5751    -5840    -5914 
   -5948    -5940    -5915    -5875    -5819    -5776    -5756    -5746 
   -5724    -5655    -5536    -5390    -5244    -5135    -5101    -5147 
   -5248    -5356    -5436    -5472    -5475    -5456    -5420    -5362 
   -5281    -5158    -4992    -4831    -4708    -4627    -4579    -4541 
   -4490    -4418    -4327    -4225    -4113    -3984    -3850    -3721 
   -3608    -3515    -3443    -3361    -3254    -3123    -2971    -2813 
   -2667    -2536    -2428    -2347    -2295    -2276    -2299    -2350 
   -2400    -2432    -2442    -2430    -2417    -2447    -2536    -2683 
   -2866    -3034    -3149    -3186    -3137    -3030    -2899    -2772 
   -2675    -2612    -2565    -2516    -2452    -2392    -2350    -2347 
   -2386    -2432    -2454    -2446    -2404    -2347    -2317    -2332 
   -2373    -2417    -2454    -2494    -2536    -2559    -2578    -2616 
   -2678    -2764    -2882    -3036    -3223    -3445    -3686    -3915 
   -4116    -4289    -4430    -4552    -4656    -4725    -4756    -4761 
   -4760    -4770    -4796    -4820    -4823    -4780    -4703    -4618 
