Origin Time       2016/04/16 01:25:00
Lat.              32.753
Long.             130.762
Depth. (km)       12
Mag.              7.3
Station Code      SMN013
Station Lat.      34.6690
Station Long.     131.8458
Station Height(m) 27
Record Time       2016/04/16 01:25:47
Sampling Freq(Hz) 100Hz
Duration Time(s)  104
Dir.              E-W
Scale Factor      7845(gal)/8223790
Max. Acc. (gal)   7.598
Last Correction   2016/04/16 01:25:48
Memo.             
[...]
   -7005    -6852    -6731    -6669    -6687    -6751    -6786    -6751 
   -6639    -6465    -6277    -6112    -5991    -5931    -5940    -5994 
   -6066    -6157    -6269    -6388    -6490    -6552    -6554    -6523 
   -6493    -6459    -6396    -6299    -6172    -6034    -5913    -5830 
   -5800    -5822    -5879    -5953    -6048    -6161    -6273    -6359 
   -6385    -6345    -6272    -6193    -6138    -6137    -6183    -6257 
   -6366    -6505    -6635    -6709    -6710    -6652    -6561    -6457 
   -6358    -6282    -6264    -6288    -6315    -6353    -6419    -6498 
   -6559    -6563    -6494    -6374    -6247    -6145    -6068    -6004 
   -5961    -5962    -6026    -6142    -6276    -6386    -6460    -6508 
   -6546    -6579    -6600    -6592    -6558    -6507    -6444    -6369 
   -6280    -6204    -6176    -6186    -6214    -6245    -6257    -6243 
   -6214    -6154    -6050    -5940    -5881    -5876    -5910    -5977 
   -6080    -6210    -6330    -6411    -6463    -6511    -6552    -6559 
   -6516    -6457    -6394    -6304    -6185    -6077    -6018    -6015 
   -6039    -6070    -6106    -6124    -6104    -6034    -5938    -5864 
   -5848    -5898    -5992    -6089    -6156    -6201    -6237    -6261 
   -6301    -6381    -6492    -6592    -6642    -6639    -6593    -6501 
   -6355    -6197    -6073    -5999    -5960    -5933    -5904    -5871 
   -5841    -5830    -5852    -5886    -5890    -5854    -5806    -5756 
   -5722    -5746    -5838    -5972    -6118    -6266    -6413    -6546 
   -6648    -6696    -6664    -6567    -6463    -6405    -6388    -6377 
   -6354    -6312    -6259    -6223    -6205    -6201    -6218    -6237 
   -6251    -6276    -6299    -6293    -6259    -6231    -6218    -6222 
   -6245    -6262    -6239    -6164    -6042    -5891    -5751    -5656 
   -5593    -5540    -5524    -5582    -5725    -5935    -6166    -6374 
   -6542    -6650    -6691    -6679    -6620    -6523    -6412    -6320 
   -6280    -6292    -6338    -6365    -6328    -6235    -6137    -6083 
   -6073    -6057    -5988    -5875    -5756    -5667    -5641    -5688 
   -5793    -5915    -6006    -6062    -6102    -6134    -6147    -6131 
   -6100    -6081    -6077    -6075    -6073    -6108    -6200    -6322 
   -6439    -6542    -6635    -6721    -6782    -6805    -6782    -6736 
   -6677    -6613    -6546    -6469    -6384    -6289    -6200    -6130 
   -6069    -6006    -5953    -5917    -5907    -5937    -6021    -6168 
   -6361    -6561    -6747    -6912    -7045    -7132    -7163    -7145 
   -7086    -6988    -6868    -6762    -6667    -6556    -6412    -6242 
   -6064    -5902    -5779    -5715    -5719    -5783    -5869    -5938 
   -5968    -5976    -6002    -6064    -6133    -6172    -6192    -6231 
   -6307    -6403    -6485    -6538    -6555    -6512    -6393    -6235 
   -6087    -5975    -5913    -5891    -5887    -5904    -5944    -5973 
   -5949    -5871    -5783    -5738    -5744    -5782    -5845    -5938 
   -6044    -6124    -6169    -6214    -6295    -6408    -6538    -6662 
   -6748    -6754    -6656    -6485    -6311    -6164    -6048    -5971 
   -5937    -5944    -5994    -6079    -6183    -6270    -6320    -6338 
   -6320    -6250    -6134    -6008    -5906    -5842    -5830    -5877 
   -5973    -6095    -6219    -6332    -6427    -6502    -6543    -6531 
   -6447    -6290    -6100    -5919    -5765    -5653    -5598    -5594 
   -5587    -5533    -5458    -5421    -5463    -5590    -5778    -5996 
   -6211    -6392    -6548    -6701    -6843    -6947    -7007    -7037 
   -7059    -7068    -7017    -6866    -6652    -6443    -6243    -6033 
   -5819    -5638    -5505    -5398    -5329    -5364    -5522    -5741 
   -5956    -6145    -6299    -6409    -6465    -6470    -6463    -6467 
   -6430    -6304    -6138    -6014    -5961    -5926    -5863    -5810 
   -5818    -5872    -5935    -5968    -5938    -5860    -5757    -5645 
   -5562    -5539    -5583    -5671    -5752    -5814    -5888    -5992 
   -6097    -6162    -6165    -6119    -6049    -5985    -5946    -5919 
   -5896    -5914    -6010    -6168    -6351    -6546    -6743    -6918 
   -7074    -7218    -7330    -7376    -7362    -7304    -7213    -7099 
   -6972    -6835    -6708    -6633    -6601    -6534    -6399    -6243 
   -6093    -5944    -5805    -5691    -5622    -5618    -5672    -5776 
   -5929    -6104    -6250    -6358    -6467    -6581    -6635    -6609 
   -6542    -6447    -6319    -6154    -5979    -5838    -5752    -5711 
   -5724    -5795    -5888    -5960    -5992    -5988    -5956    -5944 
   -5987    -6066    -6170    -6308    -6480    -6656    -6785    -6858 
   -6948    -7126    -7371    -7605    -7750    -7767    -7680    -7546 
   -7420    -7334    -7276    -7219    -7115    -6944    -6763    -6652 
   -6606    -6577    -6538    -6484    -6415    -6343    -6288    -6261 
   -6239    -6189    -6108    -6016    -5907    -5760    -5616    -5514 
   -5413    -5248    -5049    -4887    -4814    -4864    -5001    -5174 
   -5347    -5512    -5656    -5786    -5911    -6049    -6191    -6313 
   -6399    -6459    -6512    -6534    -6515    -6513    -6578    -6686 
   -6772    -6794    -6772    -6752    -6766    -6836    -6963    -7127 
   -7307    -7443    -7479    -7420    -7311    -7202    -7129    -7065 
   -6978    -6859    -6691    -6444    -6139    -5848    -5633    -5514 
   -5468    -5445    -5418    -5405    -5422    -5472    -5563    -5717 
   -5906    -6070    -6212    -6336    -6407    -6413    -6361    -6250 
   -6115    -6026    -5991    -5995    -6048    -6157    -6270    -6318 
   -6296    -6227    -6146    -6107    -6142    -6237    -6374    -6523 
   -6655    -6782    -6912    -7010    -7055    -7038    -6971    -6905 
   -6893    -6922    -6939    -6933    -6912    -6871    -6813    -6721 
   -6581    -6436    -6370    -6396    -6448    -6488    -6502    -6450 
   -6301    -6110    -5945    -5838    -5833    -5958    -6172    -6372 
   -6490    -6538    -6559    -6598    -6678    -6802    -6968    -7125 
   -7182    -7123    -6982    -6762    -6494    -6270    -6143    -6100 
   -6097    -6122    -6200    -6359    -6588    -6862    -7157    -7419 
   -7586    -7642    -7623    -7599    -7626    -7717    -7839    -7958 
   -8043    -8063    -8033    -7998    -7960    -7888    -7758    -7566 
   -7349    -7138    -6951    -6797    -6673    -6558    -6457    -6380 
   -6303    -6199    -6079    -5958    -5822    -5675    -5551    -5481 
   -5462    -5464    -5454    -5443    -5447    -5459    -5505    -5609 
   -5734    -5838    -5900    -5915    -5930    -6006    -6127    -6223 
   -6266    -6277    -6254    -6172    -6058    -5983    -5975    -6027 
   -6138    -6304    -6504    -6697    -6871    -7060    -7269    -7481 
   -7693    -7890    -8047    -8122    -8075    -7940    -7778    -7605 
   -7438    -7280    -7121    -6972    -6847    -6767    -6747    -6728 
   -6664    -6564    -6448    -6338    -6251    -6172    -6104    -6073 
   -6075    -6088    -6110    -6153    -6228    -6336    -6478    -6632 
   -6764    -6864    -6933    -6968    -6984    -7007    -7026    -7021 
   -6972    -6881    -6777    -6667    -6564    -6492    -6448    -6401 
   -6323    -6238    -6183    -6154    -6110    -6069    -6081    -6131 
   -6162    -6156    -6129    -6088    -6029    -5971    -5934    -5904 
   -5873    -5833    -5749    -5574    -5292    -4966    -4676    -4452 
   -4306    -4253    -4293    -4387    -4486    -4581    -4685    -4788 
   -4888    -4978    -5057    -5140    -5263    -5440    -5634    -5782 
   -5846    -5841    -5817    -5827    -5872    -5930    -5976    -5988 
   -5992    -6019    -6044    -6035    -5994    -5949    -5898    -5834 
   -5803    -5859    -6014    -6273    -6628    -7045    -7477    -7879 
   -8202    -8436    -8608    -8708    -8719    -8671    -8591    -8476 
   -8341    -8193    -8009    -7771    -7491    -7180    -6848    -6502 
   -6170    -5880    -5649    -5508    -5487    -5597    -5813    -6079 
   -6326    -6511    -6621    -6671    -6686    -6671    -6660    -6700 
   -6763    -6812    -6841    -6829    -6751    -6623    -6501    -6434 
   -6396    -6340    -6251    -6147    -6052    -5984    -5973    -6041 
   -6161    -6301    -6440    -6564    -6671    -6756    -6797    -6804 
   -6798    -6785    -6768    -6759    -6733    -6673    -6593    -6492 
   -6351    -6184    -6039    -5952    -5910    -5904    -5935    -5980 
   -6023    -6088    -6191    -6323    -6455    -6571    -6654    -6685 
   -6686    -6681    -6666    -6619    -6508    -6322    -6087    -5850 
   -5661    -5536    -5462    -5422    -5406    -5379    -5319    -5251 
   -5223    -5244    -5293    -5336    -5354    -5328    -5248    -5157 
   -5108    -5131    -5229    -5389    -5578    -5775    -5991    -6247 
   -6517    -6747    -6929    -7123    -7364    -7632    -7903    -8177 
   -8457    -8725    -8955    -9146    -9285    -9355    -9366    -9324 
   -9270    -9216    -9120    -8986    -8870    -8800    -8752    -8700 
   -8638    -8559    -8467    -8378    -8314    -8290    -8294    -8338 
   -8444    -8587    -8702    -8766    -8776    -8741    -8684    -8600 
   -8482    -8340    -8193    -8055    -7940    -7850    -7782    -7732 
   -7678    -7589    -7452    -7284    -7148    -7089    -7111    -7180 
   -7246    -7252    -7175    -7065    -6974    -6897    -6817    -6714 
   -6558    -6350    -6145    -5985    -5894    -5852    -5802    -5717 
   -5620    -5533    -5448    -5339    -5194    -5024    -4807    -4526 
   -4178    -3773    -3329    -2879    -2461    -2111    -1838    -1636 
   -1505    -1445    -1417    -1393    -1375    -1366    -1372    -1408 
   -1467    -1533    -1575    -1552    -1455    -1327    -1185    -1008 
    -784     -558     -361     -217     -152     -152     -186     -259 
    -376     -538     -738     -951    -1139    -1285    -1391    -1480 
   -1564    -1606    -1595    -1567    -1557    -1545    -1471    -1313 
   -1121     -965     -900     -950    -1107    -1360    -1699    -2100 
   -2546    -3046    -3596    -4147    -4641    -5062    -5452    -5857 
   -6277    -6679    -7007    -7207    -7296    -7358    -7453    -7614 
   -7870    -8232    -8698    -9228    -9737   -10169   -10503   -10689 
  -10712   -10617   -10440   -10176    -9798    -9279    -8619    -7888 
   -7192    -6620    -6224    -6021    -5973    -6042    -6203    -6444 
   -6759    -7086    -7346    -7528    -7701    -7956    -8326    -8780 
   -9256    -9697   -10073   -10392   -10662   -10876   -11025   -11099 
  -11084   -10967   -10746   -10444   -10111    -9779    -9437    -9066 
   -8712    -8421    -8191    -8058    -8083    -8264    -8525    -8768 
   -8935    -8999    -8937    -8787    -8600    -8375    -8085    -7699 
   -7248    -6835    -6529    -6378    -6435    -6713    -7163    -7685 
   -8195    -8625    -8878    -8877    -8625    -8177    -7611    -6995 
   -6385    -5852    -5490    -5375    -5533    -5940    -6509    -7119 
   -7696    -8229    -8699    -9061    -9281    -9352    -9297    -9194 
   -9144    -9219    -9428    -9707    -9999   -10314   -10681   -11130 
  -11659   -12206   -12684   -13009   -13122   -13018   -12750   -12403 
  -12082   -11874   -11801   -11836   -11927   -11985   -11912   -11620 
  -11079   -10345    -9502    -8607    -7692    -6762    -5823    -4918 
   -4118    -3480    -3002    -2609    -2224    -1877    -1713    -1854 
   -2311    -3014    -3873    -4814    -5821    -6872    -7860    -8621 
   -9023    -9012    -8648    -8028    -7226    -6349    -5493    -4691 
   -3950    -3276    -2695    -2261    -2069    -2196    -2617    -3261 
   -4069    -4934    -5694    -6270    -6664    -6924    -7115    -7284 
   -7460    -7680    -7916    -8064    -8004    -7669    -7082    -6345 
   -5571    -4833    -4149    -3516    -2928    -2386    -1921    -1568 
   -1358    -1320    -1483    -1857    -2425    -3172    -4082    -5092 
   -6077    -6876    -7352    -7464    -7283    -6912    -6382    -5676 
   -4808    -3870    -3019    -2374    -1956    -1729    -1614    -1524 
   -1409    -1247    -1039     -810     -585     -379     -225     -149 
     -97       -4      156      394      664      874      954      884 
     700      448      141     -210     -553     -831    -1038    -1189 
   -1259    -1235    -1132     -953     -697     -399     -141      -67 
    -257     -629    -1053    -1413    -1599    -1557    -1340    -1097 
   -1017    -1227    -1701    -2315    -2941    -3478    -3877    -4195 
   -4563    -5116    -5925    -6903    -7859    -8607    -9069    -9320 
   -9506    -9725   -10017   -10359   -10654   -10783   -10698   -10447 
  -10197   -10083   -10072   -10053    -9921    -9567    -8920    -8037 
   -7064    -6126    -5309    -4644    -4106    -3680    -3343    -3078 
   -2895    -2808    -2782    -2781    -2764    -2718    -2654    -2623 
   -2708    -2975    -3419    -3964    -4502    -4985    -5443    -5953 
   -6573    -7295    -8020    -8611    -8942    -8932    -8612    -8116 
   -7545    -6872    -6016    -4972    -3839    -2768    -1900    -1310 
   -1026    -1047    -1374    -1971    -2745    -3561    -4270    -4785 
   -5135    -5422    -5746    -6169    -6705    -7344    -8081    -8918 
   -9815   -10687   -11453   -12071   -12505   -12691   -12568   -12105 
  -11325   -10282    -9066    -7794    -6633    -5733    -5174    -4984 
   -5136    -5539    -6089    -6710    -7354    -7985    -8548    -9009 
   -9379    -9697   -10054   -10530   -11125   -11805   -12517   -13181 
  -13733   -14107   -14204   -13942   -13306   -12359   -11226   -10092 
   -9107    -8289    -7576    -6929    -6385    -6044    -5935    -5937 
   -5913    -5853    -5841    -5948    -6156    -6361    -6481    -6497 
   -6465    -6465    -6539    -6643    -6721    -6721    -6623    -6494 
   -6486    -6750    -7323    -8120    -9031    -9988   -10929   -11816 
  -12622   -13271   -13663   -13743   -13529   -13080   -12414   -11537 
  -10517    -9440    -8348    -7296    -6370    -5649    -5138    -4756 
   -4393    -3983    -3508    -3001    -2513    -2120    -1914    -1988 
   -2403    -3132    -4036    -4934    -5710    -6353    -6889    -7350 
   -7739    -8009    -8127    -8087    -7878    -7528    -7119    -6713 
   -6315    -5902    -5467    -5024    -4558    -4012    -3352    -2627 
   -1907    -1208     -521      117      623      913      972      846 
     585      168     -441    -1209    -2037    -2811    -3474    -4027 
   -4482    -4852    -5162    -5389    -5470    -5320    -4914    -4365 
   -3874    -3572    -3497    -3609    -3832    -4121    -4428    -4684 
   -4827    -4795    -4548    -4079    -3435    -2745    -2128    -1615 
   -1210     -903     -665     -518     -571     -943    -1649    -2584 
   -3593    -4518    -5231    -5667    -5852    -5892    -5935    -6070 
   -6269    -6462    -6620    -6744    -6805    -6758    -6596    -6345 
   -6062    -5810    -5605    -5432    -5289    -5181    -5136    -5221 
   -5501    -5965    -6511    -7025    -7464    -7836    -8144    -8356 
   -8469    -8533    -8606    -8668    -8633    -8394    -7902    -7214 
   -6467    -5811    -5328    -4994    -4716    -4415    -4088    -3801 
   -3636    -3615    -3690    -3792    -3889    -4005    -4174    -4376 
   -4584    -4814    -5108    -5483    -5887    -6218    -6408    -6462 
   -6416    -6323    -6232    -6148    -6069    -6027    -6044    -6122 
   -6265    -6439    -6571    -6628    -6639    -6659    -6723    -6809 
   -6851    -6801    -6664    -6501    -6355    -6204    -6011    -5780 
   -5549    -5377    -5314    -5368    -5502    -5670    -5834    -5975 
   -6092    -6193    -6289    -6434    -6667    -6966    -7261    -7480 
   -7584    -7595    -7515    -7290    -6914    -6475    -6073    -5768 
   -5551    -5355    -5175    -5088    -5130    -5281    -5493    -5714 
   -5911    -6048    -6054    -5944    -5826    -5771    -5778    -5867 
   -6050    -6301    -6602    -6951    -7280    -7501    -7608    -7669 
   -7743    -7827    -7900    -7974    -8062    -8116    -8068    -7920 
   -7746    -7603    -7473    -7322    -7137    -6943    -6777    -6686 
   -6679    -6718    -6750    -6755    -6754    -6737    -6659    -6498 
   -6290    -6080    -5911    -5821    -5807    -5838    -5902    -5991 
   -6034    -5926    -5633    -5260    -4946    -4754    -4680    -4684 
   -4743    -4852    -4993    -5152    -5370    -5665    -6011    -6361 
   -6689    -6980    -7249    -7500    -7699    -7809    -7860    -7896 
   -7935    -7992    -8068    -8149    -8208    -8212    -8118    -7928 
   -7688    -7423    -7125    -6790    -6430    -6039    -5633    -5273 
   -5036    -4946    -4968    -5032    -5097    -5136    -5119    -5027 
   -4866    -4638    -4337    -3950    -3510    -3118    -2852    -2708 
   -2668    -2751    -2984    -3376    -3886    -4431    -4911    -5221 
   -5324    -5287    -5243    -5301    -5491    -5751    -5999    -6181 
   -6243    -6147    -5883    -5485    -5053    -4689    -4449    -4344 
   -4356    -4450    -4606    -4818    -5043    -5243    -5395    -5489 
   -5536    -5567    -5616    -5688    -5755    -5784    -5772    -5740 
   -5749    -5842    -5984    -6127    -6276    -6443    -6623    -6813 
   -7041    -7369    -7831    -8363    -8847    -9184    -9317    -9229 
   -8942    -8557    -8205    -7952    -7789    -7677    -7561    -7387 
   -7115    -6766    -6388    -5999    -5636    -5375    -5251    -5198 
   -5125    -5005    -4896    -4860    -4891    -4951    -5012    -5084 
   -5242    -5571    -6097    -6766    -7461    -8083    -8565    -8861 
   -8968    -8916    -8739    -8484    -8190    -7863    -7530    -7222 
   -6947    -6711    -6523    -6361    -6195    -5998    -5795    -5634 
   -5535    -5489    -5497    -5560    -5692    -5911    -6224    -6617 
   -7069    -7565    -8081    -8563    -8953    -9221    -9378    -9462 
   -9512    -9522    -9462    -9322    -9136    -8935    -8758    -8653 
   -8614    -8584    -8517    -8398    -8233    -8035    -7840    -7731 
   -7782    -8004    -8322    -8617    -8787    -8835    -8824    -8776 
   -8688    -8576    -8467    -8380    -8311    -8252    -8201    -8122 
   -7950    -7646    -7254    -6839    -6442    -6108    -5891    -5822 
   -5898    -6039    -6160    -6238    -6322    -6451    -6629    -6844 
   -7060    -7202    -7198    -7022    -6710    -6359    -6077    -5898 
   -5796    -5715    -5601    -5414    -5174    -4974    -4885    -4897 
   -4968    -5077    -5239    -5510    -5919    -6417    -6914    -7338 
   -7649    -7859    -8048    -8279    -8536    -8745    -8814    -8664 
   -8310    -7870    -7469    -7196    -7086    -7110    -7221    -7353 
   -7419    -7372    -7214    -7009    -6881    -6917    -7103    -7364 
   -7593    -7717    -7736    -7712    -7732    -7873    -8141    -8474 
   -8769    -8937    -8918    -8688    -8268    -7731    -7179    -6697 
   -6338    -6120    -6021    -5956    -5853    -5706    -5562    -5470 
   -5443    -5464    -5525    -5609    -5682    -5709    -5665    -5570 
   -5474    -5404    -5370    -5377    -5414    -5445    -5447    -5391 
   -5256    -5055    -4849    -4739    -4812    -5063    -5405    -5729 
   -5967    -6103    -6173    -6228    -6315    -6465    -6660    -6809 
   -6840    -6790    -6732    -6748    -6886    -7110    -7312    -7415 
   -7383    -7230    -7022    -6832    -6690    -6569    -6426    -6250 
