Origin Time       2016/04/16 01:25:00
Lat.              32.753
Long.             130.762
Depth. (km)       12
Mag.              7.3
Station Code      SMN014
Station Lat.      34.4668
Station Long.     131.7752
Station Height(m) 150
Record Time       2016/04/16 01:25:43
Sampling Freq(Hz) 100Hz
Duration Time(s)  114
Dir.              N-S
Scale Factor      7845(gal)/8223790
Max. Acc. (gal)   12.566
Last Correction   2016/04/16 01:25:43
Memo.             
[...]
    8733     8900     8885     8567     8040     7449     6910     6544 
    6382     6377     6531     6844     7209     7499     7685     7811 
    7908     7989     8019     7963     7865     7862     8063     8480 
    9076     9768    10419    10940    11335    11623    11805    11850 
   11677    11246    10605     9877     9212     8692     8275     7854 
    7388     6944     6633     6519     6569     6671     6705     6670 
    6667     6781     7051     7465     7928     8310     8529     8579 
    8533     8482     8473     8533     8631     8658     8543     8328 
    8141     8144     8387     8738     9058     9304     9479     9607 
    9695     9707     9568     9215     8725     8286     8012     7881 
    7846     7865     7931     8067     8243     8372     8390     8316 
    8195     8068     7950     7813     7645     7488     7431     7533 
    7777     8110     8454     8735     8916     8988     8938     8781 
    8552     8280     8006     7763     7515     7222     6906     6646 
    6535     6629     6881     7209     7562     7935     8298     8594 
    8818     8982     9053     9016     8927     8841     8761     8685 
    8614     8549     8494     8428     8352     8305     8260     8187 
    8093     7977     7848     7738     7693     7773     8020     8403 
    8829     9194     9423     9450     9242     8860     8421     8035 
    7784     7689     7708     7789     7905     8002     8029     7979 
    7860     7707     7589     7542     7543     7586     7662     7730 
    7766     7735     7600     7427     7318     7304     7400     7619 
    7950     8431     9076     9786    10447    10916    11052    10860 
   10431     9859     9261     8668     8089     7604     7267     7079 
    7045     7094     7114     7089     7103     7203     7389     7631 
    7882     8156     8510     8918     9274     9467     9418     9182 
    8876     8553     8259     8037     7928     7964     8109     8286 
    8453     8553     8487     8226     7867     7538     7304     7209 
    7307     7626     8159     8888     9693    10415    10944    11217 
   11223    11014    10646    10172     9603     8916     8156     7433 
    6858     6525     6438     6496     6629     6805     6960     7067 
    7184     7334     7537     7871     8338     8824     9220     9436 
    9435     9289     9131     9020     8908     8746     8549     8332 
    8120     7978     7942     7973     8031     8089     8118     8156 
    8281     8483     8721     9024     9401     9803    10169    10453 
   10601    10519    10145     9535     8815     8147     7642     7263 
    6916     6577     6297     6189     6347     6787     7456     8276 
    9158     9958    10532    10782    10646    10164     9502     8820 
    8220     7812     7638     7608     7619     7595     7491     7314 
    7109     6928     6802     6754     6817     6993     7294     7785 
    8451     9144     9730    10145    10396    10521    10486    10219 
    9745     9219     8854     8760     8847     8964     9020     9003 
    8966     8969     8974     8900     8700     8370     7950     7506 
    7056     6578     6120     5792     5629     5628     5811     6100 
    6323     6463     6621     6893     7338     7950     8608     9177 
    9614     9936    10119    10176    10162    10114    10014     9850 
    9633     9343     8953     8490     8001     7518     7089     6774 
    6602     6623     6864     7275     7765     8299     8862     9412 
    9923    10362    10644    10679    10465    10076     9618     9171 
    8726     8248     7781     7381     7101     6966     6943     6939 
    6835     6543     6137     5807     5698     5836     6138     6509 
    6928     7384     7803     8120     8324     8403     8361     8255 
    8127     7974     7811     7651     7508     7430     7497     7700 
    7909     8021     8017     7952     7911     7948     8073     8307 
    8694     9234     9863    10459    10881    10991    10733    10173 
    9502     8929     8527     8225     7983     7835     7840     8047 
    8375     8626     8680     8538     8267     7989     7785     7607 
    7398     7167     7006     7025     7214     7512     7909     8361 
    8789     9147     9424     9624     9741     9792     9829     9882 
    9942     9926     9721     9296     8745     8259     7990     7916 
    7931     7967     8000     8078     8236     8418     8576     8733 
    8941     9198     9431     9551     9533     9428     9308     9200 
    9123     9090     9100     9169     9294     9467     9660     9792 
    9828     9837     9857     9865     9837     9729     9504     9224 
    8977     8776     8638     8556     8471     8363     8235     8091 
    7959     7852     7749     7654     7603     7614     7723     8017 
    8523     9116     9602     9853     9863     9730     9510     9178 
    8749     8324     8054     8028     8189     8424     8668     8878 
    9045     9188     9304     9354     9328     9256     9174     9099 
    9004     8873     8730     8607     8543     8542     8565     8650 
    8834     9034     9144     9090     8827     8441     8054     7645 
    7186     6754     6454     6376     6574     7029     7635     8237 
    8734     9097     9296     9305     9166     8965     8749     8536 
    8357     8203     8078     8032     8089     8271     8557     8841 
    9032     9104     9038     8802     8394     7902     7485     7273 
    7356     7739     8271     8803     9255     9526     9593     9537 
    9391     9180     8984     8822     8669     8540     8453     8411 
    8417     8464     8530     8587     8664     8837     9142     9552 
   10004    10399    10646    10751    10798    10801    10740    10620 
   10358     9867     9216     8537     7920     7403     6940     6505 
    6134     5837     5593     5424     5385     5483     5682     5965 
    6361     6906     7588     8301     8920     9362     9556     9530 
    9412     9255     9070     8892     8699     8431     8085     7669 
    7175     6679     6351     6297     6517     7018     7796     8719 
    9605    10328    10779    10957    11006    11013    10944    10778 
   10509    10088     9501     8819     8166     7635     7298     7159 
    7140     7172     7223     7281     7353     7449     7569     7717 
    7870     7990     8095     8177     8186     8068     7811     7512 
    7277     7110     7049     7177     7487     7890     8319     8752 
    9198     9656    10062    10336    10477    10537    10532    10442 
   10281    10085     9883     9683     9501     9350     9197     9032 
    8927     8908     8938     9001     9082     9167     9297     9530 
    9823    10044    10126    10072     9868     9555     9225     8903 
    8563     8202     7798     7377     7028     6787     6658     6650 
    6756     6955     7215     7528     7892     8286     8746     9315 
    9984    10679    11276    11665    11808    11696    11358    10901 
   10444    10029     9598     9131     8742     8513     8322     7978 
    7430     6782     6216     5926     5981     6285     6741     7269 
    7759     8152     8383     8383     8259     8175     8181     8241 
    8324     8441     8619     8833     9066     9252     9289     9220 
    9140     9040     8941     8910     8932     8995     9142     9327 
    9432     9459     9487     9555     9690     9879    10003     9938 
    9643     9170     8621     8020     7345     6608     5844     5147 
    4673     4500     4610     4916     5283     5620     5981     6509 
    7245     8032     8664     9032     9111     8992     8843     8745 
    8658     8557     8434     8333     8306     8303     8233     8135 
    8056     7971     7920     7958     7992     7966     7987     8175 
    8553     9050     9567    10085    10604    11082    11421    11499 
   11340    11092    10802    10413     9879     9184     8410     7711 
    7210     6947     6836     6801     6878     7079     7406     7854 
    8278     8510     8586     8618     8691     8858     9119     9355 
    9463     9448     9339     9097     8738     8371     8101     7989 
    8004     8047     8114     8319     8679     9051     9335     9518 
    9624     9715     9865    10044    10149    10126     9954     9634 
    9243     8860     8459     8067     7788     7627     7515     7392 
    7234     7130     7137     7150     7061     6879     6677     6517 
    6405     6270     6091     5961     5973     6142     6493     6990 
    7472     7836     8067     8087     7846     7398     6814     6203 
    5736     5499     5481     5595     5721     5822     6002     6346 
    6820     7391     8129     9038     9944    10701    11300    11739 
   12036    12177    12028    11521    10806    10057     9360     8737 
    8158     7595     7106     6806     6717     6704     6619     6424 
    6241     6268     6551     6964     7346     7596     7773     7994 
    8251     8486     8665     8711     8645     8640     8804     9096 
    9414     9718    10065    10497    10957    11375    11681    11790 
   11624    11198    10731    10438    10253     9972     9544     9022 
    8507     8156     8006     7928     7836     7770     7732     7731 
    7859     8095     8333     8529     8665     8749     8804     8770 
    8642     8553     8658     9073     9721    10280    10455    10173 
    9517     8669     7824     7072     6426     5950     5745     5722 
    5672     5519     5332     5215     5289     5560     5934     6374 
    6875     7398     7882     8257     8486     8612     8703     8789 
    8873     8924     8899     8787     8641     8515     8391     8235 
    8085     8051     8186     8441     8733     8997     9173     9271 
    9400     9598     9761     9799     9687     9427     9137     8970 
    8896     8787     8550     8257     8068     8024     8056     8139 
    8290     8545     8820     8959     8924     8776     8662     8700 
    8772     8730     8595     8418     8303     8347     8483     8641 
    8845     9076     9329     9674    10049    10346    10606    10895 
   11160    11383    11607    11782    11838    11858    11865    11703 
   11321    10793    10219     9778     9562     9490     9467     9425 
    9362     9300     9227     9190     9235     9308     9355     9342 
    9277     9201     9076     8842     8519     8118     7684     7304 
    7023     6867     6858     6934     7072     7326     7676     8058 
    8477     8918     9329     9729    10068    10260    10382    10550 
   10754    10937    11080    11159    11126    10967    10750    10540 
   10369    10227    10021     9655     9151     8563     7931     7321 
    6760     6273     5967     5876     5908     6022     6234     6582 
    7123     7780     8368     8802     9103     9294     9370     9290 
    9000     8467     7728     6866     5965     5070     4159     3222 
    2319     1475      668      -87     -765    -1297    -1602    -1764 
   -1934    -2104    -2157    -1995    -1540     -767      222     1321 
    2471     3557     4486     5314     6133     7051     8225     9721 
   11484    13402    15277    16912    18226    19197    19757    19737 
   18971    17455    15352    12951    10574     8449     6693     5277 
    4145     3329     2829     2613     2660     2822     2930     2986 
    3090     3407     4087     5112     6417     7911     9390    10674 
   11669    12272    12422    12197    11765    11292    10941    10835 
   10963    11192    11418    11618    11668    11443    11013    10507 
    9989     9497     9054     8667     8319     7989     7685     7461 
    7364     7354     7361     7388     7443     7477     7479     7510 
    7650     7997     8641     9545    10638    11970    13590    15337 
   16966    18300    19159    19325    18659    17209    15167    12748 
   10164     7650     5479     3932     3213     3364     4270     5648 
    7148     8546     9738    10604    11078    11213    11060    10746 
   10451    10204     9987     9840     9697     9475     9194     8827 
    8368     7981     7827     7966     8421     9178    10150    11214 
   12155    12688    12619    11982    10980     9832     8733     7927 
    7638     7963     8861    10121    11470    12707    13614    14014 
   13941    13504    12711    11485     9790     7789     5833     4275 
    3319     2949     3049     3464     4005     4585     5221     5888 
    6585     7353     8176     9055     9987    10862    11562    11958 
   11889    11418    10788    10139     9518     8996     8614     8398 
    8397     8629     9011     9371     9614     9775     9819     9684 
    9397     8901     8129     7211     6346     5694     5347     5202 
    5161     5297     5776     6729     8135     9842    11708    13520 
   15082    16320    17103    17316    17014    16227    15037    13772 
   12660    11624    10575     9506     8444     7515     6832     6370 
    6089     5981     6043     6258     6524     6700     6782     6881 
    7098     7546     8217     8823     9088     8961     8513     7919 
    7364     6926     6650     6524     6478     6475     6470     6412 
    6280     5999     5545     5054     4685     4622     5055     6016 
    7384     8931    10323    11319    11844    11874    11377    10343 
    8937     7411     5967     4769     3848     3105     2594     2482 
    2874     3871     5463     7383     9263    10808    11859    12441 
   12636    12402    11668    10485     8919     7072     5173     3295 
    1354     -548    -2226    -3568    -4436    -4723    -4475    -3734 
   -2536    -1069      403     1675     2608     3123     3303     3423 
    3747     4348     5228     6309     7414     8417     9229     9765 
   10022    10027     9810     9420     8949     8494     8110     7881 
    7992     8560     9548    10805    12094    13259    14219    14856 
   15101    14878    14125    12941    11442     9668     7746     5907 
    4363     3196     2415     2034     2016     2293     2833     3568 
    4380     5196     5987     6690     7234     7581     7761     7931 
    8253     8745     9340     9971    10584    11157    11619    11857 
   11873    11769    11608    11438    11331    11325    11365    11452 
   11627    11889    12252    12707    13127    13397    13446    13209 
   12739    12102    11306    10403     9468     8610     7997     7715 
    7726     7952     8166     8032     7538     6961     6407     5957 
    5861     6212     6972     8197     9842    11674    13367    14605 
   15186    14997    14047    12523    10646     8573     6501     4591 
    2909     1568      691      255      217      544     1144     1911 
    2701     3465     4275     5088     5757     6177     6326     6331 
    6467     6921     7580     8276     8959     9510     9832     9938 
    9844     9622     9336     8951     8463     7865     7171     6444 
    5672     4808     3842     2776     1722      949      730     1229 
    2407     4000     5665     7132     8295     9204     9871    10215 
   10265    10153     9936     9545     8945     8372     8159     8256 
    8486     9004     9913    10956    11904    12672    13166    13325 
   13166    12921    12937    13151    13181    12908    12433    11890 
   11495    11353    11391    11549    11715    11674    11296    10598 
    9699     8737     7823     7123     6758     6569     6389     6394 
    6706     7150     7707     8533     9626    10936    12395    13829 
   15215    16634    18007    19163    19916    20139    19776    18796 
   17316    15545    13531    11325     9163     7281     5819     4803 
    4052     3407     2997     3103     3836     5054     6477     7808 
    8883     9644    10049    10162    10095     9846     9431     8951 
    8499     8129     7842     7573     7253     6883     6490     6104 
    5817     5706     5713     5791     6019     6363     6635     6663 
    6349     5725     4956     4200     3563     3154     3033     3203 
    3700     4504     5439     6196     6454     6066     5101     3757 
    2327     1032      -67     -895    -1279    -1063     -129     1568 
    3960     6760     9549    11979    13826    14998    15610    15882 
   15842    15387    14590    13616    12607    11724    10998    10323 
    9558     8596     7493     6424     5559     4980     4707     4719 
    4973     5514     6459     7739     9150    10561    11793    12664 
   13177    13393    13324    12961    12280    11280     9979     8428 
    6716     4916     3177     1709      602     -136     -526     -588 
    -263      514     1783     3526     5557     7657     9668    11487 
   13020    14089    14546    14389    13679    12588    11368    10139 
    9034     8256     7855     7749     7871     8110     8317     8407 
    8334     8066     7655     7206     6789     6524     6637     7238 
    8171     9104     9683     9728     9294     8572     7751     6883 
    5967     5089     4352     3793     3426     3222     3064     2795 
    2357     1852     1505     1518     2004     2967     4327     5917 
    7499     8870     9910    10559    10801    10706    10397     9958 
    9440     8935     8517     8208     8028     7989     8051     8212 
    8454     8645     8607     8279     7709     6945     6052     5220 
    4729     4737     5162     5842     6658     7482     8215     8905 
    9651    10494    11415    12248    12735    12758    12464    12168 
   11929    11422    10523     9474     8446     7512     6828     6462 
    6288     6124     5953     5975     6365     7030     7736     8436 
    9216    10017    10698    11275    11857    12373    12559    12279 
   11646    10841     9984     9097     8215     7446     6878     6523 
    6340     6385     6713     7163     7553     7921     8295     8600 
    8849     9228     9832    10504    11002    11199    11148    10999 
   10828    10609    10368    10161     9983     9807     9640     9559 
    9661     9880    10068    10187    10247    10249    10241    10331 
   10585    10984    11430    11843    12248    12660    12985    13112 
   12958    12469    11691    10735     9715     8791     8017     7229 
    6303     5348     4529     3925     3582     3574     3910     4475 
    5209     6142     7302     8723    10353    12100    13894    15572 
   16923    17768    17940    17463    16506    15172    13645    12094 
   10523     9023     7758     6814     6258     6069     6100     6250 
    6519     6886     7236     7491     7635     7607     7422     7200 
    6975     6744     6536     6342     6191     6172     6369     6880 
    7747     8845     9958    10870    11412    11570    11454    11142 
   10686    10169     9621     9090     8676     8391     8160     7940 
    7747     7642     7690     7974     8517     9196     9829    10339 
   10709    10867    10773    10481    10068     9655     9344     9161 
    9124     9198     9312     9474     9661     9815     9922     9953 
    9841     9571     9167     8637     7973     7218     6465     5753 
    5143     4754     4604     4650     4881     5190     5476     5798 
    6161     6531     6941     7342     7599     7668     7558     7296 
    7011     6797     6659     6664     6858     7153     7482     7830 
    8132     8333     8490     8679     8896     9109     9216     9073 
    8692     8220     7777     7404     7069     6750     6482     6303 
