Origin Time       2016/04/16 01:25:00
Lat.              32.753
Long.             130.762
Depth. (km)       12
Mag.              7.3
Station Code      SMN011
Station Lat.      34.5718
Station Long.     132.0141
Station Height(m) 265
Record Time       2016/04/16 01:25:48
Sampling Freq(Hz) 100Hz
Duration Time(s)  104
Dir.              N-S
Scale Factor      7845(gal)/8223790
Max. Acc. (gal)   4.581
Last Correction   2016/04/16 01:25:49
Memo.             
[...]
    -602     -824     -987    -1051    -1047    -1021     -982     -947 
    -978    -1065    -1101    -1032     -942     -936    -1023    -1142 
   -1233    -1243    -1143    -1013     -989    -1113    -1277    -1348 
   -1323    -1278    -1267    -1274    -1246    -1143     -966     -766 
    -635     -621     -695     -828    -1000    -1161    -1297    -1425 
   -1509    -1471    -1308    -1105     -923     -777     -702     -743 
    -882     -982     -938     -828     -805     -882     -947     -943 
    -913     -897     -920    -1016    -1154    -1242    -1219    -1113 
   -1000     -924     -895     -911     -949     -987    -1053    -1179 
   -1333    -1414    -1360    -1230    -1127    -1057     -990     -928 
    -873     -820     -805     -855     -929     -961     -934     -911 
    -932     -980    -1036    -1109    -1197    -1312    -1470    -1658 
   -1842    -1979    -2030    -2007    -1945    -1863    -1769    -1699 
   -1660    -1609    -1520    -1422    -1332    -1205    -1019     -812 
    -648     -579     -619     -700     -745     -765     -845    -1011 
   -1215    -1382    -1452    -1426    -1367    -1314    -1264    -1209 
   -1169    -1182    -1275    -1401    -1494    -1547    -1605    -1694 
   -1759    -1691    -1452    -1144     -926     -881     -982    -1146 
   -1298    -1378    -1371    -1362    -1457    -1668    -1859    -1876 
   -1717    -1509    -1379    -1366    -1405    -1418    -1385    -1350 
   -1355    -1393    -1399    -1313    -1147     -978     -885     -886 
    -927     -951     -982    -1073    -1205    -1302    -1314    -1260 
   -1173    -1070     -987     -963     -992    -1032    -1098    -1248 
   -1455    -1605    -1644    -1649    -1690    -1717    -1628    -1416 
   -1181    -1051    -1070    -1159    -1221    -1217    -1167    -1139 
   -1190    -1314    -1431    -1467    -1431    -1390    -1404    -1478 
   -1547    -1557    -1517    -1471    -1476    -1557    -1665    -1713 
   -1641    -1467    -1250    -1030     -832     -723     -758     -908 
   -1065    -1142    -1128    -1107    -1163    -1282    -1368    -1332 
   -1206    -1120    -1152    -1258    -1345    -1386    -1420    -1489 
   -1591    -1718    -1842    -1904    -1883    -1833    -1833    -1869 
   -1868    -1803    -1722    -1664    -1620    -1552    -1498    -1520 
   -1597    -1640    -1613    -1566    -1535    -1530    -1545    -1554 
   -1525    -1467    -1439    -1499    -1609    -1632    -1509    -1297 
   -1096     -996    -1039    -1169    -1263    -1282    -1267    -1239 
   -1205    -1198    -1188    -1088     -882     -692     -668     -838 
   -1094    -1308    -1397    -1379    -1333    -1316    -1310    -1255 
   -1094     -847     -603     -464     -483     -616     -731     -750 
    -753     -869    -1115    -1398    -1640    -1849    -2047    -2196 
   -2242    -2192    -2074    -1907    -1703    -1495    -1316    -1200 
   -1171    -1196    -1208    -1185    -1127    -1016     -842     -681 
    -649     -765     -939    -1080    -1183    -1316    -1505    -1686 
   -1772    -1740    -1632    -1514    -1420    -1331    -1242    -1194 
   -1209    -1247    -1273    -1336    -1493    -1667    -1706    -1570 
   -1367    -1248    -1251    -1287    -1270    -1237    -1278    -1413 
   -1574    -1649    -1575    -1420    -1294    -1237    -1220    -1220 
   -1251    -1317    -1383    -1425    -1445    -1435    -1381    -1316 
   -1297    -1334    -1395    -1463    -1535    -1605    -1671    -1715 
   -1713    -1671    -1615    -1537    -1413    -1258    -1105     -981 
    -899     -857     -862     -947    -1088    -1140    -1024     -830 
    -684     -622     -641     -733     -849     -963    -1127    -1377 
   -1648    -1796    -1744    -1543    -1306    -1084     -877     -723 
    -681     -773     -962    -1155    -1213    -1086     -913     -882 
   -1016    -1179    -1243    -1192    -1133    -1177    -1296    -1347 
   -1227    -1004     -869     -942    -1158    -1352    -1425    -1420 
   -1416    -1425    -1417    -1377    -1301    -1208    -1136    -1104 
   -1065     -969     -822     -704     -668     -641     -521     -319 
    -149      -68      -47      -63     -105     -149     -211     -356 
    -573     -754     -837     -874     -949    -1080    -1215    -1313 
   -1397    -1498    -1591    -1641    -1636    -1568    -1397    -1129 
    -881     -772     -805     -897     -934     -853     -720     -672 
    -764     -912    -1013    -1071    -1166    -1332    -1528    -1694 
   -1765    -1682    -1428    -1093     -826     -723     -770     -870 
    -928     -926     -940    -1046    -1216    -1336    -1317    -1183 
   -1038     -907     -749     -588     -502     -480     -432     -324 
    -217     -220     -405     -718    -1009    -1189    -1260    -1247 
   -1183    -1115    -1080    -1092    -1133    -1171    -1181    -1174 
   -1200    -1251    -1240    -1124    -1000     -993    -1065    -1075 
    -959     -777     -658     -670     -746     -765     -685     -576 
    -525     -561     -657     -737     -728     -629     -523     -504 
    -592     -707     -730     -626     -481     -410     -467     -622 
    -781     -854     -827     -751     -683     -656     -696     -793 
    -899     -955     -967     -973     -990    -1008    -1013    -1015 
   -1031    -1044    -1019     -986    -1017    -1112    -1175    -1132 
   -1005     -855     -754     -761     -864     -989    -1035     -939 
    -747     -565     -493     -581     -765     -943    -1093    -1254 
   -1447    -1632    -1755    -1784    -1741    -1694    -1706    -1764 
   -1776    -1696    -1548    -1372    -1228    -1161    -1151    -1132 
   -1055     -929     -816     -777     -838     -953    -1026    -1009 
    -973    -1032    -1194    -1366    -1480    -1568    -1680    -1811 
   -1949    -2101    -2234    -2257    -2141    -1958    -1806    -1660 
   -1420    -1078     -776     -610     -523     -433     -344     -319 
    -386     -493     -557     -517     -409     -344     -407     -575 
    -726     -761     -715     -734     -920    -1215    -1452    -1532 
   -1491    -1417    -1336    -1233    -1113    -1000     -912     -873 
    -877     -847     -702     -473     -288     -201     -170     -125 
     -43       32       47       -9     -121     -268     -386     -434 
    -488     -596     -699     -734     -685     -552     -390     -322 
    -399     -558     -739     -909    -1035    -1109    -1146    -1133 
   -1081    -1026     -924     -724     -496     -373     -396     -503 
    -629     -702     -672     -595     -614     -719     -688     -369 
      64      311      299      189      122      137      180      135 
     -58     -321     -579     -807     -916     -895     -889     -966 
   -1005     -953     -886     -822     -685     -495     -378     -423 
    -575     -718     -838    -1031    -1291    -1514    -1667    -1771 
   -1819    -1833    -1891    -2008    -2064    -1923    -1614    -1334 
   -1242    -1282    -1298    -1223    -1075     -893     -811     -922 
   -1073    -1063     -922     -819     -843     -957    -1092    -1209 
   -1282    -1282    -1244    -1281    -1385    -1389    -1256    -1165 
   -1190    -1183    -1060     -970    -1024    -1094    -1042     -927 
    -864     -849     -853     -974    -1285    -1645    -1813    -1767 
   -1759    -1948    -2189    -2324    -2434    -2631    -2814    -2841 
   -2739    -2624    -2525    -2392    -2234    -2101    -1972    -1787 
   -1578    -1426    -1402    -1453    -1431    -1312    -1250    -1351 
   -1532    -1637    -1591    -1436    -1263    -1173    -1189    -1240 
   -1286    -1378    -1507    -1591    -1641    -1733    -1815    -1799 
   -1763    -1838    -1985    -2068    -2073    -2114    -2215    -2261 
   -2130    -1865    -1590    -1412    -1364    -1389    -1378    -1302 
   -1236    -1233    -1275    -1320    -1314    -1190     -962     -765 
    -708     -765     -805     -741     -629     -616     -731     -862 
    -962    -1055    -1050     -870     -680     -639     -668     -625 
    -560     -631     -830     -949     -942    -1075    -1501    -1937 
   -2058    -1903    -1677    -1499    -1421    -1443    -1429    -1262 
   -1004     -835     -859    -1012    -1159    -1267    -1386    -1480 
   -1449    -1323    -1264    -1316    -1345    -1290    -1235    -1228 
   -1237    -1293    -1439    -1566    -1494    -1251    -1111    -1248 
   -1479    -1553    -1452    -1316    -1290    -1398    -1543    -1636 
   -1606    -1405    -1143     -997    -1015    -1105    -1183    -1232 
   -1285    -1397    -1576    -1763    -1939    -2092    -2077    -1791 
   -1383    -1101     -984     -884     -750     -662     -665     -700 
    -737     -847    -1047    -1190    -1156    -1050    -1078    -1313 
   -1638    -1850    -1799    -1547    -1286    -1113    -1042    -1065 
   -1075     -923     -672     -523     -545     -670     -823     -931 
    -966     -981    -1046    -1182    -1345    -1439    -1398    -1266 
   -1125    -1004     -893     -834     -892    -1023    -1073    -1019 
   -1000    -1057    -1069     -970     -814     -652     -488     -328 
    -202     -120      -54       -2      -31     -180     -396     -598 
    -758     -866     -882     -800     -693     -643     -661     -688 
    -696     -702     -700     -621     -423     -178       -5       49 
      23      -60     -205     -383     -575     -804    -1065    -1282 
   -1416    -1482    -1522    -1613    -1755    -1821    -1752    -1645 
   -1591    -1583    -1567    -1439    -1121     -719     -415     -301 
    -380     -540     -625     -639     -700     -800     -877     -977 
   -1152    -1308    -1359    -1409    -1563    -1738    -1830    -1857 
   -1823    -1671    -1420    -1190    -1053     -961     -835     -680 
    -575     -626     -851    -1107    -1202    -1065     -823     -680 
    -687     -733     -695     -549     -432     -521     -805    -1151 
   -1509    -1867    -2151    -2340    -2505    -2601    -2446    -2006 
   -1525    -1229    -1117    -1090    -1043     -899     -719     -668 
    -764     -842     -810     -727     -639     -526     -432     -464 
    -626     -754     -769     -800     -958    -1188    -1385    -1520 
   -1551    -1413    -1163     -997    -1026    -1152    -1213    -1167 
   -1073     -976     -886     -843     -882     -918     -827     -681 
    -633     -661     -631     -503     -398     -448     -604     -687 
    -637     -562     -579     -730     -972    -1142    -1111     -970 
    -927    -1005     -989     -731     -387     -189     -133      -68 
      78      310      573      722      641      440      348      364 
     257      -65     -473     -837    -1116    -1340    -1552    -1753 
   -1919    -2041    -2130    -2239    -2396    -2536    -2542    -2359 
   -2049    -1715    -1433    -1230    -1096    -1012     -989    -1047 
   -1196    -1389    -1457    -1293    -1023     -815     -672     -518 
    -372     -336     -480     -769    -1071    -1266    -1333    -1371 
   -1448    -1514    -1486    -1391    -1308    -1194     -963     -689 
    -519     -454     -376     -216      -18       89       -4     -275 
    -610     -927    -1198    -1410    -1591    -1745    -1775    -1583 
   -1250     -986     -938    -1039    -1096     -977     -758     -612 
    -631     -708     -633     -342       13      288      444      484 
     410      248       75      -47     -126     -233     -395     -500 
    -469     -411     -459     -585     -720     -862    -1028    -1158 
   -1201    -1208    -1240    -1270    -1246    -1223    -1347    -1648 
   -1962    -2118    -2126    -2107    -2133    -2182    -2153    -1965 
   -1642    -1285    -1042    -1015    -1183    -1463    -1717    -1829 
   -1883    -2053    -2349    -2652    -2868    -2960    -2953    -2882 
   -2764    -2613    -2421    -2141    -1781    -1463    -1287    -1252 
   -1278    -1235    -1023     -708     -471     -355     -246     -124 
    -109     -240     -436     -642     -800     -812     -718     -681 
    -762     -843     -769     -522     -228      -62     -118     -295 
    -391     -324     -148       16       87       86      103      197 
     338      438      407      248       65      -39     -116     -294 
    -583     -869    -1059    -1107     -973     -704     -479     -413 
    -427     -369     -195       14      189      311      372      369 
     375      467      599      657      595      463      307      129 
     -62     -233     -396     -598     -826    -1035    -1202    -1320 
   -1381    -1404    -1399    -1325    -1188    -1107    -1182    -1360 
   -1545    -1715    -1887    -2046    -2193    -2354    -2485    -2474 
   -2319    -2161    -2157    -2357    -2636    -2841    -2929    -2956 
   -2988    -3103    -3343    -3649    -3915    -4133    -4341    -4546 
   -4754    -4951    -5071    -5066    -4974    -4864    -4773    -4710 
   -4635    -4434    -4045    -3597    -3289    -3202    -3271    -3349 
   -3311    -3215    -3241    -3430    -3643    -3769    -3773    -3624 
   -3350    -3096    -2982    -2926    -2774    -2485    -2120    -1755 
   -1503    -1482    -1683    -1929    -2043    -2008    -1923    -1903 
   -1969    -2022    -1966    -1859    -1863    -2079    -2416    -2695 
   -2847    -2940    -3017    -3033    -2979    -2871    -2640    -2245 
   -1773    -1347    -1020     -753     -468     -144      172      432 
     612      719      777      799      793      815      940     1246 
    1715     2219     2608     2852     3076     3375     3634     3686 
    3550     3392     3321     3291     3206     3003     2663     2227 
    1818     1548     1401     1266     1075      870      715      587 
     357      -28     -459     -799    -1005    -1101    -1128    -1123 
   -1048     -820     -493     -261     -209     -225     -205     -198 
    -311     -589    -1020    -1535    -2052    -2520    -2929    -3264 
   -3485    -3522    -3306    -2828    -2162    -1439     -767     -193 
     251      526      653      642      503      306      193      310 
     687     1175     1564     1765     1852     1872     1786     1606 
    1413     1208      916      523      105     -301     -767    -1363 
   -2004    -2563    -3011    -3353    -3535    -3526    -3358    -3099 
   -2822    -2575    -2359    -2162    -1999    -1930    -1991    -2121 
   -2200    -2077    -1707    -1229     -765     -299      114      310 
     216      -68     -392     -681     -950    -1230    -1524    -1792 
   -2001    -2178    -2347    -2471    -2461    -2254    -1877    -1460 
   -1128     -907     -767     -700     -715     -804     -843     -681 
    -326       32      265      400      471      472      440      406 
     299        0     -467     -874    -1020     -928     -791     -758 
    -795     -772     -684     -668     -784     -947    -1024     -872 
    -344      535     1543     2369     2789     2735     2290     1590 
     741     -189    -1077    -1701    -1917    -1794    -1528    -1275 
   -1115    -1080    -1173    -1368    -1632    -1933    -2281    -2678 
   -3042    -3279    -3361    -3277    -3037    -2695    -2330    -1991 
   -1686    -1435    -1297    -1298    -1397    -1539    -1690    -1815 
   -1890    -1926    -1993    -2126    -2267    -2413    -2673    -3090 
   -3523    -3788    -3828    -3719    -3532    -3289    -3003    -2679 
   -2300    -1892    -1571    -1445    -1514    -1664    -1786    -1859 
   -1935    -1995    -1953    -1732    -1358     -978     -747     -707 
    -787     -857     -847     -850     -990    -1286    -1668    -2101 
   -2565    -2986    -3249    -3261    -3049    -2754    -2500    -2315 
   -2153    -1989    -1868    -1841    -1877    -1859    -1719    -1517 
   -1402    -1498    -1755    -1993    -2137    -2303    -2629    -3119 
   -3662    -4112    -4311    -4152    -3713    -3230    -2905    -2756 
   -2623    -2349    -1925    -1489    -1189    -1051     -997     -928 
    -815     -738     -822    -1073    -1323    -1387    -1269    -1119 
   -1075    -1181    -1413    -1675    -1865    -1972    -2006    -1966 
   -1880    -1732    -1509    -1308    -1220    -1197    -1107     -843 
    -405       71      433      637      743      851      981     1030 
     854      448        9     -199      -91      201      488      618 
     540      363      248      253      244       25     -460    -1098 
   -1759    -2361    -2852    -3225    -3541    -3823    -3967    -3858 
   -3530    -3127    -2767    -2474    -2266    -2182    -2231    -2386 
   -2589    -2710    -2625    -2322    -1900    -1524    -1308    -1230 
   -1200    -1202    -1264    -1343    -1348    -1275    -1221    -1240 
   -1264    -1182     -969     -726     -603     -673     -877    -1035 
   -1050    -1065    -1297    -1755    -2231    -2501    -2502    -2428 
   -2573    -3021    -3554    -3906    -4041    -4078    -4088    -4055 
   -3904    -3561    -3021    -2405    -1933    -1721    -1663    -1597 
   -1522    -1556    -1737    -1980    -2133    -2081    -1768    -1196 
    -463      297     1017     1695     2295     2724     2914     2870 
    2613     2118     1328      319     -669    -1443    -1946    -2124 
   -1896    -1278     -379      695     1802     2718     3277     3492 
    3450     3177     2660     1934     1107      346     -229     -696 
   -1246    -1910    -2457    -2647    -2473    -2139    -1881    -1794 
   -1775    -1675    -1489    -1343    -1310    -1331    -1317    -1264 
   -1259    -1343    -1385    -1228     -943     -726     -689     -849 
   -1111    -1304    -1350    -1348    -1394    -1435    -1375    -1236 
   -1142    -1244    -1599    -2088    -2554    -2965    -3339    -3605 
   -3643    -3404    -2997    -2625    -2494    -2662    -2956    -3168 
   -3315    -3553    -3906    -4212    -4315    -4232    -4066    -3899 
   -3763    -3592    -3273    -2813    -2393    -2212    -2312    -2632 
   -3083    -3530    -3861    -4025    -4009    -3819    -3523    -3180 
   -2803    -2401    -2025    -1717    -1486    -1377    -1490    -1871 
   -2431    -3003    -3443    -3693    -3767    -3740    -3704    -3686 
   -3640    -3535    -3364    -3105    -2767    -2403    -2050    -1737 
   -1495    -1362    -1331    -1323    -1263    -1156    -1028     -896 
    -842     -981    -1270    -1521    -1605    -1498    -1255     -993 
    -793     -621     -449     -340     -322     -348     -369     -328 
    -148      125      337      422      459      481      399      136 
    -251     -611     -783     -666     -298      102      274      178 
       8     -125     -284     -579    -1055    -1615    -2068    -2263 
   -2150    -1777    -1324     -954     -664     -353      -11      259 
     379      390      364      294      152       -4     -108     -156 
    -131        2      160      174      -28     -395     -851    -1314 
   -1726    -2042    -2169    -2015    -1601     -999     -266      500 
    1123     1405     1289      854      263     -319     -819    -1235 
   -1551    -1719    -1710    -1554    -1360    -1275    -1393    -1669 
   -1953    -2123    -2191    -2173    -2012    -1698    -1348    -1132 
   -1146    -1390    -1799    -2278    -2714    -3015    -3208    -3383 
   -3563    -3715    -3763    -3650    -3415    -3184    -3024    -2890 
   -2677    -2284    -1674     -913     -232      136      176       65 
