Origin Time       2016/04/16 01:25:00
Lat.              32.753
Long.             130.762
Depth. (km)       12
Mag.              7.3
Station Code      SMN003
Station Lat.      35.1795
Station Long.     133.0929
Station Height(m) 332
Record Time       2016/04/16 01:26:47
Sampling Freq(Hz) 100Hz
Duration Time(s)  60
Dir.              E-W
Scale Factor      7845(gal)/8223790
Max. Acc. (gal)   2.102
Last Correction   2016/04/16 01:26:47
Memo.             
[...]
     953      962      959      946      928      911      882      837 
     805      797      793      783      774      783      796      822 
     853      868      868      855      843      841      837      810 
     778      761      739      723      730      764      797      815 
     838      877      918      927      949     1000     1019      989 
     938      890      850      828      823      814      812      826 
     845      857      864      869      866      872      884      882 
     862      838      815      773      741      734      727      693 
     657      643      625      603      602      634      683      706 
     722      758      807      842      864      890      900      895 
     885      889      903      907      907      905      895      862 
     820      796      792      800      796      795      810      823 
     834      850      873      877      864      849      818      770 
     726      707      697      673      642      626      622      603 
     591      598      619      657      710      776      824      832 
     807      778      754      706      652      603      572      560 
     561      579      603      626      642      675      719      749 
     762      761      761      760      761      785      814      828 
     820      811      801      784      776      792      827      858 
     877      885      889      890      880      876      873      842 
     785      720      666      625      602      589      581      575 
     565      568      579      592      612      635      656      657 
     646      603      529      454      402      375      360      352 
     340      324      319      325      340      367      414      454 
     464      464      467      460      445      441      457      457 
     436      415      415      427      477      572      661      719 
     746      761      774      777      777      770      758      733 
     710      704      711      727      746      772      797      807 
     793      761      715      658      606      566      548      553 
     585      653      728      776      801      838      881      896 
     901      905      915      920      920      926      916      892 
     864      838      822      803      785      783      810      838 
     850      851      864      884      873      837      791      731 
     672      626      603      588      566      549      549      560 
     553      553      575      588      584      560      529      506 
     503      521      562      615      648      670      684      697 
     715      739      780      824      864      885      889      889 
     866      831      816      837      868      893      913      927 
     953      970      978      996     1030     1071     1115     1167 
    1208     1228     1246     1270     1296     1301     1296     1294 
    1285     1250     1205     1174     1151     1140     1136     1139 
    1150     1148     1139     1129     1125     1128     1135     1154 
    1163     1147     1107     1065     1042     1039     1048     1043 
    1038     1015      963      920      890      857      803      757 
     734      706      670      649      656      683      728      778 
     808      816      803      805      837      873      903      916 
     918      903      888      873      849      827      812      815 
     830      853      861      846      841      846      851      853 
     864      873      858      838      835      849      854      859 
     889      934      974     1007     1051     1104     1140     1155 
    1156     1159     1142     1101     1055     1000      943      877 
     824      787      751      708      681      681      680      673 
     673      672      666      658      654      641      612      584 
     569      571      571      566      573      604      638      661 
     697      733      750      751      743      743      754      761 
     757      767      791      811      830      850      873      885 
     886      886      877      862      847      838      815      788 
     783      804      834      835      816      803      800      801 
     805      823      832      810      769      731      707      691 
     675      656      643      626      595      577      575      592 
     625      668      710      737      751      750      741      734 
     714      687      668      683      718      766      834      899 
     945      974      997     1003      990      981      985     1003 
    1008     1009     1021     1035     1035     1021     1003      965 
     911      864      831      807      788      776      764      770 
     789      788      773      741      710      683      672      681 
     695      708      731      772      804      816      816      795 
     758      731      724      720      710      704      710      738 
     767      788      815      834      843      853      890      958 
    1039     1102     1135     1158     1178     1204     1219     1212 
    1196     1173     1152     1133     1117     1093     1074     1085 
    1097     1089     1070     1043      997      945      922      909 
     893      864      819      785      762      728      691      672 
     664      661      657      627      587      545      518      514 
     518      519      518      518      518      532      557      557 
     553      548      530      496      450      414      394      391 
     406      441      463      467      490      532      569      576 
     579      595      608      630      658      687      706      710 
     704      700      702      702      711      737      791      859 
     911      947      977     1000     1012     1023     1039     1044 
    1044     1048     1062     1094     1148     1219     1277     1317 
    1340     1328     1278     1216     1165     1102     1023      946 
     882      826      769      739      734      738      745      750 
     757      738      700      666      638      625      642      679 
     697      711      723      735      756      772      788      792 
     776      746      723      715      711      710      704      688 
     666      634      592      540      502      476      448      419 
     400      405      423      450      479      495      488      449 
     394      329      280      263      271      309      373      451 
     538      637      733      800      849      881      901      908 
     915      945      984     1020     1046     1065     1057     1004 
     938      890      874      862      837      808      801      818 
     835      846      842      818      773      723      691      661 
     638      650      700      745      758      766      770      764 
     745      708      680      662      649      646      662      673 
     679      704      733      746      747      745      749      758 
     780      808      843      874      890      909      932      945 
     943      946      942      911      864      819      797      791 
     799      830      859      880      900      934      954      953 
     943      931      919      892      864      858      882      932 
     987     1035     1062     1078     1090     1080     1053     1031 
    1024     1023     1026     1019      997      985      976      962 
     950      931      899      851      814      792      796      814 
     843      892      926      949      967      970      962      958 
     967      987     1021     1057     1100     1147     1166     1167 
    1175     1190     1196     1205     1220     1210     1198     1200 
    1208     1212     1212     1219     1223     1217     1197     1162 
    1129     1102     1089     1081     1088     1089     1074     1058 
    1035      990      924      870      847      847      854      851 
     866      892      911      932      965      999     1016     1036 
    1071     1093     1097     1101     1127     1150     1150     1128 
    1104     1094     1094     1107     1132     1166     1194     1213 
    1235     1240     1224     1200     1201     1220     1228     1236 
    1254     1264     1254     1239     1229     1196     1150     1107 
    1080     1065     1042     1019     1009     1013     1026     1044 
    1053     1050     1047     1047     1053     1043     1000      963 
     945      926      903      899      895      886      893      890 
     886      877      846      808      799      803      780      754 
     756      785      820      834      823      800      791      793 
     797      797      793      796      803      816      837      855 
     884      928      972      980      977      989      996      997 
    1000     1000      958      892      838      788      734      684 
     643      603      564      540      522      514      499      490 
     491      500      502      484      476      495      532      566 
     587      612      643      673      715      785      857      899 
     950     1007     1030     1017      994      974      950      934 
     935      951      955      949      958      967      970      957 
     922      874      826      788      764      760      765      758 
     737      699      648      576      500      445      407      375 
     344      337      330      322      341      387      450      503 
     542      562      561      549      540      552      576      616 
     653      681      723      762      792      812      838      881 
     940     1012     1081     1143     1183     1227     1278     1304 
    1294     1263     1227     1178     1115     1047      980      903 
     804      712      625      515      399      288      187       93 
      11      -44      -78      -91      -87      -47       13       78 
     152      230      305      378      456      532      602      653 
     672      689      712      737      777      835      905      978 
    1047     1094     1123     1128     1107     1070     1026      978 
     928      886      861      845      837      815      785      737 
     666      599      540      490      430      372      340      329 
     351      399      448      479      506      556      627      711 
     797      892      963     1005     1036     1065     1088     1088 
    1084     1109     1150     1173     1166     1162     1166     1167 
    1171     1178     1185     1178     1174     1181     1190     1174 
    1120     1063     1031     1023     1021     1031     1063     1101 
    1155     1230     1312     1374     1418     1474     1506     1489 
    1431     1368     1323     1296     1293     1317     1363     1410 
    1457     1505     1522     1505     1464     1433     1410     1381 
    1341     1300     1274     1269     1273     1294     1321     1343 
    1358     1370     1355     1308     1247     1183     1120     1044 
     974      919      858      787      723      699      697      708 
     728      749      761      762      776      801      828      858 
     896      954     1008     1044     1073     1092     1093     1098 
    1119     1133     1148     1163     1179     1204     1204     1175 
    1144     1121     1100     1078     1063     1059     1071     1084 
    1105     1150     1196     1236     1277     1332     1382     1405 
    1417     1418     1413     1391     1358     1317     1255     1165 
    1062      965      855      741      646      573      533      526 
     553      579      573      544      498      437      355      263 
     182      121       82       55       45       55       82      135 
     220      322      409      483      566      672      795      911 
    1015     1090     1142     1163     1148     1120     1080     1024 
     974      946      915      869      830      807      791      750 
     693      635      562      483      430      425      437      437 
     441      463      504      544      568      581      579      553 
     503      446      386      313      221      131       70        1 
     -70     -110     -105      -59       16      112      205      280 
     321      326      303      255      211      187      166      131 
     112      135      182      234      284      340      403      464 
     503      519      537      553      562      584      614      641 
     660      658      616      548      479      445      467      508 
     549      579      592      592      576      564      566      583 
     618      673      733      765      801      892     1021     1144 
    1239     1300     1308     1273     1206     1140     1094     1062 
    1050     1051     1067     1088     1102     1124     1133     1131 
    1124     1132     1162     1196     1243     1294     1341     1383 
    1409     1399     1368     1344     1321     1310     1316     1334 
    1378     1447     1548     1647     1718     1764     1781     1775 
    1734     1667     1595     1543     1507     1480     1467     1470 
    1486     1509     1548     1583     1591     1587     1578     1564 
    1556     1563     1587     1591     1580     1568     1549     1535 
    1518     1487     1452     1424     1409     1431     1507     1634 
    1792     1949     2110     2257     2355     2405     2452     2525 
    2581     2612     2647     2667     2666     2667     2687     2701 
    2697     2686     2691     2727     2770     2822     2895     2970 
    3022     3029     2986     2890     2758     2629     2521     2438 
    2385     2385     2428     2477     2493     2459     2385     2273 
    2138     2015     1917     1842     1783     1736     1711     1706 
    1675     1614     1563     1521     1483     1444     1409     1397 
    1399     1422     1462     1493     1482     1428     1332     1210 
    1104     1013      929      866      822      770      707      653 
     598      545      511      500      503      492      476      461 
     438      405      370      364      368      378      398      425 
     448      469      506      560      623      675      700      697 
     676      654      627      589      535      472      417      375 
     346      313      289      297      322      363      387      382 
     361      336      321      348      417      486      566      677 
     791      892      984     1075     1169     1267     1362     1431 
    1476     1482     1462     1425     1383     1341     1301     1278 
    1269     1270     1260     1250     1263     1278     1289     1293 
    1266     1205     1136     1081     1050     1053     1060     1051 
    1015      938      831      702      564      425      276      139 
      39       -8      -25      -17       21      101      214      319 
     399      440      433      405      382      365      357      376 
     409      449      491      506      484      438      394      351 
     325      340      364      360      321      298      314      348 
     394      461      553      646      730      801      854      901 
     950     1015     1092     1166     1227     1263     1298     1344 
    1399     1464     1549     1656     1755     1826     1877     1933 
    1989     2033     2070     2098     2135     2188     2243     2286 
    2295     2270     2231     2185     2119     2043     1975     1930 
    1911     1887     1867     1867     1877     1899     1921     1930 
    1930     1908     1871     1844     1842     1850     1859     1869 
    1881     1884     1871     1857     1830     1791     1746     1698 
    1649     1587     1487     1360     1256     1198     1169     1170 
    1185     1190     1171     1143     1111     1070     1036     1011 
     999      986      965      949      953      969      993     1035 
    1081     1123     1146     1147     1147     1135     1116     1115 
    1148     1215     1271     1297     1314     1333     1347     1372 
    1420     1466     1518     1578     1642     1705     1717     1683 
    1638     1598     1553     1516     1491     1448     1381     1317 
    1282     1254     1212     1159     1089     1003      900      785 
     656      511      373      245      124        0     -137     -278 
    -386     -453     -495     -503     -477     -429     -368     -317 
    -275     -259     -271     -276     -244     -186     -141     -108 
     -72      -32        4       59      136      189      225      272 
     313      328      324      326      352      407      472      532 
     592      642      675      665      627      594      562      545 
     535      511      449      360      270      184      108       43 
       1      -27      -52      -67      -71      -63      -56      -47 
     -21       11       51       90      136      190      237      274 
     291      282      238      164       79        4      -55     -110 
    -133     -124     -102      -60        5       60       89      128 
     178      228      259      275      292      301      294      272 
     240      205      156      103       60       32       21       35 
      70      108      164      232      311      417      540      665 
     772      857      909      938      973     1013     1043     1043 
    1015      963      901      842      789      761      741      728 
     733      735      715      666      608      556      506      453 
     405      373      367      411      498      614      745      834 
     874      880      859      835      820      814      812      819 
     830      849      873      897      936      984     1039     1089 
    1127     1181     1266     1368     1480     1598     1692     1745 
    1755     1726     1702     1686     1676     1671     1664     1657 
    1642     1624     1583     1522     1474     1449     1440     1425 
    1418     1445     1509     1591     1656     1694     1687     1638 
    1578     1522     1466     1405     1363     1331     1308     1294 
    1266     1204     1092      959      823      706      629      587 
     569      577      614      650      656      645      648      656 
     650      637      607      560      517      484      488      521 
     550      561      548      522      486      434      360      280 
     209      152      135      162      205      251      334      448 
     526      550      521      495      504      518      522      529 
     542      540      548      594      649      683      691      679 
     637      591      566      560      583      616      641      631 
     572      477      360      251      157       82       18      -35 
     -76     -118     -153     -168     -164     -167     -193     -205 
    -205     -197     -167     -112      -40       36      108      144 
     163      167      151      122       86       51       28       25 
      37       37       16      -23      -85     -168     -259     -337 
    -399     -427     -440     -454     -471     -493     -532     -579 
    -614     -625     -616     -616     -619     -596     -565     -521 
    -456     -400     -367     -341     -306     -288     -315     -379 
    -421     -417     -394     -383     -411     -456     -498     -535 
    -565     -611     -666     -712     -753     -785     -816     -864 
    -922     -972    -1026    -1086    -1146    -1185    -1193    -1190 
