Origin Time       2016/04/16 01:25:00
Lat.              32.753
Long.             130.762
Depth. (km)       12
Mag.              7.3
Station Code      SMN006
Station Lat.      35.1942
Station Long.     132.4978
Station Height(m) 36
Record Time       2016/04/16 01:26:03
Sampling Freq(Hz) 100Hz
Duration Time(s)  121
Dir.              E-W
Scale Factor      7845(gal)/8223790
Max. Acc. (gal)   5.561
Last Correction   2016/04/16 01:26:04
Memo.             
[...]
      59      -23      -97     -152     -182     -189     -167     -109 
     -20       93      229      373      517      657      791      915 
    1026     1127     1216     1296     1371     1439     1502     1568 
    1632     1688     1729     1749     1744     1707     1648     1567 
    1460     1343     1220     1092      961      834      710      595 
     491      392      307      237      172      110       47      -16 
     -82     -149     -218     -292     -372     -448     -515     -566 
    -596     -608     -602     -575     -530     -459     -357     -230 
     -72      114      318      526      739      949     1152     1355 
    1559     1750     1926     2074     2187     2267     2309     2304 
    2257     2173     2061     1925     1768     1605     1444     1290 
    1142      997      855      714      573      438      321      225 
     149       99       81       83      101      128      153      172 
     180      178      167      149      124       95       59       14 
     -32      -78     -114     -140     -159     -178     -202     -236 
    -278     -321     -361     -394     -405     -396     -375     -344 
    -309     -265     -211     -144      -74       -2       68      137 
     198      259      337      425      522      615      695      750 
     788      808      811      795      758      707      639      562 
     491      436      391      356      336      328      326      330 
     344      369      402      432      457      483      508      530 
     553      571      583      591      595      600      610      627 
     649      670      687      691      681      661      625      579 
     538      493      454      429      419      430      461      502 
     553      614      673      724      761      784      793      792 
     785      781      787      799      820      853      897      946 
     990     1026     1043     1026      974      893      807      735 
     688      676      707      777      881     1009     1139     1258 
    1368     1459     1516     1551     1574     1594     1629     1683 
    1753     1838     1935     2034     2134     2224     2299     2353 
    2393     2412     2405     2384     2355     2330     2317     2319 
    2331     2349     2361     2359     2338     2293     2223     2128 
    2011     1872     1719     1566     1422     1294     1178     1073 
     973      864      751      638      519      399      284      172 
      71      -10      -70     -103     -106      -83      -45       -1 
      45       95      143      189      241      298      349      395 
     434      460      475      484      490      479      450      405 
     337      251      157       65      -10      -64      -98     -116 
    -118     -114      -99      -78      -63      -64      -94     -164 
    -271     -406     -557     -711     -851     -966    -1051    -1098 
   -1111    -1090    -1048     -992     -934     -882     -843     -819 
    -819     -850     -905     -967    -1030    -1092    -1147    -1197 
   -1237    -1258    -1260    -1246    -1223    -1198    -1178    -1169 
   -1173    -1185    -1198    -1213    -1227    -1232    -1235    -1223 
   -1185    -1121    -1026     -899     -746     -571     -383     -202 
     -25      144      311      491      707      961     1248     1564 
    1888     2188     2454     2688     2890     3061     3211     3335 
    3449     3576     3719     3886     4062     4228     4371     4488 
    4568     4608     4606     4561     4480     4369     4243     4109 
    3978     3854     3732     3609     3485     3353     3199     3021 
    2810     2558     2258     1923     1564     1193      820      468 
     156      -97     -283     -395     -440     -438     -409     -378 
    -372     -405     -486     -629     -831    -1080    -1356    -1640 
   -1906    -2128    -2296    -2415    -2493    -2542    -2577    -2609 
   -2641    -2678    -2714    -2743    -2756    -2752    -2733    -2704 
   -2681    -2679    -2700    -2752    -2829    -2918    -3009    -3090 
   -3150    -3191    -3206    -3184    -3123    -3033    -2924    -2794 
   -2660    -2533    -2413    -2292    -2143    -1942    -1672    -1324 
    -895     -413       83      571     1026     1426     1755     2007 
    2182     2296     2361     2405     2448     2506     2593     2714 
    2860     3025     3191     3323     3388     3355     3211     2961 
    2631     2251     1850     1460     1105      792      529      314 
     136      -10     -118     -186     -210     -191     -137      -54 
      60      202      370      564      769      976     1173     1356 
    1530     1699     1885     2115     2397     2731     3103     3488 
    3865     4210     4504     4742     4908     4994     5005     4950 
    4835     4677     4486     4266     4031     3778     3514     3246 
    2971     2694     2417     2128     1822     1512     1213      946 
     719      535      403      315      265      249      259      280 
     291      278      225      117      -47     -259     -508     -767 
   -1012    -1236    -1455    -1675    -1894    -2111    -2319    -2488 
   -2593    -2631    -2602    -2515    -2369    -2174    -1949    -1706 
   -1456    -1219    -1012     -841     -702     -588     -486     -373 
    -233      -60      135      348      572      789      985     1133 
    1230     1290     1324     1359     1417     1514     1675     1907 
    2204     2540     2880     3194     3461     3658     3786     3854 
    3861     3805     3717     3615     3510     3416     3345     3298 
    3276     3268     3264     3256     3237     3196     3122     3001 
    2826     2598     2326     2029     1725     1424     1138      864 
     596      329       64     -191     -434     -670     -897    -1111 
   -1305    -1482    -1644    -1803    -1966    -2135    -2312    -2501 
   -2682    -2832    -2937    -2986    -2970    -2882    -2727    -2493 
   -2185    -1817    -1395     -945     -493      -67      326      684 
    1013     1327     1625     1904     2155     2361     2520     2636 
    2708     2727     2675     2536     2304     1977     1586     1167 
     753      378       64     -168     -313     -372     -367     -313 
    -233     -153      -90      -37       18       76      139      214 
     318      463      652      885     1156     1444     1718     1944 
    2091     2149     2128     2052     1962     1894     1856     1857 
    1896     1965     2060     2173     2296     2420     2531     2632 
    2710     2745     2732     2668     2556     2409     2239     2069 
    1915     1777     1660     1556     1436     1275     1069      801 
     477      112     -266     -630     -949    -1210    -1405    -1528 
   -1591    -1601    -1561    -1487    -1389    -1277    -1152    -1012 
    -850     -657     -427     -151      187      585     1028     1506 
    1998     2477     2921     3306     3604     3798     3898     3916 
    3861     3763     3639     3496     3339     3179     3018     2859 
    2701     2559     2444     2359     2313     2304     2313     2331 
    2342     2317     2247     2128     1956     1744     1509     1273 
    1038      803      575      357      151      -35     -183     -299 
    -394     -473     -549     -627     -708     -787     -850     -899 
    -923     -907     -841     -708     -508     -243       81      445 
     818     1174     1490     1742     1918     2001     2008     1949 
    1833     1677     1499     1312     1136      986      866      776 
     706      638      552      432      268       71     -129     -284 
    -332     -243       -9      360      830     1352     1887     2403 
    2870     3257     3538     3678     3674     3541     3296     2979 
    2639     2319     2058     1852     1688     1564     1464     1371 
    1278     1174     1058      934      799      652      502      340 
     167       -8     -174     -298     -364     -369     -307     -184 
     -32      112      234      303      301      217       47     -203 
    -522     -880    -1230    -1533    -1753    -1864    -1864    -1755 
   -1564    -1313    -1024     -719     -415     -121      148      391 
     626      868     1129     1435     1803     2238     2735     3267 
    3798     4310     4773     5163     5462     5645     5710     5664 
    5524     5308     5043     4750     4459     4192     3959     3766 
    3611     3477     3350     3217     3060     2871     2639     2363 
    2047     1707     1374     1070      812      611      461      344 
     246      168      102       52       22        0      -22      -40 
     -49      -51      -52      -45      -18       21       78      178 
     324      503      715      938     1146     1327     1470     1568 
    1617     1610     1545     1426     1270     1092      913      738 
     561      386      209       35     -129     -287     -423     -517 
    -560     -545     -488     -405     -284     -129       51      256 
     483      723      972     1215     1440     1636     1786     1876 
    1923     1927     1887     1802     1665     1470     1221      940 
     638      330       47     -175     -336     -425     -432     -360 
    -220      -10      245      522      808     1089     1354     1613 
    1871     2120     2343     2527     2663     2737     2732     2635 
    2432     2123     1725     1266      777      278     -206     -654 
   -1046    -1383    -1668    -1906    -2107    -2280    -2432    -2569 
   -2679    -2744    -2747    -2674    -2532    -2335    -2093    -1821 
   -1532    -1229     -929     -649     -395     -172       18      178 
     309      425      546      676      823      994     1185     1382 
    1583     1767     1904     1981     2001     1975     1903     1795 
    1664     1509     1336     1162      999      849      715      595 
     469      326      166      -11     -206     -411     -618     -811 
    -987    -1155    -1318    -1482    -1655    -1844    -2039    -2227 
   -2394    -2536    -2644    -2712    -2740    -2735    -2701    -2648 
   -2577    -2484    -2370    -2245    -2114    -1981    -1865    -1772 
   -1703    -1652    -1606    -1560    -1512    -1463    -1416    -1368 
   -1314    -1258    -1201    -1146    -1093    -1038     -978     -913 
    -834     -737     -629     -514     -406     -321     -265     -245 
    -263     -314     -367     -400     -413     -403     -372     -318 
    -246     -164      -67       44      166      303      450      596 
     739      877      999     1105     1208     1304     1381     1422 
    1421     1375     1285     1155      985      784      571      360 
     171       27      -68     -125     -152     -162     -171     -184 
    -198     -205     -195     -162      -97        8      156      351 
     594      876     1183     1520     1868     2214     2559     2907 
    3252     3589     3913     4207     4457     4656     4806     4915 
    4984     5009     4989     4915     4789     4617     4401     4149 
    3861     3537     3191     2841     2504     2192     1908     1641 
    1389     1148      924      723      556      434      368      356 
     392      471      587      741      928     1144     1381     1624 
    1871     2110     2331     2538     2721     2884     3029     3154 
    3267     3376     3483     3581     3662     3709     3712     3680 
    3628     3554     3456     3323     3152     2944     2694     2408 
    2102     1790     1471     1155      838      506      157     -206 
    -595    -1009    -1439    -1868    -2284    -2677    -3034    -3349 
   -3618    -3848    -4035    -4168    -4243    -4261    -4223    -4131 
   -3991    -3804    -3570    -3304    -3009    -2693    -2371    -2045 
   -1718    -1394    -1067     -737     -406      -79      229      503 
     727      895     1003     1060     1065     1023      947      847 
     733      616      508      413      332      246      140        4 
    -172     -395     -656     -945    -1258    -1572    -1867    -2138 
   -2385    -2597    -2783    -2955    -3105    -3235    -3346    -3438 
   -3510    -3557    -3578    -3574    -3542    -3476    -3379    -3258 
   -3109    -2928    -2721    -2508    -2289    -2074    -1875    -1699 
   -1556    -1455    -1405    -1416    -1486    -1603    -1752    -1921 
   -2096    -2272    -2442    -2596    -2733    -2857    -2965    -3046 
   -3098    -3109    -3082    -3013    -2913    -2794    -2662    -2521 
   -2371    -2205    -2020    -1817    -1590    -1347    -1089     -815 
    -540     -274      -20      211      419      600      754      893 
    1017     1125     1230     1336     1444     1567     1706     1852 
    2011     2187     2371     2556     2729     2880     3003     3084 
    3127     3152     3167     3169     3169     3167     3161     3157 
    3163     3183     3219     3268     3326     3373     3395     3385 
    3343     3275     3186     3075     2943     2799     2648     2498 
    2369     2267     2191     2130     2073     2015     1956     1899 
    1854     1826     1823     1844     1877     1915     1956     1998 
    2037     2076     2104     2130     2168     2209     2253     2296 
    2330     2349     2344     2301     2214     2077     1899     1677 
    1420     1135      843      553      275       13     -240     -496 
    -758    -1039    -1347    -1675    -2016    -2367    -2716    -3059 
   -3392    -3705    -3982    -4222    -4425    -4591    -4720    -4823 
   -4911    -4986    -5054    -5119    -5181    -5233    -5260    -5242 
   -5161    -5012    -4808    -4557    -4261    -3928    -3565    -3186 
   -2797    -2423    -2093    -1809    -1574    -1397    -1256    -1135 
   -1017     -895     -765     -631     -492     -344     -199      -91 
     -41      -45     -116     -259     -457     -702     -984    -1269 
   -1520    -1714    -1829    -1852    -1792    -1658    -1471    -1256 
   -1047     -866     -728     -643     -616     -639     -685     -728 
    -750     -749     -728     -670     -568     -425     -240      -32 
     189      422      660      897     1148     1399     1652     1908 
    2165     2419     2669     2907     3126     3326     3492     3607 
    3653     3613     3487     3288     3042     2774     2500     2224 
    1954     1690     1437     1209     1003      810      633      473 
     324      178       35      -94     -203     -289     -349     -370 
    -348     -282     -198     -112      -40        2        5      -22 
     -81     -153     -228     -302     -387     -490     -610     -751 
    -912    -1086    -1270    -1467    -1680    -1915    -2169    -2432 
   -2682    -2901    -3086    -3237    -3350    -3437    -3505    -3546 
   -3549    -3520    -3461    -3379    -3284    -3187    -3096    -3018 
   -2941    -2860    -2778    -2695    -2608    -2521    -2451    -2404 
   -2381    -2380    -2381    -2365    -2323    -2242    -2115    -1962 
   -1781    -1559    -1289     -970     -618     -255      109      454 
     764     1044     1305     1551     1790     2012     2223     2428 
    2621     2798     2959     3103     3227     3312     3349     3357 
    3342     3306     3260     3210     3156     3098     3044     2999 
    2978     2992     3037     3099     3179     3283     3399     3514 
    3622     3716     3793     3856     3921     3997     4082     4172 
    4263     4341     4410     4468     4507     4530     4540     4537 
    4527     4521     4517     4511     4498     4472     4431     4363 
    4268     4140     3979     3785     3561     3315     3055     2794 
    2550     2319     2107     1926     1769     1628     1494     1363 
    1232     1104      990      896      826      776      741      726 
     724      731      747      766      795      842      908      989 
    1078     1140     1148     1090      954      750      500      224 
     -51     -302     -525     -710     -861     -994    -1125    -1250 
   -1364    -1472    -1567    -1644    -1705    -1744    -1760    -1755 
   -1715    -1634    -1512    -1359    -1181    -1000     -843     -720 
    -634     -584     -556     -546     -553     -569     -598     -627 
    -638     -626     -589     -511     -387     -224      -27      189 
     403      603      778      926     1038     1109     1154     1192 
    1237     1291     1358     1433     1516     1599     1677     1742 
    1794     1833     1854     1856     1830     1772     1676     1549 
    1387     1197      982      743      488      232      -18     -256 
    -471     -662     -834     -990    -1136    -1278    -1412    -1537 
   -1667    -1795    -1912    -2010    -2079    -2120    -2133    -2111 
   -2061    -1991    -1907    -1819    -1726    -1620    -1498    -1364 
   -1228    -1092     -958     -832     -699     -552     -395     -232 
     -78       55      171      268      340      383      392      352 
     261      129      -39     -221     -402     -577     -745     -903 
   -1060    -1215    -1377    -1548    -1717    -1872    -2001    -2095 
   -2146    -2153    -2116    -2045    -1937    -1790    -1605    -1390 
   -1151     -896     -657     -449     -263      -91       70      225 
     373      513      638      747      854      970     1094     1213 
    1318     1405     1459     1468     1426     1347     1246     1135 
    1026      927      835      747      665      600      561      549 
     560      581      602      614      619      629      653      707 
     791      909     1065     1251     1460     1688     1927     2166 
    2394     2612     2824     3029     3227     3420     3608     3793 
    3975     4152     4329     4500     4664     4816     4949     5055 
    5136     5198     5246     5286     5313     5313     5282     5221 
    5136     5039     4934     4828     4735     4652     4573     4494 
    4411     4324     4223     4113     4000     3886     3781     3692 
    3613     3541     3473     3410     3360     3326     3315     3331 
    3368     3407     3438     3453     3449     3426     3385     3329 
    3261     3187     3105     3022     2940     2852     2759     2668 
    2581     2497     2421     2358     2308     2270     2245     2230 
    2214     2191     2157     2101     2019     1912     1776     1618 
    1464     1323     1198     1105     1048     1024     1028     1053 
    1092     1138     1185     1235     1278     1325     1390     1482 
    1603     1749     1904     2068     2227     2370     2494     2600 
    2688     2762     2817     2849     2868     2879     2882     2882 
    2884     2870     2824     2748     2636     2496     2340     2176 
    1996     1813     1632     1455     1290     1152     1039      938 
     847      769      689      612      550      503      479      476 
     491      526      588      665      746      828      912      990 
    1062     1131     1196     1258     1321     1390     1468     1554 
    1648     1741     1822     1881     1912     1919     1895     1840 
    1768     1684     1590     1499     1421     1359     1321     1301 
    1282     1262     1235     1188     1121     1043      962      882 
     811      754      708      685      687      700      730      778 
     841      913      997     1092     1201     1327     1464     1625 
    1807     1995     2180     2353     2496     2602     2671     2698 
