Origin Time       2016/04/16 01:25:00
Lat.              32.753
Long.             130.762
Depth. (km)       12
Mag.              7.3
Station Code      SMN005
Station Lat.      35.3611
Station Long.     132.7449
Station Height(m) 9
Record Time       2016/04/16 01:26:20
Sampling Freq(Hz) 100Hz
Duration Time(s)  162
Dir.              N-S
Scale Factor      7845(gal)/8223790
Max. Acc. (gal)   11.313
Last Correction   2016/04/16 01:26:20
Memo.             
[...]
   -3757    -3585    -3434    -3317    -3244    -3203    -3187    -3198 
   -3246    -3350    -3497    -3655    -3827    -4025    -4233    -4437 
   -4637    -4838    -5027    -5200    -5352    -5479    -5562    -5611 
   -5670    -5749    -5827    -5899    -5984    -6085    -6188    -6288 
   -6389    -6505    -6637    -6794    -6983    -7203    -7461    -7746 
   -8031    -8301    -8553    -8776    -8957    -9109    -9258    -9405 
   -9533    -9634    -9705    -9756    -9818    -9903    -9995   -10098 
  -10203   -10291   -10358   -10428   -10512   -10588   -10623   -10631 
  -10638   -10631   -10586   -10504   -10397   -10254   -10066    -9844 
   -9601    -9350    -9089    -8824    -8569    -8321    -8070    -7827 
   -7604    -7395    -7203    -7022    -6841    -6678    -6551    -6471 
   -6431    -6401    -6376    -6358    -6336    -6308    -6284    -6269 
   -6258    -6246    -6239    -6254    -6295    -6358    -6435    -6509 
   -6579    -6640    -6682    -6708    -6716    -6686    -6606    -6488 
   -6340    -6168    -5976    -5783    -5607    -5454    -5323    -5221 
   -5147    -5105    -5101    -5115    -5134    -5159    -5182    -5197 
   -5205    -5204    -5208    -5239    -5301    -5389    -5494    -5621 
   -5764    -5911    -6064    -6214    -6345    -6467    -6592    -6700 
   -6787    -6851    -6886    -6901    -6898    -6872    -6815    -6739 
   -6637    -6505    -6355    -6197    -6029    -5856    -5687    -5530 
   -5401    -5309    -5252    -5232    -5235    -5251    -5273    -5300 
   -5321    -5336    -5350    -5363    -5363    -5332    -5267    -5185 
   -5092    -4984    -4870    -4752    -4608    -4448    -4283    -4125 
   -3970    -3815    -3663    -3523    -3388    -3275    -3180    -3106 
   -3061    -3046    -3063    -3118    -3208    -3331    -3484    -3647 
   -3808    -3964    -4116    -4263    -4409    -4535    -4653    -4758 
   -4839    -4893    -4918    -4909    -4870    -4800    -4707    -4612 
   -4542    -4499    -4467    -4438    -4414    -4372    -4297    -4210 
   -4131    -4043    -3923    -3782    -3650    -3520    -3372    -3213 
   -3069    -2949    -2847    -2771    -2744    -2772    -2849    -2978 
   -3153    -3373    -3636    -3937    -4266    -4612    -4984    -5360 
   -5722    -6061    -6367    -6628    -6837    -7006    -7144    -7256 
   -7348    -7442    -7541    -7638    -7738    -7840    -7938    -8025 
   -8108    -8189    -8264    -8338    -8410    -8474    -8533    -8587 
   -8630    -8664    -8698    -8735    -8779    -8827    -8888    -8959 
   -9038    -9130    -9236    -9362    -9512    -9688    -9891   -10108 
  -10324   -10534   -10728   -10894   -11038   -11153   -11234   -11286 
  -11311   -11313   -11291   -11222   -11101   -10925   -10701   -10428 
  -10108    -9752    -9369    -8953    -8515    -8073    -7643    -7252 
   -6913    -6629    -6411    -6249    -6137    -6087    -6091    -6133 
   -6203    -6281    -6355    -6421    -6482    -6531    -6558    -6558 
   -6531    -6474    -6384    -6273    -6148    -6012    -5875    -5746 
   -5629    -5529    -5445    -5382    -5343    -5332    -5351    -5400 
   -5471    -5563    -5667    -5760    -5833    -5880    -5898    -5886 
   -5856    -5814    -5755    -5682    -5601    -5508    -5406    -5312 
   -5232    -5171    -5134    -5103    -5069    -5055    -5069    -5093 
   -5116    -5150    -5215    -5298    -5364    -5422    -5502    -5606 
   -5719    -5827    -5930    -6025    -6106    -6180    -6259    -6354 
   -6478    -6646    -6856    -7109    -7406    -7747    -8111    -8490 
   -8872    -9243    -9590    -9898   -10161   -10386   -10566   -10697 
  -10790   -10858   -10897   -10906   -10881   -10827   -10735   -10594 
  -10403   -10160    -9871    -9566    -9267    -8992    -8756    -8579 
   -8476    -8449    -8477    -8540    -8621    -8700    -8761    -8787 
   -8766    -8704    -8603    -8467    -8302    -8110    -7901    -7697 
   -7518    -7364    -7225    -7106    -7010    -6926    -6848    -6781 
   -6716    -6646    -6564    -6485    -6420    -6380    -6365    -6367 
   -6369    -6354    -6316    -6258    -6184    -6104    -6012    -5895 
   -5753    -5584    -5386    -5177    -4962    -4734    -4506    -4310 
   -4162    -4045    -3954    -3890    -3835    -3770    -3709    -3667 
   -3650    -3646    -3645    -3638    -3615    -3559    -3473    -3365 
   -3222    -3053    -2893    -2744    -2601    -2461    -2326    -2200 
   -2087    -1971    -1850    -1733    -1610    -1491    -1405    -1360 
   -1348    -1350    -1355    -1379    -1417    -1453    -1502    -1584 
   -1671    -1740    -1815    -1910    -2027    -2170    -2322    -2474 
   -2632    -2787    -2937    -3060    -3134    -3187    -3253    -3331 
   -3434    -3593    -3816    -4097    -4429    -4784    -5143    -5505 
   -5864    -6211    -6548    -6890    -7257    -7641    -8014    -8398 
   -8818    -9248    -9675   -10115   -10573   -11037   -11487   -11892 
  -12256   -12596   -12916   -13216   -13502   -13788   -14089   -14385 
  -14662   -14912   -15121   -15291   -15450   -15595   -15697   -15757 
  -15807   -15873   -15943   -15988   -16023   -16052   -16058   -16046 
  -16021   -15971   -15876   -15721   -15513   -15267   -14991   -14690 
  -14376   -14072   -13773   -13468   -13162   -12862   -12561   -12258 
  -11940   -11601   -11241   -10854   -10442   -10015    -9572    -9112 
   -8646    -8175    -7693    -7203    -6717    -6237    -5772    -5339 
   -4968    -4658    -4398    -4183    -4010    -3861    -3740    -3651 
   -3597    -3572    -3557    -3539    -3522    -3511    -3492    -3466 
   -3438    -3402    -3352    -3302    -3276    -3284    -3329    -3414 
   -3530    -3666    -3809    -3943    -4067    -4191    -4320    -4452 
   -4567    -4656    -4737    -4807    -4862    -4916    -4956    -4974 
   -4978    -4973    -4965    -4972    -4988    -5004    -5026    -5051 
   -5069    -5084    -5092    -5073    -5027    -4974    -4914    -4861 
   -4831    -4828    -4851    -4905    -4996    -5127    -5292    -5471 
   -5638    -5779    -5883    -5954    -6018    -6088    -6168    -6270 
   -6413    -6592    -6799    -7038    -7307    -7604    -7938    -8289 
   -8627    -8946    -9239    -9514    -9780   -10034   -10270   -10498 
  -10709   -10879   -10995   -11056   -11055   -10990   -10887   -10766 
  -10632   -10500   -10369   -10227   -10088    -9958    -9823    -9674 
   -9514    -9358    -9207    -9058    -8912    -8768    -8611    -8441 
   -8268    -8094    -7920    -7742    -7555    -7344    -7092    -6814 
   -6546    -6274    -5976    -5691    -5456    -5231    -4966    -4695 
   -4463    -4251    -4036    -3825    -3627    -3456    -3311    -3194 
   -3117    -3071    -3033    -2998    -2964    -2918    -2843    -2735 
   -2617    -2496    -2342    -2151    -1946    -1726    -1482    -1230 
   -1000     -804     -639     -510     -415     -353     -330     -329 
    -324     -325     -332     -344     -363     -399     -472     -581 
    -712     -851     -980    -1092    -1197    -1304    -1416    -1537 
   -1680    -1841    -1995    -2147    -2311    -2485    -2668    -2870 
   -3099    -3339    -3565    -3757    -3896    -3967    -4000    -4021 
   -4040    -4072    -4133    -4210    -4297    -4402    -4527    -4665 
   -4806    -4947    -5101    -5273    -5471    -5687    -5906    -6133 
   -6361    -6590    -6821    -7045    -7245    -7418    -7561    -7672 
   -7751    -7816    -7882    -7928    -7919    -7879    -7865    -7852 
   -7805    -7758    -7744    -7766    -7813    -7893    -8014    -8158 
   -8307    -8467    -8622    -8764    -8891    -9003    -9093    -9166 
   -9240    -9312    -9375    -9441    -9530    -9637    -9759    -9892 
  -10022   -10137   -10234   -10301   -10341   -10346   -10311   -10246 
  -10142    -9983    -9786    -9568    -9342    -9121    -8928    -8781 
   -8687    -8634    -8599    -8579    -8581    -8587    -8579    -8573 
   -8572    -8565    -8567    -8575    -8577    -8568    -8540    -8486 
   -8401    -8301    -8195    -8073    -7927    -7763    -7591    -7415 
   -7233    -7044    -6852    -6666    -6493    -6326    -6164    -6010 
   -5867    -5730    -5601    -5490    -5405    -5350    -5333    -5354 
   -5409    -5491    -5603    -5749    -5925    -6122    -6340    -6578 
   -6817    -7038    -7248    -7437    -7584    -7693    -7770    -7809 
   -7803    -7746    -7661    -7555    -7419    -7253    -7068    -6871 
   -6662    -6447    -6219    -5979    -5730    -5490    -5273    -5098 
   -4992    -4968    -5015    -5116    -5262    -5436    -5621    -5793 
   -5946    -6079    -6201    -6323    -6446    -6585    -6750    -6943 
   -7160    -7391    -7632    -7879    -8124    -8360    -8586    -8791 
   -8962    -9085    -9153    -9169    -9135    -9057    -8942    -8787 
   -8599    -8383    -8155    -7940    -7751    -7595    -7476    -7392 
   -7337    -7300    -7280    -7269    -7253    -7229    -7192    -7134 
   -7064    -6983    -6885    -6768    -6625    -6451    -6251    -6029 
   -5780    -5522    -5270    -5023    -4776    -4541    -4325    -4125 
   -3951    -3807    -3686    -3600    -3553    -3526    -3514    -3523 
   -3546    -3580    -3636    -3732    -3877    -4059    -4255    -4473 
   -4708    -4942    -5171    -5391    -5601    -5810    -6018    -6223 
   -6434    -6648    -6847    -7017    -7159    -7275    -7364    -7411 
   -7418    -7385    -7302    -7160    -6975    -6768    -6539    -6295 
   -6058    -5852    -5697    -5617    -5613    -5680    -5813    -5998 
   -6222    -6484    -6777    -7091    -7406    -7713    -8009    -8286 
   -8536    -8764    -8977    -9147    -9240    -9240    -9147    -8962 
   -8694    -8357    -7958    -7497    -6984    -6442    -5884    -5312 
   -4726    -4143    -3570    -3032    -2551    -2130    -1760    -1445 
   -1193    -1000     -862     -777     -747     -762     -804     -869 
    -969    -1116    -1306    -1525    -1748    -1958    -2153    -2332 
   -2508    -2697    -2898    -3078    -3215    -3322    -3422    -3526 
   -3646    -3767    -3888    -4017    -4145    -4268    -4415    -4587 
   -4777    -5009    -5282    -5590    -5940    -6320    -6725    -7167 
   -7643    -8144    -8680    -9243    -9807   -10359   -10886   -11373 
  -11820   -12221   -12569   -12866   -13106   -13281   -13385   -13420 
  -13404   -13336   -13215   -13059   -12884   -12677   -12432   -12150 
  -11843   -11515   -11164   -10812   -10484   -10183    -9903    -9641 
   -9408    -9194    -8985    -8765    -8532    -8298    -8077    -7884 
   -7723    -7589    -7477    -7358    -7202    -6990    -6717    -6388 
   -6019    -5605    -5151    -4669    -4151    -3588    -2992    -2390 
   -1813    -1275     -792     -378      -39      229      445      626 
     770      869      929      961      984     1019     1071     1142 
    1217     1294     1355     1378     1379     1377     1366     1354 
    1345     1328     1294     1243     1169     1075      978      876 
     750      592      398      167      -87     -356     -650     -967 
   -1297    -1636    -1993    -2371    -2771    -3196    -3653    -4133 
   -4637    -5166    -5702    -6231    -6774    -7348    -7917    -8449 
   -8970    -9497   -10006   -10477   -10933   -11387   -11821   -12214 
  -12573   -12898   -13174   -13404   -13595   -13744   -13861   -13959 
  -14029   -14079   -14113   -14129   -14116   -14064   -13973   -13855 
  -13722   -13578   -13413   -13230   -13038   -12825   -12583   -12313 
  -12021   -11709   -11388   -11062   -10736   -10413   -10103    -9782 
   -9450    -9112    -8766    -8421    -8083    -7738    -7393    -7051 
   -6691    -6345    -6014    -5679    -5370    -5088    -4816    -4577 
   -4376    -4212    -4094    -3996    -3908    -3838    -3746    -3615 
   -3457    -3265    -3033    -2770    -2489    -2207    -1949    -1740 
   -1580    -1456    -1356    -1263    -1173    -1101    -1062    -1047 
   -1067    -1128    -1230    -1381    -1553    -1742    -1968    -2241 
   -2575    -2967    -3384    -3824    -4271    -4689    -5067    -5416 
   -5748    -6066    -6382    -6720    -7089    -7496    -7921    -8343 
   -8766    -9194    -9605    -9991   -10342   -10643   -10906   -11115 
  -11245   -11313   -11311   -11225   -11078   -10887   -10643   -10350 
  -10012    -9626    -9204    -8756    -8278    -7774    -7263    -6759 
   -6252    -5729    -5201    -4700    -4252    -3859    -3535    -3296 
   -3127    -3010    -2957    -2961    -2991    -3033    -3067    -3071 
   -3048    -2991    -2915    -2836    -2778    -2764    -2794    -2856 
   -2970    -3153    -3397    -3684    -4009    -4360    -4718    -5089 
   -5466    -5814    -6148    -6497    -6859    -7221    -7574    -7923 
   -8276    -8610    -8904    -9170    -9409    -9605    -9748    -9868 
  -10011   -10196   -10403   -10620   -10849   -11087   -11337   -11622 
  -11929   -12226   -12518   -12841   -13208   -13581   -13923   -14245 
  -14534   -14764   -14932   -15031   -15066   -15040   -14939   -14767 
  -14543   -14262   -13899   -13443   -12898   -12305   -11695   -11072 
  -10424    -9768    -9123    -8479    -7825    -7169    -6516    -5887 
   -5312    -4792    -4311    -3866    -3459    -3084    -2727    -2394 
   -2081    -1761    -1433    -1107     -791     -481     -172      129 
     419      702      977     1239     1495     1745     1981     2207 
    2435     2664     2889     3114     3339     3563     3794     4020 
    4236     4460     4676     4864     5027     5174     5289     5366 
    5398     5379     5320     5223     5070     4872     4641     4379 
    4090     3767     3412     3041     2660     2261     1845     1418 
     970      515       78     -349     -776    -1192    -1590    -1973 
   -2342    -2690    -3028    -3369    -3716    -4077    -4459    -4857 
   -5258    -5656    -6060    -6473    -6886    -7311    -7759    -8226 
   -8694    -9154    -9609   -10054   -10478   -10867   -11203   -11469 
  -11668   -11792   -11838   -11831   -11789   -11711   -11591   -11439 
  -11277   -11126   -10990   -10866   -10755   -10644   -10523   -10399 
  -10273   -10147   -10018    -9865    -9683    -9479    -9262    -9036 
   -8812    -8598    -8391    -8199    -8035    -7896    -7770    -7647 
   -7523    -7406    -7288    -7165    -7048    -6948    -6860    -6793 
   -6754    -6716    -6677    -6652    -6637    -6633    -6647    -6667 
   -6701    -6782    -6906    -7063    -7254    -7476    -7715    -7956 
   -8172    -8374    -8592    -8820    -9022    -9202    -9391    -9589 
   -9771    -9929   -10073   -10216   -10376   -10566   -10773   -10979 
  -11171   -11334   -11481   -11635   -11772   -11880   -11942   -11947 
  -11924   -11873   -11770   -11616   -11437   -11252   -11074   -10903 
  -10746   -10611   -10489   -10388   -10323   -10282   -10233   -10170 
  -10126   -10106   -10081   -10038    -9967    -9856    -9717    -9535 
   -9290    -8999    -8664    -8283    -7877    -7443    -6987    -6542 
   -6127    -5751    -5400    -5066    -4769    -4514    -4286    -4098 
   -3960    -3883    -3878    -3886    -3879    -3882    -3898    -3935 
   -3991    -4066    -4164    -4270    -4356    -4438    -4526    -4626 
   -4733    -4827    -4891    -4914    -4914    -4934    -4993    -5080 
   -5164    -5221    -5260    -5305    -5341    -5374    -5429    -5497 
   -5562    -5632    -5709    -5793    -5895    -6006    -6114    -6212 
   -6307    -6386    -6460    -6574    -6733    -6917    -7130    -7393 
   -7704    -8037    -8370    -8685    -8981    -9259    -9526    -9783 
  -10015   -10207   -10365   -10523   -10700   -10890   -11091   -11286 
  -11448   -11564   -11632   -11663   -11695   -11723   -11723   -11708 
  -11711   -11755   -11854   -12002   -12198   -12433   -12688   -12951 
  -13204   -13436   -13672   -13918   -14153   -14359   -14526   -14650 
  -14733   -14754   -14701   -14604   -14481   -14326   -14129   -13887 
  -13616   -13306   -12964   -12623   -12274   -11902   -11516   -11110 
  -10694   -10273    -9842    -9414    -8996    -8571    -8139    -7708 
   -7284    -6866    -6438    -6018    -5617    -5228    -4854    -4480 
   -4087    -3688    -3289    -2902    -2531    -2166    -1806    -1444 
   -1065     -689     -346      -28      278      568      815     1011 
    1182     1336     1472     1602     1718     1810     1883     1946 
    2000     2026     2007     1939     1821     1651     1452     1225 
     966      691      395       76     -240     -565     -927    -1337 
   -1790    -2284    -2818    -3383    -3955    -4540    -5151    -5784 
   -6447    -7121    -7786    -8457    -9127    -9771   -10382   -10956 
  -11504   -12021   -12491   -12910   -13273   -13583   -13846   -14054 
  -14207   -14319   -14407   -14486   -14565   -14638   -14724   -14833 
  -14947   -15054   -15161   -15250   -15314   -15364   -15398   -15417 
  -15427   -15427   -15410   -15363   -15279   -15152   -14974   -14751 
  -14490   -14196   -13872   -13513   -13122   -12719   -12316   -11911 
  -11508   -11111   -10725   -10339    -9945    -9545    -9142    -8739 
   -8340    -7948    -7578    -7236    -6919    -6629    -6361    -6095 
   -5823    -5567    -5335    -5119    -4916    -4723    -4529    -4334 
   -4144    -3970    -3828    -3708    -3589    -3483    -3388    -3288 
   -3186    -3083    -2963    -2818    -2658    -2470    -2267    -2073 
   -1881    -1668    -1428    -1192     -967     -728     -484     -286 
    -148      -58        2       37       41       22      -11      -70 
    -148     -243     -356     -460     -526     -598     -715     -874 
   -1030    -1174    -1310    -1444    -1570    -1686    -1810    -1946 
   -2069    -2181    -2293    -2419    -2581    -2774    -2980    -3210 
   -3470    -3773    -4101    -4410    -4710    -5050    -5413    -5769 
   -6112    -6446    -6767    -7094    -7427    -7753    -8077    -8414 
   -8756    -9097    -9444    -9791   -10131   -10473   -10836   -11214 
  -11583   -11929   -12254   -12553   -12837   -13108   -13351   -13560 
  -13714   -13792   -13806   -13786   -13737   -13654   -13535   -13374 
  -13188   -12972   -12715   -12414   -12067   -11705   -11352   -11005 
  -10670   -10351   -10035    -9751    -9526    -9354    -9219    -9100 
   -8991    -8911    -8868    -8834    -8797    -8746    -8658    -8529 
   -8370    -8176    -7955    -7709    -7427    -7123    -6802    -6439 
   -6046    -5634    -5190    -4729    -4275    -3831    -3377    -2907 
   -2438    -1960    -1476    -1028     -618     -225      139      459 
     743     1011     1240     1410     1541     1652     1729     1769 
    1784     1776     1750     1695     1595     1453     1282     1107 
     932      774      637      500      359      238      143       45 
     -71     -233     -453     -734    -1057    -1404    -1772    -2160 
   -2563    -2984    -3404    -3813    -4205    -4588    -4966    -5317 
   -5632    -5931    -6234    -6536    -6829    -7101    -7337    -7547 
   -7740    -7931    -8122    -8310    -8487    -8650    -8810    -8996 
   -9201    -9409    -9617    -9807    -9972   -10126   -10268   -10390 
  -10488   -10547   -10567   -10571   -10567   -10547   -10516   -10467 
  -10401   -10320   -10247   -10191   -10138   -10104   -10084   -10057 
  -10039   -10046   -10065   -10087   -10103   -10083   -10018    -9940 
   -9863    -9788    -9705    -9599    -9467    -9316    -9142    -8966 
