Origin Time       2016/04/16 01:25:00
Lat.              32.753
Long.             130.762
Depth. (km)       12
Mag.              7.3
Station Code      SMN009
Station Lat.      35.0112
Station Long.     132.2227
Station Height(m) 20
Record Time       2016/04/16 01:25:53
Sampling Freq(Hz) 100Hz
Duration Time(s)  98
Dir.              N-S
Scale Factor      7845(gal)/8223790
Max. Acc. (gal)   8.770
Last Correction   2016/04/16 01:25:53
Memo.             
[...]
    8052     8266     8522     8769     8892     8721     8181     7381 
    6600     6134     6135     6562     7263     8067     8834     9502 
   10022    10292    10277    10050     9682     9266     8977     8883 
    8830     8665     8378     8004     7592     7209     6891     6679 
    6601     6646     6891     7495     8457     9551    10420    10739 
   10453     9828     9165     8640     8370     8347     8417     8502 
    8608     8653     8561     8382     8113     7663     7074     6564 
    6389     6673     7371     8310     9285    10085    10547    10609 
   10278     9574     8629     7711     7040     6675     6608     6835 
    7271     7758     8225     8694     9147     9504     9680     9645 
    9414     9040     8564     8078     7759     7701     7865     8206 
    8687     9169     9483     9593     9574     9474     9292     9030 
    8700     8316     7911     7553     7340     7325     7470     7677 
    7860     8014     8189     8407     8668     9011     9495    10057 
   10497    10631    10422     9977     9404     8772     8203     7839 
    7715     7808     8062     8355     8560     8633     8595     8519 
    8499     8608     8893     9352     9896    10374    10662    10697 
   10482    10088     9649     9251     8888     8543     8232     7974 
    7771     7584     7439     7477     7805     8355     8962     9529 
   10021    10388    10573    10574    10451    10226     9840     9289 
    8688     8124     7632     7310     7256     7493     8010     8704 
    9348     9760     9931     9922     9813     9697     9601     9509 
    9429     9375     9337     9292     9170     8901     8453     7825 
    7148     6696     6671     7063     7744     8548     9289     9798 
    9963     9788     9424     9038     8734     8571     8579     8745 
    9012     9279     9413     9342     9066     8596     8016     7493 
    7168     7107     7330     7753     8225     8637     9012     9441 
    9933    10368    10569    10426     9995     9393     8708     8070 
    7607     7346     7322     7619     8225     8957     9562     9853 
    9783     9441     9020     8731     8680     8822     9045     9252 
    9347     9269     9040     8735     8433     8215     8106     8067 
    8071     8125     8229     8348     8406     8394     8428     8602 
    8896     9221     9499     9671     9684     9526     9288     9096 
    8997     9001     9116     9269     9310     9117     8668     8095 
    7647     7514     7731     8244     8938     9632    10192    10559 
   10705    10624    10358     9946     9416     8806     8194     7685 
    7342     7177     7177     7284     7395     7461     7546     7751 
    8143     8727     9424    10076    10569    10839    10808    10444 
    9853     9205     8630     8162     7851     7785     7921     8094 
    8202     8257     8278     8259     8222     8241     8401     8704 
    9057     9354     9574     9759     9953    10158    10282    10164 
    9698     8922     7966     7074     6531     6467     6812     7454 
    8255     9022     9605     9931     9992     9871     9717     9593 
    9526     9591     9740     9784     9579     9119     8494     7839 
    7302     7051     7175     7572     8007     8352     8629     8874 
    9081     9217     9263     9270     9348     9559     9898    10301 
   10593    10555    10103     9364     8584     7942     7510     7315 
    7352     7592     7994     8487     8934     9182     9228     9213 
    9281     9477     9726     9923    10039    10088    10033     9815 
    9454     9012     8560     8197     8016     8051     8311     8769 
    9292     9703     9890     9815     9518     9103     8698     8401 
    8222     8148     8199     8406     8741     9078     9259     9198 
    8912     8527     8232     8132     8214     8401     8642     8928 
    9251     9549     9749     9771     9562     9180     8757     8398 
    8172     8073     8020     7982     8055     8355     8891     9537 
   10072    10293    10146     9747     9308     9022     8927     8938 
    8953     8924     8877     8858     8887     8916     8856     8640 
    8317     8043     7979     8159     8490     8895     9321     9699 
    9961    10096    10092     9867     9373     8700     8046     7638 
    7616     7924     8376     8797     9150     9495     9829    10050 
   10088     9953     9693     9396     9153     8997     8923     8966 
    9157     9464     9809    10058    10053     9730     9205     8703 
    8374     8230     8215     8264     8336     8424     8484     8449 
    8303     8040     7677     7348     7271     7530     8032     8612 
    9084     9310     9302     9147     8950     8807     8776     8843 
    8972     9081     9066     8888     8600     8274     7969     7780 
    7767     7916     8182     8503     8748     8830     8795     8691 
    8510     8268     7990     7697     7434     7234     7111     7088 
    7134     7160     7123     6993     6797     6670     6736     6985 
    7342     7707     7964     8067     8091     8179     8444     8912 
    9493    10022    10359    10434    10253     9891     9468     9096 
    8833     8721     8789     9024     9351     9680     9907     9922 
    9752     9568     9518     9649     9956    10365    10739    10975 
   11026    10882    10569    10123     9605     9086     8610     8172 
    7820     7659     7740     7989     8255     8378     8243     7889 
    7464     7109     6922     6921     7042     7258     7589     8027 
    8474     8779     8838     8664     8367     8089     7920     7893 
    7985     8139     8303     8437     8506     8472     8348     8218 
    8213     8431     8878     9479    10138    10706    11010    10971 
   10643    10093     9360     8523     7705     7025     6525     6219 
    6134     6303     6756     7449     8214     8866     9298     9456 
    9354     9103     8830     8607     8479     8454     8471     8456 
    8431     8472     8611     8772     8797     8598     8253     7946 
    7843     8012     8378     8826     9293     9694     9913     9902 
    9730     9497     9246     8972     8721     8661     8953     9585 
   10358    11055    11518    11642    11398    10867    10220     9660 
    9331     9293     9533     9929    10270    10407    10260     9786 
    9026     8129     7258     6486     5857     5454     5379     5705 
    6401     7302     8170     8846     9275     9459     9431     9261 
    9028     8743     8371     7974     7699     7603     7657     7824 
    8056     8297     8530     8748     8868     8791     8490     8052 
    7645     7410     7375     7465     7586     7681     7758     7867 
    8064     8352     8644     8854     8996     9043     8923     8640 
    8289     7916     7493     6987     6451     6062     5991     6250 
    6744     7342     7908     8379     8754     9015     9153     9196 
    9136     8976     8810     8737     8757     8835     8946     9047 
    9119     9175     9267     9436     9684     9960    10187    10291 
   10158     9705     9008     8252     7609     7209     7105     7227 
    7476     7770     8044     8313     8637     8991     9258     9312 
    9101     8750     8494     8513     8881     9560    10432    11369 
   12224    12792    12926    12634    11994    11114    10166     9336 
    8748     8440     8352     8401     8540     8754     9035     9385 
    9782    10162    10485    10724    10833    10802    10644    10369 
    9999     9555     9009     8338     7576     6847     6336     6162 
    6295     6625     7051     7488     7859     8098     8182     8116 
    7931     7685     7460     7290     7091     6777     6381     6025 
    5853     6015     6561     7353     8176     8851     9221     9221 
    9007     8854     8927     9201     9545     9819     9941     9940 
    9900     9857     9803     9730     9647     9552     9420     9227 
    8995     8776     8664     8739     8984     9300     9632     9965 
   10222    10260    10008     9552     9054     8621     8259     7931 
    7603     7300     7134     7218     7599     8214     8892     9439 
    9752     9845     9775     9533     9109     8617     8226     8040 
    8063     8237     8506     8835     9178     9439     9510     9339 
    8955     8454     7974     7672     7676     7992     8464     8854 
    8986     8820     8476     8136     7921     7859     7921     8078 
    8283     8486     8667     8795     8823     8769     8723     8737 
    8780     8773     8631     8367     8054     7749     7472     7241 
    7125     7172     7325     7500     7657     7753     7754     7654 
    7438     7136     6872     6806     7017     7465     8025     8567 
    9028     9355     9479     9383     9093     8640     8095     7555 
    7115     6890     6951     7261     7722     8218     8641     8856 
    8766     8397     7862     7271     6698     6239     6034     6176 
    6605     7123     7539     7792     7936     8040     8125     8159 
    8125     8063     8039     8063     8086     8102     8172     8328 
    8505     8618     8625     8513     8326     8135     7960     7807 
    7692     7646     7701     7875     8131     8367     8497     8503 
    8430     8337     8257     8201     8137     8046     7978     8037 
    8263     8559     8753     8737     8542     8305     8158     8205 
    8483     8922     9386     9796    10133    10372    10514    10582 
   10605    10598    10579    10513    10304     9896     9342     8746 
    8229     7882     7713     7643     7592     7541     7482     7385 
    7223     7068     7075     7352     7881     8536     9147     9622 
    9963    10177    10262    10272    10301    10381    10490    10659 
   10882    11051    11097    11045    10976    10976    11039    11082 
   11086    11115    11175    11202    11149    11002    10754    10415 
   10008     9543     9004     8421     7890     7568     7576     7902 
    8417     8984     9478     9815    10030    10234    10457    10617 
   10639    10530    10361    10215    10149    10154    10181    10184 
   10138    10062    10002     9973     9977     9985     9921     9698 
    9308     8834     8384     8046     7848     7781     7838     8039 
    8371     8810     9325     9853    10299    10567    10604    10436 
   10127     9715     9244     8775     8321     7835     7275     6689 
    6205     5922     5852     5981     6304     6787     7357     7963 
    8617     9324    10071    10847    11591    12182    12492    12382 
   11800    10881     9852     8912     8185     7699     7378     7115 
    6848     6589     6394     6323     6372     6475     6625     6886 
    7284     7825     8526     9358    10241    11095    11830    12324 
   12495    12348    11947    11388    10744    10045     9316     8623 
    8002     7437     6949     6615     6523     6728     7202     7827 
    8453     8974     9360     9612     9778     9960    10181    10282 
   10055     9431     8513     7537     6789     6484     6633     7084 
    7670     8248     8642     8688     8414     8032     7707     7482 
    7384     7433     7586     7788     8032     8286     8430     8351 
    8007     7453     6831     6356     6203     6408     6926     7619 
    8264     8679     8806     8667     8344     7987     7823     8007 
    8494     9090     9655    10093    10262    10029     9447     8734 
    8151     7900     8024     8406     8800     8924     8622     7971 
    7177     6454     5992     5921     6246     6845     7553     8241 
    8776     8972     8768     8322     7874     7604     7588     7794 
    8144     8507     8734     8764     8611     8313     7931     7553 
    7283     7169     7206     7385     7703     8094     8441     8617 
    8500     8046     7317     6529     5996     5922     6285     6940 
    7786     8808     9953    11029    11816    12213    12244    11994 
   11527    10827     9884     8830     7897     7290     7094     7203 
    7350     7346     7144     6804     6498     6407     6601     7083 
    7846     8804     9724    10329    10476    10172     9539     8756 
    8043     7638     7639     7942     8431     9104     9945    10818 
   11483    11689    11329    10509     9464     8426     7589     7087 
    6924     7026     7344     7769     8108     8222     8075     7681 
    7169     6789     6747     7142     7959     9012    10022    10764 
   11107    11001    10473     9620     8630     7769     7252     7196 
    7609     8344     9190     9995    10646    11070    11276    11330 
   11269    11067    10693    10207     9675     9076     8307     7264 
    5980     4669     3615     3086     3298     4266     5717     7307 
    8887    10400    11788    13020    14112    15057    15757    16087 
   16011    15527    14629    13360    11797    10065     8313     6646 
    5258     4392     4101     4203     4429     4617     4795     5071 
    5570     6355     7460     8938    10696    12424    13783    14492 
   14409    13576    12206    10719     9472     8560     7958     7639 
    7553     7638     7807     7931     7902     7736     7548     7462 
    7604     8006     8520     8920     9054     8885     8436     7705 
    6733     5661     4723     4183     4172     4592     5164     5583 
    5686     5510     5238     5121     5387     6100     7149     8352 
    9553    10640    11583    12406    13084    13558    13817    13853 
   13618    13035    11985    10347     8128     5532     2975      947 
    -222     -499       20     1258     3063     5196     7430     9437 
   10854    11591    11809    11761    11754    11978    12355    12687 
   12719    12124    10714     8660     6356     4232     2631     1679 
    1266     1282     1726     2608     3883     5493     7361     9337 
   11195    12715    13811    14492    14747    14550    13887    12748 
   11272     9811     8664     7901     7410     6971     6446     5798 
    5020     4256     3831     3983     4764     6025     7423     8658 
    9659    10404    10885    11214    11531    11819    12035    12183 
   12201    11978    11441    10543     9378     8190     7230     6592 
    6181     5937     5948     6214     6609     7020     7384     7719 
    8172     8874     9765    10706    11595    12286    12613    12536 
   12059    11144     9782     8109     6427     5059     4131     3628 
    3530     3827     4504     5540     6779     7994     9104    10208 
   11379    12603    13794    14817    15452    15457    14686    13188 
   11169     8803     6205     3673     1601      234     -346     -171 
     634     1900     3492     5335     7331     9343    11195    12684 
   13651    14061    14004    13630    13070    12360    11438    10258 
    8884     7400     5890     4495     3369     2610     2336     2616 
    3325     4251     5262     6313     7403     8494     9514    10399 
   11121    11701    12168    12556    12900    13194    13313    13032 
   12209    10926     9377     7769     6335     5228     4472     4126 
    4222     4598     5062     5580     6207     6978     7857     8677 
    9262     9613     9817     9882     9755     9406     8870     8251 
    7684     7240     6901     6659     6535     6528     6609     6750 
    6985     7326     7632     7727     7576     7284     7005     6853 
    6957     7442     8259     9147     9856    10241    10226     9859 
    9290     8667     8087     7609     7276     7146     7272     7635 
    8148     8741     9359     9919    10408    10909    11453    11973 
   12355    12476    12297    11886    11345    10754    10164     9599 
    9090     8650     8252     7898     7672     7654     7836     8159 
    8644     9305    10008    10608    11076    11368    11365    11016 
   10450     9899     9533     9390     9396     9377     9217     8989 
    8808     8735     8833     9089     9366     9549     9655     9709 
    9644     9364     8885     8307     7770     7441     7437     7755 
    8286     8887     9425     9769     9833     9634     9271     8827 
    8351     7867     7458     7295     7522     8147     9049     9995 
   10720    11034    10893    10365     9576     8650     7700     6832 
    6100     5524     5117     4880     4791     4807     4903     5162 
    5721     6586     7668     8888    10103    11080    11653    11762 
   11414    10646     9547     8228     6860     5660     4768     4232 
    4079     4255     4575     4846     5000     5107     5270     5535 
    5923     6426     6944     7356     7619     7808     8055     8471 
    9085     9845    10621    11237    11546    11442    10897    10037 
    9062     8189     7630     7495     7676     7985     8306     8602 
    8885     9167     9379     9418     9288     9071     8843     8688 
    8749     9082     9566     9967    10088     9887     9444     8883 
    8359     8056     8117     8556     9232     9937    10482    10817 
   11007    11087    11011    10744    10299     9738     9128     8464 
    7749     7103     6731     6720     6995     7425     7908     8388 
    8842     9285     9794    10453    11273    12143    12865    13247 
   13204    12818    12266    11709    11221    10768    10260     9589 
    8752     7888     7211     6875     6919     7276     7730     8035 
    8083     7923     7715     7693     7990     8550     9216     9809 
   10200    10349    10274    10030     9722     9493     9433     9549 
    9788    10058    10218    10125     9720     9058     8306     7657 
    7231     7067     7179     7510     7927     8348     8754     9108 
    9329     9340     9155     8916     8749     8677     8667     8715 
    8824     8996     9219     9454     9671     9863    10035    10160 
   10103     9755     9202     8669     8319     8243     8461     8873 
    9279     9518     9508     9239     8781     8198     7493     6706 
    5948     5366     5084     5152     5549     6207     6990     7744 
    8375     8847     9126     9192     9112     9027     9108     9452 
   10025    10710    11344    11712    11646    11118    10250     9221 
    8212     7387     6871     6710     6889     7373     8105     8914 
    9547     9791     9591     9101     8594     8310     8404     8877 
    9567    10261    10750    10867    10547     9849     8977     8201 
    7690     7446     7433     7673     8171     8872     9683    10528 
   11321    11934    12267    12341    12226    11956    11580    11203 
   10959    10921    11014    11086    11084    11037    10936    10759 
   10534    10287    10034     9840     9782     9875    10049    10173 
   10137     9948     9720     9574     9566     9661     9803     9988 
   10263    10640    11036    11317    11403    11319    11134    10870 
   10500    10041     9560     9150     8914     8895     9012     9153 
    9266     9343     9398     9452     9489     9493     9509     9574 
    9679     9787     9841     9771     9537     9167     8718     8243 
    7813     7522     7439     7614     8063     8757     9606    10428 
   10984    11118    10860    10370     9822     9359     9045     8820 
    8590     8310     7997     7663     7302     6943     6681     6629 
    6810     7129     7480     7824     8139     8418     8721     9088 
    9510     9937    10281    10486    10521    10378    10138     9938 
    9847     9832     9810     9701     9447     9059     8627     8266 
