Origin Time       2016/04/16 01:25:00
Lat.              32.753
Long.             130.762
Depth. (km)       12
Mag.              7.3
Station Code      SMN015
Station Lat.      35.3644
Station Long.     133.1704
Station Height(m) 32
Record Time       2016/04/16 01:26:48
Sampling Freq(Hz) 100Hz
Duration Time(s)  67
Dir.              N-S
Scale Factor      7845(gal)/8223790
Max. Acc. (gal)   2.242
Last Correction   2016/04/16 01:26:49
Memo.             
[...]
     292      288      280      275      272      266      263      261 
     261      259      261      265      266      266      266      266 
     266      270      271      266      261      249      229      205 
     176      139       91       39      -13      -67     -121     -168 
    -210     -243     -263     -278     -288     -291     -287     -283 
    -280     -271     -256     -244     -230     -210     -184     -155 
    -120      -83      -41        9       62      117      175      230 
     280      330      376      418      453      481      506      526 
     544      557      568      576      583      587      589      589 
     588      584      573      556      537      514      488      467 
     441      415      396      376      357      344      333      318 
     302      287      274      263      257      259      265      276 
     295      319      344      370      398      422      444      463 
     476      486      491      492      488      486      483      476 
     464      453      437      421      403      382      359      334 
     313      292      270      246      222      197      168      133 
      93       47       -4      -59     -117     -178     -237     -287 
    -332     -361     -373     -372     -357     -330     -294     -249 
    -202     -155     -109      -65      -27        5       29       43 
      47       47       43       32       25       18       14       13 
      16       22       37       52       63       72       81       79 
      71       56       36       11      -16      -40      -62      -85 
    -106     -124     -141     -156     -168     -182     -194     -201 
    -206     -211     -217     -222     -225     -232     -236     -241 
    -246     -255     -259     -259     -256     -249     -241     -230 
    -210     -184     -160     -136     -106      -78      -51      -21 
       4       25       44       59       67       71       72       71 
      72       72       72       75       83       90       99      108 
     116      125      139      151      163      176      193      209 
     225      245      263      278      287      297      302      298 
     289      282      272      261      256      256      259      270 
     282      301      321      337      348      359      359      357 
     357      352      344      334      321      307      292      270 
     241      207      167      118       64       11      -39      -91 
    -140     -176     -206     -229     -241     -244     -241     -237 
    -232     -225     -224     -222     -222     -224     -221     -214 
    -203     -189     -167     -140     -108      -67      -25       22 
      74      129      189      255      326      402      483      565 
     646      724      800      866      923      972     1009     1032 
    1039     1032     1009      974      927      869      801      724 
     643      558      473      390      309      229      155       82 
      14      -47     -103     -157     -207     -252     -287     -314 
    -332     -338     -336     -324     -301     -265     -216     -151 
     -65       37      163      307      463      621      783      938 
    1081     1212     1323     1414     1491     1552     1597     1630 
    1655     1669     1669     1658     1634     1590     1528     1456 
    1368     1266     1154     1034      905      765      618      469 
     318      163       11     -129     -266     -395     -511     -616 
    -711     -793     -862     -923     -974    -1016    -1048    -1069 
   -1077    -1074    -1060    -1032     -992     -945     -885     -812 
    -730     -638     -538     -425     -303     -170      -22      125 
     279      442      596      739      876      996     1090     1161 
    1212     1237     1240     1221     1174     1105     1023      920 
     804      681      552      419      297      186       91       18 
     -32      -60      -64      -44       -2       55      128      217 
     313      411      513      619      723      818      903      981 
    1051     1116     1169     1212     1250     1275     1289     1296 
    1294     1281     1258     1230     1201     1167     1131     1097 
    1067     1039     1012      987      965      942      920      892 
     857      820      776      719      652      575      490      399 
     306      209      114       28      -47     -116     -172     -216 
    -243     -259     -263     -252     -236     -218     -195     -172 
    -153     -139     -128     -122     -124     -136     -157     -194 
    -241     -298     -368     -445     -523     -606     -691     -770 
    -847     -920     -986    -1043    -1086    -1117    -1135    -1143 
   -1140    -1129    -1112    -1089    -1063    -1038    -1012     -986 
    -959     -936     -916     -890     -866     -845     -816     -785 
    -756     -720     -680     -637     -595     -553     -510     -463 
    -410     -361     -310     -256     -205     -156     -108      -60 
     -16       25       67      114      157      198      240      276 
     307      340      365      379      387      390      387      378 
     367      359      349      337      322      305      284      256 
     216      168      116       55       -9      -75     -133     -183 
    -229     -263     -287     -303     -315     -318     -311     -294 
    -265     -222     -167      -95      -13       78      180      287 
     395      506      619      728      838      947     1050     1148 
    1239     1317     1387     1448     1493     1522     1541     1541 
    1528     1503     1466     1421     1375     1320     1263     1210 
    1162     1117     1078     1047     1020      994      966      936 
     899      850      789      715      622      519      411      299 
     193       91       -1      -86     -164     -234     -295     -355 
    -409     -451     -490     -526     -553     -573     -585     -591 
    -594     -598     -604     -612     -627     -646     -668     -696 
    -728     -765     -801     -834     -862     -889     -907     -919 
    -929     -932     -928     -923     -909     -888     -868     -842 
    -807     -761     -708     -650     -584     -514     -440     -361 
    -280     -198     -114      -31       56      149      240      332 
     425      518      607      692      769      837      900      953 
     996     1031     1062     1089     1116     1143     1175     1215 
    1250     1282     1313     1333     1340     1332     1305     1255 
    1185     1100      994      876      745      600      445      279 
     106      -65     -238     -406     -556     -688     -804     -901 
    -981    -1039    -1086    -1124    -1159    -1192    -1227    -1270 
   -1314    -1362    -1416    -1474    -1525    -1571    -1611    -1641 
   -1658    -1669    -1668    -1658    -1649    -1632    -1611    -1586 
   -1553    -1517    -1475    -1428    -1377    -1320    -1260    -1201 
   -1138    -1078    -1024     -977     -935     -907     -890     -886 
    -896     -915     -945     -981    -1024    -1067    -1104    -1136 
   -1166    -1190    -1208    -1220    -1230    -1239    -1237    -1232 
   -1225    -1206    -1177    -1138    -1080    -1003     -911     -801 
    -681     -556     -425     -297     -172      -59       40      129 
     210      278      336      394      451      513      577      650 
     735      826      923     1023     1119     1210     1298     1382 
    1460     1532     1597     1649     1690     1719     1736     1733 
    1714     1682     1634     1579     1518     1453     1386     1314 
    1243     1169     1090     1011      923      830      731      625 
     510      394      272      144       14     -117     -249     -380 
    -506     -625     -734     -827     -900     -951     -981     -984 
    -959     -912     -838     -743     -637     -514     -378     -238 
     -99       37      172      294      403      496      568      619 
     643      641      611      552      471      368      249      116 
     -21     -160     -303     -448     -581     -707     -824     -932 
   -1023    -1100    -1167    -1224    -1271    -1312    -1347    -1372 
   -1390    -1405    -1416    -1422    -1429    -1433    -1429    -1425 
   -1416    -1395    -1366    -1324    -1264    -1183    -1080     -953 
    -804     -634     -446     -249      -47      149      342      522 
     687      838      973     1089     1196     1286     1367     1439 
    1498     1549     1594     1630     1664     1701     1732     1759 
    1779     1786     1783     1772     1748     1717     1680     1642 
    1603     1567     1534     1507     1483     1463     1444     1428 
    1414     1410     1412     1420     1436     1462     1498     1547 
    1605     1669     1738     1804     1867     1923     1971     2007 
    2030     2038     2037     2030     2018     2001     1982     1956 
    1927     1892     1848     1796     1736     1663     1579     1485 
    1377     1258     1131      997      861      730      604      483 
     370      271      183      108       44       -4      -43      -76 
    -108     -137     -167     -194     -232     -284     -348     -417 
    -491     -566     -641     -714     -784     -847     -907     -967 
   -1031    -1096    -1163    -1230    -1298    -1359    -1417    -1472 
   -1521    -1564    -1606    -1648    -1684    -1715    -1734    -1738 
   -1726    -1701    -1657    -1601    -1528    -1443    -1343    -1228 
   -1104     -974     -846     -719     -602     -499     -413     -344 
    -294     -259     -240     -232     -234     -238     -241     -244 
    -246     -245     -241     -234     -229     -225     -222     -225 
    -234     -241     -246     -253     -261     -272     -286     -302 
    -324     -348     -372     -398     -422     -430     -423     -410 
    -383     -338     -283     -218     -148      -78       -4       70 
     140      214      287      356      430      514      600      688 
     778      864      947     1026     1098     1163     1221     1271 
    1313     1348     1374     1389     1394     1394     1381     1360 
    1337     1301     1260     1224     1183     1135     1088     1039 
     989      938      889      846      810      781      757      738 
     722      702      683      661      635      602      562      513 
     453      380      301      218      136       54      -21      -87 
    -144     -197     -236     -270     -297     -315     -330     -348 
    -369     -396     -427     -468     -517     -572     -634     -700 
    -766     -837     -903     -962    -1015    -1059    -1094    -1124 
   -1142    -1147    -1142    -1123    -1088    -1036     -972     -893 
    -799     -691     -579     -464     -351     -236     -129      -35 
      54      137      209      276      342      406      469      530 
     583      638      688      723      750      767      765      746 
     714      665      611      553      488      427      376      330 
     297      275      259      256      266      287      317      356 
     402      456      515      571      626      685      741      793 
     841      877      903      915      913      897      870      832 
     778      711      633      545      450      344      230      121 
      10      -98     -195     -278     -352     -414     -467     -514 
    -553     -591     -627     -657     -683     -704     -715     -718 
    -708     -691     -665     -635     -606     -579     -553     -529 
    -510     -498     -487     -475     -463     -445     -421     -390 
    -344     -291     -229     -159      -83       -5       72      156 
     238      318      394      468      538      603      664      722 
     773      815      846      862      858      837      797      741 
     670      585      491      394      297      202      106       17 
     -64     -137     -203     -261     -311     -353     -383     -403 
    -413     -411     -402     -383     -359     -324     -286     -252 
    -221     -193     -166     -141     -121     -103      -87      -74 
     -65      -52      -36      -16       11       47       89      129 
     172      214      252      284      305      315      319      313 
     295      271      246      224      202      184      172      163 
     157      159      167      178      195      222      257      297 
     342      398      463      526      595      666      737      801 
     864      926      982     1039     1094     1148     1204     1251 
    1291     1325     1347     1359     1366     1364     1358     1347 
    1333     1317     1296     1270     1240     1204     1166     1127 
    1085     1048     1012      977      949      923      903      890 
     885      888      897      911      931      959      989     1020 
    1057     1090     1123     1151     1170     1179     1185     1185 
    1174     1152     1125     1094     1055     1011      961      907 
     850      788      723      656      579      496      413      328 
     238      148       68        2      -49      -90     -118     -136 
    -144     -144     -135     -112      -79      -35       20       83 
     152      230      314      396      475      552      623      689 
     753      814      873      928      985     1048     1112     1173 
    1242     1316     1390     1472     1566     1660     1759     1859 
    1956     2049     2139     2220     2295     2361     2413     2457 
    2498     2529     2546     2550     2535     2509     2478     2440 
    2397     2354     2309     2267     2232     2199     2163     2126 
    2085     2034     1972     1902     1822     1738     1651     1567 
    1487     1418     1360     1313     1282     1264     1256     1259 
    1273     1294     1320     1350     1382     1416     1445     1470 
    1490     1505     1513     1517     1518     1513     1501     1482 
    1463     1445     1425     1404     1386     1370     1354     1339 
    1331     1331     1333     1332     1328     1323     1313     1300 
    1281     1258     1235     1209     1185     1166     1146     1129 
    1120     1104     1086     1075     1065     1050     1036     1023 
    1005      989      980      976      976      982      992     1007 
    1023     1039     1065     1094     1125     1163     1212     1274 
    1345     1424     1505     1590     1675     1757     1837     1903 
    1958     2006     2034     2053     2069     2073     2077     2083 
    2084     2083     2083     2079     2076     2065     2047     2025 
    1995     1964     1937     1910     1884     1863     1840     1814 
    1788     1763     1737     1707     1668     1625     1578     1521 
    1459     1393     1321     1250     1174     1092     1011      931 
     849      769      693      623      560      495      430      368 
     309      246      189      131       75       20      -36      -94 
    -148     -195     -240     -280     -314     -340     -363     -383 
    -399     -411     -422     -429     -430     -427     -422     -410 
    -392     -369     -342     -310     -271     -228     -186     -144 
     -99      -51       -2       44       93      144      202      268 
     341      421      508      598      685      772      854      932 
    1000     1057     1104     1147     1179     1202     1219     1228 
    1227     1216     1193     1158     1109     1039      955      862 
     754      641      529      419      311      210      114       28 
     -47     -110     -166     -210     -244     -268     -284     -295 
    -299     -295     -284     -263     -233     -191     -140      -74 
       4       89      178      274      364      440      506      562 
     600      619      627      621      599      565      525      480 
     430      376      322      270      222      178      136       97 
      58       17      -18      -47      -74      -93     -102     -101 
     -83      -47       -4       52      122      195      274      357 
     438      517      591      648      693      730      753      762 
     762      754      741      728      718      704      688      669 
     649      629      603      569      531      486      433      379 
     319      255      187      117       43      -28      -95     -157 
    -214     -266     -319     -369     -417     -461     -506     -544 
    -573     -598     -614     -616     -611     -604     -591     -577 
    -571     -566     -571     -585     -611     -648     -687     -731 
    -783     -838     -897     -961    -1023    -1078    -1129    -1173 
   -1204    -1223    -1223    -1201    -1159    -1104    -1036     -957 
    -874     -796     -723     -658     -602     -557     -522     -490 
    -463     -438     -414     -388     -367     -344     -322     -309 
    -301     -298     -302     -311     -324     -337     -356     -382 
    -415     -456     -511     -579     -660     -753     -855     -969 
   -1090    -1217    -1345    -1475    -1595    -1703    -1796    -1872 
   -1934    -1977    -2003    -2018    -2020    -2010    -1996    -1981 
   -1961    -1945    -1933    -1919    -1906    -1894    -1880    -1865 
   -1842    -1807    -1764    -1709    -1636    -1551    -1459    -1363 
   -1262    -1162    -1065     -980     -903     -831     -772     -724 
    -681     -648     -623     -600     -581     -569     -564     -566 
    -575     -588     -606     -622     -638     -648     -646     -637 
    -616     -583     -531     -472     -400     -321     -238     -152 
     -65       18      101      176      238      289      330      351 
     353      337      306      263      210      152       90       31 
     -31      -87     -133     -174     -207     -234     -256     -271 
    -276     -276     -268     -255     -237     -220     -199     -182 
    -171     -163     -164     -178     -201     -233     -278     -329 
    -388     -454     -526     -602     -673     -745     -808     -862 
    -905     -934     -949     -950     -940     -920     -893     -861 
    -823     -781     -738     -692     -639     -581     -521     -457 
    -395     -332     -268     -212     -164     -118      -76      -39 
      -8       21       54       85      110      129      144      149 
     139      117       86       39      -20      -86     -162     -248 
    -337     -434     -544     -657     -777     -903    -1023    -1142 
   -1264    -1375    -1470    -1554    -1624    -1680    -1726    -1760 
   -1790    -1815    -1836    -1852    -1869    -1888    -1907    -1923 
   -1938    -1949    -1956    -1961    -1958    -1946    -1926    -1895 
   -1857    -1814    -1764    -1707    -1647    -1580    -1509    -1440 
   -1371    -1308    -1250    -1194    -1154    -1128    -1111    -1107 
   -1120    -1142    -1170    -1202    -1237    -1267    -1291    -1308 
   -1312    -1302    -1282    -1254    -1216    -1169    -1111    -1046 
    -982     -916     -853     -800     -758     -727     -706     -693 
    -692     -695     -702     -712     -718     -720     -718     -702 
    -681     -646     -602     -553     -498     -429     -356     -282 
    -201     -121      -39       44      122      191      251      299 
     336      363      383      396      396      391      383      368 
     346      329      309      286      263      238      211      187 
