Origin Time       2016/04/16 01:25:00
Lat.              32.753
Long.             130.762
Depth. (km)       12
Mag.              7.3
Station Code      SMN017
Station Lat.      36.0933
Station Long.     132.9840
Station Height(m) 3
Record Time       2016/04/16 01:27:07
Sampling Freq(Hz) 100Hz
Duration Time(s)  60
Dir.              N-S
Scale Factor      7845(gal)/8223790
Max. Acc. (gal)   1.848
Last Correction   2016/04/16 01:27:08
Memo.             
[...]
   -9919    -9931    -9942    -9945    -9937    -9929    -9922    -9911 
   -9904    -9906    -9907    -9907    -9906    -9902    -9899    -9895 
   -9890    -9887    -9890    -9894    -9902    -9918    -9938    -9961 
   -9989   -10017   -10049   -10087   -10112   -10134   -10153   -10161 
  -10168   -10172   -10164   -10156   -10154   -10149   -10138   -10134 
  -10127   -10115   -10110   -10108   -10107   -10110   -10120   -10137 
  -10153   -10172   -10195   -10220   -10250   -10278   -10309   -10342 
  -10368   -10389   -10409   -10416   -10422   -10424   -10416   -10409 
  -10404   -10390   -10382   -10381   -10376   -10374   -10385   -10389 
  -10389   -10396   -10397   -10392   -10390   -10390   -10384   -10382 
  -10385   -10384   -10385   -10395   -10400   -10409   -10424   -10432 
  -10436   -10447   -10459   -10461   -10454   -10450   -10447   -10436 
  -10424   -10420   -10417   -10416   -10424   -10430   -10432   -10438 
  -10440   -10438   -10438   -10430   -10415   -10404   -10392   -10374 
  -10361   -10347   -10332   -10328   -10331   -10332   -10338   -10347 
  -10357   -10369   -10384   -10392   -10396   -10403   -10403   -10395 
  -10385   -10374   -10365   -10359   -10355   -10353   -10354   -10357 
  -10355   -10353   -10349   -10339   -10332   -10328   -10323   -10320 
  -10322   -10323   -10322   -10320   -10322   -10322   -10314   -10309 
  -10311   -10308   -10311   -10320   -10329   -10343   -10362   -10374 
  -10378   -10381   -10376   -10372   -10369   -10358   -10349   -10341 
  -10328   -10318   -10309   -10304   -10303   -10314   -10326   -10331 
  -10341   -10355   -10362   -10368   -10370   -10366   -10358   -10351 
  -10342   -10334   -10324   -10322   -10322   -10322   -10322   -10328 
  -10339   -10350   -10359   -10372   -10376   -10369   -10366   -10361 
  -10341   -10319   -10296   -10274   -10253   -10237   -10223   -10215 
  -10212   -10216   -10222   -10228   -10245   -10262   -10278   -10293 
  -10305   -10314   -10324   -10332   -10331   -10327   -10323   -10314 
  -10307   -10304   -10296   -10282   -10272   -10260   -10245   -10238 
  -10235   -10230   -10230   -10241   -10246   -10247   -10249   -10246 
  -10237   -10220   -10204   -10185   -10164   -10143   -10123   -10106 
  -10092   -10081   -10080   -10080   -10076   -10071   -10068   -10064 
  -10054   -10041   -10021   -10002    -9989    -9979    -9969    -9960 
   -9953    -9953    -9952    -9948    -9946    -9945    -9945    -9946 
   -9945    -9942    -9942    -9944    -9946    -9953    -9960    -9967 
   -9973    -9979    -9988    -9991    -9991    -9996   -10000    -9999 
   -9998   -10002   -10004   -10006   -10006   -10000    -9994    -9985 
   -9972    -9954    -9942    -9929    -9919    -9921    -9927    -9941 
   -9969   -10004   -10038   -10075   -10115   -10152   -10181   -10206 
  -10223   -10242   -10266   -10293   -10316   -10341   -10359   -10369 
  -10377   -10385   -10386   -10381   -10372   -10361   -10345   -10328 
  -10314   -10296   -10285   -10281   -10276   -10273   -10276   -10282 
  -10291   -10301   -10316   -10329   -10345   -10358   -10370   -10385 
  -10396   -10399   -10403   -10409   -10411   -10411   -10408   -10399 
  -10392   -10386   -10380   -10377   -10377   -10374   -10376   -10377 
  -10372   -10368   -10362   -10353   -10338   -10320   -10300   -10276 
  -10250   -10228   -10210   -10192   -10180   -10174   -10174   -10169 
  -10162   -10158   -10146   -10130   -10114   -10099   -10088   -10081 
  -10080   -10080   -10083   -10085   -10088   -10093   -10100   -10110 
  -10118   -10127   -10135   -10141   -10147   -10156   -10164   -10176 
  -10196   -10216   -10226   -10233   -10237   -10230   -10218   -10206 
  -10193   -10181   -10183   -10192   -10201   -10216   -10238   -10255 
  -10277   -10300   -10314   -10324   -10335   -10334   -10329   -10334 
  -10328   -10326   -10341   -10355   -10372   -10401   -10430   -10446 
  -10462   -10476   -10481   -10478   -10473   -10461   -10450   -10438 
  -10432   -10431   -10438   -10453   -10473   -10503   -10534   -10562 
  -10588   -10612   -10636   -10652   -10667   -10689   -10712   -10737 
  -10775   -10820   -10854   -10891   -10928   -10952   -10976   -11003 
  -11016   -11022   -11029   -11024   -11010   -10996   -10976   -10957 
  -10949   -10941   -10936   -10936   -10933   -10928   -10922   -10901 
  -10872   -10844   -10808   -10766   -10727   -10692   -10665   -10644 
  -10629   -10623   -10619   -10604   -10586   -10570   -10539   -10493 
  -10446   -10390   -10331   -10277   -10223   -10176   -10146   -10118 
  -10088   -10073   -10055   -10025    -9989    -9952    -9903    -9850 
   -9794    -9732    -9667    -9595    -9520    -9459    -9405    -9351 
   -9312    -9285    -9256    -9229    -9202    -9169    -9132    -9093 
   -9059    -9028    -8999    -8972    -8954    -8939    -8924    -8915 
   -8907    -8896    -8885    -8877    -8866    -8856    -8850    -8846 
   -8847    -8858    -8874    -8896    -8927    -8958    -8991    -9026 
   -9050    -9063    -9074    -9081    -9084    -9089    -9104    -9127 
   -9151    -9184    -9217    -9244    -9267    -9289    -9308    -9324 
   -9339    -9355    -9371    -9386    -9402    -9413    -9414    -9414 
   -9408    -9393    -9382    -9373    -9366    -9370    -9379    -9402 
   -9447    -9501    -9560    -9633    -9701    -9757    -9811    -9860 
   -9892    -9913    -9930    -9934    -9927    -9918    -9899    -9871 
   -9845    -9823    -9801    -9783    -9775    -9774    -9775    -9776 
   -9782    -9790    -9804    -9823    -9846    -9873    -9907    -9949 
   -9994   -10034   -10075   -10112   -10138   -10154   -10164   -10169 
  -10166   -10157   -10145   -10135   -10126   -10118   -10118   -10129 
  -10142   -10164   -10197   -10230   -10269   -10311   -10346   -10374 
  -10401   -10428   -10446   -10454   -10467   -10478   -10480   -10484 
  -10488   -10484   -10488   -10503   -10512   -10528   -10557   -10580 
  -10604   -10631   -10659   -10685   -10712   -10739   -10763   -10783 
  -10801   -10814   -10818   -10817   -10812   -10804   -10790   -10770 
  -10744   -10706   -10660   -10612   -10567   -10532   -10511   -10507 
  -10520   -10543   -10571   -10604   -10632   -10656   -10685   -10702 
  -10705   -10706   -10701   -10689   -10686   -10682   -10673   -10662 
  -10646   -10628   -10608   -10586   -10558   -10524   -10488   -10444 
  -10395   -10346   -10296   -10251   -10216   -10197   -10191   -10189 
  -10199   -10207   -10206   -10196   -10181   -10157   -10131   -10111 
  -10100   -10096   -10099   -10112   -10142   -10183   -10228   -10285 
  -10347   -10404   -10455   -10496   -10524   -10547   -10565   -10570 
  -10569   -10567   -10567   -10571   -10578   -10586   -10597   -10604 
  -10609   -10613   -10611   -10602   -10593   -10586   -10582   -10578 
  -10585   -10601   -10617   -10638   -10660   -10681   -10686   -10687 
  -10692   -10682   -10665   -10648   -10628   -10601   -10575   -10555 
  -10539   -10519   -10500   -10486   -10477   -10473   -10477   -10488 
  -10512   -10544   -10574   -10596   -10615   -10628   -10631   -10627 
  -10621   -10619   -10621   -10629   -10643   -10662   -10681   -10702 
  -10722   -10739   -10752   -10758   -10759   -10755   -10740   -10716 
  -10685   -10650   -10615   -10584   -10551   -10524   -10503   -10484 
  -10458   -10431   -10407   -10381   -10342   -10299   -10258   -10218 
  -10169   -10123   -10087   -10049   -10010    -9977    -9954    -9930 
   -9918    -9919    -9926    -9940    -9958    -9973    -9981    -9985 
   -9984    -9971    -9946    -9922    -9891    -9849    -9813    -9784 
   -9756    -9732    -9707    -9682    -9659    -9634    -9605    -9579 
   -9556    -9535    -9517    -9513    -9516    -9517    -9524    -9540 
   -9560    -9576    -9583    -9580    -9568    -9548    -9521    -9497 
   -9483    -9477    -9487    -9517    -9553    -9591    -9633    -9675 
   -9715    -9748    -9775    -9801    -9825    -9847    -9876    -9907 
   -9942    -9985   -10037   -10088   -10142   -10206   -10272   -10331 
  -10393   -10458   -10513   -10551   -10575   -10582   -10574   -10557 
  -10532   -10509   -10492   -10481   -10476   -10476   -10485   -10493 
  -10501   -10520   -10543   -10561   -10582   -10613   -10646   -10674 
  -10706   -10736   -10751   -10760   -10759   -10740   -10714   -10683 
  -10638   -10588   -10546   -10501   -10458   -10424   -10400   -10382 
  -10376   -10372   -10370   -10377   -10392   -10412   -10435   -10454 
  -10463   -10461   -10450   -10426   -10393   -10354   -10315   -10278 
  -10243   -10216   -10191   -10162   -10137   -10111   -10083   -10057 
  -10046   -10046   -10049   -10052   -10048   -10039   -10019    -9988 
   -9954    -9919    -9882    -9847    -9822    -9801    -9775    -9744 
   -9705    -9670    -9629    -9590    -9558    -9532    -9520    -9522 
   -9532    -9549    -9574    -9593    -9606    -9621    -9629    -9629 
   -9629    -9622    -9609    -9599    -9595    -9593    -9595    -9605 
   -9622    -9649    -9678    -9707    -9733    -9748    -9759    -9775 
   -9790    -9806    -9836    -9877    -9926    -9979   -10034   -10087 
  -10135   -10162   -10172   -10176   -10168   -10147   -10130   -10116 
  -10098   -10081   -10069   -10058   -10057   -10071   -10098   -10135 
  -10181   -10228   -10274   -10320   -10359   -10385   -10403   -10416 
  -10423   -10428   -10436   -10444   -10455   -10467   -10481   -10490 
  -10497   -10501   -10500   -10500   -10503   -10504   -10507   -10516 
  -10534   -10555   -10579   -10612   -10652   -10693   -10737   -10787 
  -10839   -10886   -10930   -10963   -10984   -10998   -11006   -11005 
  -11001   -11005   -11018   -11034   -11062   -11099   -11134   -11163 
  -11181   -11187   -11178   -11156   -11122   -11082   -11041   -10998 
  -10951   -10906   -10866   -10825   -10786   -10750   -10714   -10681 
  -10644   -10600   -10547   -10493   -10431   -10365   -10305   -10245 
  -10180   -10123   -10077   -10038   -10004    -9977    -9957    -9948 
   -9937    -9922    -9913    -9909    -9907    -9911    -9913    -9918 
   -9926    -9926    -9917    -9902    -9876    -9833    -9775    -9713 
   -9648    -9580    -9520    -9474    -9443    -9421    -9409    -9404 
   -9404    -9404    -9402    -9393    -9375    -9350    -9316    -9275 
   -9235    -9196    -9163    -9144    -9136    -9146    -9171    -9208 
   -9248    -9290    -9327    -9355    -9371    -9374    -9366    -9350 
   -9329    -9319    -9319    -9332    -9355    -9391    -9433    -9475 
   -9510    -9543    -9568    -9579    -9575    -9553    -9516    -9470 
   -9424    -9382    -9344    -9316    -9302    -9305    -9321    -9348 
   -9386    -9425    -9467    -9505    -9530    -9545    -9559    -9568 
   -9578    -9587    -9599    -9618    -9643    -9667    -9693    -9725 
   -9763    -9809    -9857    -9899    -9931    -9956    -9973    -9981 
   -9987    -9994   -10000   -10010   -10027   -10053   -10088   -10138 
  -10187   -10243   -10299   -10343   -10384   -10426   -10467   -10512 
  -10559   -10611   -10667   -10722   -10774   -10825   -10872   -10910 
  -10948   -10986   -11017   -11043   -11074   -11103   -11126   -11140 
  -11148   -11152   -11152   -11146   -11145   -11148   -11148   -11146 
  -11142   -11134   -11121   -11105   -11088   -11071   -11059   -11048 
  -11041   -11045   -11052   -11052   -11057   -11062   -11056   -11038 
  -11014   -10974   -10921   -10862   -10795   -10724   -10654   -10590 
  -10528   -10467   -10415   -10362   -10309   -10257   -10206   -10160 
  -10118   -10079   -10045   -10021   -10000    -9976    -9950    -9927 
   -9907    -9884    -9859    -9833    -9807    -9780    -9745    -9705 
   -9667    -9634    -9605    -9582    -9571    -9570    -9578    -9594 
   -9609    -9622    -9628    -9625    -9613    -9595    -9576    -9559 
   -9544    -9540    -9544    -9547    -9547    -9545    -9533    -9506 
   -9472    -9433    -9390    -9352    -9317    -9278    -9235    -9192 
   -9151    -9109    -9067    -9031    -8996    -8961    -8927    -8901 
   -8878    -8851    -8824    -8797    -8766    -8733    -8700    -8675 
   -8657    -8648    -8641    -8638    -8640    -8641    -8641    -8634 
   -8621    -8600    -8581    -8560    -8540    -8529    -8526    -8537 
   -8563    -8600    -8645    -8688    -8730    -8761    -8784    -8797 
   -8800    -8792    -8776    -8753    -8721    -8687    -8661    -8642 
   -8630    -8629    -8635    -8649    -8664    -8677    -8698    -8719 
   -8734    -8749    -8768    -8789    -8808    -8824    -8843    -8866 
   -8892    -8915    -8938    -8961    -8981    -8996    -9015    -9035 
   -9061    -9085    -9107    -9127    -9146    -9159    -9171    -9182 
   -9189    -9197    -9207    -9217    -9235    -9262    -9298    -9352 
   -9418    -9489    -9563    -9637    -9703    -9760    -9807    -9840 
   -9863    -9877    -9884    -9882    -9873    -9867    -9861    -9863 
   -9876    -9904    -9948    -9999   -10058   -10118   -10177   -10235 
  -10288   -10334   -10378   -10422   -10463   -10508   -10552   -10592 
  -10624   -10651   -10673   -10685   -10687   -10689   -10697   -10705 
  -10712   -10725   -10739   -10752   -10774   -10806   -10849   -10905 
  -10968   -11037   -11107   -11169   -11222   -11271   -11307   -11334 
  -11362   -11391   -11419   -11457   -11503   -11550   -11596   -11647 
  -11703   -11755   -11801   -11843   -11878   -11902   -11924   -11939 
  -11947   -11951   -11955   -11961   -11969   -11977   -11989   -12005 
  -12019   -12029   -12043   -12055   -12063   -12069   -12070   -12064 
  -12052   -12033   -12009   -11980   -11947   -11911   -11867   -11813 
  -11745   -11672   -11592   -11504   -11418   -11337   -11265   -11200 
  -11142   -11098   -11061   -11026   -10991   -10959   -10925   -10887 
  -10845   -10806   -10763   -10717   -10674   -10631   -10593   -10562 
  -10535   -10508   -10476   -10440   -10404   -10361   -10309   -10250 
  -10189   -10134   -10077   -10025    -9979    -9940    -9903    -9871 
   -9840    -9807    -9776    -9742    -9705    -9670    -9639    -9613 
   -9591    -9576    -9571    -9568    -9567    -9558    -9544    -9529 
   -9512    -9491    -9475    -9456    -9443    -9440    -9439    -9443 
   -9459    -9474    -9486    -9501    -9513    -9512    -9497    -9471 
   -9435    -9393    -9352    -9327    -9317    -9324    -9346    -9381 
   -9428    -9474    -9513    -9552    -9582    -9601    -9613    -9610 
   -9593    -9576    -9563    -9548    -9539    -9543    -9553    -9562 
   -9570    -9576    -9574    -9563    -9549    -9525    -9489    -9450 
   -9408    -9360    -9317    -9288    -9271    -9261    -9256    -9262 
   -9270    -9278    -9283    -9288    -9294    -9304    -9315    -9324 
   -9328    -9327    -9321    -9309    -9293    -9278    -9265    -9256 
   -9250    -9246    -9244    -9244    -9250    -9258    -9269    -9277 
   -9285    -9293    -9297    -9298    -9302    -9312    -9333    -9359 
   -9386    -9421    -9454    -9481    -9504    -9518    -9525    -9520 
   -9499    -9466    -9423    -9377    -9331    -9289    -9255    -9234 
   -9221    -9212    -9202    -9193    -9175    -9154    -9134    -9121 
   -9117    -9119    -9123    -9132    -9146    -9161    -9174    -9192 
   -9215    -9240    -9259    -9271    -9277    -9273    -9259    -9243 
   -9224    -9208    -9201    -9200    -9207    -9220    -9242    -9274 
   -9312    -9352    -9391    -9429    -9462    -9493    -9526    -9556 
   -9586    -9618    -9645    -9671    -9695    -9717    -9730    -9738 
   -9751    -9769    -9786    -9809    -9844    -9883    -9927    -9981 
  -10048   -10118   -10192   -10265   -10334   -10395   -10444   -10484 
  -10517   -10547   -10586   -10625   -10662   -10701   -10733   -10755 
  -10775   -10793   -10810   -10835   -10863   -10897   -10935   -10967 
  -10996   -11025   -11052   -11076   -11105   -11138   -11169   -11203 
  -11237   -11269   -11302   -11330   -11350   -11362   -11365   -11360 
  -11350   -11338   -11334   -11341   -11353   -11369   -11392   -11418 
  -11441   -11465   -11488   -11511   -11529   -11553   -11581   -11612 
  -11646   -11680   -11709   -11736   -11761   -11777   -11789   -11799 
  -11801   -11796   -11788   -11777   -11762   -11746   -11724   -11700 
  -11676   -11653   -11637   -11624   -11616   -11614   -11612   -11607 
  -11596   -11583   -11561   -11531   -11499   -11464   -11433   -11404 
  -11375   -11348   -11323   -11298   -11275   -11254   -11236   -11219 
  -11203   -11186   -11165   -11144   -11117   -11084   -11051   -11013 
  -10970   -10925   -10883   -10843   -10801   -10758   -10716   -10670 
  -10623   -10577   -10536   -10504   -10480   -10463   -10447   -10432 
  -10420   -10404   -10385   -10374   -10366   -10358   -10355   -10355 
  -10349   -10335   -10320   -10303   -10285   -10265   -10239   -10214 
  -10189   -10153   -10108   -10062   -10011    -9953    -9902    -9856 
   -9811    -9775    -9744    -9722    -9711    -9703    -9701    -9707 
   -9711    -9715    -9715    -9705    -9690    -9668    -9643    -9612 
   -9576    -9541    -9513    -9489    -9470    -9459    -9451    -9439 
   -9429    -9418    -9404    -9386    -9370    -9351    -9331    -9309 
   -9294    -9285    -9278    -9279    -9289    -9298    -9304    -9304 
   -9292    -9270    -9246    -9231    -9216    -9204    -9202    -9208 
   -9215    -9232    -9258    -9283    -9312    -9346    -9377    -9400 
   -9417    -9431    -9439    -9439    -9443    -9451    -9460    -9477 
   -9495    -9512    -9524    -9530    -9535    -9536    -9532    -9529 
   -9530    -9528    -9525    -9526    -9535    -9545    -9555    -9568 
   -9586    -9609    -9629    -9651    -9674    -9701    -9726    -9745 
   -9763    -9775    -9778    -9778    -9780    -9782    -9788    -9801 
   -9815    -9829    -9845    -9859    -9869    -9884    -9895    -9900 
   -9910    -9922    -9929    -9933    -9937    -9940    -9936    -9925 
   -9911    -9899    -9887    -9873    -9867    -9868    -9871    -9879 
   -9898    -9921    -9948    -9984   -10018   -10052   -10087   -10112 
  -10129   -10137   -10134   -10125   -10112   -10096   -10080   -10068 
  -10061   -10057   -10055   -10057   -10060   -10068   -10079   -10083 
  -10083   -10085   -10088   -10088   -10088   -10095   -10104   -10116 
  -10138   -10162   -10181   -10197   -10208   -10212   -10214   -10211 
  -10206   -10203   -10200   -10199   -10199   -10196   -10187   -10177 
  -10174   -10177   -10183   -10192   -10200   -10207   -10210   -10210 
  -10211   -10210   -10206   -10206   -10210   -10212   -10215   -10216 
  -10207   -10192   -10173   -10142   -10104   -10066   -10031    -9999 
   -9975    -9958    -9946    -9936    -9934    -9944    -9961    -9979 
  -10003   -10022   -10038   -10050   -10054   -10050   -10048   -10044 
  -10037   -10030   -10026   -10019   -10015   -10014   -10017   -10025 
  -10038   -10055   -10079   -10102   -10123   -10143   -10162   -10180 
  -10199   -10218   -10237   -10254   -10269   -10285   -10296   -10308 
  -10324   -10339   -10353   -10368   -10377   -10381   -10381   -10374 
  -10372   -10381   -10390   -10401   -10415   -10427   -10442   -10454 
  -10459   -10462   -10459   -10451   -10438   -10427   -10417   -10419 
  -10428   -10444   -10470   -10498   -10521   -10547   -10567   -10577 
  -10579   -10573   -10551   -10523   -10490   -10454   -10420   -10390 
