Origin Time       2016/04/16 01:25:00
Lat.              32.753
Long.             130.762
Depth. (km)       12
Mag.              7.3
Station Code      SMN006
Station Lat.      35.1942
Station Long.     132.4978
Station Height(m) 36
Record Time       2016/04/16 01:26:03
Sampling Freq(Hz) 100Hz
Duration Time(s)  121
Dir.              N-S
Scale Factor      7845(gal)/8223790
Max. Acc. (gal)   10.245
Last Correction   2016/04/16 01:26:04
Memo.             
[...]
    4199     4072     3927     3776     3634     3505     3400     3331 
    3307     3317     3360     3419     3484     3546     3596     3631 
    3658     3678     3692     3700     3705     3703     3682     3657 
    3631     3604     3582     3572     3566     3562     3561     3561 
    3559     3553     3543     3528     3505     3489     3483     3483 
    3503     3538     3576     3615     3653     3676     3682     3678 
    3662     3645     3634     3628     3630     3634     3640     3650 
    3659     3678     3712     3757     3807     3848     3874     3874 
    3842     3784     3713     3640     3572     3504     3437     3368 
    3300     3250     3230     3241     3277     3338     3412     3483 
    3539     3581     3609     3627     3640     3653     3662     3667 
    3669     3665     3655     3642     3627     3609     3591     3577 
    3573     3578     3588     3599     3608     3608     3597     3582 
    3573     3581     3605     3642     3692     3748     3801     3852 
    3905     3963     4027     4094     4163     4222     4266     4303 
    4338     4374     4410     4436     4450     4448     4426     4406 
    4393     4384     4387     4405     4433     4472     4527     4602 
    4691     4791     4885     4962     5013     5032     5019     4980 
    4920     4845     4756     4646     4523     4399     4280     4171 
    4074     3990     3912     3836     3751     3653     3554     3462 
    3380     3322     3300     3306     3327     3353     3372     3376 
    3355     3315     3256     3187     3127     3084     3063     3076 
    3125     3207     3310     3419     3532     3642     3740     3819 
    3867     3886     3867     3809     3719     3603     3472     3345 
    3235     3157     3122     3140     3213     3336     3495     3676 
    3866     4048     4214     4355     4464     4544     4594     4619 
    4625     4617     4603     4587     4568     4545     4533     4533 
    4541     4552     4568     4584     4598     4606     4608     4596 
    4568     4529     4469     4391     4297     4189     4074     3956 
    3838     3736     3653     3586     3530     3477     3423     3372 
    3317     3260     3200     3145     3088     3033     2992     2972 
    2970     2990     3021     3055     3090     3117     3123     3113 
    3087     3049     3011     2986     2986     3021     3092     3188 
    3298     3414     3527     3631     3719     3786     3823     3831 
    3809     3773     3746     3740     3765     3819     3892     3979 
    4069     4149     4220     4263     4268     4233     4156     4041 
    3910     3786     3681     3607     3568     3562     3576     3593 
    3611     3627     3636     3636     3624     3599     3563     3522 
    3480     3430     3375     3319     3268     3221     3183     3156 
    3133     3114     3095     3082     3071     3064     3063     3075 
    3105     3154     3213     3279     3345     3404     3450     3469 
    3462     3438     3410     3391     3396     3426     3480     3549 
    3624     3697     3762     3811     3835     3834     3809     3762 
    3689     3599     3495     3385     3277     3172     3078     2997 
    2940     2903     2882     2882     2895     2909     2930     2963 
    3011     3079     3161     3258     3361     3461     3555     3640 
    3712     3771     3812     3834     3847     3850     3848     3854 
    3874     3919     3998     4112     4256     4419     4588     4748 
    4882     4973     5019     5013     4965     4889     4789     4673 
    4561     4464     4386     4327     4287     4258     4240     4228 
    4222     4218     4217     4220     4220     4222     4225     4228 
    4220     4195     4153     4090     4001     3890     3762     3619 
    3465     3304     3154     3028     2929     2863     2835     2844 
    2882     2940     3009     3083     3146     3194     3226     3235 
    3225     3208     3190     3173     3169     3173     3183     3198 
    3211     3223     3230     3235     3240     3235     3231     3234 
    3245     3254     3257     3256     3246     3235     3237     3256 
    3296     3354     3424     3505     3591     3670     3738     3797 
    3846     3885     3912     3924     3919     3894     3852     3797 
    3731     3658     3580     3505     3440     3388     3349     3325 
    3315     3319     3333     3339     3342     3348     3354     3360 
    3369     3380     3388     3388     3379     3354     3311     3253 
    3177     3083     2970     2849     2732     2627     2543     2492 
    2481     2512     2589     2701     2833     2974     3109     3231 
    3339     3423     3474     3504     3514     3507     3496     3484 
    3481     3492     3518     3555     3603     3651     3688     3711 
    3712     3684     3630     3557     3473     3388     3314     3249 
    3200     3161     3130     3113     3106     3109     3125     3150 
    3186     3229     3279     3342     3412     3483     3551     3615 
    3670     3723     3767     3809     3842     3871     3899     3929 
    3964     4006     4047     4083     4116     4140     4152     4159 
    4164     4171     4175     4172     4159     4140     4117     4079 
    4031     3982     3937     3899     3878     3869     3874     3888 
    3899     3920     3951     3987     4028     4071     4117     4159 
    4191     4205     4202     4183     4147     4101     4052     4014 
    3989     3975     3963     3948     3932     3912     3874     3820 
    3753     3667     3569     3462     3353     3257     3177     3113 
    3071     3060     3068     3090     3130     3186     3252     3330 
    3420     3515     3608     3699     3789     3878     3964     4044 
    4120     4190     4245     4286     4317     4333     4333     4318 
    4286     4237     4178     4118     4055     3994     3939     3888 
    3831     3770     3711     3653     3608     3572     3534     3492 
    3449     3403     3364     3341     3329     3322     3315     3295 
    3250     3187     3109     3025     2937     2852     2782     2735 
    2713     2708     2720     2745     2764     2766     2758     2739 
    2717     2702     2693     2693     2702     2720     2747     2781 
    2817     2859     2911     2971     3046     3138     3242     3350 
    3464     3581     3697     3811     3924     4036     4148     4258 
    4353     4434     4507     4573     4638     4710     4787     4858 
    4914     4946     4955     4938     4901     4845     4776     4703 
    4629     4550     4480     4426     4398     4399     4426     4469 
    4525     4581     4633     4677     4710     4727     4729     4716 
    4692     4661     4633     4611     4595     4584     4581     4583 
    4587     4596     4608     4623     4638     4654     4677     4703 
    4722     4735     4745     4750     4748     4737     4714     4681 
    4644     4603     4563     4531     4518     4514     4506     4482 
    4448     4406     4359     4311     4266     4218     4159     4093 
    4013     3923     3825     3731     3638     3539     3443     3349 
    3253     3153     3051     2948     2849     2748     2648     2555 
    2473     2405     2350     2304     2259     2209     2161     2115 
    2079     2062     2072     2110     2176     2272     2389     2517 
    2655     2797     2928     3033     3109     3160     3183     3175 
    3141     3096     3046     2992     2944     2893     2839     2794 
    2758     2735     2735     2751     2772     2790     2792     2772 
    2727     2659     2586     2512     2440     2380     2334     2309 
    2315     2351     2408     2475     2542     2592     2612     2606 
    2575     2525     2471     2425     2389     2367     2366     2389 
    2431     2492     2562     2633     2710     2787     2859     2926 
    2984     3041     3095     3144     3187     3227     3265     3304 
    3346     3391     3435     3476     3511     3549     3593     3651 
    3728     3825     3937     4059     4183     4309     4437     4568 
    4702     4835     4968     5089     5196     5289     5368     5433 
    5487     5528     5547     5545     5529     5502     5467     5431 
    5401     5371     5339     5300     5251     5196     5138     5071 
    5003     4947     4912     4907     4942     5005     5088     5182 
    5281     5375     5467     5552     5617     5652     5656     5630 
    5578     5508     5427     5337     5244     5150     5059     4974 
    4893     4814     4733     4656     4588     4544     4523     4530 
    4560     4599     4645     4695     4742     4795     4852     4916 
    4986     5055     5109     5139     5140     5108     5042     4942 
    4818     4677     4527     4368     4205     4036     3861     3686 
    3518     3355     3206     3080     2988     2934     2918     2937 
    2982     3042     3088     3100     3078     3009     2896     2764 
    2624     2486     2365     2262     2180     2126     2104     2116 
    2177     2290     2457     2667     2905     3148     3373     3559 
    3685     3746     3743     3686     3593     3488     3388     3326 
    3311     3345     3435     3582     3773     3990     4215     4426 
    4610     4756     4851     4891     4887     4850     4788     4710 
    4631     4556     4482     4419     4374     4344     4329     4318 
    4298     4263     4203     4116     4006     3885     3765     3661 
    3584     3537     3524     3554     3619     3723     3869     4036 
    4215     4399     4579     4734     4846     4901     4893     4812 
    4664     4463     4218     3942     3657     3373     3103     2868 
    2677     2529     2423     2347     2296     2251     2196     2123 
    2020     1884     1726     1553     1385     1243     1135     1070 
    1057     1097     1185     1308     1460     1641     1837     2046 
    2254     2431     2560     2631     2625     2555     2435     2280 
    2123     1992     1910     1899     1968     2104     2300     2539 
    2802     3078     3349     3600     3819     3994     4121     4209 
    4268     4307     4338     4372     4407     4449     4506     4571 
    4646     4734     4819     4882     4912     4900     4841     4747 
    4630     4502     4387     4299     4248     4248     4291     4360 
    4440     4507     4534     4499     4390     4209     3965     3676 
    3355     3022     2681     2338     2008     1699     1428     1202 
    1020      864      711      553      378      184       -8     -184 
    -341     -475     -575     -629     -622     -544     -386     -144 
     166      533      929     1325     1694     2016     2274     2451 
    2546     2579     2571     2542     2516     2512     2543     2631 
    2786     3007     3295     3639     4014     4380     4692     4920 
    5058     5107     5093     5054     5005     4965     4930     4895 
    4862     4830     4796     4770     4762     4770     4776     4750 
    4679     4556     4382     4176     3975     3804     3681     3622 
    3624     3692     3825     4033     4320     4689     5134     5632 
    6166     6704     7211     7666     8068     8410     8687     8911 
    9086     9217     9312     9379     9427     9460     9485     9491 
    9479     9444     9377     9262     9101     8896     8655     8380 
    8083     7782     7495     7227     6983     6759     6552     6354 
    6162     5979     5802     5632     5447     5212     4893     4476 
    3959     3365     2729     2081     1451      870      363      -56 
    -386     -627     -793     -915    -1011    -1094    -1198    -1332 
   -1472    -1610    -1746    -1877    -2001    -2123    -2235    -2317 
   -2361    -2357    -2299    -2203    -2104    -2020    -1984    -2020 
   -2134    -2327    -2594    -2924    -3281    -3638    -3963    -4223 
   -4398    -4487    -4504    -4467    -4399    -4321    -4248    -4187 
   -4139    -4093    -4040    -3960    -3823    -3613    -3319    -2929 
   -2452    -1907    -1318     -708      -83      550     1183     1802 
    2392     2944     3450     3917     4365     4818     5302     5842 
    6438     7080     7763     8460     9147     9813    10427    10962 
   11399    11734    11975    12117    12162    12125    12010    11827 
   11600    11341    11070    10817    10597    10408    10243    10088 
    9933     9768     9590     9401     9200     8996     8797     8598 
    8408     8243     8098     7978     7874     7777     7674     7550 
    7388     7171     6893     6575     6232     5871     5508     5136 
    4746     4334     3894     3427     2949     2466     1987     1512 
    1035      572      139     -259     -614     -901    -1117    -1256 
   -1318    -1313    -1260    -1192    -1148    -1150    -1208    -1321 
   -1478    -1667    -1880    -2091    -2288    -2458    -2589    -2671 
   -2698    -2664    -2567    -2419    -2239    -2042    -1831    -1605 
   -1358    -1101     -830     -545     -257       29      325      625 
     928     1230     1530     1822     2085     2288     2419     2478 
    2484     2454     2401     2354     2330     2326     2346     2394 
    2469     2575     2702     2836     2970     3083     3159     3194 
    3194     3177     3164     3175     3232     3361     3559     3827 
    4159     4541     4955     5395     5838     6259     6635     6952 
    7222     7446     7645     7857     8101     8387     8734     9142 
    9606    10120    10673    11246    11824    12376    12885    13343 
   13740    14060    14284    14400    14418    14349    14211    14018 
   13783    13516    13217    12879    12491    12052    11553    10998 
   10386     9703     8953     8148     7294     6417     5556     4737 
    3981     3299     2687     2153     1699     1317     1008      762 
     576      436      325      241      176      109       39      -49 
    -183     -369     -616     -927    -1287    -1688    -2107    -2513 
   -2893    -3227    -3507    -3726    -3877    -3958    -3974    -3936 
   -3844    -3693    -3491    -3244    -2959    -2648    -2324    -1995 
   -1675    -1378    -1111     -861     -614     -360      -94      175 
     429      664      880     1057     1171     1229     1244     1227 
    1193     1156     1139     1158     1220     1324     1470     1642 
    1825     2001     2184     2381     2594     2817     3048     3275 
    3492     3719     3958     4195     4436     4668     4882     5073 
    5242     5397     5556     5734     5927     6126     6334     6564 
    6825     7118     7431     7738     8014     8244     8404     8499 
    8529     8506     8449     8364     8255     8121     7951     7746 
    7518     7263     6974     6656     6312     5942     5559     5177 
    4812     4468     4151     3870     3613     3369     3148     2949 
    2782     2662     2593     2562     2560     2569     2577     2571 
    2546     2497     2409     2276     2107     1918     1723     1539 
    1378     1247     1152     1104     1101     1138     1206     1304 
    1429     1568     1714     1846     1952     2023     2053     2038 
    1991     1935     1894     1883     1930     2046     2241     2512 
    2830     3175     3526     3856     4151     4403     4599     4735 
    4812     4827     4792     4714     4599     4479     4360     4248 
    4166     4101     4047     4013     3994     3989     3979     3951 
    3901     3812     3682     3542     3406     3298     3231     3187 
    3153     3132     3102     3049     2975     2880     2770     2644 
    2512     2389     2285     2208     2173     2195     2278     2423 
    2631     2893     3190     3511     3850     4185     4500     4795 
    5069     5321     5567     5827     6110     6416     6739     7074 
    7406     7723     8013     8268     8474     8623     8711     8741 
    8716     8655     8573     8480     8387     8298     8206     8109 
    8010     7916     7842     7786     7743     7708     7663     7597 
    7500     7362     7183     6975     6744     6497     6226     5925 
    5603     5282     4973     4691     4457     4279     4168     4132 
    4164     4256     4380     4521     4658     4770     4850     4901 
    4932     4956     4969     4969     4955     4920     4864     4789 
    4703     4602     4483     4345     4195     4029     3854     3686 
    3535     3412     3326     3288     3303     3377     3516     3719 
    3977     4266     4568     4861     5123     5344     5519     5652 
    5746     5810     5840     5826     5768     5655     5478     5256 
    5003     4723     4428     4121     3817     3535     3287     3092 
    2955     2867     2808     2752     2690     2612     2515     2396 
    2257     2097     1921     1719     1495     1242      955      634 
     286      -86     -483     -897    -1325    -1765    -2209    -2644 
   -3052    -3414    -3712    -3935    -4069    -4112    -4063    -3932 
   -3738    -3510    -3265    -3015    -2771    -2539    -2311    -2076 
   -1826    -1571    -1318    -1065     -805     -548     -292      -45 
     191      425      669      934     1237     1590     1984     2403 
    2828     3258     3672     4052     4395     4704     4982     5227 
    5448     5660     5864     6072     6299     6547     6802     7047 
    7277     7489     7678     7840     7985     8109     8208     8293 
    8368     8437     8522     8615     8718     8830     8947     9065 
    9170     9248     9289     9283     9238     9155     9027     8860 
    8664     8437     8176     7886     7585     7290     7011     6764 
    6555     6366     6184     5996     5793     5582     5381     5206 
    5077     4999     4976     5017     5105     5211     5316     5398 
    5443     5458     5431     5360     5263     5135     4988     4849 
    4726     4633     4592     4618     4710     4865     5065     5294 
    5529     5741     5910     6021     6072     6060     5988     5872 
    5726     5552     5359     5164     4976     4801     4652     4515 
    4379     4240     4095     3937     3755     3541     3294     3015 
    2710     2392     2072     1765     1486     1235     1026      866 
     756      691      665      665      684      710      726      714 
     666      585      479      365      256      162       99       74 
      94      172      315      526      793     1090     1399     1699 
    1968     2201     2401     2575     2743     2906     3069     3235 
    3395     3534     3653     3757     3838     3896     3932     3955 
    3970     3981     3993     4005     4016     4023     4025     4033 
    4063     4107     4170     4263     4387     4548     4752     4996 
    5285     5621     5977     6338     6698     7052     7384     7676 
    7915     8093     8202     8243     8226     8158     8040     7886 
    7700     7493     7281     7080     6901     6737     6589     6450 
    6309     6151     5972     5779     5580     5374     5159     4931 
    4679     4403     4109     3793     3464     3140     2820     2519 
    2250     2020     1833     1696     1606     1561     1544     1545 
    1554     1564     1575     1579     1568     1556     1548     1559 
    1611     1707     1844     2027     2251     2500     2752     2999 
    3219     3387     3491     3530     3504     3416     3294     3146 
    2991     2844     2727     2647     2636     2704     2821     2967 
