Origin Time       2016/04/16 01:25:00
Lat.              32.753
Long.             130.762
Depth. (km)       12
Mag.              7.3
Station Code      SMN002
Station Lat.      35.4714
Station Long.     133.0682
Station Height(m) 2
Record Time       2016/04/16 01:26:22
Sampling Freq(Hz) 100Hz
Duration Time(s)  116
Dir.              N-S
Scale Factor      7845(gal)/8223790
Max. Acc. (gal)   7.882
Last Correction   2016/04/16 01:26:22
Memo.             
[...]
   -3422    -3249    -3080    -2913    -2749    -2600    -2461    -2342 
   -2250    -2180    -2135    -2110    -2097    -2100    -2111    -2128 
   -2162    -2209    -2267    -2338    -2417    -2509    -2609    -2708 
   -2818    -2938    -3060    -3190    -3326    -3462    -3605    -3743 
   -3870    -3984    -4074    -4143    -4194    -4217    -4222    -4210 
   -4168    -4104    -4017    -3904    -3773    -3632    -3481    -3331 
   -3183    -3040    -2910    -2783    -2662    -2559    -2463    -2381 
   -2322    -2270    -2236    -2220    -2204    -2204    -2219    -2231 
   -2259    -2300    -2347    -2413    -2497    -2598    -2720    -2851 
   -2998    -3161    -3327    -3495    -3666    -3832    -3990    -4139 
   -4268    -4384    -4479    -4548    -4595    -4617    -4618    -4602 
   -4563    -4509    -4444    -4368    -4279    -4172    -4055    -3932 
   -3802    -3672    -3544    -3420    -3296    -3176    -3064    -2960 
   -2870    -2798    -2749    -2727    -2728    -2751    -2791    -2843 
   -2910    -2992    -3076    -3161    -3245    -3322    -3397    -3469 
   -3539    -3615    -3694    -3776    -3870    -3965    -4069    -4185 
   -4302    -4428    -4553    -4668    -4776    -4876    -4955    -5017 
   -5058    -5067    -5054    -5009    -4935    -4842    -4725    -4595 
   -4472    -4348    -4225    -4120    -4017    -3927    -3842    -3755 
   -3677    -3603    -3524    -3447    -3369    -3281    -3188    -3090 
   -2984    -2880    -2785    -2698    -2632    -2584    -2555    -2544 
   -2544    -2554    -2574    -2596    -2621    -2662    -2714    -2782 
   -2868    -2971    -3090    -3230    -3383    -3551    -3738    -3936 
   -4144    -4356    -4558    -4747    -4915    -5050    -5154    -5221 
   -5254    -5259    -5232    -5178    -5108    -5017    -4909    -4796 
   -4671    -4538    -4406    -4275    -4158    -4051    -3950    -3861 
   -3784    -3709    -3649    -3599    -3557    -3537    -3530    -3530 
   -3549    -3585    -3632    -3693    -3769    -3858    -3959    -4077 
   -4212    -4364    -4533    -4716    -4901    -5086    -5268    -5439 
   -5590    -5725    -5838    -5927    -5989    -6030    -6042    -6019 
   -5968    -5884    -5769    -5632    -5474    -5298    -5117    -4932 
   -4739    -4542    -4341    -4139    -3932    -3731    -3537    -3350 
   -3171    -3005    -2853    -2712    -2587    -2478    -2382    -2308 
   -2250    -2205    -2185    -2182    -2195    -2224    -2265    -2316 
   -2385    -2461    -2548    -2659    -2781    -2910    -3057    -3202 
   -3339    -3468    -3580    -3680    -3767    -3835    -3894    -3951 
   -3998    -4051    -4107    -4164    -4230    -4297    -4360    -4419 
   -4471    -4515    -4549    -4565    -4561    -4535    -4492    -4436 
   -4367    -4294    -4228    -4170    -4120    -4088    -4074    -4077 
   -4093    -4126    -4175    -4233    -4298    -4371    -4445    -4518 
   -4595    -4664    -4718    -4766    -4804    -4827    -4843    -4845 
   -4837    -4822    -4789    -4742    -4685    -4612    -4529    -4431 
   -4315    -4191    -4063    -3929    -3796    -3661    -3528    -3403 
   -3280    -3164    -3061    -2965    -2876    -2798    -2724    -2652 
   -2589    -2539    -2497    -2467    -2452    -2448    -2448    -2451 
   -2461    -2473    -2482    -2493    -2511    -2527    -2544    -2567 
   -2594    -2619    -2644    -2667    -2683    -2700    -2712    -2720 
   -2725    -2731    -2732    -2725    -2714    -2697    -2678    -2668 
   -2666    -2671    -2691    -2721    -2756    -2790    -2825    -2862 
   -2896    -2933    -2979    -3032    -3090    -3159    -3237    -3322 
   -3407    -3492    -3566    -3634    -3696    -3748    -3798    -3842 
   -3880    -3917    -3950    -3983    -4017    -4054    -4097    -4148 
   -4203    -4263    -4330    -4395    -4456    -4519    -4580    -4635 
   -4687    -4735    -4783    -4830    -4874    -4915    -4946    -4969 
   -4978    -4980    -4974    -4963    -4950    -4930    -4907    -4882 
   -4847    -4808    -4770    -4725    -4675    -4622    -4558    -4488 
   -4414    -4327    -4232    -4137    -4040    -3940    -3851    -3773 
   -3707    -3650    -3608    -3581    -3565    -3557    -3555    -3553 
   -3555    -3563    -3569    -3573    -3576    -3572    -3565    -3555 
   -3543    -3535    -3535    -3539    -3549    -3563    -3581    -3599 
   -3613    -3628    -3651    -3677    -3701    -3732    -3770    -3809 
   -3847    -3877    -3894    -3892    -3873    -3842    -3798    -3750 
   -3696    -3639    -3584    -3528    -3470    -3412    -3358    -3308 
   -3262    -3230    -3207    -3191    -3186    -3190    -3194    -3204 
   -3221    -3244    -3280    -3330    -3395    -3473    -3565    -3666 
   -3769    -3877    -3991    -4112    -4233    -4355    -4475    -4592 
   -4700    -4799    -4887    -4962    -5026    -5076    -5113    -5131 
   -5131    -5116    -5085    -5034    -4965    -4876    -4774    -4662 
   -4540    -4415    -4294    -4174    -4055    -3944    -3839    -3744 
   -3662    -3591    -3535    -3497    -3468    -3449    -3442    -3438 
   -3433    -3429    -3418    -3399    -3373    -3336    -3288    -3232 
   -3172    -3106    -3038    -2972    -2910    -2851    -2798    -2754 
   -2713    -2679    -2652    -2632    -2616    -2610    -2619    -2636 
   -2669    -2712    -2764    -2822    -2879    -2937    -2997    -3055 
   -3106    -3148    -3179    -3204    -3223    -3238    -3257    -3284 
   -3322    -3369    -3433    -3511    -3604    -3709    -3820    -3928 
   -4033    -4132    -4223    -4303    -4367    -4414    -4445    -4457 
   -4445    -4413    -4364    -4306    -4245    -4178    -4116    -4052 
   -3984    -3917    -3847    -3770    -3694    -3623    -3553    -3491 
   -3434    -3381    -3338    -3308    -3280    -3256    -3241    -3234 
   -3237    -3254    -3291    -3336    -3392    -3457    -3523    -3591 
   -3665    -3738    -3813    -3888    -3951    -4006    -4050    -4079 
   -4093    -4094    -4087    -4074    -4054    -4027    -3997    -3964 
   -3931    -3896    -3863    -3831    -3801    -3778    -3761    -3744 
   -3736    -3736    -3743    -3755    -3775    -3805    -3846    -3892 
   -3950    -4014    -4083    -4156    -4233    -4310    -4386    -4461 
   -4533    -4594    -4645    -4680    -4692    -4691    -4679    -4650 
   -4611    -4568    -4521    -4475    -4430    -4388    -4353    -4324 
   -4297    -4276    -4266    -4256    -4248    -4243    -4243    -4241 
   -4233    -4225    -4217    -4207    -4197    -4195    -4199    -4209 
   -4223    -4240    -4256    -4283    -4313    -4348    -4390    -4434 
   -4476    -4521    -4568    -4618    -4671    -4730    -4792    -4850 
   -4903    -4946    -4973    -4984    -4981    -4966    -4934    -4891 
   -4838    -4768    -4683    -4587    -4475    -4345    -4202    -4041 
   -3867    -3685    -3492    -3291    -3083    -2862    -2628    -2380 
   -2124    -1869    -1620    -1382    -1169     -984     -830     -712 
    -633     -594     -599     -652     -751     -895    -1073    -1285 
   -1526    -1784    -2056    -2331    -2604    -2871    -3129    -3379 
   -3623    -3861    -4094    -4315    -4526    -4727    -4907    -5065 
   -5211    -5337    -5448    -5544    -5614    -5659    -5671    -5644 
   -5578    -5478    -5347    -5190    -5008    -4806    -4587    -4348 
   -4101    -3847    -3585    -3326    -3071    -2825    -2590    -2365 
   -2147    -1946    -1760    -1594    -1453    -1337    -1255    -1215 
   -1221    -1275    -1374    -1514    -1696    -1915    -2166    -2451 
   -2762    -3092    -3442    -3800    -4155    -4507    -4845    -5161 
   -5455    -5726    -5971    -6189    -6378    -6535    -6660    -6748 
   -6795    -6795    -6751    -6664    -6535    -6361    -6142    -5884 
   -5593    -5273    -4934    -4580    -4220    -3859    -3496    -3141 
   -2808    -2488    -2185    -1907    -1649    -1410    -1198    -1009 
    -847     -722     -633     -581     -571     -606     -685     -804 
    -966    -1173    -1418    -1694    -1991    -2308    -2636    -2963 
   -3281    -3586    -3870    -4125    -4349    -4545    -4710    -4838 
   -4931    -4992    -5015    -5005    -4965    -4892    -4792    -4671 
   -4526    -4356    -4159    -3943    -3708    -3450    -3190    -2932 
   -2678    -2435    -2214    -2016    -1845    -1702    -1594    -1516 
   -1464    -1444    -1451    -1474    -1512    -1559    -1613    -1675 
   -1745    -1830    -1930    -2046    -2181    -2338    -2512    -2708 
   -2921    -3145    -3376    -3605    -3835    -4060    -4274    -4479 
   -4672    -4845    -5005    -5154    -5287    -5410    -5525    -5630 
   -5718    -5793    -5864    -5922    -5967    -6011    -6048    -6075 
   -6096    -6106    -6104    -6091    -6065    -6026    -5975    -5908 
   -5827    -5726    -5603    -5460    -5294    -5103    -4887    -4653 
   -4399    -4128    -3854    -3582    -3316    -3071    -2857    -2681 
   -2548    -2463    -2428    -2451    -2533    -2664    -2839    -3049 
   -3284    -3532    -3789    -4048    -4297    -4533    -4761    -4976 
   -5167    -5333    -5471    -5578    -5648    -5682    -5679    -5637 
   -5556    -5439    -5286    -5105    -4903    -4687    -4469    -4256 
   -4059    -3894    -3766    -3669    -3608    -3577    -3562    -3558 
   -3555    -3542    -3520    -3487    -3438    -3380    -3311    -3232 
   -3154    -3073    -2995    -2926    -2868    -2822    -2789    -2764 
   -2751    -2749    -2756    -2771    -2791    -2822    -2870    -2937 
   -3028    -3144    -3281    -3440    -3620    -3812    -4009    -4212 
   -4415    -4612    -4795    -4959    -5104    -5229    -5337    -5429 
   -5505    -5575    -5638    -5689    -5730    -5760    -5787    -5803 
   -5807    -5795    -5763    -5703    -5617    -5505    -5360    -5186 
   -4989    -4779    -4558    -4336    -4116    -3913    -3732    -3572 
   -3435    -3329    -3252    -3200    -3172    -3164    -3176    -3198 
   -3231    -3280    -3336    -3406    -3495    -3600    -3719    -3854 
   -4001    -4155    -4313    -4472    -4622    -4760    -4885    -4989 
   -5066    -5119    -5143    -5147    -5131    -5090    -5032    -4965 
   -4887    -4803    -4726    -4652    -4583    -4519    -4461    -4407 
   -4357    -4305    -4248    -4194    -4135    -4069    -4001    -3931 
   -3854    -3775    -3690    -3595    -3487    -3366    -3240    -3107 
   -2967    -2817    -2659    -2496    -2332    -2176    -2030    -1898 
   -1780    -1677    -1593    -1528    -1490    -1471    -1468    -1485 
   -1522    -1583    -1665    -1769    -1892    -2037    -2200    -2373 
   -2555    -2754    -2959    -3168    -3388    -3611    -3831    -4051 
   -4260    -4452    -4618    -4753    -4850    -4907    -4916    -4882 
   -4812    -4710    -4583    -4442    -4297    -4149    -4009    -3882 
   -3773    -3684    -3622    -3580    -3554    -3539    -3527    -3510 
   -3487    -3457    -3419    -3383    -3355    -3342    -3343    -3368 
   -3416    -3483    -3569    -3676    -3797    -3937    -4101    -4275 
   -4460    -4650    -4842    -5027    -5200    -5356    -5498    -5620 
   -5721    -5809    -5884    -5954    -6023    -6093    -6168    -6250 
   -6339    -6434    -6531    -6631    -6727    -6815    -6898    -6967 
   -7017    -7049    -7063    -7053    -7020    -6964    -6886    -6794 
   -6693    -6583    -6475    -6363    -6239    -6099    -5938    -5742 
   -5512    -5256    -4972    -4658    -4320    -3963    -3595    -3221 
   -2849    -2486    -2134    -1798    -1476    -1173     -886     -623 
    -386     -170       20      187      330      457      571      665 
     739      796      824      823      789      714      589      418 
     194      -83     -418     -812    -1263    -1771    -2331    -2937 
   -3584    -4263    -4962    -5665    -6365    -7042    -7692    -8306 
   -8869    -9370    -9803   -10169   -10469   -10704   -10876   -10995 
  -11057   -11064   -11021   -10930   -10786   -10586   -10329   -10019 
   -9659    -9252    -8810    -8336    -7838    -7330    -6822    -6323 
   -5840    -5375    -4943    -4553    -4209    -3919    -3680    -3489 
   -3346    -3242    -3171    -3119    -3090    -3078    -3073    -3078 
   -3095    -3119    -3148    -3176    -3192    -3194    -3187    -3156 
   -3103    -3025    -2917    -2775    -2604    -2401    -2168    -1907 
   -1624    -1320     -993     -650     -297       65      425      770 
    1086     1356     1572     1729     1814     1830     1784     1672 
    1506     1287     1020      714      373        4     -380     -776 
   -1179    -1582    -1975    -2369    -2759    -3150    -3541    -3932 
   -4326    -4714    -5084    -5427    -5734    -5996    -6207    -6366 
   -6473    -6528    -6529    -6481    -6386    -6251    -6093    -5922 
   -5741    -5552    -5371    -5206    -5049    -4901    -4785    -4688 
   -4587    -4492    -4396    -4275    -4139    -3987    -3809    -3611 
   -3404    -3184    -2970    -2779    -2612    -2471    -2367    -2289 
   -2230    -2196    -2182    -2185    -2207    -2243    -2285    -2330 
   -2371    -2413    -2459    -2519    -2598    -2706    -2844    -3013 
   -3204    -3419    -3658    -3913    -4178    -4448    -4710    -4953 
   -5169    -5348    -5481    -5559    -5579    -5539    -5439    -5279 
   -5059    -4784    -4455    -4087    -3690    -3268    -2822    -2366 
   -1896    -1418     -943     -464       13      479      935     1383 
    1821     2251     2667     3063     3431     3761     4036     4253 
    4406     4487     4504     4456     4342     4171     3947     3672 
    3360     3034     2702     2366     2034     1710     1399     1107 
     830      566      311       63     -180     -421     -661     -903 
   -1144    -1385    -1630    -1888    -2157    -2435    -2727    -3030 
   -3336    -3634    -3921    -4195    -4449    -4688    -4912    -5123 
   -5335    -5556    -5790    -6038    -6307    -6594    -6897    -7198 
   -7506    -7816    -8118    -8403    -8662    -8888    -9070    -9197 
   -9277    -9319    -9329    -9327    -9325    -9327    -9339    -9374 
   -9432    -9516    -9621    -9745    -9884   -10031   -10179   -10315 
  -10436   -10540   -10608   -10636   -10638   -10598   -10513   -10411 
  -10285   -10126    -9953    -9771    -9585    -9394    -9194    -8991 
   -8787    -8575    -8345    -8105    -7855    -7596    -7323    -7037 
   -6741    -6434    -6110    -5782    -5455    -5142    -4851    -4592 
   -4375    -4197    -4058    -3964    -3917    -3916    -3954    -4032 
   -4155    -4318    -4513    -4741    -5004    -5290    -5587    -5887 
   -6184    -6471    -6739    -6984    -7198    -7383    -7530    -7639 
   -7713    -7749    -7747    -7719    -7661    -7576    -7470    -7337 
   -7173    -6978    -6744    -6474    -6164    -5814    -5433    -5027 
   -4604    -4172    -3740    -3317    -2911    -2520    -2154    -1817 
   -1509    -1232     -980     -750     -542     -356     -189      -47 
      63      148      203      225      214      167       83      -43 
    -220     -442     -707    -1007    -1327    -1652    -1979    -2296 
   -2596    -2879    -3145    -3383    -3588    -3759    -3890    -3983 
   -4044    -4074    -4083    -4077    -4059    -4035    -4010    -3989 
   -3963    -3935    -3901    -3855    -3792    -3713    -3624    -3520 
   -3412    -3299    -3177    -3055    -2928    -2794    -2656    -2516 
   -2380    -2253    -2130    -2014    -1908    -1811    -1722    -1644 
   -1583    -1547    -1534    -1552    -1603    -1679    -1779    -1895 
   -2016    -2137    -2245    -2328    -2393    -2436    -2457    -2459 
   -2451    -2438    -2423    -2411    -2408    -2419    -2447    -2502 
   -2589    -2706    -2852    -3009    -3167    -3325    -3476    -3608 
   -3726    -3831    -3927    -4005    -4066    -4110    -4135    -4133 
   -4109    -4058    -3978    -3865    -3711    -3516    -3283    -3009 
   -2698    -2355    -1981    -1586    -1185     -799     -430      -91 
     207      464      670      828      938      989      977      912 
     795      627      421      182      -79     -356     -645     -935 
   -1221    -1503    -1775    -2031    -2273    -2498    -2712    -2911 
   -3095    -3275    -3451    -3618    -3778    -3931    -4064    -4175 
   -4266    -4337    -4391    -4431    -4464    -4491    -4509    -4523 
   -4540    -4550    -4567    -4594    -4621    -4649    -4677    -4704 
   -4731    -4747    -4748    -4738    -4708    -4661    -4606    -4545 
   -4482    -4417    -4347    -4278    -4218    -4171    -4140    -4135 
   -4155    -4203    -4275    -4360    -4464    -4577    -4689    -4801 
   -4912    -5019    -5117    -5206    -5292    -5367    -5436    -5499 
   -5562    -5622    -5684    -5755    -5834    -5918    -6008    -6104 
   -6195    -6280    -6351    -6401    -6434    -6446    -6430    -6386 
   -6312    -6201    -6049    -5857    -5625    -5358    -5055    -4722 
   -4368    -4003    -3631    -3258    -2886    -2517    -2166    -1840 
   -1537    -1260    -1013     -803     -623     -477     -376     -314 
    -284     -299     -359     -461     -611     -816    -1073    -1377 
   -1726    -2110    -2520    -2951    -3388    -3834    -4271    -4696 
   -5103    -5485    -5830    -6141    -6412    -6643    -6844    -7018 
   -7167    -7299    -7414    -7510    -7593    -7661    -7708    -7732 
   -7735    -7720    -7681    -7614    -7526    -7410    -7261    -7083 
   -6878    -6648    -6403    -6148    -5888    -5630    -5383    -5144 
   -4916    -4699    -4486    -4278    -4078    -3883    -3690    -3501 
   -3315    -3133    -2956    -2786    -2629    -2485    -2359    -2255 
   -2176    -2120    -2091    -2088    -2107    -2141    -2187    -2239 
   -2296    -2355    -2420    -2496    -2582    -2686    -2803    -2926 
   -3056    -3186    -3311    -3430    -3534    -3630    -3712    -3766 
   -3786    -3775    -3736    -3662    -3553    -3420    -3275    -3117 
   -2952    -2787    -2627    -2473    -2328    -2191    -2066    -1962 
   -1875    -1800    -1741    -1694    -1657    -1630    -1611    -1603 
   -1609    -1625    -1648    -1671    -1688    -1699    -1703    -1698 
   -1683    -1661    -1632    -1597    -1557    -1505    -1435    -1345 
   -1232    -1092     -926     -741     -542     -338     -140       44 
     217      367      491      596      679      734      766      773 
     741      676      585      475      352      225      101      -21 
    -141     -263     -391     -526     -684     -855    -1038    -1232 
   -1436    -1644    -1854    -2068    -2278    -2478    -2666    -2835 
   -2978    -3090    -3167    -3217    -3242    -3252    -3256    -3256 
   -3258    -3271    -3296    -3327    -3364    -3404    -3437    -3446 
   -3437    -3397    -3326    -3221    -3090    -2932    -2744    -2536 
   -2319    -2106    -1900    -1715    -1553    -1418    -1313    -1232 
   -1171    -1136    -1119    -1119    -1140    -1177    -1229    -1298 
   -1383    -1480    -1591    -1719    -1867    -2034    -2226    -2436 
   -2658    -2886    -3114    -3330    -3534    -3723    -3892    -4047 
   -4185    -4302    -4403    -4486    -4550    -4594    -4608    -4604 
   -4579    -4525    -4452    -4355    -4232    -4091    -3932    -3755 
   -3572    -3388    -3207    -3029    -2862    -2702    -2551    -2405 
   -2261    -2116    -1968    -1817    -1661    -1502    -1350    -1204 
