Origin Time       2016/04/16 01:25:00
Lat.              32.753
Long.             130.762
Depth. (km)       12
Mag.              7.3
Station Code      SMN016
Station Lat.      35.1957
Station Long.     132.8146
Station Height(m) 210
Record Time       2016/04/16 01:26:07
Sampling Freq(Hz) 100Hz
Duration Time(s)  100
Dir.              N-S
Scale Factor      7845(gal)/8223790
Max. Acc. (gal)   3.185
Last Correction   2016/04/16 01:26:07
Memo.             
[...]
  -12484   -12483   -12518   -12568   -12627   -12695   -12756   -12796 
  -12812   -12806   -12764   -12695   -12610   -12505   -12398   -12307 
  -12249   -12228   -12237   -12262   -12289   -12322   -12373   -12432 
  -12475   -12495   -12492   -12476   -12447   -12415   -12413   -12448 
  -12510   -12592   -12687   -12775   -12839   -12873   -12872   -12845 
  -12798   -12734   -12649   -12526   -12373   -12228   -12118   -12064 
  -12062   -12100   -12174   -12272   -12379   -12495   -12629   -12765 
  -12887   -12982   -13042   -13047   -12987   -12873   -12731   -12584 
  -12451   -12329   -12226   -12159   -12137   -12160   -12213   -12263 
  -12302   -12325   -12337   -12356   -12391   -12445   -12519   -12595 
  -12658   -12722   -12787   -12853   -12920   -12977   -12992   -12945 
  -12841   -12707   -12587   -12509   -12484   -12522   -12622   -12761 
  -12911   -13051   -13167   -13252   -13298   -13309   -13285   -13224 
  -13135   -13041   -12953   -12877   -12831   -12822   -12841   -12874 
  -12906   -12920   -12914   -12887   -12841   -12787   -12735   -12690 
  -12640   -12571   -12479   -12366   -12258   -12177   -12125   -12106 
  -12100   -12073   -12019   -11950   -11875   -11817   -11789   -11792 
  -11816   -11840   -11853   -11850   -11834   -11820   -11840   -11902 
  -11990   -12081   -12159   -12212   -12228   -12214   -12185   -12148 
  -12109   -12086   -12100   -12150   -12245   -12390   -12576   -12784 
  -12987   -13170   -13328   -13440   -13482   -13443   -13344   -13217 
  -13092   -12981   -12891   -12810   -12738   -12684   -12638   -12599 
  -12569   -12553   -12565   -12599   -12627   -12638   -12630   -12623 
  -12631   -12640   -12642   -12646   -12649   -12642   -12627   -12604 
  -12573   -12540   -12509   -12476   -12447   -12432   -12439   -12467 
  -12505   -12540   -12550   -12538   -12521   -12499   -12469   -12437 
  -12398   -12343   -12271   -12197   -12136   -12101   -12108   -12150 
  -12220   -12317   -12415   -12490   -12540   -12553   -12523   -12468 
  -12391   -12305   -12228   -12163   -12122   -12120   -12152   -12206 
  -12267   -12307   -12313   -12291   -12244   -12178   -12136   -12136 
  -12172   -12243   -12330   -12414   -12494   -12584   -12690   -12803 
  -12914   -12997   -13032   -13012   -12961   -12926   -12947   -13036 
  -13180   -13358   -13541   -13683   -13745   -13717   -13598   -13402 
  -13172   -12969   -12814   -12702   -12618   -12564   -12546   -12556 
  -12586   -12630   -12680   -12729   -12764   -12772   -12752   -12698 
  -12606   -12484   -12357   -12245   -12172   -12152   -12187   -12280 
  -12436   -12645   -12895   -13150   -13358   -13485   -13522   -13470 
  -13360   -13247   -13162   -13139   -13201   -13347   -13554   -13780 
  -13984   -14134   -14211   -14200   -14102   -13929   -13703   -13450 
  -13180   -12903   -12645   -12424   -12253   -12150   -12108   -12110 
  -12148   -12208   -12268   -12320   -12363   -12396   -12411   -12403 
  -12376   -12326   -12251   -12152   -12043   -11935   -11846   -11797 
  -11820   -11908   -12023   -12129   -12213   -12276   -12329   -12366 
  -12395   -12426   -12459   -12501   -12555   -12611   -12680   -12779 
  -12906   -13035   -13146   -13208   -13211   -13166   -13101   -13057 
  -13065   -13134   -13234   -13329   -13404   -13429   -13386   -13267 
  -13073   -12822   -12548   -12280   -12042   -11850   -11711   -11628 
  -11597   -11601   -11618   -11627   -11627   -11624   -11637   -11673 
  -11742   -11838   -11950   -12059   -12140   -12178   -12174   -12144 
  -12109   -12096   -12122   -12188   -12283   -12394   -12507   -12614 
  -12711   -12773   -12795   -12777   -12719   -12627   -12526   -12421 
  -12325   -12267   -12259   -12312   -12424   -12559   -12684   -12796 
  -12891   -12962   -13012   -13045   -13062   -13072   -13084   -13099 
  -13112   -13122   -13136   -13165   -13207   -13250   -13275   -13270 
  -13247   -13219   -13188   -13154   -13119   -13073   -13015   -12943 
  -12857   -12773   -12713   -12688   -12699   -12723   -12721   -12683 
  -12614   -12517   -12402   -12295   -12208   -12145   -12110   -12102 
  -12118   -12128   -12106   -12040   -11927   -11781   -11645   -11562 
  -11550   -11591   -11663   -11762   -11862   -11923   -11929   -11892 
  -11831   -11769   -11746   -11799   -11924   -12105   -12322   -12538 
  -12731   -12885   -12978   -13012   -13015   -13014   -13018   -13041 
  -13089   -13158   -13242   -13325   -13393   -13420   -13406   -13379 
  -13367   -13377   -13417   -13479   -13547   -13603   -13636   -13633 
  -13602   -13555   -13502   -13448   -13396   -13344   -13316   -13331 
  -13389   -13482   -13601   -13720   -13817   -13887   -13926   -13933 
  -13917   -13892   -13869   -13860   -13864   -13871   -13871   -13867 
  -13869   -13876   -13883   -13888   -13879   -13852   -13801   -13707 
  -13570   -13398   -13211   -13032   -12879   -12749   -12623   -12488 
  -12353   -12231   -12127   -12043   -11977   -11925   -11894   -11880 
  -11861   -11835   -11801   -11758   -11709   -11663   -11637   -11645 
  -11692   -11784   -11914   -12071   -12256   -12456   -12650   -12827 
  -12973   -13084   -13159   -13212   -13252   -13278   -13284   -13274 
  -13261   -13250   -13252   -13266   -13290   -13320   -13346   -13360 
  -13366   -13354   -13311   -13236   -13138   -13015   -12864   -12680 
  -12472   -12245   -12013   -11789   -11595   -11446   -11345   -11279 
  -11237   -11218   -11200   -11180   -11171   -11163   -11142   -11130 
  -11122   -11114   -11124   -11169   -11253   -11383   -11578   -11850 
  -12178   -12533   -12897   -13254   -13588   -13884   -14118   -14265 
  -14323   -14281   -14138   -13914   -13654   -13398   -13178   -13024 
  -12954   -12964   -13032   -13138   -13246   -13323   -13351   -13329 
  -13258   -13136   -12978   -12792   -12587   -12363   -12140   -11929 
  -11722   -11503   -11273   -11039   -10808   -10596   -10432   -10346 
  -10351   -10442   -10617   -10859   -11128   -11384   -11619   -11843 
  -12070   -12303   -12540   -12772   -12977   -13129   -13227   -13281 
  -13306   -13327   -13362   -13413   -13463   -13477   -13419   -13288 
  -13112   -12912   -12707   -12529   -12394   -12310   -12268   -12244 
  -12231   -12221   -12195   -12137   -12044   -11912   -11766   -11635 
  -11533   -11484   -11499   -11546   -11607   -11661   -11684   -11674 
  -11643   -11615   -11618   -11662   -11745   -11857   -11985   -12120 
  -12256   -12376   -12456   -12487   -12475   -12438   -12409   -12421 
  -12503   -12672   -12914   -13182   -13437   -13645   -13805   -13923 
  -14003   -14045   -14050   -14014   -13937   -13824   -13686   -13524 
  -13343   -13139   -12911   -12672   -12433   -12194   -11969   -11785 
  -11663   -11623   -11663   -11762   -11897   -12056   -12214   -12353 
  -12468   -12552   -12604   -12640   -12677   -12717   -12746   -12756 
  -12733   -12671   -12586   -12491   -12396   -12303   -12226   -12177 
  -12147   -12132   -12150   -12231   -12386   -12602   -12858   -13142 
  -13427   -13667   -13828   -13899   -13896   -13838   -13740   -13626 
  -13508   -13389   -13279   -13192   -13126   -13069   -13001   -12904 
  -12784   -12668   -12573   -12509   -12483   -12505   -12580   -12691 
  -12818   -12942   -13047   -13128   -13186   -13231   -13281   -13342 
  -13413   -13498   -13587   -13663   -13718   -13756   -13782   -13802 
  -13821   -13855   -13913   -13999   -14118   -14247   -14354   -14405 
  -14376   -14261   -14054   -13770   -13452   -13149   -12901   -12745 
  -12677   -12675   -12703   -12738   -12749   -12708   -12599   -12425 
  -12208   -11978   -11755   -11554   -11369   -11210   -11095   -11034 
  -11043   -11145   -11352   -11653   -12021   -12406   -12781   -13129 
  -13433   -13686   -13880   -14014   -14096   -14123   -14084   -13971 
  -13782   -13520   -13221   -12912   -12610   -12337   -12101   -11892 
  -11718   -11603   -11560   -11577   -11628   -11673   -11685   -11659 
  -11616   -11599   -11638   -11743   -11900   -12067   -12190   -12237 
  -12193   -12060   -11881   -11706   -11558   -11458   -11402   -11376 
  -11388   -11461   -11618   -11875   -12220   -12633   -13100   -13574 
  -13992   -14318   -14517   -14575   -14505   -14331   -14106   -13884 
  -13713   -13620   -13624   -13717   -13871   -14052   -14215   -14327 
  -14362   -14311   -14181   -13994   -13757   -13483   -13171   -12830 
  -12476   -12110   -11738   -11375   -11047   -10778   -10580   -10459 
  -10412   -10427   -10504   -10638   -10814   -11024   -11234   -11411 
  -11527   -11562   -11516   -11414   -11256   -11038   -10793   -10569 
  -10412   -10374   -10482   -10712   -11028   -11373   -11669   -11851 
  -11907   -11844   -11692   -11514   -11365   -11277   -11287   -11426 
  -11705   -12091   -12518   -12930   -13281   -13545   -13724   -13806 
  -13773   -13633   -13406   -13117   -12808   -12534   -12344   -12270 
  -12321   -12484   -12737   -13036   -13350   -13641   -13869   -13990 
  -13957   -13763   -13443   -13042   -12636   -12301   -12098   -12069 
  -12210   -12483   -12837   -13223   -13595   -13914   -14146   -14274 
  -14296   -14222   -14075   -13872   -13637   -13406   -13217   -13096 
  -13053   -13092   -13197   -13342   -13510   -13701   -13905   -14112 
  -14312   -14457   -14506   -14446   -14273   -14014   -13720   -13443 
  -13235   -13113   -13053   -13020   -12999   -12991   -13011   -13078 
  -13201   -13383   -13598   -13815   -14008   -14156   -14242   -14255 
  -14200   -14104   -14007   -13921   -13851   -13798   -13756   -13716 
  -13676   -13639   -13605   -13590   -13616   -13686   -13798   -13926 
  -14030   -14058   -13971   -13767   -13467   -13124   -12810   -12577 
  -12476   -12560   -12830   -13240   -13721   -14189   -14557   -14755 
  -14739   -14516   -14134   -13652   -13124   -12600   -12131   -11758 
  -11521   -11442   -11524   -11772   -12137   -12532   -12900   -13203 
  -13410   -13509   -13501   -13400   -13205   -12933   -12626   -12349 
  -12152   -12069   -12112   -12266   -12491   -12765   -13049   -13298 
  -13483   -13564   -13522   -13360   -13096   -12771   -12441   -12171 
  -12010   -11974   -12037   -12155   -12293   -12426   -12555   -12688 
  -12853   -13066   -13304   -13541   -13747   -13887   -13941   -13911 
  -13826   -13729   -13674   -13695   -13784   -13900   -14007   -14092 
  -14150   -14160   -14107   -13998   -13844   -13648   -13423   -13182 
  -12941   -12734   -12588   -12523   -12537   -12614   -12742   -12900 
  -13068   -13243   -13425   -13610   -13768   -13861   -13860   -13744 
  -13517   -13236   -12970   -12761   -12611   -12487   -12361   -12241 
  -12136   -12044   -11954   -11862   -11784   -11727   -11699   -11708 
  -11765   -11863   -11989   -12118   -12224   -12295   -12348   -12387 
  -12428   -12496   -12591   -12685   -12756   -12783   -12741   -12625 
  -12434   -12191   -11944   -11739   -11592   -11514   -11529   -11654 
  -11873   -12155   -12457   -12718   -12896   -12976   -12951   -12849 
  -12719   -12603   -12532   -12507   -12505   -12501   -12474   -12417 
  -12351   -12291   -12240   -12186   -12118   -12043   -11971   -11896 
  -11800   -11685   -11564   -11427   -11288   -11188   -11155   -11203 
  -11341   -11539   -11772   -12015   -12244   -12463   -12688   -12934 
  -13181   -13406   -13601   -13744   -13824   -13838   -13795   -13697 
  -13541   -13346   -13154   -12997   -12898   -12884   -12946   -13057 
  -13188   -13300   -13359   -13359   -13300   -13190   -13059   -12931 
  -12847   -12842   -12921   -13063   -13219   -13328   -13359   -13304 
  -13176   -12993   -12777   -12564   -12379   -12224   -12101   -12027 
  -12015   -12081   -12228   -12439   -12672   -12855   -12950   -12949 
  -12862   -12718   -12571   -12453   -12376   -12349   -12361   -12391 
  -12410   -12406   -12379   -12332   -12275   -12221   -12179   -12164 
  -12190   -12251   -12336   -12429   -12519   -12587   -12644   -12708 
  -12792   -12900   -13027   -13161   -13288   -13410   -13549   -13737 
  -13980   -14264   -14578   -14898   -15171   -15338   -15354   -15196 
  -14878   -14459   -14021   -13647   -13396   -13292   -13323   -13448 
  -13630   -13834   -14014   -14146   -14230   -14270   -14288   -14298 
  -14316   -14347   -14391   -14446   -14512   -14565   -14572   -14511 
  -14358   -14106   -13763   -13363   -12945   -12550   -12210   -11942 
  -11755   -11657   -11646   -11734   -11913   -12137   -12348   -12503 
  -12580   -12573   -12495   -12367   -12217   -12063   -11908   -11750 
  -11604   -11496   -11429   -11379   -11364   -11410   -11507   -11626 
  -11765   -11917   -12042   -12110   -12125   -12093   -12008   -11888 
  -11780   -11720   -11731   -11830   -12002   -12220   -12461   -12696 
  -12893   -13028   -13068   -13000   -12846   -12622   -12356   -12093 
  -11865   -11713   -11676   -11757   -11943   -12209   -12498   -12756 
  -12943   -13039   -13045   -12984   -12881   -12765   -12661   -12571 
  -12479   -12372   -12254   -12137   -12036   -11961   -11901   -11853 
  -11823   -11824   -11858   -11931   -12055   -12218   -12398   -12563 
  -12680   -12754   -12785   -12777   -12756   -12744   -12734   -12722 
  -12704   -12685   -12661   -12614   -12532   -12418   -12274   -12096 
  -11902   -11711   -11535   -11404   -11346   -11367   -11450   -11557 
  -11663   -11762   -11827   -11821   -11749   -11616   -11435   -11223 
  -10995   -10755   -10509   -10250    -9992    -9757    -9558    -9400 
   -9301    -9283    -9347    -9487    -9695    -9954   -10239   -10504 
  -10712   -10847   -10901   -10893   -10863   -10863   -10929   -11064 
  -11241   -11454   -11695   -11942   -12182   -12394   -12548   -12644 
  -12679   -12658   -12611   -12575   -12591   -12690   -12861   -13062 
  -13238   -13352   -13390   -13359   -13288   -13205   -13139   -13095 
  -13080   -13096   -13147   -13236   -13356   -13489   -13628   -13751 
  -13836   -13891   -13944   -14010   -14083   -14150   -14203   -14215 
  -14156   -14031   -13864   -13683   -13536   -13474   -13521   -13675 
  -13902   -14150   -14370   -14511   -14539   -14458   -14265   -13988 
  -13674   -13379   -13153   -13005   -12915   -12852   -12765   -12610 
  -12387   -12112   -11800   -11475   -11173   -10933   -10775   -10704 
  -10710   -10768   -10858   -10972   -11111   -11284   -11488   -11716 
  -11939   -12121   -12252   -12330   -12340   -12271   -12135   -11944 
  -11728   -11512   -11327   -11213   -11196   -11280   -11443   -11661 
  -11896   -12118   -12309   -12467   -12598   -12708   -12792   -12841 
  -12846   -12811   -12741   -12646   -12550   -12479   -12448   -12471 
  -12548   -12667   -12802   -12921   -12991   -12981   -12893   -12739 
  -12534   -12297   -12058   -11857   -11706   -11603   -11549   -11551 
  -11605   -11706   -11838   -11971   -12094   -12172   -12172   -12105 
  -11997   -11871   -11772   -11738   -11772   -11863   -11988   -12110 
  -12209   -12270   -12285   -12264   -12208   -12121   -12008   -11873 
  -11731   -11600   -11504   -11473   -11510   -11595   -11705   -11804 
  -11869   -11904   -11921   -11940   -11993   -12093   -12239   -12399 
  -12525   -12581   -12581   -12550   -12526   -12544   -12619   -12750 
  -12912   -13073   -13212   -13335   -13446   -13540   -13609   -13664 
  -13716   -13773   -13841   -13899   -13923   -13880   -13752   -13541 
  -13271   -12982   -12703   -12434   -12177   -11921   -11668   -11431 
  -11233   -11087   -11013   -11020   -11076   -11144   -11204   -11257 
  -11296   -11321   -11340   -11353   -11346   -11310   -11253   -11188 
  -11128   -11076   -11049   -11072   -11153   -11299   -11496   -11709 
  -11921   -12121   -12290   -12410   -12476   -12499   -12503   -12510 
  -12530   -12594   -12722   -12903   -13099   -13271   -13387   -13409 
  -13331   -13193   -13053   -12954   -12926   -12985   -13154   -13423 
  -13757   -14090   -14350   -14473   -14428   -14212   -13865   -13462 
  -13089   -12816   -12650   -12555   -12491   -12421   -12317   -12174 
  -11997   -11820   -11686   -11630   -11674   -11812   -12023   -12293 
  -12580   -12811   -12943   -12972   -12892   -12710   -12445   -12128 
  -11811   -11547   -11372   -11280   -11230   -11173   -11095   -10975 
  -10832   -10727   -10708   -10809   -11045   -11384   -11774   -12170 
  -12518   -12764   -12883   -12888   -12787   -12586   -12317   -12017 
  -11732   -11520   -11429   -11473   -11618   -11794   -11947   -12042 
  -12059   -12012   -11923   -11816   -11727   -11668   -11619   -11578 
  -11572   -11600   -11654   -11739   -11855   -11989   -12117   -12231 
  -12322   -12390   -12445   -12478   -12484   -12479   -12439   -12348 
  -12224   -12098   -11997   -11935   -11892   -11826   -11706   -11530 
  -11329   -11151   -11036   -10996   -11011   -11034   -11033   -11006 
  -10955   -10895   -10854   -10840   -10851   -10885   -10933   -10979 
  -11018   -11065   -11130   -11214   -11307   -11399   -11491   -11574 
  -11659   -11772   -11898   -12037   -12197   -12330   -12410   -12441 
  -12429   -12401   -12396   -12429   -12484   -12545   -12603   -12665 
  -12729   -12788   -12833   -12858   -12866   -12857   -12838   -12831 
  -12846   -12901   -13008   -13128   -13215   -13235   -13171   -13050 
  -12903   -12746   -12584   -12410   -12209   -11970   -11705   -11450 
  -11234   -11059   -10916   -10775   -10621   -10465   -10341   -10268 
  -10257   -10316   -10457   -10673   -10930   -11191   -11415   -11592 
  -11746   -11893   -12020   -12121   -12182   -12187   -12151   -12083 
  -11996   -11921   -11890   -11927   -12033   -12163   -12289   -12406 
  -12486   -12530   -12555   -12540   -12471   -12341   -12174   -12009 
  -11885   -11815   -11784   -11774   -11788   -11821   -11853   -11878 
  -11890   -11874   -11840   -11836   -11896   -12029   -12228   -12468 
  -12721   -12943   -13095   -13162   -13144   -13046   -12901   -12760 
  -12650   -12587   -12587   -12665   -12822   -13030   -13263   -13502 
  -13732   -13936   -14103   -14230   -14328   -14424   -14519   -14594 
  -14654   -14694   -14693   -14642   -14551   -14428   -14293   -14158 
  -14019   -13849   -13633   -13371   -13084   -12819   -12617   -12480 
  -12398   -12355   -12326   -12294   -12254   -12220   -12204   -12221 
  -12279   -12360   -12439   -12505   -12560   -12588   -12586   -12563 
  -12526   -12482   -12444   -12434   -12460   -12522   -12613   -12708 
  -12776   -12793   -12758   -12687   -12610   -12553   -12537   -12571 
  -12660   -12787   -12916   -13005   -13023   -12964   -12858   -12750 
  -12677   -12660   -12677   -12703   -12750   -12830   -12935   -13063 
  -13192   -13294   -13340   -13317   -13236   -13123   -13008   -12924 
  -12868   -12829   -12791   -12722   -12604   -12452   -12289   -12164 
  -12131   -12206   -12379   -12619   -12877   -13073   -13154   -13104 
  -12918   -12622   -12274   -11932   -11661   -11488   -11426   -11468 
  -11599   -11790   -12000   -12186   -12324   -12387   -12363   -12272 
  -12148   -12020   -11937   -11932   -12013   -12163   -12359   -12586 
  -12803   -12966   -13068   -13101   -13058   -12964   -12854   -12749 
  -12675   -12642   -12654   -12717   -12819   -12935   -13034   -13096 
  -13113   -13069   -12973   -12858   -12764   -12711   -12700   -12708 
  -12722   -12738   -12760   -12793   -12853   -12943   -13054   -13162 
