Origin Time       2016/04/16 01:25:00
Lat.              32.753
Long.             130.762
Depth. (km)       12
Mag.              7.3
Station Code      SMN007
Station Lat.      35.0807
Station Long.     132.5914
Station Height(m) 67
Record Time       2016/04/16 01:26:32
Sampling Freq(Hz) 100Hz
Duration Time(s)  65
Dir.              E-W
Scale Factor      7845(gal)/8223790
Max. Acc. (gal)   4.450
Last Correction   2016/04/16 01:26:34
Memo.             
[...]
   -1925    -2224    -2455    -2569    -2511    -2316    -2047    -1775 
   -1520    -1290    -1124    -1003     -903     -810     -715     -681 
    -754     -967    -1293    -1649    -1989    -2272    -2438    -2458 
   -2354    -2200    -2089    -2072    -2084    -2065    -1999    -1873 
   -1702    -1471    -1230    -1077    -1039    -1155    -1354    -1517 
   -1651    -1732    -1732    -1674    -1593    -1516    -1441    -1399 
   -1389    -1381    -1414    -1483    -1532    -1551    -1544    -1470 
   -1302    -1120     -967     -885     -928    -1024    -1151    -1318 
   -1476    -1658    -1894    -2155    -2408    -2612    -2754    -2782 
   -2655    -2440    -2170    -1794    -1355     -954     -591     -319 
    -217     -249     -410     -664     -939    -1267    -1586    -1844 
   -2120    -2363    -2485    -2524    -2473    -2317    -2096    -1845 
   -1605    -1378    -1178    -1059    -1035    -1070    -1111    -1131 
   -1174    -1251    -1343    -1475    -1634    -1800    -1985    -2180 
   -2338    -2415    -2439    -2415    -2299    -2115    -1922    -1752 
   -1597    -1459    -1359    -1274    -1197    -1132    -1069    -1026 
   -1031    -1102    -1271    -1547    -1880    -2176    -2358    -2411 
   -2340    -2169    -1949    -1684    -1404    -1194    -1075    -1036 
   -1047    -1036     -990     -955     -920     -843     -776     -772 
    -822     -961    -1177    -1391    -1579    -1688    -1682    -1583 
   -1399    -1175     -984     -854     -820     -896    -1078    -1350 
   -1628    -1848    -2027    -2143    -2176    -2169    -2110    -1992 
   -1877    -1771    -1706    -1746    -1887    -2085    -2288    -2452 
   -2559    -2574    -2497    -2336    -2107    -1871    -1674    -1516 
   -1405    -1368    -1364    -1377    -1439    -1521    -1595    -1636 
   -1614    -1560    -1452    -1282    -1100     -920     -789     -749 
    -791     -950    -1192    -1441    -1725    -2004    -2204    -2357 
   -2438    -2370    -2170    -1918    -1658    -1394    -1193    -1128 
   -1144    -1174    -1233    -1316    -1393    -1514    -1707    -1910 
   -2124    -2344    -2496    -2562    -2548    -2461    -2309    -2091 
   -1831    -1578    -1327    -1086     -896     -758     -657     -618 
    -643     -722     -884    -1121    -1424    -1755    -2066    -2377 
   -2619    -2724    -2706    -2516    -2227    -1949    -1664    -1410 
   -1228    -1125    -1131    -1190    -1273    -1367    -1395    -1347 
   -1270    -1201    -1174    -1197    -1270    -1397    -1554    -1723 
   -1910    -2085    -2241    -2400    -2513    -2529    -2466    -2346 
   -2204    -2088    -2026    -2031    -2041    -2006    -1965    -1917 
   -1831    -1759    -1737    -1748    -1732    -1694    -1677    -1655 
   -1628    -1614    -1587    -1557    -1553    -1580    -1637    -1684 
   -1718    -1772    -1795    -1745    -1691    -1656    -1648    -1753 
   -1992    -2297    -2554    -2688    -2705    -2590    -2366    -2130 
   -1915    -1717    -1551    -1420    -1312    -1219    -1170    -1208 
   -1318    -1482    -1688    -1887    -1992    -2019    -2019    -1962 
   -1842    -1692    -1535    -1395    -1256    -1143    -1101    -1092 
   -1117    -1251    -1456    -1688    -1961    -2228    -2465    -2666 
   -2781    -2805    -2709    -2461    -2130    -1764    -1402    -1081 
    -835     -683     -610     -673     -890    -1200    -1557    -1898 
   -2170    -2363    -2475    -2525    -2515    -2440    -2297    -2077 
   -1826    -1587    -1371    -1190    -1075    -1005     -981    -1065 
   -1225    -1379    -1532    -1674    -1757    -1795    -1830    -1833 
   -1806    -1798    -1769    -1706    -1629    -1498    -1331    -1200 
   -1136    -1128    -1151    -1175    -1173    -1131    -1053     -978 
    -936     -931    -1004    -1156    -1375    -1617    -1802    -1914 
   -1917    -1787    -1583    -1328    -1101     -987     -977    -1031 
   -1102    -1197    -1318    -1455    -1583    -1645    -1629    -1566 
   -1476    -1426    -1453    -1551    -1728    -1938    -2102    -2220 
   -2282    -2245    -2141    -1996    -1823    -1658    -1456    -1260 
   -1181    -1201    -1308    -1520    -1767    -2022    -2301    -2560 
   -2698    -2655    -2461    -2180    -1829    -1428    -1062     -772 
    -538     -378     -309     -319     -418     -629     -920    -1236 
   -1552    -1842    -2097    -2304    -2439    -2515    -2542    -2516 
   -2442    -2330    -2188    -2015    -1858    -1755    -1686    -1674 
   -1717    -1783    -1880    -1989    -2130    -2303    -2457    -2573 
   -2609    -2516    -2272    -1868    -1399     -963     -615     -430 
    -369     -378     -464     -569     -645     -747     -909    -1119 
   -1366    -1621    -1840    -1991    -2057    -2033    -1960    -1890 
   -1852    -1867    -1946    -2093    -2241    -2336    -2354    -2273 
   -2142    -1991    -1836    -1715    -1620    -1541    -1513    -1528 
   -1590    -1688    -1822    -1949    -1996    -1968    -1872    -1702 
   -1537    -1398    -1273    -1200    -1178    -1198    -1239    -1286 
   -1370    -1490    -1660    -1883    -2141    -2434    -2709    -2902 
   -2988    -2918    -2700    -2370    -1965    -1544    -1152     -853 
    -654     -495     -413     -450     -548     -724    -1017    -1324 
   -1595    -1852    -2025    -2100    -2111    -2049    -1952    -1818 
   -1642    -1485    -1377    -1348    -1398    -1506    -1644    -1741 
   -1815    -1883    -1878    -1814    -1707    -1524    -1294    -1121 
   -1055    -1043    -1075    -1196    -1364    -1518    -1672    -1821 
   -1898    -1906    -1875    -1769    -1610    -1466    -1389    -1405 
   -1509    -1710    -1991    -2232    -2378    -2442    -2405    -2286 
   -2118    -1894    -1657    -1393    -1047     -666     -270      110 
     361      450      386      168     -176     -603     -993    -1313 
   -1624    -1850    -1975    -2104    -2203    -2228    -2226    -2168 
   -2000    -1738    -1424    -1086     -761     -518     -390     -365 
    -429     -550     -702     -853     -980    -1111    -1237    -1308 
   -1323    -1351    -1398    -1429    -1472    -1518    -1513    -1470 
   -1443    -1441    -1448    -1463    -1506    -1545    -1530    -1487 
   -1460    -1452    -1483    -1576    -1694    -1799    -1891    -1949 
   -1958    -1934    -1856    -1740    -1605    -1426    -1281    -1209 
   -1170    -1192    -1278    -1381    -1493    -1624    -1761    -1894 
   -1982    -2003    -1958    -1829    -1625    -1408    -1209    -1036 
    -854     -689     -557     -425     -383     -481     -668     -947 
   -1287    -1628    -1930    -2170    -2358    -2493    -2550    -2520 
   -2434    -2311    -2144    -1942    -1745    -1603    -1570    -1655 
   -1810    -2007    -2215    -2328    -2309    -2201    -1988    -1698 
   -1412    -1144     -919     -764     -661     -583     -542     -583 
    -719     -947    -1264    -1586    -1871    -2115    -2220    -2157 
   -2000    -1783    -1566    -1418    -1341    -1323    -1354    -1420 
   -1512    -1602    -1676    -1717    -1686    -1568    -1412    -1260 
   -1154    -1121    -1166    -1281    -1428    -1595    -1740    -1798 
   -1831    -1865    -1837    -1780    -1698    -1588    -1457    -1243 
    -989     -756     -531     -395     -370     -415     -511     -634 
    -758     -882    -1008    -1170    -1413    -1705    -1985    -2246 
   -2450    -2605    -2772    -2903    -2970    -2983    -2903    -2740 
   -2543    -2357    -2226    -2155    -2135    -2130    -2095    -2011 
   -1953    -1985    -2072    -2223    -2477    -2749    -2972    -3099 
   -3080    -2930    -2658    -2307    -1953    -1618    -1336    -1138 
   -1047    -1120    -1314    -1566    -1890    -2236    -2542    -2792 
   -2905    -2849    -2702    -2502    -2277    -2043    -1831    -1680 
   -1576    -1491    -1448    -1474    -1543    -1672    -1880    -2110 
   -2355    -2573    -2688    -2729    -2685    -2567    -2430    -2267 
   -2089    -1876    -1615    -1331    -1011     -677     -411     -263 
    -232     -341     -572     -837    -1136    -1452    -1677    -1787 
   -1798    -1701    -1509    -1255     -982     -776     -666     -650 
    -706     -758     -814     -896     -950     -966     -953     -857 
    -665     -387      -18      405      799     1113     1340     1509 
    1613     1588     1479     1313     1005      584      129     -340 
    -767    -1097    -1345    -1518    -1606    -1601    -1514    -1385 
   -1219    -1051     -924     -827     -789     -831     -903    -1013 
   -1155    -1308    -1507    -1719    -1891    -2033    -2146    -2219 
   -2254    -2245    -2168    -2030    -1852    -1636    -1413    -1198 
    -982     -788     -631     -499     -387     -310     -240     -175 
    -148     -152     -197     -309     -508     -811    -1182    -1571 
   -1929    -2195    -2365    -2465    -2500    -2459    -2377    -2281 
   -2146    -1993    -1844    -1701    -1622    -1637    -1764    -2006 
   -2315    -2663    -3011    -3287    -3476    -3588    -3607    -3577 
   -3553    -3526    -3527    -3550    -3555    -3586    -3638    -3667 
   -3701    -3731    -3740    -3716    -3626    -3489    -3298    -3030 
   -2763    -2501    -2205    -1910    -1630    -1355    -1057     -730 
    -418     -114      197      483      739      945     1026      936 
     673      286     -180     -693    -1200    -1661    -2045    -2311 
   -2436    -2448    -2420    -2373    -2317    -2267    -2205    -2137 
   -2069    -2007    -1935    -1823    -1711    -1620    -1505    -1405 
   -1345    -1287    -1279    -1360    -1467    -1543    -1554    -1470 
   -1274     -990     -683     -402     -155       27       95       59 
     -97     -382     -720    -1055    -1374    -1651    -1864    -1979 
   -1966    -1829    -1630    -1462    -1354    -1331    -1422    -1622 
   -1929    -2299    -2654    -2943    -3157    -3299    -3350    -3326 
   -3292    -3283    -3268    -3273    -3350    -3449    -3544    -3650 
   -3666    -3551    -3343    -3073    -2794    -2544    -2370    -2301 
   -2305    -2373    -2508    -2668    -2803    -2903    -2983    -3037 
   -3032    -2975    -2887    -2759    -2621    -2538    -2525    -2573 
   -2695    -2882    -3063    -3208    -3288    -3258    -3137    -2959 
   -2762    -2606    -2488    -2403    -2381    -2407    -2444    -2475 
   -2442    -2311    -2095    -1818    -1535    -1317    -1151    -1062 
   -1094    -1224    -1409    -1611    -1800    -1975    -2130    -2282 
   -2415    -2471    -2475    -2467    -2423    -2343    -2280    -2234 
   -2176    -2092    -1995    -1869    -1706    -1526    -1337    -1136 
    -961     -842     -778     -789     -903    -1078    -1233    -1329 
   -1348    -1282    -1147     -980     -828     -652     -432     -176 
     170      564      903     1165     1320     1331     1198      942 
     623      314       71      -58      -76      -45       17       99 
     152      168      164      116        2     -157     -353     -557 
    -756     -990    -1248    -1431    -1480    -1352    -1039     -626 
    -220       81      234      284      252      167      108       98 
     120      174      230      299      410      515      568      546 
     444      303      212      182      137       70      -47     -280 
    -595     -940    -1258    -1485    -1628    -1690    -1682    -1645 
   -1553    -1363    -1107     -838     -581     -414     -407     -522 
    -646     -726     -753     -756     -787     -881    -1042    -1240 
   -1439    -1561    -1582    -1567    -1544    -1521    -1532    -1534 
   -1476    -1399    -1318    -1190    -1042     -939     -859     -827 
    -923    -1133    -1414    -1705    -1912    -2019    -2027    -1998 
   -2042    -2191    -2423    -2702    -2917    -2984    -2895    -2683 
   -2400    -2064    -1714    -1345     -973     -706     -537     -454 
    -529     -666     -754     -793     -751     -615     -442     -305 
    -255     -266     -299     -325     -270     -149      -47       21 
      56       36      -83     -284     -468     -625     -733     -745 
    -743     -807     -908    -1023    -1171    -1336    -1448    -1472 
   -1433    -1390    -1402    -1483    -1625    -1788    -1900    -1910 
   -1811    -1609    -1339    -1081     -897     -837     -954    -1233 
   -1621    -2079    -2535    -2907    -3161    -3280    -3223    -2979 
   -2602    -2126    -1606    -1090     -562      -54      360      657 
     773      631      225     -411    -1202    -2007    -2679    -3125 
   -3321    -3346    -3314    -3281    -3299    -3331    -3284    -3136 
   -2934    -2731    -2567    -2513    -2610    -2786    -2979    -3194 
   -3358    -3416    -3381    -3230    -3028    -2913    -2986    -3287 
   -3732    -4187    -4545    -4684    -4585    -4327    -3997    -3713 
   -3497    -3280    -3061    -2826    -2589    -2470    -2539    -2803 
   -3194    -3562    -3813    -3924    -3902    -3811    -3700    -3608 
   -3528    -3407    -3225    -2932    -2521    -2076    -1671    -1398 
   -1347    -1560    -2043    -2686    -3284    -3689    -3798    -3543 
   -3002    -2354    -1744    -1313    -1109    -1036     -970     -834 
    -639     -411     -178      -54      -20        0      -11       -5 
      35        5     -120     -310     -560     -837    -1065    -1246 
   -1391    -1421    -1294    -1035     -648     -183      280      684 
     958     1081     1148     1254     1426     1701     2076     2486 
    2840     3060     3096     2907     2524     2058     1548     1023 
     577      248       47        8       91      230      383      498 
     521      461      325      140      -54     -263     -461     -606 
    -715     -776     -727     -579     -380     -110      253      594 
     797      841      672      299     -164     -654    -1111    -1451 
   -1628    -1632    -1517    -1356    -1189    -1038     -924     -824 
    -708     -602     -508     -434     -446     -595     -869    -1209 
   -1533    -1787    -1919    -1894    -1729    -1441    -1090     -769 
    -515     -344     -268     -240     -240     -292     -388     -508 
    -639     -777     -934    -1088    -1223    -1281    -1163     -885 
    -552     -251      -70      -59     -222     -517     -831    -1098 
   -1294    -1387    -1389    -1336    -1258    -1162    -1044     -892 
    -708     -577     -596     -761     -996    -1206    -1317    -1270 
   -1000     -525       17      479      737      700      417        1 
    -445     -776     -903     -816     -499       -9      585     1225 
    1794     2215     2470     2536     2421     2181     1831     1345 
     760      184     -301     -656     -872     -989    -1094    -1269 
   -1528    -1846    -2207    -2535    -2721    -2720    -2536    -2227 
   -1887    -1557    -1256     -977     -687     -472     -427     -531 
    -785    -1166    -1564    -1896    -2066    -2015    -1755    -1285 
    -693     -129      332      637      727      576      178     -423 
   -1192    -2072    -2994    -3929    -4816    -5503    -5902    -5948 
   -5575    -4845    -3919    -2970    -2158    -1590    -1285    -1155 
   -1090    -1038     -990     -951     -927     -981    -1136    -1312 
   -1456    -1587    -1742    -1973    -2347    -2841    -3311    -3649 
   -3827    -3823    -3661    -3438    -3223    -3036    -2896    -2828 
   -2844    -2932    -3048    -3173    -3323    -3473    -3561    -3544 
   -3392    -3080    -2677    -2277    -1922    -1656    -1524    -1532 
   -1674    -1919    -2189    -2423    -2558    -2531    -2376    -2157 
   -1898    -1686    -1556    -1447    -1372    -1352    -1343    -1339 
   -1336    -1271    -1113     -895     -662     -464     -322     -193 
     -83      -37      -41     -129     -388     -814    -1358    -1961 
   -2521    -2936    -3161    -3217    -3132    -2938    -2668    -2349 
   -1996    -1606    -1190     -793     -450     -183      -60     -117 
    -297     -540     -803     -987    -1019     -953     -903     -889 
    -893     -895     -801     -562     -205      246      738     1178 
    1521     1728     1783     1684     1405      955      363     -278 
    -834    -1243    -1425    -1334    -1039     -652     -297      -74 
     -60     -294     -720    -1290    -1875    -2334    -2669    -2844 
   -2810    -2619    -2299    -1858    -1354     -845     -356      106 
     480      706      739      531      116     -450    -1078    -1578 
   -1833    -1852    -1705    -1512    -1379    -1374    -1520    -1802 
   -2188    -2597    -2960    -3257    -3416    -3377    -3190    -2922 
   -2646    -2435    -2326    -2317    -2388    -2494    -2617    -2678 
   -2621    -2511    -2407    -2331    -2365    -2570    -2902    -3294 
   -3674    -3943    -4059    -4033    -3917    -3800    -3735    -3766 
   -3915    -4094    -4164    -4047    -3788    -3426    -3007    -2654 
   -2415    -2285    -2262    -2282    -2250    -2111    -1863    -1506 
   -1109     -774     -496     -270     -147     -116     -156     -275 
    -459     -683     -963    -1323    -1702    -2074    -2448    -2745 
   -2913    -2967    -2924    -2821    -2681    -2485    -2277    -2095 
   -1984    -2020    -2176    -2354    -2500    -2552    -2461    -2245 
   -1948    -1620    -1347    -1200    -1217    -1381    -1637    -1972 
   -2340    -2667    -2915    -3057    -3067    -2957    -2749    -2485 
   -2222    -1989    -1833    -1760    -1711    -1719    -1823    -1956 
   -2062    -2139    -2154    -2102    -2042    -2016    -2020    -2081 
   -2228    -2408    -2558    -2678    -2766    -2763    -2690    -2624 
   -2544    -2466    -2493    -2636    -2863    -3127    -3335    -3440 
   -3419    -3273    -3048    -2763    -2473    -2215    -1984    -1788 
   -1656    -1624    -1688    -1856    -2120    -2415    -2695    -2914 
   -3014    -3025    -2986    -2934    -2910    -2964    -3075    -3160 
   -3235    -3296    -3244    -3087    -2895    -2663    -2427    -2273 
   -2215    -2258    -2373    -2484    -2605    -2743    -2848    -2944 
   -3029    -3094    -3176    -3280    -3352    -3310    -3133    -2841 
   -2484    -2176    -2001    -1971    -2049    -2158    -2228    -2214 
   -2087    -1911    -1792    -1792    -1910    -2100    -2292    -2423 
   -2466    -2439    -2374    -2281    -2154    -1998    -1829    -1698 
   -1651    -1702    -1841    -2023    -2208    -2319    -2286    -2107 
   -1826    -1509    -1212     -967     -808     -727     -707     -728 
    -773     -874    -1070    -1368    -1733    -2106    -2427    -2608 
   -2565    -2312    -1919    -1468    -1085     -901     -970    -1237 
   -1630    -2053    -2396    -2592    -2624    -2512    -2349    -2211 
   -2124    -2068    -2023    -1952    -1806    -1665    -1614    -1637 
   -1769    -2004    -2226    -2382    -2471    -2502    -2489    -2430 
   -2342    -2262    -2207    -2168    -2135    -2133    -2177    -2228 
   -2226    -2128    -1917    -1676    -1572    -1636    -1837    -2173 
   -2565    -2924    -3165    -3231    -3171    -3026    -2867    -2782 
   -2747    -2776    -2932    -3179    -3476    -3765    -4003    -4223 
   -4417    -4552    -4621    -4557    -4275    -3801    -3218    -2612 
   -2101    -1790    -1725    -1914    -2269    -2632    -2835    -2808 
   -2652    -2527    -2521    -2662    -2895    -3140    -3345    -3466 
