Origin Time       2016/04/16 01:25:00
Lat.              32.753
Long.             130.762
Depth. (km)       12
Mag.              7.3
Station Code      SMN018
Station Lat.      36.1925
Station Long.     133.2331
Station Height(m) 5
Record Time       2016/04/16 01:27:12
Sampling Freq(Hz) 100Hz
Duration Time(s)  91
Dir.              N-S
Scale Factor      7845(gal)/8223790
Max. Acc. (gal)   2.955
Last Correction   2016/04/16 01:27:13
Memo.             
[...]
    3573     3593     3622     3653     3681     3707     3743     3773 
    3788     3802     3820     3827     3827     3835     3835     3820 
    3820     3824     3813     3804     3804     3804     3805     3811 
    3821     3832     3835     3840     3847     3852     3854     3852 
    3852     3847     3832     3820     3808     3792     3780     3775 
    3769     3766     3771     3782     3793     3809     3828     3844 
    3858     3874     3890     3902     3909     3912     3912     3901 
    3892     3889     3878     3863     3858     3858     3850     3846 
    3851     3852     3851     3866     3878     3879     3888     3902 
    3913     3927     3943     3959     3967     3973     3974     3973 
    3971     3965     3950     3935     3921     3901     3882     3870 
    3852     3832     3819     3812     3809     3804     3805     3813 
    3823     3828     3839     3852     3859     3866     3880     3890 
    3889     3889     3888     3878     3873     3866     3842     3817 
    3796     3769     3738     3715     3694     3677     3667     3667 
    3670     3682     3704     3728     3754     3782     3808     3832 
    3856     3874     3885     3893     3897     3898     3899     3902 
    3906     3913     3920     3925     3932     3943     3951     3955 
    3963     3978     3987     3987     3994     4001     3991     3987 
    3989     3977     3964     3962     3956     3950     3950     3960 
    3965     3965     3971     3978     3978     3969     3956     3939 
    3916     3899     3883     3863     3847     3832     3813     3797 
    3780     3757     3732     3708     3686     3666     3649     3630 
    3612     3604     3597     3584     3574     3573     3566     3559 
    3566     3577     3581     3601     3636     3659     3677     3699 
    3709     3709     3709     3705     3689     3670     3653     3636 
    3627     3626     3634     3653     3680     3715     3761     3804 
    3847     3897     3942     3977     4010     4040     4062     4086 
    4116     4143     4172     4205     4236     4270     4306     4334 
    4349     4359     4364     4355     4340     4332     4311     4275 
    4260     4258     4233     4213     4203     4182     4155     4137 
    4116     4082     4048     4014     3981     3948     3920     3904 
    3896     3890     3892     3901     3909     3920     3939     3955 
    3965     3986     4005     4013     4021     4032     4036     4036 
    4035     4031     4025     4017     4003     3989     3975     3960 
    3951     3951     3948     3944     3962     3982     3989     4002 
    4017     4021     4024     4029     4028     4024     4021     4013 
    4005     4001     3996     3989     3987     3989     3989     3987 
    3979     3969     3955     3932     3905     3877     3848     3821 
    3797     3776     3761     3748     3738     3724     3708     3689 
    3669     3645     3623     3603     3570     3542     3539     3534 
    3527     3549     3576     3593     3628     3672     3705     3742 
    3778     3804     3827     3851     3870     3889     3908     3917 
    3920     3920     3906     3880     3855     3827     3794     3765 
    3736     3708     3681     3658     3638     3623     3611     3603 
    3599     3596     3584     3563     3546     3527     3500     3470 
    3434     3393     3372     3361     3336     3314     3308     3303 
    3296     3299     3307     3311     3314     3317     3322     3329 
    3346     3365     3385     3418     3456     3489     3532     3586 
    3639     3697     3761     3820     3873     3921     3960     3990 
    4009     4009     3993     3973     3946     3909     3866     3824 
    3788     3762     3742     3717     3700     3704     3711     3705 
    3708     3717     3712     3705     3704     3699     3693     3685 
    3667     3653     3636     3619     3607     3595     3588     3595 
    3600     3605     3627     3647     3667     3701     3738     3769 
    3801     3838     3877     3913     3944     3982     4023     4055 
    4072     4087     4106     4124     4131     4128     4126     4136 
    4145     4148     4153     4162     4164     4156     4147     4143 
    4135     4113     4091     4074     4055     4033     4020     4010 
    4001     4001     4005     4010     4017     4027     4029     4036 
    4043     4041     4036     4027     4013     3996     3974     3951 
    3937     3921     3898     3879     3873     3869     3861     3848 
    3836     3835     3839     3842     3847     3855     3859     3861 
    3861     3866     3870     3866     3855     3842     3827     3808 
    3784     3761     3740     3724     3709     3701     3699     3697 
    3701     3709     3723     3736     3747     3762     3784     3805 
    3820     3836     3850     3856     3856     3852     3842     3825 
    3805     3786     3770     3759     3757     3757     3759     3773 
    3794     3811     3828     3851     3869     3879     3890     3901 
    3905     3904     3897     3888     3875     3863     3848     3827 
    3808     3790     3770     3757     3748     3738     3740     3750 
    3757     3775     3800     3827     3865     3912     3959     4012 
    4069     4125     4178     4225     4270     4305     4338     4368 
    4392     4418     4434     4446     4455     4453     4446     4433 
    4410     4386     4360     4330     4305     4279     4253     4225 
    4197     4164     4132     4099     4067     4033     4000     3970 
    3944     3921     3902     3889     3875     3867     3869     3870 
    3877     3892     3909     3927     3944     3964     3984     4001 
    4014     4029     4048     4062     4072     4083     4094     4097 
    4095     4090     4074     4055     4036     4010     3979     3951 
    3925     3898     3877     3861     3846     3832     3825     3821 
    3816     3815     3812     3807     3807     3805     3798     3794 
    3798     3801     3804     3811     3816     3823     3831     3836 
    3839     3842     3842     3842     3839     3832     3832     3831 
    3817     3812     3816     3811     3801     3802     3801     3793 
    3788     3786     3778     3763     3754     3744     3734     3726 
    3716     3715     3719     3713     3708     3715     3726     3727 
    3724     3731     3735     3732     3732     3732     3732     3738 
    3744     3753     3767     3784     3800     3821     3846     3865 
    3878     3894     3910     3921     3932     3939     3939     3937 
    3932     3921     3912     3896     3875     3855     3834     3808 
    3775     3751     3730     3704     3689     3681     3670     3665 
    3661     3655     3657     3653     3647     3650     3653     3653 
    3659     3672     3684     3694     3716     3738     3755     3781 
    3808     3825     3842     3855     3861     3859     3848     3834 
    3816     3790     3766     3746     3719     3696     3674     3646 
    3619     3593     3565     3535     3501     3468     3434     3396 
    3361     3335     3310     3284     3271     3260     3256     3256 
    3258     3269     3283     3298     3310     3325     3342     3355 
    3369     3384     3391     3399     3414     3426     3433     3445 
    3457     3465     3480     3491     3499     3510     3515     3515 
    3520     3524     3522     3524     3524     3516     3510     3503 
    3489     3474     3462     3453     3443     3437     3437     3439 
    3445     3454     3459     3462     3466     3466     3465     3457 
    3438     3420     3404     3384     3362     3342     3316     3287 
    3257     3225     3192     3165     3149     3130     3118     3121 
    3129     3137     3156     3180     3206     3234     3267     3302 
    3335     3372     3411     3447     3487     3528     3566     3604 
    3639     3670     3704     3734     3757     3776     3794     3809 
    3824     3842     3855     3867     3888     3915     3942     3971 
    4008     4040     4069     4109     4145     4176     4205     4233 
    4260     4280     4298     4315     4330     4342     4355     4365 
    4371     4372     4372     4369     4364     4359     4353     4345 
    4341     4342     4341     4340     4342     4347     4351     4353 
    4357     4360     4364     4365     4367     4367     4368     4368 
    4368     4372     4375     4378     4382     4383     4376     4371 
    4360     4340     4314     4287     4256     4225     4199     4171 
    4143     4124     4106     4088     4074     4055     4032     4013 
    3989     3963     3943     3919     3897     3885     3871     3856 
    3846     3834     3816     3800     3780     3755     3734     3716 
    3696     3680     3667     3653     3645     3640     3636     3634 
    3636     3639     3642     3650     3661     3672     3684     3699 
    3709     3719     3734     3742     3748     3754     3757     3766 
    3775     3784     3794     3815     3840     3866     3897     3929 
    3960     3991     4020     4043     4064     4085     4098     4106 
    4114     4121     4124     4121     4120     4122     4124     4121 
    4114     4106     4098     4088     4072     4058     4043     4031 
    4028     4029     4033     4051     4071     4087     4109     4139 
    4164     4185     4205     4218     4222     4225     4223     4214 
    4205     4199     4186     4168     4155     4136     4109     4079 
    4048     4017     3990     3955     3923     3899     3877     3852 
    3835     3823     3805     3792     3782     3765     3742     3719 
    3696     3669     3640     3608     3572     3543     3516     3489 
    3470     3450     3431     3416     3399     3376     3353     3327 
    3300     3269     3242     3222     3203     3191     3186     3184 
    3192     3202     3213     3232     3252     3262     3281     3302 
    3315     3330     3345     3354     3368     3387     3403     3419 
    3440     3469     3497     3527     3557     3589     3618     3646 
    3672     3690     3701     3708     3716     3727     3726     3724 
    3734     3738     3738     3747     3757     3762     3766     3775 
    3785     3781     3780     3781     3776     3770     3755     3735 
    3719     3700     3677     3659     3630     3604     3588     3562 
    3535     3518     3497     3476     3454     3443     3430     3410 
    3400     3395     3388     3385     3377     3373     3375     3369 
    3369     3380     3392     3406     3419     3442     3468     3492 
    3516     3539     3566     3591     3603     3622     3640     3640 
    3643     3646     3632     3618     3607     3593     3572     3551 
    3535     3511     3495     3478     3450     3426     3404     3369 
    3338     3314     3281     3244     3206     3175     3136     3090 
    3052     3015     2974     2940     2913     2887     2871     2871 
    2871     2870     2882     2903     2917     2929     2944     2956 
    2963     2972     2983     2992     3003     3017     3036     3057 
    3078     3109     3144     3177     3213     3249     3287     3330 
    3373     3411     3446     3489     3535     3573     3609     3650 
    3692     3740     3794     3851     3913     3981     4052     4131 
    4215     4301     4388     4472     4552     4629     4700     4762 
    4820     4876     4926     4973     5017     5059     5103     5144 
    5181     5212     5240     5266     5292     5314     5337     5364 
    5395     5429     5466     5510     5556     5595     5630     5663 
    5691     5707     5714     5715     5710     5699     5691     5682 
    5670     5656     5643     5628     5609     5582     5549     5518 
    5481     5435     5390     5347     5293     5238     5193     5148 
    5105     5070     5040     5016     4997     4978     4955     4939 
    4920     4892     4865     4837     4799     4762     4730     4695 
    4660     4630     4598     4561     4526     4483     4431     4376 
    4309     4230     4145     4051     3946     3839     3730     3615 
    3507     3403     3298     3202     3117     3036     2963     2896 
    2832     2775     2728     2688     2656     2627     2602     2583 
    2569     2558     2552     2548     2546     2555     2565     2574 
    2586     2601     2620     2636     2654     2668     2683     2700 
    2716     2733     2754     2779     2809     2841     2874     2914 
    2961     3007     3046     3084     3117     3144     3171     3194 
    3219     3246     3273     3304     3345     3392     3440     3495 
    3553     3607     3661     3715     3757     3788     3815     3831 
    3842     3850     3854     3856     3861     3866     3871     3886 
    3908     3931     3964     4008     4055     4109     4172     4241 
    4311     4391     4475     4557     4642     4730     4814     4893 
    4963     5022     5073     5113     5142     5167     5186     5193 
    5200     5204     5198     5188     5167     5135     5093     5038 
    4970     4893     4810     4719     4626     4525     4421     4314 
    4202     4090     3975     3856     3738     3624     3511     3402 
    3295     3194     3095     2997     2901     2811     2728     2646 
    2563     2488     2413     2334     2259     2181     2093     2010 
    1926     1838     1752     1664     1575     1493     1412     1332 
    1266     1204     1143     1093     1051     1009      970      938 
     907      877      855      832      810      789      772      758 
     747      739      737      741      751      767      788      818 
     855      899      954     1021     1098     1183     1274     1370 
    1472     1580     1688     1799     1912     2026     2137     2251 
    2366     2477     2592     2704     2814     2924     3033     3140 
    3241     3341     3437     3526     3618     3712     3798     3882 
    3964     4045     4128     4213     4297     4380     4464     4550 
    4642     4737     4831     4922     5013     5098     5179     5254 
    5317     5370     5416     5448     5470     5490     5503     5513 
    5524     5537     5552     5566     5579     5594     5609     5621 
    5628     5633     5638     5638     5636     5638     5637     5630 
    5629     5632     5636     5641     5651     5664     5678     5692 
    5703     5706     5702     5694     5679     5656     5633     5605 
    5575     5551     5526     5502     5485     5463     5440     5428 
    5416     5404     5398     5389     5377     5371     5366     5347 
    5324     5300     5265     5227     5194     5155     5111     5070 
    5030     4986     4946     4907     4866     4835     4810     4785 
    4766     4748     4729     4712     4693     4672     4650     4629 
    4604     4585     4568     4549     4531     4521     4509     4495 
    4490     4487     4484     4488     4494     4502     4513     4518 
    4514     4507     4495     4476     4448     4414     4378     4337 
    4287     4233     4183     4133     4086     4044     4010     3987 
    3975     3973     3983     4006     4040     4083     4136     4189 
    4241     4289     4329     4360     4390     4409     4425     4445 
    4460     4475     4499     4525     4550     4585     4631     4679 
    4737     4804     4868     4928     4989     5043     5084     5120 
    5143     5150     5147     5135     5115     5093     5065     5027 
    4989     4947     4897     4846     4791     4730     4662     4591 
    4519     4452     4388     4332     4287     4252     4223     4199 
    4176     4152     4126     4099     4068     4027     3982     3929 
    3861     3790     3721     3646     3565     3485     3404     3319 
    3235     3161     3088     3014     2948     2886     2822     2762 
    2697     2627     2556     2488     2416     2346     2277     2205 
    2135     2072     2008     1946     1891     1837     1784     1737 
    1691     1647     1606     1571     1534     1506     1480     1449 
    1422     1402     1379     1355     1336     1317     1302     1289 
    1275     1262     1243     1219     1193     1163     1129     1098 
    1070     1039     1011      989      967      940      918      899 
     884      876      876      884      897      918      940      966 
     994     1021     1053     1086     1117     1155     1200     1247 
    1294     1350     1405     1459     1520     1583     1648     1715 
    1786     1858     1930     2003     2081     2165     2255     2355 
    2461     2574     2700     2828     2953     3079     3196     3308 
    3420     3522     3618     3709     3794     3874     3955     4031 
    4099     4168     4233     4289     4340     4384     4422     4456 
    4488     4519     4548     4577     4610     4648     4685     4726 
    4777     4827     4874     4926     4972     5011     5054     5089 
    5109     5131     5147     5147     5140     5131     5124     5113 
    5107     5100     5090     5085     5078     5067     5059     5054 
    5040     5027     5016     4994     4970     4945     4912     4877 
    4850     4823     4789     4760     4733     4699     4666     4638 
    4604     4571     4538     4504     4473     4444     4415     4387 
    4359     4336     4318     4299     4286     4278     4271     4263 
    4260     4258     4261     4270     4286     4315     4352     4391 
    4434     4476     4521     4564     4595     4611     4618     4614 
    4596     4565     4523     4471     4413     4348     4274     4200 
    4128     4054     3986     3928     3878     3836     3801     3775 
    3761     3755     3759     3771     3792     3819     3855     3899 
    3950     4003     4064     4125     4189     4248     4313     4383 
    4455     4526     4598     4666     4734     4800     4855     4903 
    4945     4981     5013     5042     5067     5096     5123     5147 
    5177     5204     5229     5262     5292     5313     5335     5355 
    5370     5389     5412     5436     5460     5485     5513     5539 
    5563     5584     5609     5636     5656     5682     5715     5745 
    5771     5798     5826     5845     5864     5881     5891     5892 
    5887     5873     5845     5810     5763     5705     5643     5575 
    5505     5431     5356     5286     5217     5151     5090     5035 
    4980     4927     4878     4831     4783     4735     4693     4646 
    4602     4558     4511     4464     4418     4364     4311     4263 
    4212     4167     4126     4090     4064     4040     4020     4006 
    3996     3989     3986     3983     3984     3989     3997     4012 
    4032     4050     4072     4106     4148     4194     4241     4294 
    4348     4401     4453     4502     4544     4580     4608     4631 
    4645     4653     4658     4657     4652     4642     4623     4604 
    4581     4548     4510     4467     4418     4365     4313     4256 
    4205     4153     4101     4050     4002     3958     3917     3878 
    3836     3797     3757     3713     3665     3615     3559     3497 
    3437     3369     3299     3227     3156     3086     3018     2953 
    2895     2844     2803     2764     2732     2706     2682     2660 
    2639     2619     2601     2584     2573     2565     2565     2565 
    2563     2567     2575     2583     2594     2609     2629     2660 
    2698     2733     2779     2833     2887     2945     3005     3055 
