Origin Time       2016/04/16 01:25:00
Lat.              32.753
Long.             130.762
Depth. (km)       12
Mag.              7.3
Station Code      SMN012
Station Lat.      34.3529
Station Long.     131.9352
Station Height(m) 300
Record Time       2016/04/16 01:25:43
Sampling Freq(Hz) 100Hz
Duration Time(s)  108
Dir.              E-W
Scale Factor      7845(gal)/8223790
Max. Acc. (gal)   8.836
Last Correction   2016/04/16 01:25:43
Memo.             
[...]
   -6073    -6091    -6188    -6288    -6323    -6280    -6219    -6227 
   -6355    -6624    -6979    -7356    -7696    -7903    -7901    -7669 
   -7236    -6721    -6307    -6126    -6185    -6377    -6593    -6774 
   -6880    -6907    -6899    -6905    -6943    -6987    -7015    -7059 
   -7167    -7346    -7538    -7677    -7749    -7771    -7763    -7727 
   -7655    -7592    -7533    -7387    -7146    -6895    -6686    -6578 
   -6602    -6706    -6833    -6948    -7017    -7028    -7013    -7044 
   -7172    -7376    -7581    -7728    -7788    -7789    -7797    -7824 
   -7875    -7951    -8005    -8017    -7987    -7892    -7731    -7510 
   -7191    -6744    -6214    -5670    -5201    -4909    -4849    -5011 
   -5367    -5856    -6388    -6940    -7515    -8097    -8688    -9248 
   -9674    -9896    -9871    -9560    -9038    -8437    -7865    -7406 
   -7042    -6716    -6407    -6091    -5753    -5425    -5139    -4950 
   -4923    -5082    -5417    -5910    -6507    -7129    -7684    -8104 
   -8372    -8517    -8612    -8749    -8920    -9038    -9028    -8870 
   -8573    -8174    -7717    -7261    -6831    -6427    -6093    -5894 
   -5806    -5765    -5775    -5869    -6022    -6204    -6424    -6655 
   -6848    -6976    -7005    -6944    -6876    -6872    -6941    -7056 
   -7175    -7250    -7238    -7138    -6995    -6818    -6588    -6339 
   -6133    -6031    -6110    -6384    -6799    -7277    -7699    -7950 
   -8001    -7917    -7816    -7798    -7874    -7963    -7948    -7739 
   -7318    -6772    -6230    -5768    -5445    -5271    -5185    -5131 
   -5096    -5100    -5192    -5416    -5759    -6170    -6589    -6970 
   -7329    -7677    -7978    -8235    -8482    -8710    -8869    -8938 
   -8912    -8762    -8529    -8297    -8087    -7896    -7736    -7570 
   -7339    -7014    -6592    -6169    -5914    -5906    -6097    -6403 
   -6729    -7003    -7173    -7234    -7249    -7311    -7484    -7751 
   -8032    -8243    -8302    -8182    -7933    -7657    -7461    -7416 
   -7510    -7685    -7865    -7978    -8014    -7998    -7915    -7781 
   -7609    -7392    -7160    -6934    -6697    -6413    -6093    -5844 
   -5763    -5867    -6124    -6455    -6772    -7007    -7083    -6998 
   -6837    -6720    -6735    -6903    -7175    -7449    -7612    -7599 
   -7442    -7269    -7190    -7240    -7399    -7599    -7759    -7804 
   -7685    -7433    -7117    -6815    -6643    -6696    -6947    -7275 
   -7550    -7674    -7657    -7588    -7514    -7474    -7569    -7799 
   -8046    -8225    -8299    -8264    -8187    -8120    -8086    -8137 
   -8251    -8314    -8259    -8085    -7805    -7469    -7136    -6853 
   -6678    -6635    -6721    -6895    -7141    -7462    -7811    -8113 
   -8316    -8375    -8324    -8230    -8116    -7983    -7838    -7650 
   -7420    -7213    -7052    -6898    -6744    -6640    -6615    -6709 
   -6949    -7258    -7504    -7608    -7562    -7425    -7304    -7312 
   -7472    -7712    -7955    -8149    -8252    -8274    -8276    -8299 
   -8336    -8343    -8243    -8004    -7643    -7226    -6872    -6651 
   -6558    -6592    -6728    -6880    -6993    -7051    -7051    -7041 
   -7075    -7137    -7192    -7209    -7195    -7221    -7331    -7520 
   -7755    -7985    -8141    -8187    -8136    -8047    -8010    -8085 
   -8245    -8440    -8627    -8791    -8941    -9086    -9242    -9369 
   -9381    -9221    -8896    -8483    -8083    -7756    -7492    -7295 
   -7187    -7160    -7177    -7213    -7219    -7160    -7063    -6998 
   -7015    -7106    -7236    -7391    -7558    -7723    -7881    -8013 
   -8095    -8131    -8144    -8128    -8094    -8071    -8047    -8014 
   -7986    -7915    -7742    -7469    -7173    -6917    -6708    -6552 
   -6481    -6498    -6593    -6718    -6828    -6934    -7051    -7160 
   -7279    -7406    -7506    -7586    -7709    -7885    -8059    -8166 
   -8158    -8035    -7843    -7607    -7360    -7172    -7087    -7102 
   -7206    -7354    -7473    -7535    -7543    -7522    -7538    -7616 
   -7711    -7797    -7882    -7985    -8114    -8259    -8404    -8533 
   -8637    -8708    -8726    -8702    -8641    -8510    -8299    -8047 
   -7797    -7580    -7420    -7295    -7160    -7010    -6867    -6752 
   -6681    -6675    -6743    -6886    -7088    -7280    -7404    -7472 
   -7507    -7547    -7624    -7704    -7749    -7766    -7731    -7619 
   -7499    -7452    -7519    -7697    -7942    -8155    -8239    -8154 
   -7920    -7601    -7296    -7098    -7052    -7153    -7369    -7635 
   -7858    -7969    -7966    -7865    -7726    -7614    -7557    -7524 
   -7473    -7357    -7164    -6933    -6725    -6621    -6681    -6878 
   -7167    -7491    -7788    -8025    -8199    -8321    -8404    -8434 
   -8387    -8268    -8124    -8010    -7942    -7925    -7963    -8002 
   -7971    -7825    -7574    -7276    -6971    -6708    -6569    -6593 
   -6741    -6947    -7121    -7210    -7233    -7213    -7146    -7040 
   -6903    -6785    -6759    -6840    -6984    -7159    -7352    -7574 
   -7823    -8068    -8275    -8364    -8280    -8089    -7890    -7747 
   -7689    -7711    -7786    -7878    -7947    -7958    -7936    -7944 
   -7992    -8017    -7974    -7863    -7727    -7611    -7499    -7369 
   -7230    -7072    -6910    -6809    -6824    -6944    -7126    -7314 
   -7454    -7527    -7534    -7506    -7506    -7576    -7700    -7836 
   -7920    -7908    -7821    -7712    -7611    -7543    -7534    -7581 
   -7676    -7786    -7855    -7846    -7771    -7668    -7585    -7589 
   -7704    -7900    -8090    -8163    -8062    -7831    -7550    -7275 
   -7038    -6859    -6736    -6683    -6725    -6856    -7052    -7285 
   -7510    -7695    -7842    -7959    -8060    -8191    -8376    -8557 
   -8664    -8688    -8637    -8517    -8376    -8247    -8087    -7855 
   -7568    -7285    -7059    -6912    -6848    -6847    -6859    -6853 
   -6812    -6758    -6739    -6751    -6739    -6713    -6671    -6613 
   -6573    -6604    -6747    -7001    -7329    -7688    -8001    -8176 
   -8182    -8024    -7743    -7443    -7233    -7138    -7136    -7172 
   -7198    -7226    -7287    -7383    -7493    -7618    -7777    -7960 
   -8116    -8194    -8197    -8168    -8147    -8132    -8100    -8031 
   -7913    -7740    -7539    -7365    -7203    -7013    -6810    -6612 
   -6443    -6367    -6424    -6624    -6960    -7371    -7761    -8078 
   -8321    -8506    -8645    -8716    -8707    -8645    -8588    -8571 
   -8588    -8604    -8583    -8497    -8329    -8105    -7870    -7628 
   -7373    -7119    -6885    -6675    -6517    -6443    -6443    -6489 
   -6577    -6706    -6859    -7047    -7285    -7537    -7754    -7897 
   -7946    -7920    -7846    -7735    -7614    -7520    -7435    -7290 
   -7051    -6731    -6400    -6129    -5952    -5888    -5926    -6014 
   -6106    -6188    -6272    -6369    -6489    -6650    -6870    -7145 
   -7439    -7713    -7938    -8090    -8160    -8133    -8007    -7824 
   -7649    -7539    -7542    -7647    -7780    -7867    -7860    -7739 
   -7542    -7337    -7169    -7079    -7067    -7080    -7083    -7094 
   -7137    -7194    -7229    -7213    -7123    -6978    -6820    -6687 
   -6621    -6642    -6720    -6829    -6964    -7125    -7294    -7449 
   -7581    -7661    -7655    -7581    -7510    -7535    -7720    -8025 
   -8341    -8549    -8602    -8538    -8433    -8345    -8257    -8124 
   -7943    -7735    -7495    -7244    -7059    -7011    -7102    -7272 
   -7415    -7416    -7252    -7002    -6772    -6643    -6633    -6704 
   -6813    -6940    -7072    -7215    -7342    -7430    -7506    -7580 
   -7645    -7711    -7776    -7850    -7973    -8158    -8368    -8567 
   -8719    -8777    -8679    -8414    -8040    -7641    -7295    -7034 
   -6799    -6551    -6332    -6181    -6084    -6060    -6156    -6377 
   -6702    -7074    -7410    -7677    -7869    -7974    -8001    -8002 
   -8014    -8021    -8016    -8020    -8014    -7966    -7871    -7738 
   -7578    -7430    -7304    -7200    -7160    -7215    -7317    -7360 
   -7269    -7053    -6751    -6411    -6129    -5981    -6004    -6257 
   -6750    -7372    -7997    -8510    -8800    -8816    -8648    -8479 
   -8428    -8497    -8637    -8733    -8655    -8408    -8055    -7604 
   -7115    -6686    -6303    -5949    -5680    -5529    -5499    -5582 
   -5719    -5857    -5962    -6044    -6178    -6419    -6747    -7071 
   -7269    -7334    -7364    -7395    -7429    -7519    -7669    -7820 
   -7928    -7931    -7742    -7400    -7065    -6852    -6785    -6879 
   -7148    -7526    -7888    -8148    -8276    -8284    -8241    -8194 
   -8113    -7997    -7882    -7770    -7628    -7420    -7175    -6990 
   -6851    -6616    -6331    -6178    -6200    -6361    -6666    -6995 
   -7171    -7209    -7219    -7264    -7419    -7717    -8078    -8380 
   -8523    -8490    -8372    -8245    -8182    -8233    -8345    -8461 
   -8546    -8529    -8398    -8210    -8021    -7877    -7749    -7624 
   -7642    -7905    -8343    -8800    -9081    -9053    -8773    -8408 
   -8071    -7823    -7700    -7627    -7530    -7411    -7263    -7127 
   -7047    -6893    -6670    -6539    -6540    -6656    -6847    -6990 
   -7051    -7110    -7177    -7261    -7458    -7815    -8256    -8684 
   -8991    -9051    -8874    -8631    -8407    -8197    -8035    -7908 
   -7759    -7569    -7321    -7029    -6798    -6709    -6694    -6711 
   -6862    -7118    -7310    -7406    -7469    -7491    -7553    -7728 
   -7925    -8105    -8302    -8459    -8553    -8694    -8915    -9154 
   -9367    -9466    -9309    -8934    -8500    -8111    -7869    -7862 
   -8033    -8262    -8520    -8773    -8907    -8907    -8818    -8637 
   -8421    -8284    -8279    -8379    -8526    -8668    -8762    -8791 
   -8787    -8860    -9047    -9202    -9177    -8988    -8680    -8305 
   -8052    -8009    -8032    -8062    -8035    -7808    -7501    -7378 
   -7493    -7785    -8083    -8206    -8185    -8167    -8239    -8408 
   -8625    -8783    -8793    -8726    -8654    -8444    -8002    -7450 
   -6943    -6579    -6482    -6639    -6868    -7107    -7350    -7488 
   -7484    -7375    -7176    -6983    -6899    -6945    -7145    -7501 
   -7902    -8266    -8637    -9019    -9281    -9355    -9255    -8965 
   -8563    -8168    -7794    -7526    -7411    -7272    -7045    -6801 
   -6512    -6262    -6145    -6118    -6243    -6563    -6964    -7311 
   -7481    -7474    -7337    -7079    -6813    -6600    -6388    -6258 
   -6304    -6498    -6725    -6835    -6782    -6687    -6673    -6728 
   -6736    -6678    -6648    -6735    -6943    -7250    -7713    -8324 
   -8919    -9388    -9684    -9757    -9736    -9807    -9906    -9803 
   -9402    -8762    -8044    -7495    -7236    -7155    -7150    -7150 
   -7020    -6801    -6596    -6318    -5984    -5810    -5902    -6204 
   -6606    -7029    -7447    -7836    -8166    -8467    -8758    -8988 
   -9108    -9113    -9004    -8796    -8595    -8453    -8236    -7832 
   -7339    -6899    -6592    -6471    -6511    -6608    -6721    -6856 
   -6964    -6990    -6906    -6797    -6832    -7041    -7342    -7743 
   -8185    -8548    -8877    -9217    -9431    -9452    -9342    -9097 
   -8668    -8070    -7368    -6635    -5975    -5524    -5337    -5386 
   -5597    -5822    -5957    -6037    -6114    -6192    -6288    -6361 
   -6339    -6259    -6176    -6131    -6239    -6519    -6856    -7215 
   -7599    -7943    -8181    -8295    -8317    -8260    -8114    -7909 
   -7690    -7519    -7482    -7553    -7611    -7635    -7654    -7670 
   -7690    -7711    -7749    -7839    -7936    -7960    -7952    -7987 
   -8063    -8148    -8208    -8190    -8090    -7963    -7878    -7838 
   -7816    -7867    -8001    -8095    -8106    -8122    -8210    -8384 
   -8675    -9065    -9509   -10018   -10534   -10894   -11060   -11136 
  -11213   -11344   -11524   -11670   -11713   -11646   -11421   -10994 
  -10458    -9931    -9475    -9136    -8912    -8757    -8669    -8662 
   -8754    -8932    -9103    -9180    -9216    -9363    -9684   -10129 
  -10650   -11214   -11762   -12221   -12552   -12766   -12864   -12818 
  -12680   -12468   -12131   -11731   -11375   -11121   -11017   -10970 
  -10810   -10571   -10329   -10010    -9585    -9117    -8638    -8191 
   -7805    -7465    -7206    -7017    -6828    -6646    -6480    -6311 
   -6129    -5834    -5401    -4981    -4683    -4486    -4325    -4131 
   -3924    -3801    -3774    -3767    -3740    -3689    -3597    -3488 
   -3355    -3159    -2894    -2586    -2266    -2012    -1871    -1790 
   -1736    -1684    -1541    -1259     -877     -406      124      599 
     934     1125     1230     1313     1397     1490     1554     1530 
    1431     1318     1242     1188     1098      978      864      728 
     502      140     -325     -847    -1371    -1840    -2280    -2714 
   -3099    -3454    -3808    -4125    -4401    -4677    -5013    -5468 
   -6049    -6687    -7284    -7722    -7960    -8063    -8117    -8240 
   -8519    -8926    -9424    -9927   -10319   -10613   -10854   -11053 
  -11306   -11651   -12016   -12356   -12661   -12897   -13101   -13336 
  -13521   -13586   -13567   -13485   -13419   -13394   -13327   -13324 
  -13468   -13671   -14010   -14469   -14879   -15272   -15573   -15619 
  -15520   -15363   -15160   -15041   -15049   -15132   -15329   -15611 
  -15881   -16180   -16495   -16699   -16726   -16441   -15747   -14709 
  -13402   -11947   -10407    -8779    -7192    -5721    -4405    -3312 
   -2377    -1572     -918     -387      -58        8     -191     -706 
   -1498    -2370    -3090    -3507    -3539    -3262    -2940    -2809 
   -2974    -3429    -4132    -4989    -5752    -6165    -6193    -5902 
   -5332    -4584    -3839    -3168    -2520    -1922    -1405     -945 
    -560     -220      217      778     1287     1610     1786     1780 
    1509     1031      433     -225     -912    -1606    -2304    -3061 
   -3939    -4930    -5980    -7002    -7924    -8669    -9228    -9655 
   -9989   -10314   -10537   -10461   -10108    -9552    -8837    -8185 
   -7711    -7377    -7314    -7614    -8171    -8915    -9813   -10741 
  -11531   -12079   -12437   -12706   -12985   -13382   -13954   -14678 
  -15417   -15975   -16236   -16163   -15859   -15508   -15268   -15272 
  -15461   -15632   -15616   -15290   -14675   -13851   -12850   -11794 
  -10816    -9936    -9180    -8579    -8033    -7507    -7078    -6642 
   -6218    -6091    -6308    -6802    -7528    -8271    -8920    -9428 
   -9774   -10072   -10295   -10400   -10428   -10322   -10102    -9837 
   -9580    -9460    -9558    -9922   -10582   -11361   -12012   -12360 
  -12214   -11535   -10497    -9352    -8418    -7865    -7568    -7373 
   -7144    -6693    -5976    -5119    -4297    -3658    -3232    -2914 
   -2515    -1918    -1167     -414      137      359      228     -201 
    -804    -1471    -2157    -2851    -3527    -4197    -4931    -5699 
   -6498    -7380    -8206    -8795    -9055    -8883    -8318    -7508 
   -6546    -5544    -4644    -3977    -3605    -3501    -3626    -3955 
   -4453    -5117    -5940    -6848    -7776    -8654    -9406    -9933 
  -10162   -10095    -9748    -9213    -8716    -8370    -8149    -8039 
   -7924    -7661    -7222    -6540    -5644    -4733    -3973    -3447 
   -3103    -2795    -2471    -2192    -2110    -2359    -2944    -3811 
   -4837    -5838    -6716    -7442    -8002    -8440    -8784    -9009 
   -9111    -9061    -8847    -8553    -8220    -7855    -7512    -7132 
   -6642    -6142    -5744    -5502    -5483    -5689    -6048    -6527 
   -7146    -7893    -8700    -9479   -10130   -10543   -10669   -10542 
  -10199    -9702    -9111    -8464    -7877    -7450    -7159    -6934 
   -6741    -6511    -6219    -5987    -5906    -5975    -6234    -6659 
   -7136    -7674    -8380    -9278   -10273   -11211   -11942   -12394 
  -12622   -12733   -12839   -12969   -12968   -12730   -12297   -11673 
  -10872   -10019    -9197    -8383    -7533    -6631    -5671    -4691 
   -3790    -3046    -2466    -2031    -1745    -1641    -1749    -2057 
   -2529    -3123    -3778    -4438    -5043    -5557    -5985    -6367 
   -6768    -7252    -7846    -8500    -9097    -9549    -9847   -10006 
  -10048   -10030    -9977    -9918    -9979   -10223   -10525   -10806 
  -11048   -11203   -11268   -11204   -10951   -10511    -9865    -9012 
   -8033    -7015    -6156    -5687    -5633    -5864    -6210    -6504 
   -6709    -6902    -7196    -7630    -8117    -8557    -8878    -9007 
   -8919    -8608    -8073    -7380    -6646    -5981    -5479    -5128 
   -4884    -4753    -4720    -4716    -4648    -4401    -3935    -3307 
   -2628    -2030    -1622    -1413    -1363    -1453    -1686    -2096 
   -2775    -3757    -4938    -6169    -7330    -8259    -8839    -9108 
   -9147    -9042    -8845    -8477    -7830    -6947    -5940    -4903 
   -3948    -3230    -2824    -2702    -2785    -3005    -3375    -3916 
   -4573    -5270    -5890    -6318    -6562    -6659    -6639    -6655 
   -6815    -7065    -7376    -7746    -8113    -8434    -8698    -8853 
   -8887    -8833    -8708    -8552    -8376    -8156    -7915    -7659 
   -7307    -6840    -6361    -5965    -5670    -5540    -5649    -5890 
   -6131    -6369    -6562    -6704    -6937    -7349    -7871    -8343 
   -8600    -8588    -8361    -8121    -8120    -8433    -9003    -9725 
  -10412   -10787   -10704   -10285    -9676    -8934    -8159    -7368 
   -6438    -5333    -4104    -2824    -1687     -843     -315     -128 
    -255     -615    -1181    -1907    -2729    -3566    -4332    -4988 
   -5503    -5863    -6102    -6216    -6201    -6160    -6185    -6242 
   -6285    -6340    -6316    -6115    -5793    -5385    -4945    -4595 
   -4337    -4167    -4082    -4000    -3916    -3910    -4074    -4479 
   -5100    -5834    -6500    -6963    -7340    -7813    -8380    -8968 
   -9495    -9887   -10185   -10471   -10727   -10891   -10912   -10767 
  -10530   -10208    -9738    -9128    -8380    -7477    -6527    -5641 
   -4857    -4225    -3769    -3423    -3102    -2740    -2373    -2121 
   -2098    -2357    -2876    -3546    -4243    -4918    -5570    -6203 
   -6787    -7260    -7504    -7466    -7291    -7123    -7049    -7141 
   -7350    -7569    -7736    -7792    -7765    -7776    -7917    -8248 
   -8762    -9312    -9694    -9894    -9968    -9926    -9891    -9892 
   -9799    -9553    -9101    -8454    -7746    -7075    -6509    -6008 
   -5486    -4923    -4384    -4023    -3924    -4066    -4401    -4753 
   -5024    -5231    -5328    -5382    -5537    -5790    -6141    -6658 
   -7319    -8063    -8837    -9435    -9664    -9563    -9207    -8669 
   -8098    -7523    -6907    -6303    -5782    -5362    -5086    -5046 
   -5247    -5651    -6191    -6691    -7042    -7258    -7329    -7276 
   -7156    -6999    -6860    -6777    -6756    -6837    -7053    -7381 
   -7776    -8158    -8397    -8367    -8054    -7558    -7026    -6594 
   -6340    -6245    -6251    -6322    -6394    -6420    -6419    -6446 
   -6529    -6663    -6874    -7156    -7443    -7707    -7913    -8028 
   -8063    -8046    -7994    -7916    -7817    -7730    -7676    -7642 
