Origin Time       2016/04/16 01:25:00
Lat.              32.753
Long.             130.762
Depth. (km)       12
Mag.              7.3
Station Code      SMN016
Station Lat.      35.1957
Station Long.     132.8146
Station Height(m) 210
Record Time       2016/04/16 01:26:07
Sampling Freq(Hz) 100Hz
Duration Time(s)  100
Dir.              E-W
Scale Factor      7845(gal)/8223790
Max. Acc. (gal)   2.902
Last Correction   2016/04/16 01:26:07
Memo.             
[...]
   -1441    -1385    -1318    -1254    -1197    -1156    -1146    -1170 
   -1217    -1262    -1282    -1274    -1243    -1190    -1123    -1055 
    -992     -936     -905     -893     -874     -850     -827     -816 
    -831     -874     -942    -1034    -1135    -1229    -1313    -1377 
   -1414    -1416    -1386    -1339    -1294    -1270    -1273    -1304 
   -1356    -1422    -1489    -1540    -1568    -1570    -1551    -1513 
   -1466    -1409    -1341    -1270    -1205    -1147    -1092    -1047 
   -1011     -985     -977     -982     -986     -984     -989    -1007 
   -1034    -1074    -1121    -1150    -1154    -1129    -1073    -1000 
    -939     -893     -873     -888     -927     -989    -1067    -1155 
   -1240    -1312    -1366    -1395    -1394    -1364    -1306    -1220 
   -1121    -1030     -955     -911     -912     -957    -1021    -1089 
   -1139    -1166    -1188    -1220    -1274    -1355    -1459    -1552 
   -1613    -1630    -1601    -1537    -1459    -1370    -1287    -1219 
   -1166    -1138    -1136    -1152    -1169    -1178    -1181    -1188 
   -1196    -1202    -1193    -1159    -1111    -1063    -1032    -1044 
   -1111    -1220    -1356    -1497    -1606    -1661    -1661    -1613 
   -1534    -1457    -1385    -1301    -1206    -1117    -1053    -1021 
   -1023    -1046    -1070    -1086    -1096    -1096    -1094    -1107 
   -1138    -1188    -1255    -1325    -1381    -1417    -1424    -1404 
   -1358    -1302    -1260    -1242    -1246    -1275    -1336    -1431 
   -1560    -1701    -1826    -1918    -1958    -1926    -1815    -1652 
   -1479    -1328    -1219    -1148    -1113    -1101    -1096    -1086 
   -1067    -1043    -1032    -1043    -1073    -1121    -1177    -1242 
   -1318    -1401    -1479    -1534    -1559    -1554    -1528    -1485 
   -1445    -1426    -1436    -1475    -1528    -1578    -1603    -1594 
   -1547    -1470    -1378    -1290    -1227    -1202    -1227    -1305 
   -1437    -1610    -1784    -1923    -1998    -1999    -1944    -1846 
   -1729    -1621    -1539    -1482    -1452    -1455    -1485    -1528 
   -1579    -1632    -1672    -1709    -1748    -1786    -1814    -1817 
   -1768    -1653    -1480    -1273    -1062     -893     -797     -777 
    -818     -896     -993    -1093    -1193    -1285    -1358    -1398 
   -1402    -1363    -1287    -1182    -1065     -961     -886     -859 
    -889     -970    -1089    -1240    -1413    -1583    -1722    -1817 
   -1864    -1867    -1829    -1759    -1675    -1602    -1548    -1512 
   -1491    -1491    -1507    -1545    -1602    -1661    -1702    -1719 
   -1718    -1701    -1660    -1588    -1483    -1354    -1215    -1088 
    -990     -936     -934     -986    -1075    -1183    -1300    -1399 
   -1467    -1499    -1498    -1478    -1453    -1431    -1412    -1413 
   -1441    -1487    -1547    -1601    -1624    -1606    -1554    -1480 
   -1394    -1321    -1285    -1294    -1331    -1368    -1379    -1350 
   -1286    -1204    -1123    -1067    -1055    -1081    -1120    -1162 
   -1208    -1266    -1336    -1409    -1468    -1498    -1486    -1421 
   -1304    -1158    -1017     -916     -872     -877     -926     -997 
   -1084    -1170    -1243    -1294    -1328    -1347    -1359    -1362 
   -1350    -1325    -1306    -1294    -1287    -1285    -1271    -1246 
   -1224    -1215    -1213    -1237    -1296    -1385    -1494    -1588 
   -1641    -1641    -1586    -1498    -1410    -1339    -1287    -1267 
   -1279    -1316    -1359    -1405    -1437    -1444    -1439    -1437 
   -1444    -1467    -1495    -1513    -1505    -1459    -1368    -1230 
   -1058     -877     -715     -595     -530     -537     -612     -745 
    -905    -1067    -1206    -1300    -1334    -1318    -1271    -1202 
   -1121    -1039     -970     -901     -822     -734     -650     -577 
    -529     -519     -545     -611     -722     -873    -1058    -1264 
   -1466    -1624    -1715    -1744    -1709    -1625    -1520    -1424 
   -1344    -1282    -1232    -1185    -1142    -1102    -1074    -1059 
   -1067    -1113    -1201    -1323    -1489    -1692    -1912    -2130 
   -2316    -2439    -2477    -2421    -2278    -2065    -1795    -1486 
   -1159     -850     -591     -410     -338     -386     -526     -722 
    -934    -1131    -1287    -1401    -1475    -1509    -1501    -1456 
   -1386    -1281    -1144    -1004     -882     -805     -789     -838 
    -949    -1107    -1296    -1499    -1688    -1841    -1934    -1958 
   -1930    -1871    -1792    -1709    -1621    -1532    -1447    -1359 
   -1275    -1216    -1194    -1213    -1269    -1341    -1408    -1447 
   -1455    -1439    -1401    -1355    -1314    -1285    -1270    -1254 
   -1228    -1192    -1138    -1065     -990     -919     -872     -864 
    -896     -966    -1059    -1147    -1212    -1248    -1252    -1228 
   -1179    -1116    -1047     -985     -951     -959    -1004    -1071 
   -1139    -1189    -1205    -1173    -1098    -1012     -936     -886 
    -877     -912     -990    -1090    -1181    -1247    -1281    -1275 
   -1244    -1206    -1183    -1188    -1221    -1277    -1355    -1443 
   -1533    -1620    -1694    -1744    -1763    -1742    -1675    -1572 
   -1451    -1331    -1242    -1200    -1201    -1215    -1205    -1158 
   -1070     -951     -827     -722     -642     -594     -577     -579 
    -583     -579     -573     -573     -600     -664     -757     -876 
   -1000    -1104    -1158    -1152    -1093    -1007     -922     -849 
    -788     -741     -710     -702     -715     -750     -807     -889 
    -984    -1070    -1131    -1175    -1216    -1273    -1367    -1489 
   -1614    -1733    -1837    -1914    -1961    -1984    -1980    -1949 
   -1892    -1811    -1710    -1595    -1480    -1374    -1278    -1192 
   -1119    -1069    -1042    -1032    -1032    -1032    -1035    -1047 
   -1065    -1075    -1063    -1012     -907     -745     -553     -360 
    -184      -59        2       -1      -72     -206     -380     -571 
    -761     -940    -1092    -1204    -1277    -1305    -1296    -1262 
   -1210    -1163    -1143    -1167    -1250    -1372    -1499    -1603 
   -1661    -1661    -1613    -1535    -1464    -1418    -1404    -1426 
   -1490    -1579    -1672    -1763    -1846    -1926    -2003    -2073 
   -2133    -2174    -2191    -2178    -2137    -2056    -1934    -1771 
   -1579    -1393    -1251    -1175    -1170    -1220    -1306    -1408 
   -1499    -1567    -1591    -1554    -1464    -1337    -1205    -1100 
   -1035    -1013    -1028    -1059    -1089    -1109    -1117    -1119 
   -1123    -1150    -1204    -1278    -1354    -1418    -1463    -1498 
   -1535    -1579    -1626    -1660    -1668    -1647    -1583    -1482 
   -1352    -1210    -1080     -974     -907     -872     -858     -853 
    -845     -832     -832     -851     -892     -949    -1023    -1098 
   -1152    -1175    -1166    -1127    -1077    -1035    -1008     -994 
    -992     -994    -1005    -1030    -1071    -1135    -1215    -1290 
   -1355    -1405    -1447    -1476    -1497    -1509    -1517    -1524 
   -1537    -1557    -1582    -1611    -1645    -1676    -1703    -1719 
   -1717    -1695    -1656    -1601    -1541    -1487    -1448    -1436 
   -1448    -1466    -1468    -1445    -1393    -1320    -1239    -1155 
   -1071    -1004     -959     -934     -916     -882     -823     -750 
    -679     -642     -664     -746     -886    -1065    -1252    -1428 
   -1566    -1642    -1658    -1626    -1559    -1471    -1379    -1297 
   -1227    -1174    -1142    -1116    -1078    -1026     -967     -920 
    -909     -954    -1055    -1204    -1368    -1509    -1599    -1622 
   -1579    -1482    -1347    -1202    -1077     -990     -963     -992 
   -1055    -1129    -1182    -1189    -1154    -1090    -1017     -969 
    -958     -990    -1059    -1150    -1262    -1387    -1512    -1624 
   -1713    -1768    -1787    -1753    -1661    -1522    -1362    -1209 
   -1097    -1042    -1047    -1107    -1205    -1333    -1478    -1614 
   -1721    -1788    -1810    -1781    -1710    -1590    -1426    -1239 
   -1046     -853     -676     -542     -468     -453     -502     -610 
    -761     -935    -1090    -1194    -1230    -1197    -1098     -950 
    -767     -577     -394     -222      -75       37      101       91 
      16      -97     -217     -322     -391     -405     -361     -282 
    -183      -85       -4       52       90       94       63       11 
     -60     -153     -249     -349     -464     -585     -715     -858 
   -1011    -1155    -1278    -1372    -1431    -1457    -1443    -1398 
   -1343    -1296    -1278    -1306    -1381    -1489    -1609    -1698 
   -1732    -1703    -1606    -1471    -1334    -1220    -1144    -1131 
   -1185    -1297    -1444    -1584    -1680    -1714    -1688    -1622 
   -1534    -1428    -1298    -1146     -978     -808     -638     -473 
    -334     -236     -191     -218     -329     -519     -778    -1089 
   -1418    -1726    -1972    -2124    -2168    -2106    -1945    -1715 
   -1462    -1230    -1055     -962     -961    -1048    -1200    -1372 
   -1528    -1655    -1746    -1818    -1880    -1925    -1956    -1987 
   -2023    -2068    -2119    -2172    -2214    -2235    -2232    -2199 
   -2146    -2095    -2064    -2045    -2031    -2007    -1953    -1865 
   -1755    -1637    -1524    -1436    -1391    -1394    -1444    -1528 
   -1624    -1705    -1749    -1733    -1658    -1526    -1341    -1132 
    -929     -756     -634     -587     -610     -685     -796     -922 
   -1032    -1105    -1124    -1081     -982     -857     -739     -661 
    -626     -630     -669     -727     -787     -838     -882     -926 
    -974    -1043    -1151    -1290    -1448    -1621    -1780    -1898 
   -1961    -1980    -1981    -2000    -2060    -2158    -2288    -2427 
   -2551    -2641    -2688    -2694    -2664    -2602    -2521    -2434 
   -2344    -2253    -2147    -2007    -1826    -1609    -1375    -1144 
    -929     -750     -621     -545     -526     -573     -683     -843 
   -1039    -1251    -1452    -1630    -1776    -1885    -1972    -2043 
   -2096    -2130    -2153    -2150    -2111    -2042    -1961    -1898 
   -1875    -1888    -1921    -1956    -1989    -2012    -2012    -1989 
   -1935    -1841    -1707    -1545    -1372    -1208    -1070     -980 
    -945     -959    -1013    -1090    -1177    -1266    -1362    -1471 
   -1583    -1684    -1759    -1781    -1738    -1624    -1439    -1200 
    -934     -673     -453     -302     -225     -232     -305     -414 
    -526     -621     -672     -676     -666     -684     -757     -885 
   -1046    -1216    -1381    -1520    -1613    -1648    -1630    -1560 
   -1453    -1331    -1201    -1074     -969     -899     -859     -832 
    -797     -745     -681     -616     -562     -531     -529     -540 
    -550     -557     -546     -506     -434     -332     -205      -43 
     152      370      595      795      935      972      892      708 
     450      162     -108     -324     -476     -560     -579     -584 
    -607     -646     -687     -712     -704     -669     -625     -596 
    -600     -641     -714     -811     -934    -1077    -1224    -1360 
   -1474    -1544    -1541    -1444    -1246     -959     -629     -303 
     -32      143      203      152       22     -155     -357     -560 
    -756     -954    -1144    -1305    -1420    -1463    -1422    -1314 
   -1173    -1039     -958     -949    -1003    -1111    -1254    -1404 
   -1537    -1655    -1757    -1841    -1902    -1930    -1938    -1937 
   -1938    -1946    -1956    -1954    -1925    -1867    -1792    -1721 
   -1671    -1642    -1629    -1620    -1595    -1528    -1399    -1209 
    -974     -731     -523     -383     -328     -364     -492     -715 
   -1012    -1336    -1649    -1921    -2118    -2218    -2227    -2157 
   -2011    -1809    -1572    -1324    -1080     -862     -697     -598 
    -579     -646     -776     -934    -1098    -1256    -1404    -1547 
   -1686    -1818    -1925    -1979    -1964    -1873    -1713    -1501 
   -1260    -1026     -831     -691     -598     -544     -521     -525 
    -557     -612     -675     -722     -741     -719     -660     -575 
    -481     -409     -386     -429     -546     -737     -974    -1227 
   -1467    -1675    -1840    -1962    -2058    -2146    -2222    -2277 
   -2300    -2282    -2227    -2163    -2133    -2150    -2231    -2388 
   -2598    -2820    -3009    -3132    -3160    -3086    -2909    -2652 
   -2357    -2053    -1764    -1502    -1275    -1096     -982     -942 
    -951     -990    -1036    -1078    -1115    -1147    -1181    -1202 
   -1185    -1121    -1012     -880     -751     -642     -573     -564 
    -621     -743     -923    -1140    -1378    -1625    -1885    -2162 
   -2448    -2725    -2983    -3215    -3422    -3601    -3726    -3770 
   -3727    -3601    -3407    -3180    -2951    -2732    -2536    -2353 
   -2170    -1984    -1796    -1610    -1424    -1244    -1069     -903 
    -756     -622     -490     -359     -229     -105       14      131 
     233      287      272      180       27     -144     -276     -319 
    -240      -31      279      642      989     1237     1339     1282 
    1107      886      695      584      579      664      803      946 
    1065     1146     1171     1140     1065      959      831      691 
     546      421      352      369      481      672      920     1188 
    1431     1624     1752     1810     1802     1738     1624     1456 
    1232      958      638      298      -22     -274     -403     -378 
    -207       63      379      679      911     1039     1053      945 
     723      422       81     -278     -630     -949    -1212    -1404 
   -1509    -1543    -1517    -1440    -1327    -1200    -1077     -984 
    -946     -978    -1074    -1202    -1312    -1345    -1271    -1089 
    -835     -553     -297     -125      -82     -176     -391     -676 
    -969    -1223    -1414    -1544    -1614    -1614    -1544    -1413 
   -1223     -973     -676     -357      -60      153      248      212 
      47     -224     -568     -969    -1385    -1771    -2087    -2301 
   -2384    -2311    -2079    -1699    -1200     -622      -28      503 
     903     1112     1090      850      445      -58     -579    -1038 
   -1387    -1617    -1736    -1755    -1698    -1580    -1420    -1243 
   -1077     -919     -767     -637     -546     -521     -585     -750 
   -1000    -1296    -1602    -1867    -2041    -2092    -2012    -1842 
   -1648    -1494    -1417    -1424    -1513    -1686    -1930    -2228 
   -2531    -2770    -2866    -2766    -2452    -1949    -1320     -650 
     -17      506      858     1007      967      761      429       13 
    -476    -1019    -1570    -2076    -2489    -2774    -2906    -2878 
   -2705    -2432    -2116    -1814    -1559    -1366    -1250    -1210 
   -1224    -1282    -1387    -1547    -1755    -1981    -2174    -2285 
   -2290    -2195    -2027    -1826    -1663    -1587    -1614    -1721 
   -1875    -2034    -2141    -2174    -2147    -2088    -2030    -2001 
   -1993    -1977    -1923    -1817    -1675    -1534    -1428    -1370 
   -1356    -1372    -1401    -1412    -1379    -1287    -1128     -903 
    -623     -298       37      351      619      816      901      845 
     656      363       21     -297     -537     -668     -681     -607 
    -471     -291     -105       59      201      317      391      418 
     398      329      206       27     -203     -467     -773    -1120 
   -1464    -1755    -1952    -2029    -1982    -1833    -1621    -1404 
   -1243    -1175    -1213    -1324    -1467    -1594    -1664    -1649 
   -1532    -1314    -1032     -747     -503     -321     -214     -171 
    -155     -133     -103      -78      -75     -112     -189     -283 
    -360     -375     -297     -122      124      391      625      773 
     803      715      553      373      221      121       86      108 
     159      206      230      225      198      162      120       72 
      37       27       56      148      292      449      579      649 
     629      522      356      162      -31     -197     -328     -425 
    -511     -611     -735     -886    -1046    -1183    -1286    -1350 
   -1385    -1408    -1440    -1493    -1554    -1615    -1668    -1714 
   -1764    -1826    -1904    -2001    -2115    -2224    -2309    -2334 
   -2281    -2176    -2042    -1892    -1745    -1611    -1493    -1397 
   -1351    -1372    -1453    -1582    -1748    -1930    -2107    -2265 
   -2390    -2473    -2506    -2492    -2428    -2342    -2269    -2228 
   -2224    -2265    -2351    -2471    -2600    -2701    -2752    -2749 
   -2697    -2594    -2444    -2262    -2074    -1894    -1729    -1598 
   -1495    -1435    -1436    -1502    -1618    -1750    -1868    -1944 
   -1960    -1933    -1887    -1833    -1788    -1765    -1764    -1779 
   -1818    -1887    -1984    -2111    -2263    -2417    -2556    -2675 
   -2762    -2801    -2801    -2768    -2721    -2664    -2596    -2524 
   -2481    -2486    -2558    -2702    -2895    -3107    -3308    -3458 
   -3528    -3522    -3457    -3357    -3246    -3133    -2992    -2801 
   -2538    -2189    -1764    -1300     -838     -422     -102       81 
     110       -5     -246     -573     -926    -1236    -1455    -1559 
   -1560    -1478    -1320    -1109     -877     -654     -461     -302 
    -172      -79      -32      -28      -62     -131     -234     -375 
    -560     -788    -1039    -1294    -1518    -1668    -1715    -1660 
   -1524    -1341    -1169    -1058    -1031    -1094    -1227    -1385 
   -1530    -1626    -1641    -1571    -1436    -1274    -1132    -1047 
   -1031    -1070    -1144    -1225    -1285    -1296    -1255    -1196 
   -1161    -1178    -1264    -1408    -1559    -1663    -1677    -1572 
   -1351    -1069     -793     -584     -498     -540     -684     -895 
   -1135    -1350    -1495    -1564    -1557    -1482    -1381    -1304 
   -1266    -1260    -1263    -1260    -1255    -1275    -1339    -1444 
   -1582    -1737    -1894    -2022    -2098    -2111    -2062    -1969 
   -1854    -1729    -1602    -1482    -1377    -1308    -1298    -1345 
   -1470    -1687    -1977    -2305    -2624    -2863    -2976    -2941 
   -2767    -2484    -2133    -1771    -1437    -1165     -959     -819 
    -741     -730     -785     -911    -1088    -1282    -1460    -1584 
   -1632    -1611    -1552    -1491    -1467    -1491    -1549    -1609 
   -1630    -1587    -1474    -1308    -1136    -1000     -945     -990 
   -1147    -1395    -1688    -1988    -2286    -2577    -2844    -3080 
   -3269    -3402    -3462    -3445    -3352    -3191    -2984    -2770 
   -2570    -2396    -2262    -2184    -2161    -2185    -2242    -2330 
   -2442    -2559    -2641    -2650    -2552    -2351    -2096    -1841 
   -1624    -1474    -1399    -1387    -1405    -1424    -1421    -1385 
   -1313    -1223    -1143    -1086    -1055    -1043    -1039    -1035 
   -1026    -1024    -1044    -1115    -1242    -1404    -1580    -1746 
   -1881    -1980    -2047    -2091    -2126    -2180    -2253    -2343 
   -2452    -2567    -2668    -2745    -2801    -2849    -2905    -2986 
   -3109    -3275    -3472    -3673    -3840    -3958    -4021    -4027 
