Origin Time       2016/04/16 01:25:00
Lat.              32.753
Long.             130.762
Depth. (km)       12
Mag.              7.3
Station Code      SMN013
Station Lat.      34.6690
Station Long.     131.8458
Station Height(m) 27
Record Time       2016/04/16 01:25:47
Sampling Freq(Hz) 100Hz
Duration Time(s)  104
Dir.              N-S
Scale Factor      7845(gal)/8223790
Max. Acc. (gal)   6.525
Last Correction   2016/04/16 01:25:48
Memo.             
[...]
    3746     3805     3873     3955     4071     4212     4324     4371 
    4363     4327     4283     4247     4243     4274     4306     4305 
    4238     4109     3964     3858     3802     3782     3757     3696 
    3581     3437     3308     3231     3203     3202     3206     3218 
    3252     3322     3450     3646     3901     4168     4391     4549 
    4646     4714     4791     4855     4841     4720     4514     4279 
    4071     3902     3763     3646     3543     3476     3488     3589 
    3734     3844     3875     3840     3788     3759     3762     3792 
    3846     3896     3886     3798     3662     3532     3464     3478 
    3568     3705     3854     3977     4060     4118     4174     4245 
    4344     4464     4584     4673     4710     4699     4654     4600 
    4554     4506     4433     4315     4156     4012     3942     3939 
    3974     4033     4128     4261     4402     4515     4581     4602 
    4606     4622     4639     4627     4542     4363     4133     3920 
    3755     3646     3612     3658     3753     3846     3898     3888 
    3824     3743     3682     3673     3719     3807     3905     4001 
    4095     4180     4232     4247     4248     4256     4274     4295 
    4276     4180     4032     3878     3747     3653     3595     3568 
    3588     3647     3703     3726     3707     3658     3608     3589 
    3597     3611     3615     3603     3592     3607     3662     3738 
    3790     3801     3800     3817     3842     3828     3744     3600 
    3411     3230     3094     2990     2899     2833     2803     2782 
    2740     2700     2677     2666     2664     2685     2743     2840 
    2956     3079     3204     3322     3434     3532     3609     3667 
    3709     3740     3790     3873     3971     4062     4124     4155 
    4149     4117     4087     4085     4105     4126     4116     4051 
    3920     3753     3623     3589     3649     3761     3873     3955 
    4003     4028     4021     3978     3915     3848     3780     3699 
    3589     3454     3325     3219     3159     3179     3276     3400 
    3489     3520     3515     3519     3558     3623     3674     3680 
    3627     3524     3407     3326     3284     3262     3245     3223 
    3217     3249     3315     3400     3492     3570     3612     3615 
    3592     3578     3613     3693     3769     3801     3776     3704 
    3584     3433     3298     3210     3183     3213     3283     3400 
    3566     3750     3928     4099     4263     4409     4506     4525 
    4464     4348     4212     4091     4025     4023     4047     4052 
    4017     3940     3827     3680     3518     3407     3410     3514 
    3655     3762     3778     3699     3577     3485     3470     3530 
    3634     3742     3823     3856     3854     3861     3913     4016 
    4164     4345     4523     4671     4762     4784     4746     4654 
    4513     4320     4093     3861     3663     3520     3418     3317 
    3221     3160     3148     3202     3317     3440     3519     3553 
    3543     3496     3435     3380     3342     3330     3353     3423 
    3543     3704     3855     3931     3892     3761     3596     3431 
    3279     3152     3045     2953     2910     2948     3057     3204 
    3349     3477     3605     3743     3869     3950     3951     3869 
    3719     3554     3437     3411     3484     3630     3788     3901 
    3955     3963     3935     3883     3820     3763     3727     3699 
    3667     3639     3638     3678     3755     3856     3978     4116 
    4240     4311     4301     4197     4010     3775     3538     3327 
    3175     3109     3127     3200     3289     3360     3399     3416 
    3424     3427     3422     3397     3350     3299     3257     3215 
    3164     3119     3086     3055     3011     2940     2829     2695 
    2571     2484     2435     2411     2416     2475     2610     2799 
    2994     3179     3361     3544     3723     3869     3954     3991 
    4006     4023     4062     4118     4185     4256     4326     4364 
    4345     4270     4164     4050     3939     3823     3686     3535 
    3391     3280     3231     3249     3306     3385     3474     3542 
    3569     3557     3503     3431     3388     3392     3433     3499 
    3578     3659     3736     3820     3908     3983     4041     4091 
    4129     4140     4126     4095     4058     4006     3936     3877 
    3859     3898     4001     4148     4288     4378     4388     4327 
    4209     4043     3842     3620     3380     3156     2986     2879 
    2820     2782     2732     2667     2608     2589     2651     2799 
    2995     3184     3317     3376     3377     3368     3399     3496 
    3636     3785     3923     4054     4182     4293     4371     4411 
    4406     4363     4279     4152     3989     3800     3634     3566 
    3613     3719     3835     3947     4071     4210     4353     4498 
    4641     4745     4762     4681     4519     4313     4114     3978 
    3932     3975     4045     4095     4106     4062     3939     3765 
    3591     3453     3372     3362     3434     3574     3754     3927 
    4060     4145     4171     4137     4054     3935     3809     3703 
    3618     3563     3539     3524     3501     3477     3481     3528 
    3612     3713     3813     3882     3920     3955     4002     4060 
    4129     4189     4209     4164     4062     3944     3848     3771 
    3672     3535     3410     3339     3348     3439     3582     3744 
    3906     4050     4158     4218     4214     4168     4124     4104 
    4106     4109     4083     4024     3956     3892     3851     3861 
    3917     4000     4071     4081     4016     3906     3797     3753 
    3820     3979     4189     4415     4634     4816     4934     4955 
    4861     4650     4375     4102     3871     3690     3546     3429 
    3346     3330     3391     3480     3530     3538     3523     3496 
    3456     3402     3357     3369     3473     3650     3861     4055 
    4202     4293     4334     4342     4321     4280     4230     4159 
    4064     3955     3855     3775     3707     3632     3547     3456 
    3366     3294     3246     3225     3219     3217     3215     3227 
    3269     3358     3511     3717     3951     4178     4340     4380 
    4278     4047     3753     3465     3237     3087     3010     2988 
    3013     3086     3225     3430     3677     3919     4102     4185 
    4167     4098     4033     3991     3971     3969     3974     3963 
    3924     3844     3738     3672     3689     3761     3823     3846 
    3828     3771     3665     3522     3376     3246     3145     3083 
    3053     3068     3144     3277     3456     3670     3904     4131 
    4322     4452     4511     4513     4450     4326     4159     3973 
    3770     3568     3361     3160     3014     2990     3105     3308 
    3526     3703     3807     3828     3786     3715     3646     3613 
    3636     3709     3817     3947     4091     4248     4402     4530 
    4626     4680     4683     4644     4577     4498     4409     4307 
    4197     4095     4028     4023     4098     4238     4375     4436 
    4398     4270     4077     3866     3693     3615     3647     3738 
    3832     3908     3991     4143     4376     4646     4880     5036 
    5112     5109     5053     4993     4963     4932     4870     4791 
    4707     4600     4456     4306     4187     4117     4078     4041 
    4009     3993     3994     4000     3959     3828     3618     3388 
    3225     3173     3230     3350     3483     3593     3684     3796 
    3970     4174     4322     4393     4430     4477     4538     4561 
    4514     4405     4283     4205     4190     4195     4180     4125 
    4051     4017     4051     4110     4139     4121     4099     4129 
    4205     4293     4359     4378     4355     4324     4293     4228 
    4116     3977     3855     3782     3738     3666     3528     3322 
    3111     2986     2961     2988     3038     3087     3115     3130 
    3138     3134     3121     3092     3044     2976     2905     2849 
    2826     2871     3021     3227     3385     3468     3519     3585 
    3682     3815     3982     4168     4330     4415     4390     4238 
    4001     3786     3681     3677     3701     3680     3582     3431 
    3258     3090     2943     2811     2674     2544     2465     2435 
    2397     2304     2161     2033     2001     2111     2328     2563 
    2768     2976     3215     3477     3740     3960     4110     4209 
    4284     4317     4278     4163     3986     3773     3530     3277 
    3056     2910     2853     2870     2925     3001     3105     3258 
    3466     3672     3808     3867     3877     3861     3842     3836 
    3858     3910     3989     4068     4091     4029     3924     3832 
    3781     3757     3731     3715     3754     3855     3965     3986 
    3828     3504     3114     2771     2525     2362     2269     2246 
    2299     2416     2535     2578     2539     2484     2473     2521 
    2610     2744     2929     3127     3281     3377     3468     3618 
    3851     4117     4311     4390     4422     4515     4689     4881 
    5004     5017     4954     4909     4939     4980     4932     4757 
    4491     4209     3969     3792     3688     3653     3662     3707 
    3790     3905     4036     4159     4225     4203     4120     4025 
    3944     3854     3708     3474     3204     3006     2945     3021 
    3191     3383     3516     3580     3609     3624     3624     3634 
    3674     3754     3865     4001     4140     4241     4286     4283 
    4252     4205     4153     4091     4000     3861     3700     3595 
    3615     3726     3838     3932     4014     4054     4045     4072 
    4222     4456     4675     4816     4835     4706     4463     4170 
    3892     3689     3592     3605     3699     3802     3859     3861 
    3842     3834     3825     3796     3723     3599     3454     3339 
    3294     3325     3420     3581     3824     4140     4479     4734 
    4842     4834     4788     4756     4756     4746     4654     4487 
    4348     4320     4379     4409     4309     4068     3740     3400 
    3119     2933     2828     2779     2792     2875     3002     3136 
    3257     3369     3488     3623     3754     3861     3964     4091 
    4232     4357     4455     4514     4537     4545     4567     4598 
    4590     4506     4359     4186     4016     3834     3592     3289 
    2986     2755     2601     2515     2461     2376     2214     1984 
    1733     1512     1352     1308     1421     1664     1981     2359 
    2774     3175     3524     3798     3997     4180     4396     4645 
    4900     5131     5309     5455     5625     5846     6072     6214 
    6218     6079     5849     5585     5325     5065     4781     4477 
    4176     3896     3646     3443     3302     3207     3168     3227 
    3372     3505     3541     3451     3279     3073     2886     2744 
    2629     2506     2371     2249     2158     2118     2144     2243 
    2377     2489     2558     2616     2706     2840     3013     3196 
    3335     3400     3411     3411     3418     3430     3464     3543 
    3681     3883     4140     4429     4712     4942     5071     5103 
    5065     4976     4839     4673     4472     4233     3984     3766 
    3589     3459     3375     3307     3229     3119     3005     2938 
    2951     3036     3161     3283     3385     3491     3624     3780 
    3939     4101     4268     4426     4546     4583     4522     4414 
    4330     4320     4392     4522     4671     4814     4934     4992 
    4939     4765     4499     4203     3940     3744     3618     3553 
    3550     3596     3666     3724     3773     3856     3984     4159 
    4386     4618     4787     4846     4810     4743     4710     4712 
    4735     4766     4788     4799     4818     4861     4935     5026 
    5096     5139     5161     5164     5151     5112     5020     4850 
    4608     4315     3993     3693     3461     3276     3107     2978 
    2917     2921     2978     3071     3188     3307     3416     3535 
    3681     3840     4001     4139     4214     4220     4191     4158 
    4162     4233     4351     4476     4602     4726     4823     4845 
    4746     4510     4170     3789     3453     3223     3099     3034 
    2992     2982     3002     3013     2979     2899     2781     2644 
    2502     2357     2212     2077     1973     1938     2008     2196 
    2497     2889     3299     3634     3867     4048     4241     4484 
    4788     5136     5489     5776     5930     5949     5906     5864 
    5833     5819     5814     5783     5729     5698     5703     5741 
    5806     5869     5902     5896     5850     5768     5661     5547 
    5433     5328     5219     5084     4931     4814     4788     4854 
    4974     5115     5246     5329     5335     5254     5105     4918 
    4722     4530     4348     4172     4020     3932     3925     3964 
    3997     3997     3991     4050     4194     4393     4626     4887 
    5188     5539     5922     6293     6597     6809     6921     6929 
    6824     6575     6168     5625     5013     4402     3851     3388 
    2995     2624     2254     1875     1479     1059      646      287 
       1     -206     -318     -328     -252     -117       62      268 
     448      522      457      266      -28     -396     -778    -1155 
   -1551    -1954    -2316    -2612    -2843    -3006    -3084    -3046 
   -2894    -2655    -2370    -2100    -1899    -1767    -1695    -1679 
   -1676    -1632    -1512    -1310    -1017     -633     -175      333 
     882     1474     2118     2808     3505     4140     4649     5011 
    5224     5297     5267     5155     4973     4752     4531     4356 
    4251     4191     4139     4063     3955     3816     3678     3580 
    3542     3541     3542     3530     3504     3480     3515     3689 
    4035     4525     5084     5605     5976     6142     6095     5864 
    5522     5162     4847     4600     4395     4200     4008     3842 
    3744     3755     3905     4220     4707     5328     6022     6702 
    7287     7731     8019     8158     8171     8100     8023     8029 
    8168     8426     8733     9000     9162     9186     9058     8776 
    8338     7751     7026     6164     5188     4187     3287     2581 
    2123     1917     1907     2020     2169     2278     2338     2382 
    2405     2390     2390     2500     2782     3241     3836     4502 
    5157     5718     6130     6373     6462     6457     6438     6465 
    6562     6678     6748     6743     6646     6444     6166     5860 
    5570     5337     5192     5109     5026     4880     4662     4402 
    4131     3869     3639     3451     3296     3171     3079     3013 
    2984     3021     3145     3368     3696     4122     4631     5184 
    5705     6115     6365     6409     6230     5873     5448     5082 
    4849     4746     4716     4693     4621     4453     4199     3902 
    3623     3439     3430     3622     3975     4405     4837     5235 
    5602     5922     6174     6336     6385     6301     6115     5934 
    5883     6042     6381     6751     6983     6999     6844     6621 
    6363     6016     5556     4977     4279     3477     2605     1711 
     876      190     -229     -279       32      581     1212     1821 
    2377     2901     3402     3861     4282     4707     5201     5769 
    6338     6793     7048     7083     6907     6540     6006     5354 
    4623     3823     2957     2068     1217      453     -193     -712 
   -1081    -1270    -1266    -1101     -810     -411       86      669 
    1300     1895     2371     2701     2899     3046     3260     3604 
    4044     4472     4797     5024     5235     5478     5710     5849 
    5827     5602     5164     4530     3740     2853     1929     1057 
     363      -64     -256     -319     -351     -425     -612     -947 
   -1408    -1926    -2394    -2708    -2822    -2768    -2604    -2351 
   -2039    -1714    -1395    -1039     -599      -54      573     1262 
    1981     2673     3275     3748     4064     4197     4104     3765 
    3256     2701     2160     1644     1178      799      518      313 
     163       83      108      229      418      653      945     1293 
    1652     1977     2307     2721     3267     3916     4618     5316 
    5952     6504     7002     7476     7889     8143     8189     8052 
    7770     7354     6813     6156     5435     4714     4024     3385 
    2828     2373     2050     1910     1980     2254     2686     3183 
    3651     4066     4467     4916     5448     6053     6652     7152 
    7492     7627     7533     7230     6729     6044     5260     4477 
    3754     3094     2489     1958     1533     1246     1113     1105 
    1129     1111     1016      851      699      692      892     1236 
    1628     2001     2331     2610     2849     3082     3316     3492 
    3563     3550     3487     3379     3244     3136     3134     3264 
    3483     3719     3901     3991     4012     3965     3834     3584 
    3200     2740     2305     1949     1701     1591     1658     1933 
    2420     3095     3883     4666     5341     5868     6246     6484 
    6594     6551     6338     6016     5692     5471     5435     5571 
    5780     5971     6099     6137     6057     5857     5545     5152 
    4715     4266     3835     3440     3086     2775     2542     2455 
    2582     2953     3582     4428     5359     6192     6787     7064 
    6997     6598     5925     5098     4274     3591     3180     3113 
    3333     3730     4189     4618     4993     5336     5652     5886 
    5977     5886     5568     5003     4233     3357     2497     1755 
    1162      730      473      369      359      419      553      764 
    1032     1379     1873     2570     3447     4399     5268     5934 
    6330     6454     6421     6393     6460     6608     6731     6711 
    6493     6077     5506     4834     4090     3277     2382     1404 
     394     -537    -1286    -1783    -1992    -1933    -1669    -1252 
    -683       40      874     1740     2546     3235     3785     4230 
    4635     5058     5513     5972     6372     6631     6675     6453 
    5942     5164     4163     3017     1826      683     -352    -1210 
   -1822    -2130    -2120    -1822    -1279     -529      353     1258 
    2097     2868     3623     4395     5184     5956     6640     7173 
    7527     7692     7692     7599     7518     7581     7877     8375 
    8927     9373     9648     9809     9936    10075    10203    10228 
   10044     9603     8935     8110     7241     6427     5699     5035 
    4379     3712     3102     2639     2363     2259     2281     2362 
    2431     2454     2466     2513     2596     2664     2710     2803 
    3029     3431     3973     4545     5036     5381     5559     5580 
    5443     5119     4572     3796     2856     1878      999      328 
     -91     -302     -344     -230        4      289      576      843 
    1105     1381     1647     1850     2001     2178     2455     2841 
    3267     3649     3951     4182     4333     4374     4233     3867 
    3338     2774     2272     1903     1686     1594     1641     1867 
