Origin Time       2016/04/16 01:25:00
Lat.              32.753
Long.             130.762
Depth. (km)       12
Mag.              7.3
Station Code      SMN004
Station Lat.      35.2881
Station Long.     132.9004
Station Height(m) 45
Record Time       2016/04/16 01:26:42
Sampling Freq(Hz) 100Hz
Duration Time(s)  63
Dir.              N-S
Scale Factor      7845(gal)/8223790
Max. Acc. (gal)   2.797
Last Correction   2016/04/16 01:26:42
Memo.             
[...]
   -2567    -2640    -2732    -2844    -2974    -3115    -3257    -3388 
   -3491    -3561    -3603    -3615    -3597    -3554    -3472    -3345 
   -3179    -2983    -2770    -2555    -2358    -2184    -2034    -1923 
   -1846    -1807    -1811    -1854    -1930    -2038    -2165    -2311 
   -2473    -2650    -2837    -3025    -3204    -3369    -3515    -3631 
   -3721    -3792    -3842    -3871    -3874    -3847    -3788    -3696 
   -3574    -3423    -3241    -3034    -2806    -2563    -2324    -2104 
   -1915    -1769    -1672    -1617    -1606    -1638    -1705    -1809 
   -1949    -2116    -2299    -2484    -2666    -2844    -3021    -3190 
   -3338    -3462    -3550    -3595    -3601    -3568    -3491    -3376 
   -3229    -3057    -2863    -2658    -2459    -2280    -2134    -2029 
   -1954    -1885    -1822    -1767    -1718    -1690    -1695    -1738 
   -1826    -1960    -2130    -2326    -2535    -2743    -2934    -3102 
   -3238    -3334    -3388    -3410    -3402    -3372    -3321    -3249 
   -3157    -3040    -2902    -2755    -2606    -2461    -2330    -2205 
   -2081    -1956    -1833    -1719    -1628    -1561    -1528    -1534 
   -1583    -1671    -1809    -1987    -2192    -2415    -2648    -2878 
   -3092    -3281    -3440    -3572    -3673    -3750    -3807    -3836 
   -3831    -3794    -3734    -3649    -3547    -3437    -3312    -3172 
   -3018    -2857    -2697    -2542    -2390    -2247    -2128    -2042 
   -1987    -1968    -1982    -2025    -2087    -2163    -2255    -2350 
   -2446    -2546    -2647    -2745    -2833    -2898    -2934    -2941 
   -2926    -2899    -2866    -2839    -2818    -2791    -2752    -2701 
   -2632    -2544    -2454    -2371    -2300    -2243    -2196    -2158 
   -2138    -2130    -2142    -2184    -2258    -2373    -2528    -2708 
   -2898    -3087    -3254    -3393    -3511    -3603    -3666    -3703 
   -3707    -3667    -3599    -3510    -3397    -3267    -3126    -2978 
   -2818    -2656    -2505    -2363    -2238    -2138    -2072    -2027 
   -2001    -1993    -1998    -2016    -2057    -2121    -2218    -2343 
   -2486    -2636    -2790    -2932    -3045    -3133    -3199    -3250 
   -3294    -3335    -3369    -3388    -3396    -3388    -3360    -3315 
   -3256    -3180    -3094    -3002    -2899    -2791    -2691    -2606 
   -2548    -2519    -2508    -2504    -2498    -2485    -2469    -2461 
   -2455    -2455    -2461    -2461    -2466    -2489    -2531    -2583 
   -2646    -2717    -2789    -2855    -2911    -2953    -2972    -2974 
   -2957    -2926    -2889    -2847    -2799    -2749    -2701    -2660 
   -2624    -2592    -2567    -2550    -2528    -2501    -2463    -2412 
   -2351    -2286    -2215    -2153    -2107    -2083    -2079    -2101 
   -2138    -2189    -2258    -2338    -2428    -2527    -2629    -2735 
   -2847    -2959    -3073    -3188    -3296    -3391    -3466    -3515 
   -3534    -3530    -3504    -3457    -3391    -3316    -3241    -3164 
   -3082    -2992    -2894    -2778    -2655    -2540    -2444    -2374 
   -2334    -2326    -2354    -2417    -2509    -2625    -2754    -2882 
   -3010    -3133    -3245    -3338    -3399    -3426    -3416    -3380 
   -3334    -3298    -3280    -3280    -3291    -3304    -3310    -3296 
   -3250    -3171    -3065    -2945    -2830    -2732    -2650    -2586 
   -2540    -2508    -2489    -2475    -2473    -2479    -2486    -2508 
   -2558    -2632    -2735    -2867    -3009    -3156    -3304    -3437 
   -3537    -3603    -3636    -3632    -3592    -3516    -3404    -3254 
   -3071    -2867    -2648    -2430    -2215    -2004    -1788    -1575 
   -1364    -1163     -986     -841     -726     -645     -606     -621 
    -706     -862    -1088    -1372    -1698    -2052    -2423    -2805 
   -3187    -3551    -3883    -4164    -4390    -4553    -4648    -4673 
   -4627    -4514    -4344    -4120    -3836    -3495    -3109    -2691 
   -2258    -1826    -1405    -1000     -630     -317      -72       98 
     198      234      214      140        5     -186     -425     -704 
   -1023    -1377    -1760    -2162    -2563    -2941    -3287    -3584 
   -3828    -4023    -4170    -4280    -4368    -4434    -4464    -4448 
   -4379    -4261    -4107    -3928    -3738    -3559    -3399    -3258 
   -3141    -3048    -2975    -2915    -2870    -2839    -2824    -2822 
   -2832    -2841    -2855    -2882    -2917    -2957    -3011    -3075 
   -3136    -3188    -3217    -3213    -3184    -3125    -3038    -2934 
   -2817    -2694    -2573    -2450    -2323    -2196    -2074    -1958 
   -1858    -1776    -1711    -1660    -1617    -1582    -1561    -1554 
   -1556    -1564    -1580    -1605    -1644    -1702    -1776    -1867 
   -1975    -2101    -2235    -2381    -2532    -2673    -2794    -2901 
   -2990    -3057    -3100    -3119    -3106    -3059    -2979    -2856 
   -2695    -2497    -2262    -1999    -1715    -1420    -1123     -835 
    -571     -348     -175      -55        8       11      -40     -144 
    -292     -480     -702     -958    -1232    -1514    -1802    -2088 
   -2362    -2612    -2828    -3002    -3132    -3219    -3269    -3287 
   -3275    -3242    -3190    -3121    -3033    -2922    -2791    -2648 
   -2505    -2382    -2299    -2253    -2241    -2257    -2304    -2380 
   -2469    -2565    -2667    -2770    -2882    -2998    -3109    -3221 
   -3323    -3416    -3501    -3578    -3650    -3711    -3753    -3771 
   -3754    -3690    -3584    -3442    -3271    -3079    -2884    -2694 
   -2511    -2346    -2196    -2064    -1956    -1869    -1804    -1769 
   -1764    -1791    -1848    -1925    -2025    -2144    -2281    -2431 
   -2587    -2743    -2890    -3022    -3136    -3235    -3325    -3399 
   -3465    -3526    -3569    -3596    -3605    -3592    -3558    -3507 
   -3433    -3336    -3211    -3061    -2896    -2736    -2598    -2489 
   -2405    -2340    -2296    -2272    -2263    -2276    -2311    -2371 
   -2461    -2578    -2721    -2882    -3046    -3204    -3362    -3524 
   -3676    -3809    -3927    -4021    -4090    -4135    -4143    -4107 
   -4033    -3923    -3780    -3607    -3410    -3199    -2992    -2790 
   -2594    -2413    -2253    -2118    -2016    -1956    -1944    -1989 
   -2101    -2278    -2513    -2801    -3113    -3416    -3694    -3942 
   -4152    -4326    -4461    -4560    -4623    -4649    -4638    -4592 
   -4506    -4382    -4218    -4009    -3757    -3468    -3144    -2794 
   -2436    -2088    -1769    -1493    -1254    -1063     -928     -847 
    -834     -890    -1005    -1163    -1363    -1601    -1872    -2173 
   -2492    -2813    -3133    -3430    -3684    -3892    -4062    -4191 
   -4279    -4330    -4342    -4302    -4199    -4032    -3813    -3558 
   -3273    -2976    -2686    -2412    -2150    -1892    -1642    -1405 
   -1190    -1013     -877     -793     -774     -828     -959    -1167 
   -1435    -1738    -2053    -2357    -2644    -2917    -3177    -3424 
   -3653    -3855    -4023    -4147    -4233    -4276    -4271    -4223 
   -4131    -3981    -3769    -3492    -3153    -2764    -2351    -1939 
   -1556    -1225     -945     -707     -510     -353     -246     -190 
    -176     -205     -275     -379     -522     -723     -980    -1286 
   -1625    -1973    -2308    -2616    -2898    -3144    -3333    -3462 
   -3530    -3538    -3492    -3407    -3288    -3134    -2949    -2737 
   -2505    -2262    -2027    -1807    -1605    -1422    -1262    -1115 
    -986     -889     -831     -819     -864     -980    -1163    -1418 
   -1744    -2120    -2504    -2863    -3180    -3446    -3662    -3834 
   -3973    -4090    -4186    -4263    -4314    -4327    -4306    -4243 
   -4145    -4021    -3874    -3707    -3516    -3310    -3095    -2871 
   -2635    -2398    -2174    -1980    -1833    -1753    -1729    -1757 
   -1831    -1946    -2076    -2215    -2369    -2524    -2691    -2884 
   -3100    -3339    -3599    -3874    -4155    -4418    -4638    -4796 
   -4887    -4926    -4938    -4931    -4916    -4893    -4850    -4774 
   -4666    -4530    -4380    -4220    -4059    -3902    -3742    -3568 
   -3384    -3206    -3049    -2926    -2844    -2806    -2798    -2821 
   -2884    -2978    -3099    -3254    -3427    -3603    -3759    -3875 
   -3946    -3986    -4023    -4067    -4109    -4140    -4155    -4131 
   -4077    -4012    -3936    -3842    -3734    -3611    -3469    -3314 
   -3168    -3053    -2975    -2933    -2917    -2921    -2932    -2938 
   -2948    -2978    -3045    -3156    -3311    -3504    -3716    -3937 
   -4158    -4367    -4552    -4702    -4803    -4857    -4868    -4834 
   -4760    -4653    -4523    -4382    -4240    -4101    -3960    -3805 
   -3623    -3406    -3145    -2860    -2570    -2292    -2057    -1887 
   -1783    -1746    -1772    -1852    -1973    -2126    -2286    -2431 
   -2562    -2679    -2791    -2910    -3030    -3145    -3261    -3379 
   -3484    -3574    -3638    -3669    -3670    -3642    -3586    -3511 
   -3426    -3338    -3246    -3148    -3037    -2918    -2805    -2727 
   -2693    -2693    -2727    -2779    -2821    -2844    -2851    -2844 
   -2843    -2848    -2868    -2901    -2934    -2961    -2976    -2980 
   -2986    -3001    -3033    -3090    -3167    -3267    -3369    -3462 
   -3539    -3589    -3601    -3578    -3526    -3446    -3349    -3248 
   -3145    -3042    -2945    -2844    -2739    -2635    -2540    -2474 
   -2434    -2396    -2358    -2317    -2262    -2191    -2111    -2039 
   -1987    -1977    -2025    -2126    -2278    -2461    -2641    -2798 
   -2928    -3022    -3073    -3084    -3051    -2976    -2875    -2759 
   -2643    -2533    -2423    -2300    -2166    -2019    -1865    -1714 
   -1566    -1418    -1271    -1124     -996     -903     -854     -847 
    -876     -954    -1089    -1263    -1463    -1683    -1907    -2120 
   -2311    -2461    -2551    -2589    -2586    -2556    -2508    -2451 
   -2400    -2366    -2351    -2361    -2386    -2411    -2423    -2424 
   -2424    -2434    -2461    -2511    -2596    -2709    -2829    -2948 
   -3057    -3141    -3194    -3223    -3231    -3222    -3186    -3119 
   -3037    -2945    -2847    -2739    -2608    -2459    -2309    -2178 
   -2077    -2007    -1946    -1885    -1823    -1772    -1750    -1764 
   -1810    -1885    -1979    -2091    -2215    -2336    -2440    -2524 
   -2596    -2666    -2739    -2813    -2889    -2971    -3055    -3138 
   -3215    -3284    -3346    -3393    -3422    -3426    -3403    -3368 
   -3345    -3352    -3395    -3469    -3555    -3638    -3696    -3715 
   -3699    -3651    -3574    -3477    -3375    -3277    -3196    -3126 
   -3063    -3013    -2984    -2970    -2965    -2975    -2994    -3018 
   -3053    -3090    -3118    -3115    -3063    -2965    -2844    -2727 
   -2632    -2552    -2485    -2419    -2350    -2288    -2232    -2160 
   -2066    -1956    -1838    -1734    -1671    -1653    -1680    -1753 
   -1865    -2006    -2169    -2338    -2493    -2627    -2745    -2843 
   -2909    -2937    -2929    -2887    -2822    -2747    -2663    -2558 
   -2419    -2242    -2022    -1767    -1497    -1219     -946     -699 
    -483     -301     -167      -97      -89     -143     -256     -413 
    -594     -789    -1000    -1216    -1426    -1648    -1869    -2084 
   -2293    -2484    -2636    -2754    -2837    -2879    -2874    -2830 
   -2762    -2673    -2570    -2469    -2381    -2312    -2270    -2254 
   -2257    -2267    -2289    -2313    -2332    -2343    -2353    -2365 
   -2389    -2434    -2505    -2601    -2709    -2806    -2870    -2895 
   -2887    -2847    -2787    -2721    -2654    -2610    -2610    -2643 
   -2691    -2754    -2821    -2891    -2964    -3028    -3071    -3099 
   -3127    -3159    -3206    -3296    -3422    -3554    -3697    -3848 
   -3958    -4009    -4014    -3971    -3874    -3731    -3570    -3429 
   -3312    -3225    -3171    -3133    -3094    -3063    -3048    -3040 
   -3052    -3117    -3227    -3339    -3458    -3609    -3775    -3923 
   -4062    -4191    -4294    -4368    -4418    -4437    -4429    -4396 
   -4326    -4213    -4063    -3877    -3650    -3399    -3153    -2934 
   -2752    -2617    -2538    -2519    -2548    -2597    -2636    -2660 
   -2691    -2725    -2744    -2758    -2786    -2847    -2941    -3046 
   -3156    -3299    -3453    -3568    -3649    -3730    -3808    -3861 
   -3885    -3882    -3850    -3785    -3685    -3551    -3391    -3204 
   -3003    -2786    -2516    -2203    -1906    -1647    -1418    -1223 
   -1067     -976     -949     -950     -961     -994    -1048    -1102 
   -1154    -1201    -1250    -1321    -1422    -1543    -1665    -1783 
   -1910    -2042    -2151    -2255    -2371    -2479    -2552    -2586 
   -2579    -2524    -2435    -2331    -2228    -2163    -2133    -2120 
   -2121    -2107    -2087    -2087    -2096    -2101    -2093    -2085 
   -2102    -2130    -2138    -2134    -2151    -2178    -2177    -2176 
   -2215    -2257    -2286    -2319    -2354    -2378    -2377    -2346 
   -2297    -2236    -2158    -2100    -2089    -2079    -2038    -1995 
   -1961    -1904    -1818    -1718    -1614    -1512    -1440    -1429 
   -1490    -1606    -1765    -1956    -2166    -2357    -2519    -2671 
   -2809    -2941    -3099    -3271    -3433    -3569    -3678    -3788 
   -3896    -3971    -3998    -3963    -3854    -3670    -3424    -3137 
   -2820    -2477    -2111    -1749    -1421    -1116     -810     -517 
    -252      -31      133      241      288      270      187       49 
    -137     -373     -630     -864    -1081    -1316    -1572    -1811 
   -2010    -2195    -2374    -2516    -2610    -2667    -2697    -2682 
   -2605    -2496    -2385    -2273    -2150    -1992    -1830    -1696 
   -1552    -1367    -1174    -1023     -916     -816     -749     -739 
    -769     -822     -881     -959    -1067    -1200    -1360    -1528 
   -1698    -1883    -2058    -2200    -2301    -2366    -2401    -2417 
   -2409    -2385    -2384    -2389    -2380    -2365    -2365    -2371 
   -2347    -2307    -2281    -2272    -2289    -2319    -2346    -2355 
   -2344    -2335    -2330    -2334    -2365    -2416    -2478    -2538 
   -2597    -2678    -2776    -2889    -3001    -3109    -3248    -3395 
   -3501    -3581    -3663    -3736    -3774    -3785    -3788    -3770 
   -3716    -3618    -3491    -3345    -3164    -2976    -2798    -2589 
   -2362    -2158    -1949    -1755    -1584    -1408    -1287    -1240 
   -1221    -1259    -1354    -1464    -1593    -1738    -1887    -2029 
   -2178    -2336    -2465    -2574    -2687    -2768    -2832    -2872 
   -2848    -2808    -2768    -2687    -2608    -2535    -2408    -2262 
   -2153    -2077    -2030    -1988    -1939    -1918    -1930    -1944 
   -1954    -1989    -2073    -2176    -2246    -2303    -2361    -2393 
   -2434    -2515    -2600    -2658    -2675    -2629    -2565    -2521 
   -2470    -2428    -2371    -2266    -2177    -2096    -1988    -1895 
   -1800    -1714    -1672    -1626    -1586    -1605    -1630    -1609 
   -1575    -1553    -1528    -1494    -1472    -1493    -1528    -1560 
   -1621    -1711    -1806    -1906    -2014    -2114    -2214    -2322 
   -2421    -2505    -2587    -2679    -2778    -2887    -3007    -3137 
   -3264    -3365    -3427    -3459    -3470    -3465    -3445    -3400 
   -3323    -3232    -3134    -3006    -2882    -2768    -2602    -2384 
   -2182    -2004    -1822    -1648    -1503    -1381    -1270    -1197 
   -1174    -1170    -1183    -1228    -1300    -1414    -1566    -1721 
   -1885    -2060    -2200    -2309    -2432    -2573    -2687    -2763 
   -2844    -2910    -2879    -2782    -2681    -2548    -2400    -2289 
   -2173    -2045    -1992    -1960    -1895    -1898    -1929    -1883 
   -1850    -1861    -1842    -1849    -1903    -1948    -1962    -1989 
   -2076    -2151    -2147    -2146    -2201    -2249    -2189    -2030 
   -1880    -1721    -1507    -1334    -1196    -1026     -890     -818 
    -756     -689     -635     -607     -596     -577     -568     -604 
    -687     -826    -1042    -1348    -1690    -2000    -2262    -2448 
   -2609    -2863    -3208    -3526    -3724    -3850    -3958    -4013 
   -3993    -3906    -3801    -3672    -3445    -3172    -2915    -2664 
   -2434    -2208    -1956    -1632    -1255     -957     -764     -611 
    -475     -341     -238     -220     -310     -514     -770    -1016 
   -1242    -1462    -1684    -1864    -2025    -2295    -2594    -2770 
   -2895    -3045    -3157    -3194    -3198    -3177    -3078    -2952 
   -2859    -2691    -2482    -2312    -2046    -1705    -1487    -1358 
   -1171    -1004     -897     -708     -492     -444     -519     -596 
    -702     -890    -1104    -1314    -1629    -1992    -2282    -2582 
   -2889    -3106    -3269    -3400    -3500    -3558    -3505    -3355 
   -3213    -3154    -2992    -2613    -2312    -2126    -1856    -1594 
   -1381    -1094     -788     -595     -477     -382     -430     -596 
    -692     -818    -1074    -1352    -1667    -2074    -2458    -2729 
   -2967    -3169    -3275    -3402    -3615    -3784    -3873    -3905 
   -3850    -3802    -3767    -3674    -3555    -3343    -3029    -2714 
   -2405    -2172    -2039    -1885    -1728    -1636    -1610    -1688 
   -1865    -2072    -2277    -2479    -2678    -2902    -3132    -3317 
   -3483    -3622    -3735    -3873    -4013    -4135    -4243    -4317 
   -4356    -4388    -4345    -4203    -4077    -3946    -3743    -3549 
   -3391    -3210    -3014    -2833    -2673    -2525    -2392    -2285 
   -2214    -2169    -2180    -2265    -2358    -2420    -2524    -2688 
   -2863    -2998    -3069    -3113    -3145    -3187    -3254    -3333 
   -3434    -3561    -3697    -3848    -3974    -4074    -4191    -4253 
   -4248    -4238    -4178    -4086    -3982    -3842    -3730    -3647 
   -3555    -3451    -3350    -3307    -3253    -3198    -3194    -3159 
   -3141    -3142    -3103    -3102    -3086    -3056    -3095    -3164 
   -3271    -3397    -3530    -3689    -3811    -3877    -3937    -3996 
   -4039    -4072    -4087    -4071    -4028    -3946    -3821    -3672 
   -3523    -3383    -3249    -3129    -2999    -2872    -2801    -2751 
   -2686    -2636    -2624    -2641    -2656    -2682    -2745    -2818 
   -2914    -3061    -3206    -3353    -3544    -3736    -3902    -4055 
   -4192    -4321    -4430    -4492    -4544    -4630    -4707    -4734 
   -4723    -4695    -4652    -4579    -4469    -4309    -4118    -3946 
   -3767    -3586    -3429    -3284    -3148    -2995    -2828    -2694 
   -2592    -2498    -2427    -2394    -2403    -2435    -2494    -2593 
   -2712    -2837    -2986    -3152    -3333    -3541    -3732    -3894 
   -4050    -4168    -4252    -4322    -4360    -4353    -4303    -4228 
   -4155    -4081    -3979    -3852    -3715    -3581    -3435    -3260 
   -3068    -2899    -2790    -2724    -2656    -2636    -2679    -2718 
   -2772    -2882    -2997    -3109    -3250    -3385    -3496    -3619 
   -3738    -3835    -3915    -3974    -4002    -3978    -3894    -3802 
   -3730    -3649    -3580    -3526    -3438    -3326    -3213    -3065 
   -2880    -2695    -2515    -2354    -2196    -2025    -1941    -1941 
   -1840    -1746    -1927    -2153    -2208    -2359    -2602    -2751 
