Origin Time       2016/04/16 01:25:00
Lat.              32.753
Long.             130.762
Depth. (km)       12
Mag.              7.3
Station Code      SMN007
Station Lat.      35.0807
Station Long.     132.5914
Station Height(m) 67
Record Time       2016/04/16 01:26:32
Sampling Freq(Hz) 100Hz
Duration Time(s)  65
Dir.              N-S
Scale Factor      7845(gal)/8223790
Max. Acc. (gal)   4.144
Last Correction   2016/04/16 01:26:34
Memo.             
[...]
    3271     3132     2997     2909     2907     2986     3099     3213 
    3292     3300     3250     3200     3164     3144     3157     3204 
    3267     3336     3377     3352     3261     3125     2980     2859 
    2762     2704     2678     2668     2720     2859     3053     3319 
    3634     3901     4083     4159     4095     3925     3697     3440 
    3235     3109     3044     3059     3118     3164     3207     3249 
    3269     3268     3222     3163     3163     3230     3366     3576 
    3771     3880     3865     3665     3314     2913     2525     2224 
    2069     2052     2168     2415     2759     3180     3631     4048 
    4375     4553     4572     4450     4225     3950     3619     3244 
    2914     2643     2436     2362     2412     2525     2677     2841 
    2982     3067     3117     3154     3129     3056     3028     3034 
    3052     3117     3219     3325     3407     3433     3410     3383 
    3358     3383     3497     3701     3951     4186     4372     4495 
    4482     4282     3935     3497     3045     2667     2389     2209 
    2161     2242     2408     2635     2913     3200     3469     3699 
    3836     3863     3793     3634     3433     3241     3067     2964 
    2971     3034     3122     3244     3368     3447     3464     3411 
    3276     3075     2872     2717     2614     2577     2593     2613 
    2654     2749     2889     3056     3215     3333     3419     3500 
    3615     3800     4039     4283     4488     4595     4561     4386 
    4063     3630     3159     2721     2397     2218     2166     2230 
    2378     2551     2713     2848     2951     3017     3051     3056 
    3040     3017     3003     3029     3103     3192     3295     3384 
    3383     3304     3202     3071     2961     2929     2957     3052 
    3186     3284     3329     3326     3284     3229     3184     3146 
    3100     3051     2959     2817     2727     2747     2840     3033 
    3362     3747     4088     4334     4417     4294     4003     3605 
    3191     2860     2639     2546     2590     2681     2759     2841 
    2905     2941     3001     3095     3194     3317     3442     3505 
    3500     3420     3281     3142     3029     2980     3032     3144 
    3267     3376     3435     3423     3362     3279     3177     3086 
    3049     3076     3161     3295     3435     3541     3592     3585 
    3530     3433     3310     3184     3049     2889     2735     2612 
    2528     2519     2596     2747     2949     3137     3279     3384 
    3457     3526     3577     3568     3491     3346     3132     2901 
    2701     2531     2413     2353     2319     2330     2386     2455 
    2546     2708     2930     3160     3384     3595     3728     3757 
    3719     3638     3580     3600     3672     3774     3879     3904 
    3802     3609     3354     3083     2862     2705     2601     2551 
    2583     2694     2833     2982     3123     3244     3393     3604 
    3846     4093     4297     4409     4418     4291     4051     3785 
    3484     3122     2785     2511     2274     2137     2126     2196 
    2362     2624     2937     3295     3658     3940     4116     4194 
    4145     4009     3844     3622     3346     3075     2833     2646 
    2529     2457     2431     2474     2598     2801     3080     3426 
    3808     4189     4522     4772     4914     4916     4769     4517 
    4195     3832     3477     3165     2878     2616     2380     2184 
    2068     2073     2232     2539     2943     3403     3863     4256 
    4541     4668     4633     4472     4205     3870     3530     3225 
    2992     2863     2836     2913     3065     3250     3422     3501 
    3461     3339     3176     3018     2915     2876     2875     2878 
    2875     2879     2932     3051     3222     3434     3646     3825 
    3963     4050     4102     4135     4131     4112     4095     4074 
    4068     4052     3962     3790     3557     3277     2999     2766 
    2584     2482     2489     2590     2762     2986     3218     3431 
    3596     3686     3716     3704     3655     3586     3508     3424 
    3335     3218     3090     3021     3011     3034     3121     3250 
    3349     3429     3504     3530     3505     3466     3403     3298 
    3184     3094     3015     2943     2913     2936     2970     3029 
    3141     3265     3364     3431     3466     3466     3423     3342 
    3262     3188     3119     3109     3172     3250     3329     3400 
    3438     3459     3488     3518     3527     3515     3469     3368 
    3249     3165     3109     3082     3095     3133     3183     3234 
    3288     3388     3562     3788     4051     4310     4491     4567 
    4535     4376     4118     3827     3515     3184     2902     2687 
    2515     2436     2469     2559     2727     2976     3256     3542 
    3786     3946     4068     4171     4213     4202     4147     4051 
    3931     3786     3612     3407     3187     2986     2841     2790 
    2863     3026     3213     3404     3589     3712     3721     3659 
    3559     3400     3232     3103     2982     2878     2806     2768 
    2802     2921     3141     3456     3781     4058     4278     4401 
    4393     4266     4045     3770     3474     3204     3003     2878 
    2836     2891     3021     3180     3362     3569     3769     3951 
    4137     4333     4499     4577     4533     4364     4074     3713 
    3369     3096     2910     2837     2824     2825     2878     2978 
    3100     3261     3435     3603     3789     3962     4068     4074 
    3942     3697     3422     3167     2963     2832     2770     2766 
    2795     2871     3013     3180     3354     3515     3612     3642 
    3613     3508     3358     3196     3029     2915     2907     2995 
    3137     3319     3504     3605     3591     3477     3268     3013 
    2809     2663     2565     2546     2587     2646     2716     2782 
    2848     2945     3048     3146     3242     3283     3223     3069 
    2851     2608     2409     2308     2308     2412     2587     2771 
    2934     3049     3090     3083     3055     3036     3034     3019 
    2999     3007     3030     3064     3100     3099     3042     2957 
    2852     2727     2621     2558     2524     2500     2486     2496 
    2539     2624     2774     2992     3241     3504     3776     4023 
    4190     4268     4270     4170     3963     3701     3415     3103 
    2799     2538     2338     2227     2228     2388     2714     3138 
    3623     4112     4482     4692     4743     4584     4220     3731 
    3163     2582     2073     1675     1431     1379     1480     1726 
    2093     2504     2941     3392     3778     4078     4274     4307 
    4155     3828     3362     2820     2289     1858     1587     1494 
    1551     1706     1944     2211     2454     2709     2991     3252 
    3500     3734     3875     3888     3781     3557     3241     2901 
    2598     2362     2226     2239     2386     2629     2953     3319 
    3670     3964     4189     4372     4541     4676     4760     4784 
    4725     4580     4386     4159     3910     3684     3510     3362 
    3217     3095     2983     2856     2743     2651     2574     2565 
    2664     2848     3096     3334     3492     3588     3605     3522 
    3393     3268     3153     3064     3025     3036     3087     3167 
    3223     3208     3123     2991     2847     2731     2690     2739 
    2853     3025     3204     3330     3424     3505     3568     3647 
    3748     3801     3794     3743     3615     3420     3184     2906 
    2656     2512     2458     2540     2770     3040     3316     3615 
    3880     4091     4248     4303     4195     3951     3615     3219 
    2830     2497     2249     2097     2047     2143     2381     2677 
    3009     3369     3674     3880     4017     4062     4001     3871 
    3693     3481     3232     2976     2752     2558     2401     2296 
    2203     2126     2102     2107     2126     2165     2219     2295 
    2393     2489     2577     2682     2785     2837     2879     2957 
    3034     3122     3265     3400     3492     3601     3709     3784 
    3861     3929     3935     3875     3750     3578     3431     3345 
    3310     3317     3317     3273     3206     3126     3017     2915 
    2849     2794     2758     2790     2874     2980     3107     3210 
    3254     3265     3284     3330     3350     3311     3218     3032 
    2744     2457     2236     2095     2072     2199     2432     2729 
    3080     3453     3809     4109     4297     4376     4360     4214 
    3965     3638     3229     2814     2447     2128     1919     1872 
    1965     2170     2442     2729     3018     3319     3623     3908 
    4144     4275     4270     4164     3991     3762     3518     3284 
    3061     2880     2767     2708     2716     2798     2941     3107 
    3237     3322     3385     3384     3308     3213     3121     3026 
    2953     2910     2905     2974     3106     3223     3288     3296 
    3215     3078     2913     2721     2574     2516     2536     2633 
    2778     2914     3037     3176     3329     3487     3672     3854 
    3996     4114     4207     4243     4209     4094     3904     3700 
    3526     3429     3445     3528     3643     3788     3915     4002 
    4087     4180     4248     4286     4315     4322     4287     4225 
    4136     3986     3770     3474     3107     2721     2366     2070 
    1872     1771     1777     1890     2058     2285     2563     2817 
    3041     3267     3464     3651     3831     3942     3965     3899 
    3734     3539     3355     3211     3171     3222     3346     3562 
    3842     4163     4511     4834     5080     5190     5101     4823 
    4401     3869     3319     2825     2376     2003     1768     1675 
    1753     2023     2419     2880     3366     3831     4251     4606 
    4847     4947     4916     4768     4500     4162     3817     3456 
    3071     2729     2455     2273     2242     2373     2663     3119 
    3685     4301     4899     5377     5705     5848     5767     5528 
    5186     4758     4307     3904     3596     3395     3271     3191 
    3140     3107     3060     2960     2839     2747     2671     2640 
    2720     2884     3095     3354     3640     3905     4124     4279 
    4348     4298     4140     3892     3577     3246     2932     2633 
    2376     2178     2034     1933     1883     1875     1881     1891 
    1899     1875     1809     1742     1721     1742     1781     1822 
    1840     1802     1705     1570     1363     1089      843      612 
     349      133       22       16      155      463      892     1371 
    1863     2328     2727     3044     3267     3400     3487     3520 
    3495     3443     3343     3183     3015     2862     2752     2779 
    2959     3245     3630     4064     4486     4870     5159     5300 
    5297     5167     4930     4615     4248     3851     3429     2980 
    2527     2095     1732     1489     1377     1386     1505     1682 
    1852     1995     2138     2282     2448     2681     2940     3179 
    3402     3580     3686     3747     3800     3861     3931     4013 
    4116     4218     4299     4374     4449     4540     4664     4801 
    4946     5116     5281     5414     5532     5580     5503     5323 
    5054     4706     4306     3877     3446     3041     2688     2425 
    2241     2096     1993     1930     1872     1803     1764     1769 
    1821     1949     2139     2335     2515     2686     2848     3006 
    3179     3412     3707     4000     4266     4511     4693     4791 
    4827     4824     4801     4792     4801     4824     4846     4851 
    4811     4671     4418     4099     3735     3335     2964     2658 
    2421     2304     2347     2521     2792     3123     3431     3659 
    3807     3873     3878     3823     3712     3589     3440     3241 
    3030     2814     2582     2390     2255     2160     2138     2178 
    2250     2380     2558     2756     3032     3388     3746     4088 
    4419     4687     4873     5000     5047     4988     4837     4633 
    4390     4153     4045     4105     4315     4720     5256     5784 
    6230     6527     6609     6475     6143     5684     5219     4830 
    4573     4495     4515     4531     4506     4429     4297     4107 
    3906     3724     3537     3373     3281     3225     3187     3173 
    3164     3168     3217     3299     3397     3515     3601     3605 
    3570     3500     3377     3260     3165     3079     3011     2910 
    2774     2655     2540     2447     2431     2457     2508     2636 
    2844     3099     3412     3751     4066     4342     4580     4754 
    4838     4824     4696     4464     4205     3983     3842     3816 
    3892     3993     4069     4114     4082     3932     3709     3480 
    3279     3125     3040     3003     2956     2857     2705     2500 
    2242     1972     1769     1649     1570     1543     1576     1632 
    1706     1823     1944     2016     2042     2020     1968     1922 
    1908     1938     2014     2123     2270     2436     2571     2690 
    2798     2857     2889     2891     2818     2709     2597     2467 
    2377     2363     2401     2471     2556     2627     2675     2678 
    2616     2517     2398     2274     2161     2074     2057     2126 
    2223     2299     2312     2247     2119     1919     1651     1352 
    1038      679      303      -71     -464     -828    -1065    -1113 
    -915     -441      244     1017     1746     2324     2705     2855 
    2789     2601     2362     2119     1971     1975     2100     2301 
    2539     2739     2848     2909     2979     3061     3118     3127 
    3060     2872     2571     2205     1863     1649     1598     1710 
    2014     2428     2828     3172     3411     3469     3362     3160 
    2863     2492     2128     1802     1534     1374     1321     1382 
    1551     1818     2189     2624     3065     3495     3877     4121 
    4215     4209     4055     3744     3376     2979     2592     2336 
    2215     2163     2181     2185     2101     1988     1854     1702 
    1610     1629     1777     2070     2447     2839     3231     3574 
    3847     4093     4294     4449     4604     4706     4684     4598 
    4495     4393     4376     4460     4568     4653     4673     4612 
    4479     4314     4167     4014     3796     3530     3260     2986 
    2720     2479     2266     2077     1921     1844     1872     1996 
    2212     2484     2732     2911     2988     2956     2860     2764 
    2732     2775     2875     3014     3165     3288     3355     3391 
    3439     3504     3620     3828     4081     4310     4468     4513 
    4440     4306     4187     4144     4207     4357     4546     4731 
    4834     4812     4727     4615     4490     4395     4345     4306 
    4251     4183     4101     3959     3723     3426     3138     2917 
    2822     2902     3149     3523     3942     4313     4602     4791 
    4887     4927     4938     4953     5020     5163     5385     5637 
    5848     5950     5902     5726     5490     5271     5155     5185 
    5325     5508     5602     5476     5109     4545     3848     3132 
    2498     2045     1826     1818     1956     2137     2249     2288 
    2282     2235     2204     2273     2484     2835     3306     3811 
    4195     4338     4205     3805     3213     2543     1888     1364 
    1098     1100     1318     1744     2301     2857     3338     3717 
    3993     4203     4342     4330     4106     3667     3009     2234 
    1509      920      544      454      615      993     1545     2130 
    2594     2839     2824     2555     2107     1615     1233     1069 
    1133     1398     1786     2200     2587     2884     3049     3106 
    3082     3024     2990     3003     3059     3109     3056     2828 
    2419     1865     1285      796      437      257      305      495 
     754     1117     1547     1962     2396     2853     3288     3696 
    4041     4279     4413     4413     4284     4079     3775     3368 
    2928     2504     2130     1907     1883     2027     2324     2720 
    3096     3385     3554     3574     3414     3059     2577     2046 
    1530     1144      955      931     1050     1316     1702     2187 
    2744     3325     3896     4433     4862     5071     5001     4638 
    4001     3202     2371     1617     1070      799      773      958 
    1263     1559     1825     2052     2174     2232     2276     2308 
    2371     2498     2675     2920     3222     3510     3690     3677 
    3439     3019     2478     1937     1530     1294     1202     1250 
    1395     1576     1788     2025     2234     2335     2266     2041 
    1692     1243      769      360       45     -129     -101      149 
     599     1193     1830     2405     2894     3289     3539     3607 
    3522     3343     3142     3017     3056     3249     3549     3916 
    4276     4606     4904     5098     5163     5136     4996     4748 
    4430     4044     3593     3107     2610     2118     1687     1382 
    1240     1281     1487     1833     2278     2772     3306     3879 
    4426     4891     5300     5610     5727     5647     5382     4935 
    4363     3769     3261     2922     2802     2902     3167     3500 
    3802     4010     4122     4145     4088     3973     3782     3507 
    3200     2899     2627     2465     2496     2702     3030     3442 
    3859     4192     4417     4538     4568     4517     4409     4274 
    4122     3942     3728     3505     3244     2898     2504     2089 
    1663     1313     1131     1185     1528     2139     2909     3700 
    4355     4737     4785     4496     3917     3194     2517     2031 
    1852     2020     2474     3159     4009     4904     5746     6475 
    7005     7234     7118     6650     5873     4922     3908     2899 
    1985     1262      822      758     1073     1683     2475     3262 
    3852     4143     4114     3802     3312     2817     2465     2299 
    2305     2425     2584     2721     2791     2843     2951     3098 
    3273     3488     3670     3767     3813     3808     3709     3541 
    3331     3059     2728     2371     2006     1695     1486     1364 
    1329     1354     1398     1498     1709     2056     2532     3095 
    3677     4209     4615     4860     4956     4903     4691     4382 
    4027     3662     3375     3187     3065     3025     3030     3025 
    3037     3033     2978     2953     2975     2988     3010     3002 
    2882     2636     2277     1875     1563     1412     1456     1711 
    2110     2555     2999     3387     3681     3925     4197     4519 
    4876     5235     5563     5814     5965     6006     5935     5769 
    5528     5270     5058     4881     4687     4444     4094     3605 
    3056     2551     2155     1972     2074     2440     3005     3673 
    4329     4868     5213     5367     5394     5371     5385     5479 
    5621     5752     5826     5791     5623     5373     5101     4837 
    4598     4388     4180     3955     3692     3388     3102     2866 
    2721     2702     2783     2947     3159     3372     3624     3931 
    4233     4522     4784     4969     5092     5173     5167     5042 
