Origin Time       2016/04/16 01:25:00
Lat.              32.753
Long.             130.762
Depth. (km)       12
Mag.              7.3
Station Code      SZO024
Station Lat.      34.7102
Station Long.     137.7197
Station Height(m) 29
Record Time       2016/04/16 01:28:37
Sampling Freq(Hz) 100Hz
Duration Time(s)  75
Dir.              N-S
Scale Factor      7845(gal)/8223790
Max. Acc. (gal)   1.345
Last Correction   2016/04/16 01:28:38
Memo.             
[...]
   -1102    -1113    -1125    -1138    -1151    -1163    -1179    -1193 
   -1200    -1210    -1219    -1229    -1242    -1256    -1270    -1282 
   -1290    -1293    -1296    -1305    -1320    -1328    -1333    -1336 
   -1337    -1341    -1347    -1350    -1350    -1352    -1350    -1344 
   -1341    -1336    -1331    -1327    -1320    -1310    -1301    -1287 
   -1274    -1259    -1246    -1232    -1217    -1201    -1182    -1162 
   -1144    -1128    -1109    -1092    -1075    -1058    -1036    -1009 
    -987     -970     -945     -920     -903     -880     -854     -834 
    -812     -788     -762     -737     -715     -696     -672     -643 
    -619     -602     -579     -552     -530     -508     -479     -457 
    -440     -414     -386     -365     -342     -317     -291     -271 
    -251     -225     -201     -175     -153     -133     -110      -89 
     -68      -47      -28      -10        4       21       43       60 
      75       93      106      116      128      141      152      163 
     174      183      193      199      203      210      218      222 
     225      229      225      224      225      228      225      222 
     224      221      210      198      190      184      178      171 
     162      151      135      121      112      101       85       70 
      58       41       21        5       -8      -23      -40      -58 
     -75      -93     -108     -126     -148     -164     -180     -199 
    -216     -234     -256     -271     -284     -303     -318     -333 
    -357     -379     -392     -411     -430     -445     -461     -481 
    -502     -519     -537     -552     -566     -585     -600     -614 
    -631     -648     -662     -676     -688     -702     -712     -723 
    -734     -745     -756     -769     -777     -783     -792     -801 
    -805     -807     -810     -814     -815     -815     -814     -814 
    -815     -811     -807     -803     -799     -793     -787     -781 
    -773     -760     -749     -741     -731     -719     -706     -697 
    -687     -672     -661     -653     -637     -619     -606     -594 
    -579     -566     -556     -538     -518     -506     -495     -476 
    -460     -445     -425     -410     -398     -379     -360     -342 
    -325     -310     -295     -276     -259     -243     -228     -212 
    -195     -182     -167     -147     -129     -117     -102      -87 
     -68      -49      -32      -17       -1       14       32       49 
      63       78       95      114      129      140      153      170 
     183      198      214      228      240      248      261      276 
     287      299      309      318      332      342      348      357 
     368      378      388      396      399      405      409      411 
     417      421      425      429      430      430      430      432 
     433      430      429      432      430      425      421      415 
     411      409      405      400      394      383      373      364 
     356      348      338      329      319      306      288      271 
     256      244      229      212      194      174      153      135 
     116       93       72       54       32        5      -17      -40 
     -63      -87     -112     -135     -155     -183     -214     -237 
    -259     -287     -314     -338     -363     -390     -415     -437 
    -461     -491     -515     -537     -560     -581     -603     -626 
    -648     -670     -692     -708     -727     -749     -765     -783 
    -801     -816     -830     -843     -855     -870     -884     -895 
    -901     -907     -915     -922     -924     -928     -931     -929 
    -931     -931     -924     -920     -919     -913     -905     -901 
    -893     -880     -872     -864     -850     -832     -820     -807 
    -788     -770     -757     -738     -715     -697     -679     -658 
    -639     -618     -598     -575     -548     -525     -506     -484 
    -460     -437     -417     -396     -372     -346     -328     -309 
    -284     -261     -243     -224     -203     -180     -156     -133 
    -116     -102      -86      -64      -44      -27       -9        5 
      21       41       60       74       89      106      120      129 
     144      162      171      182      197      209      218      232 
     243      251      259      268      276      280      288      297 
     299      306      314      317      321      326      329      334 
     340      340      340      342      346      349      349      349 
     346      348      348      341      340      344      342      338 
     333      332      332      325      319      321      317      311 
     309      303      301      297      292      291      289      284 
     279      276      276      274      268      263      263      259 
     256      253      248      248      246      238      234      236 
     230      224      222      220      216      212      210      205 
     199      198      195      190      184      182      178      175 
     171      162      155      153      144      135      129      124 
     117      112      103       94       83       74       64       56 
      47       37       22       11        1       -9      -18      -31 
     -44      -56      -65      -78      -94     -109     -121     -131 
    -147     -157     -170     -184     -201     -214     -225     -241 
    -256     -270     -283     -298     -313     -332     -351     -363 
    -376     -394     -410     -422     -440     -459     -476     -491 
    -506     -525     -540     -553     -572     -592     -607     -622 
    -637     -653     -664     -681     -700     -712     -726     -743 
    -756     -764     -776     -791     -799     -807     -818     -824 
    -827     -832     -835     -834     -838     -842     -838     -835 
    -830     -822     -816     -807     -799     -795     -784     -767 
    -756     -743     -728     -712     -695     -680     -665     -646 
    -627     -604     -583     -564     -545     -525     -504     -480 
    -453     -427     -406     -383     -357     -337     -315     -289 
    -265     -245     -221     -198     -172     -149     -129     -109 
     -86      -65      -43      -17        1       23       47       64 
      82      103      121      137      160      180      194      207 
     225      237      248      263      276      291      306      315 
     322      330      337      341      349      361      365      365 
     372      372      368      372      376      375      373      375 
     370      363      356      352      346      342      338      330 
     321      311      299      286      275      265      255      240 
     224      212      198      178      164      151      135      118 
     101       81       60       40       22        5      -14      -32 
     -51      -74      -95     -112     -129     -151     -166     -182 
    -201     -217     -234     -255     -271     -287     -306     -322 
    -338     -353     -370     -391     -405     -417     -434     -449 
    -464     -480     -493     -510     -526     -540     -556     -571 
    -584     -600     -616     -629     -642     -658     -672     -684 
    -700     -715     -730     -746     -765     -780     -791     -804 
    -816     -828     -845     -866     -880     -890     -903     -913 
    -924     -942     -957     -969     -980     -992    -1003    -1007 
   -1019    -1034    -1039    -1048    -1062    -1071    -1081    -1088 
   -1093    -1104    -1115    -1123    -1131    -1138    -1144    -1150 
   -1158    -1167    -1174    -1179    -1188    -1197    -1205    -1210 
   -1213    -1220    -1228    -1233    -1239    -1246    -1246    -1247 
   -1255    -1260    -1262    -1266    -1266    -1267    -1270    -1270 
   -1267    -1267    -1267    -1266    -1266    -1263    -1258    -1254 
   -1248    -1243    -1236    -1230    -1225    -1219    -1209    -1204 
   -1197    -1188    -1179    -1170    -1161    -1151    -1143    -1133 
   -1124    -1117    -1109    -1093    -1077    -1073    -1067    -1053 
   -1042    -1038    -1026    -1011    -1004     -999     -980     -966 
    -966     -957     -938     -928     -922     -911     -899     -889 
    -877     -864     -851     -838     -828     -818     -807     -791 
    -774     -762     -749     -734     -723     -711     -693     -676 
    -661     -649     -634     -621     -608     -592     -573     -556 
    -540     -523     -508     -491     -476     -460     -438     -419 
    -400     -379     -360     -344     -326     -307     -288     -271 
    -248     -224     -202     -182     -162     -144     -129     -109 
     -85      -65      -47      -27       -8        8       27       43 
      55       70       86       99      114      128      139      147 
     157      164      168      178      189      193      195      199 
     203      203      202      205      206      203      206      207 
     201      195      191      187      189      187      178      176 
     174      167      162      157      152      149      147      143 
     133      126      124      120      117      118      117      110 
     106      106      105      102       98       94       93       90 
      87       87       90       89       86       85       82       75 
      68       70       70       67       62       59       62       60 
      49       45       44       35       28       29       25       18 
      16       10        2       -1       -5      -10      -16      -25 
     -32      -37      -44      -47      -51      -59      -64      -70 
     -82      -90      -93      -99     -103      -99     -103     -118 
    -126     -128     -133     -139     -141     -147     -155     -157 
    -160     -167     -176     -183     -189     -193     -197     -202 
    -212     -220     -221     -228     -237     -243     -252     -263 
    -266     -271     -278     -286     -297     -306     -311     -318 
    -330     -342     -349     -357     -367     -375     -387     -398 
    -410     -422     -427     -432     -441     -451     -463     -471 
    -480     -492     -500     -506     -515     -522     -530     -540 
    -548     -557     -564     -568     -575     -581     -588     -596 
    -602     -606     -614     -622     -627     -634     -638     -639 
    -645     -652     -654     -654     -658     -665     -666     -665 
    -672     -676     -675     -675     -677     -679     -680     -680 
    -683     -685     -685     -687     -687     -680     -673     -673 
    -672     -672     -669     -665     -662     -657     -648     -638 
    -631     -627     -621     -615     -606     -598     -592     -579 
    -561     -550     -540     -526     -515     -508     -498     -479 
    -464     -450     -433     -414     -395     -379     -363     -346 
    -332     -317     -291     -270     -255     -234     -214     -197 
    -172     -149     -129     -110      -91      -74      -51      -31 
     -14        4       23       43       56       71       90      108 
     124      140      155      168      180      191      201      214 
     222      225      237      245      256      263      263      265 
     274      276      275      276      279      279      282      283 
     280      279      274      266      266      266      259      255 
     253      246      241      240      238      230      217      210 
     206      199      195      197      190      180      176      168 
     160      156      155      149      144      141      143      140 
     129      125      125      128      125      122      118      118 
     120      120      117      110      109      114      112      106 
     110      109       99      101      109      112      112      109 
     102       98      101      103      105      105      106      103 
      99      101      103      101      101      101       98      102 
     110      108       99       97       94       94       95       93 
      86       86       89       85       82       81       72       63 
      63       63       56       54       54       47       40       41 
      41       32       28       25       21       18       18       17 
      11        5       -1       -4       -1        4        0      -11 
     -17      -17      -20      -14      -10      -14      -16      -14 
     -21      -23      -22      -25      -25      -21      -22      -27 
     -32      -35      -35      -35      -39      -40      -40      -45 
     -54      -58      -59      -63      -68      -78      -86      -94 
     -99     -105     -118     -129     -135     -148     -166     -178 
    -194     -210     -221     -230     -249     -268     -283     -305 
    -326     -344     -361     -380     -403     -425     -445     -464 
    -488     -513     -537     -560     -576     -596     -625     -646 
    -672     -702     -720     -735     -762     -784     -804     -830 
    -855     -876     -895     -913     -940     -963     -978     -997 
   -1023    -1042    -1059    -1080    -1098    -1116    -1138    -1158 
   -1178    -1198    -1215    -1230    -1244    -1259    -1282    -1300 
   -1310    -1328    -1345    -1355    -1368    -1390    -1409    -1418 
   -1433    -1451    -1462    -1472    -1487    -1501    -1513    -1526 
   -1543    -1554    -1566    -1575    -1583    -1597    -1613    -1621 
   -1628    -1642    -1656    -1658    -1664    -1679    -1688    -1688 
   -1694    -1706    -1711    -1711    -1714    -1719    -1718    -1719 
   -1723    -1725    -1723    -1718    -1706    -1702    -1705    -1702 
   -1692    -1684    -1675    -1663    -1653    -1645    -1632    -1617 
   -1601    -1586    -1574    -1553    -1528    -1509    -1495    -1475 
   -1456    -1435    -1409    -1381    -1354    -1329    -1305    -1277 
   -1246    -1213    -1185    -1162    -1132    -1102    -1065    -1026 
    -992     -959     -931     -903     -862     -820     -787     -754 
    -723     -688     -653     -619     -579     -540     -515     -487 
    -445     -409     -376     -342     -310     -280     -248     -211 
    -180     -151     -114      -83      -52      -17        5       32 
      62       86      116      148      172      198      225      246 
     268      294      319      344      365      387      409      425 
     444      467      487      503      515      533      548      558 
     584      596      599      616      626      625      634      648 
     656      661      666      665      664      670      676      675 
     675      672      664      658      658      654      646      642 
     635      633      622      600      589      579      560      553 
     545      521      506      493      467      449      436      406 
     383      370      348      315      291      271      244      214 
     193      171      139      108       87       64       35        8 
     -20      -49      -79     -106     -131     -159     -191     -220 
    -243     -270     -299     -330     -360     -386     -409     -437 
    -468     -493     -517     -542     -572     -598     -623     -650 
    -669     -688     -712     -738     -758     -781     -807     -826 
    -841     -862     -882     -897     -918     -934     -942     -955 
    -974     -985     -993    -1004    -1013    -1024    -1032    -1036 
   -1042    -1046    -1050    -1055    -1053    -1050    -1050    -1055 
   -1059    -1055    -1047    -1046    -1039    -1036    -1034    -1026 
   -1016    -1008     -996     -986     -982     -974     -957     -942 
    -934     -924     -908     -892     -877     -861     -843     -831 
    -816     -793     -770     -761     -746     -722     -702     -684 
    -660     -642     -627     -604     -579     -557     -540     -517 
    -491     -469     -451     -432     -410     -388     -365     -344 
    -322     -299     -276     -257     -232     -206     -190     -172 
    -147     -124     -106      -86      -63      -45      -28       -4 
      14       31       47       65       89      110      126      139 
     151      163      178      198      210      220      234      248 
     259      261      265      279      294      299      302      310 
     310      305      311      319      315      315      315      311 
     309      305      298      294      286      280      278      266 
     256      255      248      234      225      217      206      194 
     187      178      163      151      140      129      117      106 
      94       78       67       55       40       27       14        0 
     -10      -21      -40      -56      -67      -79      -93     -101 
    -112     -122     -135     -147     -156     -166     -175     -187 
    -197     -198     -207     -221     -228     -230     -240     -246 
    -246     -251     -257     -256     -259     -263     -259     -263 
    -270     -263     -259     -259     -259     -259     -261     -259 
    -255     -251     -244     -241     -238     -234     -234     -232 
    -222     -217     -220     -211     -201     -199     -199     -197 
    -190     -180     -176     -174     -163     -156     -163     -162 
    -156     -153     -144     -140     -139     -133     -129     -129 
    -131     -128     -122     -124     -122     -112     -109     -112 
    -112     -109     -108     -105     -101      -99     -101      -98 
     -91      -91      -95      -95      -89      -86      -86      -79 
     -74      -79      -82      -79      -74      -68      -65      -65 
     -65      -67      -65      -58      -51      -47      -44      -43 
     -37      -32      -31      -27      -21      -18      -14       -9 
      -5        1        9        9        8       16       28       29 
      27       32       40       47       51       52       60       64 
      59       65       78       78       75       79       83       83 
      85       91       98       95       93       97      102      105 
     105      105      105      103      103      108      112      112 
     112      112      112      112      112      110      109      112 
     116      112      106      102      101      101       98       98 
      97       93       86       79       74       71       70       65 
      58       45       39       35       23       10        0       -9 
     -17      -31      -49      -63      -74      -85      -97     -112 
    -126     -141     -167     -187     -197     -212     -236     -253 
    -270     -289     -314     -332     -349     -372     -391     -407 
    -430     -451     -469     -487     -506     -525     -542     -558 
    -581     -603     -618     -634     -654     -677     -692     -702 
    -719     -741     -754     -770     -787     -801     -822     -838 
    -851     -868     -884     -899     -911     -924     -942     -957 
    -966     -980     -997    -1007    -1016    -1030    -1043    -1057 
   -1067    -1077    -1088    -1098    -1107    -1116    -1125    -1132 
   -1139    -1151    -1161    -1162    -1166    -1175    -1185    -1192 
   -1190    -1194    -1202    -1206    -1206    -1208    -1213    -1213 
   -1209    -1210    -1216    -1216    -1212    -1210    -1213    -1216 
   -1215    -1208    -1201    -1200    -1198    -1196    -1194    -1190 
   -1185    -1182    -1179    -1177    -1167    -1162    -1162    -1161 
   -1155    -1146    -1139    -1135    -1128    -1120    -1115    -1109 
