Origin Time       2016/04/16 01:25:00
Lat.              32.753
Long.             130.762
Depth. (km)       12
Mag.              7.3
Station Code      SZO010
Station Lat.      35.3134
Station Long.     138.9063
Station Height(m) 537
Record Time       2016/04/16 01:29:27
Sampling Freq(Hz) 100Hz
Duration Time(s)  61
Dir.              N-S
Scale Factor      7845(gal)/8223790
Max. Acc. (gal)   1.927
Last Correction   2016/04/16 01:29:29
Memo.             
[...]
    5417     5406     5404     5409     5401     5391     5391     5387 
    5374     5374     5379     5366     5350     5350     5348     5333 
    5328     5323     5305     5301     5298     5278     5271     5271 
    5248     5229     5232     5220     5197     5196     5186     5162 
    5155     5148     5120     5108     5105     5082     5063     5057 
    5038     5020     5011     4992     4972     4958     4938     4920 
    4911     4891     4868     4855     4842     4818     4801     4789 
    4766     4746     4737     4716     4692     4681     4665     4638 
    4626     4615     4587     4572     4565     4540     4521     4518 
    4499     4479     4475     4460     4437     4430     4422     4403 
    4396     4390     4374     4369     4368     4353     4345     4347 
    4336     4327     4332     4326     4320     4327     4322     4313 
    4321     4324     4318     4324     4327     4325     4333     4342 
    4342     4348     4357     4359     4365     4379     4384     4391 
    4406     4417     4425     4438     4448     4460     4472     4484 
    4500     4514     4526     4545     4560     4568     4585     4603 
    4621     4635     4652     4669     4685     4703     4722     4739 
    4760     4780     4795     4814     4837     4854     4870     4896 
    4920     4932     4950     4976     4993     5011     5035     5053 
    5069     5088     5105     5124     5144     5162     5178     5197 
    5216     5227     5247     5266     5275     5290     5309     5321 
    5331     5347     5362     5368     5379     5394     5401     5409 
    5421     5428     5437     5445     5448     5454     5464     5466 
    5467     5478     5483     5476     5481     5491     5489     5483 
    5486     5483     5481     5483     5481     5474     5474     5471 
    5460     5454     5454     5441     5432     5429     5418     5406 
    5400     5389     5377     5366     5350     5333     5323     5312 
    5294     5273     5263     5243     5217     5204     5188     5161 
    5139     5120     5096     5074     5055     5027     5000     4980 
    4956     4926     4905     4884     4847     4823     4801     4770 
    4746     4723     4689     4661     4635     4606     4579     4556 
    4527     4496     4468     4442     4415     4392     4364     4332 
    4309     4284     4251     4230     4210     4178     4152     4132 
    4105     4077     4055     4036     4010     3983     3963     3939 
    3917     3902     3879     3855     3836     3816     3796     3780 
    3761     3738     3724     3712     3692     3673     3662     3645 
    3630     3624     3604     3585     3586     3577     3557     3551 
    3544     3530     3526     3523     3515     3508     3503     3497 
    3496     3499     3497     3492     3492     3492     3492     3495 
    3497     3500     3504     3503     3505     3516     3523     3528 
    3535     3541     3546     3555     3566     3576     3586     3597 
    3608     3615     3631     3646     3653     3663     3682     3692 
    3701     3719     3735     3747     3762     3778     3793     3811 
    3828     3844     3861     3877     3892     3908     3931     3947 
    3959     3978     4000     4017     4035     4055     4077     4093 
    4110     4131     4149     4167     4187     4210     4225     4243 
    4268     4286     4301     4321     4342     4363     4382     4396 
    4413     4436     4455     4467     4488     4513     4522     4534 
    4560     4579     4590     4603     4623     4641     4653     4665 
    4680     4696     4710     4725     4735     4748     4765     4770 
    4781     4799     4807     4814     4830     4841     4845     4857 
    4869     4874     4884     4892     4897     4907     4918     4923 
    4923     4934     4943     4943     4946     4953     4958     4962 
    4965     4968     4973     4976     4976     4976     4977     4977 
    4974     4977     4982     4980     4977     4980     4977     4972 
    4973     4972     4969     4969     4961     4954     4958     4953 
    4943     4943     4939     4928     4923     4920     4908     4897 
    4892     4887     4878     4868     4858     4846     4839     4827 
    4811     4803     4795     4779     4768     4757     4741     4726 
    4715     4698     4679     4669     4654     4631     4619     4611 
    4584     4558     4553     4534     4507     4495     4479     4452 
    4438     4419     4392     4378     4364     4336     4315     4302 
    4276     4251     4238     4220     4192     4174     4156     4129 
    4110     4095     4067     4045     4035     4009     3983     3973 
    3951     3927     3909     3890     3866     3844     3831     3811 
    3789     3774     3754     3730     3719     3703     3677     3663 
    3649     3623     3609     3595     3569     3557     3546     3523 
    3507     3499     3478     3458     3450     3434     3412     3402 
    3388     3369     3355     3345     3329     3315     3307     3295 
    3281     3269     3256     3245     3235     3223     3215     3208 
    3194     3186     3183     3176     3164     3157     3154     3145 
    3140     3138     3132     3126     3127     3126     3122     3123 
    3125     3122     3125     3129     3127     3130     3138     3144 
    3146     3152     3156     3165     3180     3186     3191     3203 
    3217     3226     3238     3253     3267     3283     3296     3310 
    3326     3346     3361     3377     3397     3416     3434     3456 
    3478     3496     3518     3542     3563     3588     3615     3634 
    3657     3686     3708     3734     3766     3792     3815     3846 
    3875     3901     3931     3960     3989     4017     4048     4078 
    4110     4145     4175     4200     4233     4263     4294     4326 
    4357     4386     4421     4456     4482     4513     4545     4568 
    4598     4633     4662     4688     4718     4746     4770     4795 
    4823     4852     4877     4899     4923     4947     4969     4988 
    5009     5034     5050     5065     5088     5104     5119     5139 
    5151     5161     5178     5192     5200     5213     5225     5229 
    5238     5246     5252     5262     5270     5273     5277     5281 
    5282     5282     5289     5290     5286     5289     5290     5282 
    5279     5279     5271     5267     5267     5258     5250     5247 
    5235     5225     5224     5216     5198     5192     5186     5171 
    5159     5148     5131     5120     5115     5098     5078     5069 
    5057     5032     5019     5009     4989     4972     4959     4939 
    4918     4907     4891     4869     4852     4837     4814     4799 
    4784     4764     4746     4730     4706     4683     4671     4650 
    4626     4612     4594     4572     4558     4538     4517     4502 
    4486     4464     4450     4437     4417     4398     4383     4365 
    4351     4340     4325     4309     4295     4280     4263     4256 
    4245     4230     4222     4213     4197     4189     4186     4175 
    4162     4156     4151     4140     4137     4135     4124     4114 
    4117     4116     4107     4106     4104     4098     4101     4102 
    4098     4101     4102     4094     4098     4107     4104     4104 
    4116     4113     4110     4124     4128     4125     4136     4140 
    4140     4151     4159     4159     4171     4185     4186     4192 
    4202     4205     4215     4228     4232     4240     4253     4263 
    4270     4279     4287     4295     4307     4317     4324     4334 
    4345     4352     4360     4374     4380     4384     4398     4410 
    4415     4426     4438     4445     4457     4473     4476     4483 
    4500     4510     4517     4530     4540     4546     4561     4571 
    4576     4591     4604     4608     4622     4637     4641     4650 
    4668     4675     4680     4692     4704     4714     4725     4735 
    4743     4752     4764     4772     4779     4795     4806     4806 
    4814     4833     4838     4846     4858     4861     4869     4881 
    4887     4893     4907     4912     4916     4930     4936     4936 
    4949     4961     4961     4966     4982     4986     4989     5000 
    5005     5008     5017     5022     5024     5035     5042     5042 
    5046     5054     5057     5062     5070     5069     5067     5077 
    5082     5080     5082     5088     5086     5090     5096     5093 
    5092     5097     5096     5092     5097     5100     5096     5098 
    5101     5097     5098     5098     5093     5092     5097     5093 
    5086     5088     5088     5084     5086     5084     5076     5077 
    5077     5070     5070     5070     5065     5062     5065     5062 
    5057     5055     5055     5050     5050     5053     5049     5044 
    5049     5044     5039     5040     5038     5035     5036     5035 
    5031     5030     5031     5027     5026     5026     5024     5020 
    5017     5017     5016     5016     5016     5009     5007     5008 
    5001     4999     5001     4993     4989     4993     4985     4978 
    4978     4972     4966     4965     4961     4954     4949     4946 
    4943     4934     4930     4926     4918     4914     4909     4900 
    4889     4884     4878     4870     4868     4861     4847     4845 
    4842     4828     4820     4816     4801     4792     4792     4783 
    4768     4765     4758     4746     4741     4733     4723     4716 
    4708     4698     4692     4687     4673     4664     4664     4656 
    4645     4638     4635     4625     4618     4617     4606     4602 
    4602     4592     4584     4588     4581     4568     4575     4577 
    4561     4560     4568     4560     4556     4567     4564     4557 
    4565     4565     4563     4571     4575     4573     4581     4588 
    4590     4595     4606     4614     4619     4629     4634     4644 
    4657     4666     4675     4689     4702     4710     4729     4746 
    4753     4766     4785     4796     4810     4834     4850     4860 
    4881     4901     4912     4930     4951     4965     4981     5003 
    5017     5034     5057     5074     5089     5109     5128     5143 
    5159     5181     5198     5212     5228     5246     5263     5279 
    5294     5306     5321     5339     5351     5362     5377     5389 
    5400     5409     5420     5429     5437     5443     5448     5456 
    5463     5464     5471     5478     5478     5481     5486     5481 
    5478     5485     5481     5471     5475     5471     5456     5451 
    5447     5435     5428     5422     5408     5395     5386     5368 
    5352     5344     5325     5300     5289     5273     5244     5227 
    5213     5186     5166     5148     5117     5090     5071     5044 
    5013     4989     4962     4932     4907     4876     4842     4814 
    4789     4754     4719     4691     4657     4622     4590     4556 
    4521     4487     4450     4411     4379     4348     4309     4271 
    4237     4199     4164     4129     4091     4055     4021     3983 
    3944     3912     3877     3836     3801     3767     3731     3696 
    3658     3620     3589     3557     3522     3491     3457     3423 
    3388     3354     3322     3294     3265     3232     3199     3171 
    3145     3118     3090     3064     3037     3009     2983     2960 
    2938     2917     2894     2875     2856     2837     2818     2799 
    2786     2774     2755     2740     2733     2724     2713     2706 
    2695     2685     2683     2681     2677     2677     2678     2678 
    2681     2685     2688     2694     2700     2705     2720     2733 
    2740     2755     2772     2787     2801     2818     2839     2860 
    2880     2902     2928     2955     2980     3003     3033     3068 
    3095     3121     3157     3194     3223     3258     3300     3336 
    3372     3412     3450     3491     3535     3577     3619     3665 
    3707     3748     3797     3846     3892     3939     3987     4036 
    4083     4131     4178     4230     4279     4327     4378     4426 
    4480     4529     4575     4627     4677     4725     4774     4826 
    4873     4922     4970     5013     5060     5109     5151     5196 
    5240     5281     5321     5366     5408     5445     5483     5518 
    5552     5590     5622     5656     5692     5719     5745     5776 
    5805     5827     5852     5876     5895     5913     5934     5952 
    5962     5977     5992     5999     6006     6016     6021     6023 
    6030     6030     6026     6027     6027     6019     6011     6004 
    5989     5981     5972     5952     5938     5926     5900     5877 
    5864     5842     5813     5791     5767     5734     5705     5679 
    5645     5614     5584     5547     5512     5483     5443     5400 
    5366     5331     5287     5247     5208     5167     5124     5082 
    5036     4992     4954     4909     4858     4814     4769     4720 
    4673     4629     4580     4531     4490     4441     4386     4344 
    4298     4241     4197     4155     4099     4051     4010     3958 
    3908     3873     3824     3769     3727     3684     3634     3593 
    3551     3500     3462     3424     3377     3336     3302     3260 
    3217     3183     3148     3106     3073     3044     3006     2971 
    2945     2911     2876     2851     2825     2794     2772     2747 
    2720     2702     2683     2656     2639     2625     2604     2586 
    2575     2560     2546     2536     2525     2516     2511     2506 
    2502     2498     2497     2498     2501     2501     2497     2502 
    2515     2520     2524     2538     2551     2555     2567     2587 
    2598     2612     2635     2654     2671     2697     2716     2732 
    2759     2786     2805     2829     2859     2882     2907     2944 
    2970     2994     3032     3061     3082     3122     3161     3184 
    3218     3257     3287     3321     3358     3391     3426     3464 
    3497     3530     3569     3607     3640     3678     3713     3746 
    3786     3827     3858     3894     3935     3970     4005     4043 
    4078     4113     4148     4186     4220     4255     4295     4329 
    4359     4398     4433     4461     4498     4531     4557     4592 
    4629     4656     4688     4723     4747     4774     4807     4834 
    4860     4895     4922     4943     4972     4999     5017     5044 
    5071     5092     5113     5136     5155     5174     5197     5217 
    5233     5251     5268     5287     5302     5314     5333     5347 
    5355     5371     5386     5393     5405     5420     5424     5431 
    5441     5448     5456     5460     5464     5468     5471     5476 
    5481     5481     5478     5481     5483     5479     5475     5475 
    5472     5466     5459     5454     5451     5443     5435     5431 
    5421     5409     5404     5393     5379     5371     5358     5339 
    5333     5324     5306     5296     5285     5266     5251     5240 
    5223     5209     5197     5177     5157     5146     5130     5113 
    5098     5076     5057     5047     5027     5004     4989     4972 
    4950     4936     4920     4895     4876     4858     4838     4820 
    4803     4784     4766     4746     4726     4707     4687     4669 
    4649     4627     4608     4592     4573     4553     4535     4515 
    4496     4482     4463     4442     4425     4407     4390     4378 
    4359     4336     4326     4317     4295     4279     4270     4253 
    4233     4225     4217     4199     4189     4183     4170     4158 
    4151     4140     4131     4129     4120     4105     4107     4109 
    4091     4088     4093     4082     4077     4083     4077     4069 
    4077     4074     4072     4082     4079     4074     4085     4088 
    4083     4093     4101     4094     4101     4116     4116     4118 
    4133     4137     4137     4152     4162     4159     4172     4187 
    4191     4200     4217     4223     4233     4251     4258     4266 
    4286     4298     4305     4324     4342     4351     4367     4384 
    4396     4414     4436     4449     4464     4486     4499     4517 
    4542     4558     4572     4594     4612     4630     4653     4675 
    4692     4710     4731     4752     4770     4788     4810     4830 
    4847     4866     4887     4905     4923     4943     4962     4980 
    5000     5019     5034     5053     5070     5088     5108     5124 
    5140     5158     5173     5188     5206     5223     5232     5250 
    5273     5283     5292     5313     5331     5343     5360     5375 
    5389     5402     5413     5425     5443     5458     5468     5481 
    5497     5512     5524     5535     5548     5564     5579     5590 
    5599     5609     5625     5641     5648     5656     5672     5684 
    5694     5707     5715     5722     5737     5751     5755     5764 
    5775     5779     5786     5793     5795     5803     5814     5814 
    5817     5826     5827     5825     5830     5829     5825     5827 
    5829     5822     5822     5821     5810     5803     5805     5795 
    5784     5782     5773     5759     5756     5751     5729     5717 
    5713     5692     5675     5672     5656     5633     5628     5610 
    5582     5575     5566     5533     5521     5514     5485     5466 
    5460     5433     5408     5402     5377     5347     5339     5325 
    5294     5277     5263     5235     5215     5200     5173     5150 
    5139     5117     5090     5077     5058     5027     5013     5001 
    4972     4950     4939     4915     4892     4881     4855     4831 
    4824     4804     4773     4764     4750     4720     4706     4698 
    4672     4656     4646     4619     4600     4599     4577     4552 
    4548     4534     4507     4498     4492     4464     4450     4449 
    4429     4407     4409     4398     4374     4368     4360     4341 
    4336     4332     4311     4305     4305     4284     4271     4279 
    4266     4248     4253     4245     4223     4228     4233     4214 
    4207     4213     4199     4194     4200     4189     4178     4189 
    4183     4168     4176     4183     4171     4167     4174     4166 
    4163     4171     4168     4163     4170     4170     4167     4178 
    4180     4170     4171     4178     4178     4178     4186     4186 
    4183     4187     4190     4191     4197     4199     4195     4202 
    4212     4209     4209     4215     4214     4214     4222     4225 
    4222     4228     4232     4230     4233     4240     4240     4240 
    4245     4247     4245     4248     4252     4251     4253     4258 
    4260     4258     4256     4258     4261     4261     4261     4263 
    4266     4271     4274     4271     4271     4276     4278     4276 
    4282     4287     4287     4288     4294     4299     4302     4302 
    4303     4313     4320     4317     4320     4330     4340     4342 
    4345     4352     4359     4365     4374     4380     4386     4391 
    4405     4414     4419     4425     4438     4449     4456     4461 
    4473     4487     4496     4509     4521     4529     4541     4554 
    4563     4575     4590     4596     4610     4627     4635     4646 
    4661     4672     4683     4696     4706     4718     4733     4742 
    4754     4766     4777     4789     4800     4810     4824     4831 
    4839     4855     4862     4864     4878     4888     4889     4901 
