Origin Time       2016/04/16 01:25:00
Lat.              32.753
Long.             130.762
Depth. (km)       12
Mag.              7.3
Station Code      SZO018
Station Lat.      34.7402
Station Long.     138.2241
Station Height(m) 4
Record Time       2016/04/16 01:28:43
Sampling Freq(Hz) 100Hz
Duration Time(s)  60
Dir.              N-S
Scale Factor      7845(gal)/8223790
Max. Acc. (gal)   1.384
Last Correction   2016/04/16 01:28:44
Memo.             
[...]
     232      220      216      234      240      225      230      238 
     236      229      230      232      224      221      222      214 
     209      203      193      186      184      176      166      156 
     157      149      131      129      129      112      102      103 
     105       97       85       87       95       82       70       79 
      85       70       63       75       78       70       64       68 
      74       64       59       70       76       71       62       68 
      79       70       63       71       72       65       62       64 
      68       62       60       63       60       63       62       54 
      59       67       60       52       59       67       59       56 
      72       78       65       65       85       89       81       93 
     108      105      102      112      118      122      128      133 
     136      137      144      148      144      144      149      151 
     148      155      159      151      151      157      159      151 
     153      166      162      152      162      168      160      155 
     167      174      160      159      171      175      174      171 
     178      190      184      186      199      205      207      209 
     216      228      225      229      245      245      243      252 
     256      253      252      259      265      253      249      259 
     253      246      251      251      243      238      241      230 
     220      228      225      207      199      202      195      175 
     167      176      166      139      136      147      131      110 
     112      116      105       91       90       95       89       78 
      83       91       82       72       85       90       82       78 
      86       94       94       90       93      101      109      110 
     112      125      131      135      143      147      153      162 
     167      174      175      175      189      201      202      199 
     206      217      214      214      225      232      225      221 
     228      236      225      217      225      225      207      201 
     207      206      190      183      187      178      162      155 
     155      144      135      129      125      124      120      110 
     106      106      112      116      103      101      116      118 
     112      120      122      121      126      131      133      135 
     139      149      156      156      163      172      175      180 
     193      199      201      207      224      225      217      229 
     245      238      234      243      246      243      240      249 
     251      237      236      241      234      229      229      229 
     224      209      206      210      201      190      183      176 
     172      163      148      144      144      135      120      117 
     120      106       94       99       98       82       78       87 
      85       68       64       75       76       67       60       59 
      67       64       56       64       67       56       54       59 
      60       52       51       63       58       44       54       60 
      54       54       56       51       41       47       54       41 
      32       36       29       22       25       23       11        8 
      16       13       -5       -8        0      -11      -21      -21 
     -23      -32      -39      -37      -41      -52      -54      -52 
     -56      -65      -72      -67      -68      -82      -85      -81 
     -90      -97      -91      -93     -101      -98      -93      -98 
    -106     -102      -95     -102     -103      -91      -91      -97 
     -90      -81      -82      -83      -72      -65      -70      -63 
     -51      -51      -45      -35      -29      -29      -17       -5 
      -5       -5        8       18       11       17       37       36 
      29       41       51       49       54       65       63       60 
      75       81       72       78       89       83       83       94 
      99       91       90      101      103      101      105      112 
     116      110      116      135      135      128      136      148 
     155      153      153      163      167      167      170      172 
     175      168      167      175      168      160      166      167 
     153      147      153      152      140      137      143      140 
     128      131      139      128      125      137      139      126 
     128      144      144      139      149      160      160      171 
     182      183      189      205      221      225      232      249 
     259      259      275      297      299      303      322      334 
     338      344      360      370      372      387      405      400 
     398      415      427      421      418      429      432      423 
     425      436      430      415      415      422      406      387 
     392      399      382      367      370      361      340      334 
     337      324      305      301      295      275      263      270 
     263      240      233      237      225      209      209      210 
     201      193      198      197      182      182      189      182 
     178      180      183      178      178      184      187      189 
     183      180      191      190      176      182      189      178 
     174      183      180      170      172      178      175      166 
     166      174      171      166      168      170      166      162 
     162      166      167      164      162      166      172      168 
     166      176      186      184      183      202      216      210 
     214      230      237      237      243      261      272      261 
     265      287      295      294      291      302      317      311 
     311      329      332      324      325      334      337      329 
     330      338      336      325      324      333      322      305 
     313      319      303      291      295      299      289      275 
     275      278      268      255      252      257      252      241 
     238      245      238      225      230      237      228      225 
     237      236      228      237      252      245      244      259 
     265      263      265      279      289      289      295      307 
     313      309      319      333      328      326      344      351 
     340      341      359      363      351      360      373      360 
     351      368      376      360      353      361      364      357 
     351      349      349      346      344      340      330      326 
     324      324      321      307      299      303      298      289 
     288      282      274      275      276      265      259      263 
     263      259      255      259      263      255      255      263 
     265      259      265      275      270      268      280      282 
     276      280      291      291      282      291      305      298 
     289      299      311      302      295      307      315      306 
     298      302      313      305      292      301      301      291 
     291      289      279      276      279      280      274      265 
     265      268      261      257      259      261      257      253 
     253      257      257      256      259      263      263      261 
     274      276      270      282      294      284      283      292 
     294      291      294      302      301      297      298      302 
     299      294      295      295      284      282      288      283 
     268      265      271      261      246      243      238      228 
     222      212      197      182      176      168      149      141 
     137      124      110      103       98       90       82       78 
      74       72       72       67       65       70       70       67 
      70       79       82       75       82       95       94       90 
      98      109      105      102      116      124      117      112 
     122      135      126      118      129      139      135      129 
     131      129      118      118      131      122      110      114 
     118      116      108      105      110      105       97       99 
      99       95       93       95       99       99       93       95 
     103       98       97      108      108      103      106      109 
     109      110      110      114      112      109      112      114 
     109      106      109      108      101      103      108       97 
      94      101       98       90       85       91       97       87 
      85       93       89       82       85       86       86       79 
      74       83       89       82       78       85       89       82 
      81       91       99       91       90      101      103      105 
     117      125      124      129      141      143      144      160 
     175      178      175      160      171      212      191      170 
     224      210      183      218      203      195      214      190 
     183      190      174      164      164      156      143      133 
     129      116       95       89       87       68       47       51 
      47       18        5       13       -1      -29      -31      -25 
     -44      -59      -55      -56      -68      -82      -79      -67 
     -82      -99      -87      -76      -86      -98      -93      -78 
     -86      -93      -82      -75      -81      -87      -81      -70 
     -79      -87      -75      -71      -82      -85      -82      -85 
     -91      -94      -94     -101     -108     -108     -112     -125 
    -128     -122     -129     -147     -151     -144     -151     -166 
    -166     -162     -171     -180     -175     -168     -180     -194 
    -186     -178     -182     -190     -191     -183     -183     -193 
    -184     -175     -184     -190     -178     -174     -184     -189 
    -176     -170     -176     -178     -171     -168     -168     -166 
    -160     -153     -156     -156     -143     -133     -137     -129 
    -120     -117     -105      -90      -90      -86      -64      -51 
     -52      -47      -23       -8      -11       -1       23       35 
      37       54       75       81       79       98      124      129 
     129      144      172      174      171      197      218      218 
     224      248      266      265      272      301      314      313 
     321      344      360      357      365      386      392      395 
     399      410      423      422      419      436      446      442 
     441      450      464      464      460      471      476      464 
     463      476      473      461      463      472      463      449 
     454      454      437      433      438      429      415      411 
     414      413      392      383      395      388      370      368 
     373      373      364      359      363      359      344      342 
     353      346      330      333      340      334      321      321 
     332      318      303      311      313      297      284      289 
     288      265      261      266      252      233      234      237 
     218      201      206      210      194      178      184      189 
     178      171      180      186      176      171      184      189 
     180      187      197      195      195      205      209      203 
     207      222      225      216      221      232      222      217 
     232      237      224      218      228      230      218      221 
     228      220      211      218      221      211      210      212 
     207      203      203      205      199      190      191      191 
     180      175      175      168      159      149      141      135 
     128      122      114       98       90       85       65       55 
      54       45       28       14       17       11       -9       -8 
       0       -8      -16      -10       -8      -11      -10        2 
       9        5        8       28       45       43       49       74 
      89       94      105      128      151      156      164      191 
     212      225      241      256      270      280      292      313 
     329      336      341      352      367      370      368      378 
     386      380      373      378      376      365      360      363 
     346      324      321      317      291      272      261      243 
     221      202      178      156      131      112       89       58 
      32       16      -10      -47      -68      -86     -120     -152 
    -170     -190     -220     -248     -266     -287     -311     -328 
    -349     -376     -390     -399     -415     -433     -448     -457 
    -472     -486     -487     -495     -514     -522     -521     -526 
    -535     -544     -542     -542     -553     -557     -548     -549 
    -556     -546     -537     -545     -542     -523     -515     -511 
    -500     -496     -488     -469     -461     -451     -434     -419 
    -410     -395     -370     -355     -346     -322     -295     -280 
    -259     -233     -211     -189     -162     -131     -106      -89 
     -58      -22        4       36       65       89      126      166 
     190      225      266      301      334      369      413      454 
     486      517      558      603      642      675      710      751 
     795      831      864      903      943      977     1009     1047 
    1081     1111     1143     1174     1205     1237     1263     1285 
    1313     1341     1362     1379     1405     1426     1436     1457 
    1486     1497     1499     1521     1541     1544     1549     1568 
    1580     1579     1583     1591     1594     1598     1597     1590 
    1588     1588     1578     1567     1560     1544     1521     1513 
    1503     1476     1455     1440     1416     1391     1368     1341 
    1314     1293     1267     1233     1209     1192     1158     1125 
    1111     1090     1053     1028     1017     1000      978      955 
     938      924      907      893      884      872      855      838 
     832      830      812      792      791      785      765      751 
     741      727      714      695      677      662      641      622 
     606      583      560      538      510      488      471      444 
     414      387      370      348      307      276      259      233 
     201      171      141      120       94       60       35       11 
     -18      -47      -68      -90     -124     -156     -175     -194 
    -228     -257     -275     -302     -332     -351     -372     -403 
    -433     -449     -471     -502     -518     -532     -565     -588 
    -602     -623     -649     -669     -683     -702     -728     -745 
    -760     -783     -805     -824     -838     -853     -877     -895 
    -901     -919     -945     -955     -961     -981    -1005    -1013 
   -1021    -1044    -1062    -1063    -1073    -1098    -1107    -1105 
   -1119    -1135    -1138    -1138    -1144    -1151    -1148    -1143 
   -1146    -1150    -1144    -1138    -1133    -1129    -1120    -1109 
   -1102    -1096    -1084    -1073    -1067    -1057    -1039    -1032 
   -1026    -1011     -997     -992     -986     -970     -954     -949 
    -942     -928     -915     -905     -897     -882     -869     -864 
    -853     -838     -827     -823     -812     -793     -784     -783 
    -770     -753     -741     -734     -724     -715     -706     -692 
    -675     -668     -662     -646     -629     -612     -602     -592 
    -569     -549     -538     -515     -491     -475     -451     -425 
    -402     -378     -348     -315     -287     -259     -229     -199 
    -167     -136     -108      -74      -41      -16        8       43 
      76       91      112      149      171      182      205      230 
     245      253      272      292      295      297      313      328 
     325      321      330      342      340      332      342      349 
     340      337      355      361      348      351      375      378 
     368      383      406      409      406      429      451      453 
     464      491      502      508      530      550      561      573 
     595      616      626      638      657      670      675      691 
     707      712      714      726      741      738      731      746 
     754      746      739      741      745      730      714      715 
     712      697      676      662      660      641      618      611 
     592      566      553      540      511      486      471      453 
     425      398      380      361      326      292      278      259 
     220      186      168      144      106       71       52       28 
     -14      -47      -67     -102     -144     -176     -199     -234 
    -282     -311     -329     -373     -418     -437     -461     -502 
    -537     -561     -587     -619     -646     -664     -687     -718 
    -733     -741     -760     -777     -787     -793     -804     -815 
    -814     -812     -819     -818     -807     -803     -805     -797 
    -774     -764     -764     -747     -723     -708     -699     -681 
    -657     -635     -623     -610     -583     -556     -544     -532 
    -504     -475     -460     -449     -425     -396     -382     -365 
    -337     -311     -301     -280     -238     -216     -207     -182 
    -148     -118      -98      -75      -35       -2       21       56 
      93      131      166      194      240      292      324      355 
     405      453      488      525      584      634      660      702 
     766      808      841      888      940      982     1011     1051 
    1100     1132     1162     1196     1227     1255     1281     1304 
    1321     1340     1358     1367     1371     1377     1383     1385 
    1374     1366     1360     1341     1318     1302     1282     1251 
    1216     1193     1165     1119     1080     1051     1005      950 
     909      866      814      761      714      666      614      560 
     510      461      413      357      306      263      217      166 
     125       87       41       -5      -40      -74     -120     -157 
    -182     -216     -252     -278     -303     -338     -364     -383 
    -409     -437     -457     -469     -496     -526     -538     -549 
    -575     -598     -610     -619     -638     -665     -675     -681 
    -702     -720     -728     -737     -749     -766     -772     -776 
    -791     -801     -803     -807     -818     -826     -823     -823 
    -827     -831     -834     -832     -826     -828     -835     -827 
    -820     -822     -822     -823     -818     -807     -814     -810 
    -795     -795     -797     -791     -780     -767     -770     -769 
    -743     -727     -733     -727     -700     -676     -670     -662 
    -637     -615     -600     -579     -556     -535     -515     -495 
    -472     -441     -425     -411     -380     -352     -342     -325 
    -294     -278     -270     -252     -229     -214     -212     -201 
    -183     -178     -176     -167     -160     -155     -157     -157 
    -152     -151     -155     -160     -160     -156     -162     -172 
    -176     -174     -175     -191     -201     -195     -206     -220 
    -217     -225     -244     -249     -251     -266     -278     -279 
    -288     -306     -317     -322     -333     -344     -351     -361 
    -370     -370     -378     -386     -382     -382     -391     -390 
    -376     -369     -369     -363     -344     -328     -317     -309 
