Origin Time       2016/04/16 01:25:00
Lat.              32.753
Long.             130.762
Depth. (km)       12
Mag.              7.3
Station Code      SZO017
Station Lat.      34.6374
Station Long.     138.1281
Station Height(m) 8
Record Time       2016/04/16 01:28:41
Sampling Freq(Hz) 100Hz
Duration Time(s)  71
Dir.              N-S
Scale Factor      7845(gal)/8223790
Max. Acc. (gal)   1.630
Last Correction   2016/04/16 01:28:43
Memo.             
[...]
   -1557    -1551    -1539    -1525    -1514    -1501    -1489    -1478 
   -1462    -1448    -1439    -1424    -1408    -1398    -1382    -1363 
   -1348    -1331    -1314    -1301    -1285    -1269    -1256    -1243 
   -1221    -1200    -1185    -1171    -1156    -1136    -1115    -1101 
   -1089    -1070    -1051    -1032    -1015     -999     -981     -963 
    -946     -927     -912     -896     -877     -862     -849     -832 
    -819     -804     -789     -780     -767     -753     -741     -731 
    -722     -711     -702     -695     -688     -685     -679     -668 
    -661     -657     -654     -650     -641     -637     -635     -630 
    -625     -630     -630     -625     -623     -625     -623     -623 
    -627     -631     -630     -627     -637     -645     -645     -645 
    -649     -656     -660     -665     -675     -679     -679     -685 
    -693     -706     -712     -715     -722     -733     -743     -753 
    -762     -773     -781     -789     -797     -808     -822     -831 
    -837     -850     -864     -868     -877     -892     -903     -911 
    -919     -923     -934     -951     -962     -970     -978     -986 
    -996    -1009    -1019    -1028    -1039    -1051    -1059    -1069 
   -1080    -1090    -1104    -1117    -1125    -1131    -1140    -1152 
   -1166    -1177    -1185    -1192    -1204    -1215    -1224    -1228 
   -1230    -1236    -1244    -1250    -1252    -1255    -1254    -1251 
   -1256    -1260    -1256    -1251    -1247    -1243    -1242    -1237 
   -1228    -1220    -1215    -1206    -1198    -1190    -1182    -1175 
   -1167    -1158    -1146    -1133    -1128    -1120    -1104    -1090 
   -1085    -1078    -1065    -1053    -1044    -1035    -1026    -1019 
   -1011    -1000     -990     -982     -970     -959     -957     -958 
    -951     -940     -932     -926     -918     -913     -908     -897 
    -888     -881     -874     -866     -858     -850     -835     -819 
    -810     -799     -785     -774     -762     -743     -727     -711 
    -695     -680     -664     -645     -629     -616     -598     -577 
    -562     -550     -533     -515     -503     -496     -488     -480 
    -475     -464     -453     -451     -453     -451     -456     -461 
    -464     -472     -484     -492     -499     -506     -521     -540 
    -557     -569     -581     -596     -615     -638     -657     -675 
    -693     -707     -727     -756     -776     -791     -805     -823 
    -846     -872     -893     -908     -927     -949     -970     -987 
   -1009    -1035    -1057    -1077    -1097    -1112    -1127    -1147 
   -1174    -1198    -1217    -1228    -1243    -1266    -1294    -1314 
   -1329    -1345    -1362    -1379    -1398    -1416    -1435    -1455 
   -1472    -1482    -1494    -1514    -1533    -1552    -1571    -1582 
   -1584    -1598    -1620    -1637    -1655    -1672    -1682    -1687 
   -1698    -1710    -1723    -1737    -1748    -1755    -1761    -1771 
   -1780    -1788    -1795    -1799    -1800    -1807    -1818    -1823 
   -1826    -1826    -1825    -1823    -1823    -1826    -1831    -1830 
   -1821    -1811    -1814    -1814    -1806    -1795    -1784    -1776 
   -1768    -1759    -1755    -1748    -1734    -1722    -1706    -1691 
   -1680    -1669    -1656    -1641    -1620    -1597    -1588    -1576 
   -1549    -1525    -1509    -1494    -1468    -1440    -1417    -1397 
   -1375    -1350    -1317    -1287    -1266    -1243    -1215    -1185 
   -1148    -1112    -1081    -1055    -1030    -1000     -969     -939 
    -909     -877     -849     -820     -796     -770     -741     -710 
    -683     -665     -650     -629     -599     -572     -549     -533 
    -525     -513     -488     -463     -451     -445     -432     -414 
    -403     -399     -394     -386     -376     -368     -368     -369 
    -364     -355     -349     -355     -365     -368     -363     -365 
    -373     -383     -391     -396     -402     -411     -423     -433 
    -444     -456     -467     -476     -491     -506     -519     -531 
    -544     -558     -575     -585     -600     -616     -627     -642 
    -664     -677     -689     -702     -719     -735     -749     -766 
    -784     -795     -810     -827     -842     -859     -876     -889 
    -905     -922     -935     -949     -963     -981     -992    -1004 
   -1020    -1034    -1048    -1065    -1074    -1081    -1096    -1104 
   -1112    -1127    -1136    -1143    -1151    -1161    -1169    -1174 
   -1181    -1193    -1197    -1194    -1198    -1206    -1210    -1215 
   -1217    -1220    -1223    -1228    -1233    -1232    -1229    -1232 
   -1236    -1239    -1239    -1240    -1242    -1246    -1251    -1255 
   -1254    -1255    -1263    -1267    -1266    -1266    -1270    -1277 
   -1281    -1279    -1281    -1285    -1285    -1285    -1286    -1287 
   -1289    -1290    -1287    -1282    -1281    -1281    -1279    -1274 
   -1275    -1278    -1271    -1263    -1264    -1266    -1260    -1259 
   -1256    -1252    -1252    -1250    -1246    -1246    -1248    -1247 
   -1244    -1242    -1246    -1250    -1247    -1243    -1244    -1248 
   -1251    -1254    -1258    -1262    -1263    -1263    -1271    -1278 
   -1285    -1294    -1300    -1304    -1313    -1324    -1331    -1344 
   -1356    -1362    -1374    -1390    -1405    -1418    -1431    -1444 
   -1459    -1475    -1490    -1502    -1520    -1537    -1552    -1568 
   -1583    -1595    -1606    -1624    -1636    -1647    -1661    -1676 
   -1686    -1690    -1701    -1711    -1721    -1726    -1729    -1729 
   -1733    -1737    -1741    -1738    -1734    -1737    -1734    -1726 
   -1719    -1710    -1701    -1694    -1683    -1671    -1657    -1642 
   -1626    -1606    -1591    -1570    -1541    -1518    -1495    -1471 
   -1445    -1414    -1382    -1348    -1314    -1286    -1255    -1216 
   -1178    -1144    -1109    -1075    -1039     -994     -949     -911 
    -876     -834     -792     -753     -710     -668     -629     -589 
    -550     -510     -471     -436     -403     -365     -322     -284 
    -253     -221     -190     -163     -133     -102      -72      -47 
     -25       -2       21       41       59       78       95      114 
     135      147      156      170      183      191      201      211 
     218      220      224      233      241      245      245      244 
     243      246      252      251      245      245      246      241 
     236      228      218      217      214      203      194      184 
     172      159      148      135      120      103       91       74 
      52       35       21        4      -13      -32      -59      -85 
    -106     -125     -144     -170     -191     -209     -230     -255 
    -279     -303     -326     -348     -372     -396     -419     -442 
    -468     -491     -513     -533     -560     -588     -611     -629 
    -653     -679     -702     -724     -749     -770     -792     -814 
    -838     -864     -884     -899     -916     -938     -959     -982 
   -1000    -1017    -1032    -1048    -1065    -1086    -1102    -1112 
   -1125    -1146    -1162    -1171    -1185    -1201    -1215    -1224 
   -1235    -1250    -1258    -1262    -1270    -1282    -1297    -1305 
   -1305    -1308    -1320    -1329    -1332    -1332    -1333    -1339 
   -1340    -1339    -1336    -1339    -1337    -1329    -1328    -1332 
   -1329    -1318    -1308    -1305    -1302    -1291    -1275    -1262 
   -1258    -1251    -1235    -1219    -1208    -1194    -1177    -1159 
   -1142    -1124    -1107    -1089    -1070    -1051    -1032    -1008 
    -982     -959     -940     -913     -884     -861     -838     -807 
    -777     -753     -724     -696     -669     -638     -604     -577 
    -550     -522     -493     -464     -440     -414     -383     -357 
    -336     -314     -287     -259     -237     -222     -199     -172 
    -155     -140     -117      -93      -74      -59      -40      -21 
      -4       14       32       45       65       89      106      121 
     137      153      170      191      210      225      243      261 
     278      292      309      326      342      359      378      391 
     403      418      433      448      464      476      488      502 
     511      518      531      548      556      564      573      581 
     587      591      596      603      612      618      622      626 
     630      633      637      638      635      637      638      639 
     642      642      638      631      629      629      623      615 
     608      602      595      588      579      566      549      533 
     526      521      503      483      467      451      432      413 
     394      372      346      325      301      274      248      221 
     193      163      135      105       68       29       -5      -41 
     -78     -116     -157     -202     -244     -284     -329     -375 
    -421     -468     -517     -564     -615     -670     -720     -772 
    -823     -870     -923     -981    -1034    -1085    -1136    -1189 
   -1240    -1286    -1336    -1389    -1443    -1495    -1540    -1586 
   -1637    -1683    -1725    -1771    -1818    -1863    -1900    -1938 
   -1985    -2027    -2057    -2092    -2134    -2170    -2201    -2231 
   -2263    -2295    -2319    -2344    -2376    -2403    -2419    -2431 
   -2448    -2469    -2482    -2496    -2511    -2523    -2525    -2528 
   -2531    -2532    -2533    -2529    -2523    -2519    -2511    -2497 
   -2488    -2475    -2457    -2442    -2427    -2404    -2382    -2357 
   -2328    -2301    -2274    -2245    -2218    -2189    -2153    -2110 
   -2073    -2045    -2011    -1969    -1927    -1883    -1841    -1809 
   -1772    -1726    -1674    -1625    -1584    -1551    -1512    -1459 
   -1409    -1372    -1339    -1298    -1244    -1192    -1155    -1123 
   -1086    -1046     -999     -953     -920     -889     -855     -818 
    -776     -739     -711     -685     -654     -619     -587     -565 
    -542     -514     -484     -459     -440     -422     -398     -375 
    -356     -334     -315     -306     -292     -272     -255     -241 
    -230     -221     -210     -199     -187     -175     -166     -163 
    -163     -157     -147     -140     -139     -140     -141     -141 
    -137     -131     -135     -147     -152     -149     -149     -156 
    -166     -172     -175     -178     -186     -194     -202     -214 
    -222     -224     -225     -238     -256     -266     -272     -278 
    -287     -297     -309     -326     -336     -337     -344     -360 
    -376     -395     -406     -411     -425     -446     -467     -481 
    -496     -508     -522     -548     -577     -598     -615     -635 
    -656     -684     -719     -746     -767     -791     -816     -846 
    -880     -912     -939     -966     -999    -1031    -1063    -1093 
   -1121    -1151    -1181    -1210    -1247    -1281    -1305    -1332 
   -1364    -1394    -1422    -1456    -1483    -1506    -1535    -1570 
   -1598    -1625    -1651    -1672    -1696    -1729    -1761    -1779 
   -1798    -1825    -1849    -1867    -1890    -1912    -1934    -1954 
   -1973    -1989    -2001    -2015    -2034    -2049    -2062    -2079 
   -2091    -2096    -2106    -2111    -2116    -2130    -2143    -2141 
   -2135    -2147    -2162    -2160    -2150    -2155    -2160    -2153 
   -2150    -2157    -2158    -2153    -2146    -2147    -2149    -2143 
   -2135    -2126    -2130    -2143    -2143    -2134    -2130    -2119 
   -2106    -2115    -2133    -2134    -2116    -2102    -2104    -2102 
   -2096    -2098    -2106    -2101    -2091    -2084    -2081    -2073 
   -2058    -2047    -2045    -2052    -2050    -2025    -1995    -1977 
   -1966    -1961    -1962    -1956    -1923    -1885    -1859    -1840 
   -1823    -1818    -1799    -1757    -1718    -1695    -1667    -1624 
   -1595    -1583    -1560    -1520    -1475    -1431    -1390    -1351 
   -1317    -1293    -1274    -1232    -1167    -1117    -1096    -1071 
   -1034    -1000     -972     -915     -853     -826     -820     -801 
    -758     -693     -641     -637     -642     -610     -557     -519 
    -493     -464     -445     -430     -406     -376     -356     -336 
    -311     -289     -271     -251     -245     -253     -234     -190 
    -159     -156     -170     -184     -183     -159     -118      -97 
    -118     -151     -160     -147     -121     -109     -128     -152 
    -167     -174     -163     -153     -178     -220     -237     -225 
    -225     -261     -306     -318     -314     -334     -379     -413 
    -430     -450     -480     -506     -525     -566     -622     -661 
    -673     -688     -733     -780     -808     -843     -896     -934 
    -950     -978    -1024    -1070    -1102    -1133    -1177    -1216 
   -1235    -1259    -1306    -1359    -1390    -1412    -1440    -1475 
   -1507    -1541    -1582    -1614    -1632    -1655    -1694    -1737 
   -1763    -1773    -1799    -1844    -1878    -1899    -1923    -1949 
   -1973    -2003    -2034    -2061    -2085    -2107    -2130    -2160 
   -2185    -2208    -2235    -2263    -2285    -2304    -2328    -2355 
   -2378    -2400    -2415    -2431    -2463    -2500    -2515    -2517 
   -2525    -2546    -2578    -2609    -2621    -2617    -2620    -2639 
   -2664    -2681    -2682    -2682    -2686    -2704    -2727    -2733 
   -2724    -2717    -2724    -2740    -2755    -2755    -2744    -2739 
   -2740    -2747    -2754    -2752    -2745    -2740    -2735    -2725 
   -2721    -2721    -2720    -2713    -2698    -2686    -2686    -2686 
   -2674    -2647    -2624    -2621    -2631    -2627    -2597    -2559 
   -2542    -2540    -2536    -2517    -2489    -2461    -2444    -2440 
   -2430    -2407    -2376    -2346    -2332    -2331    -2319    -2293 
   -2265    -2238    -2223    -2219    -2203    -2178    -2161    -2144 
   -2126    -2111    -2092    -2070    -2057    -2047    -2034    -2012 
   -1985    -1975    -1975    -1964    -1934    -1908    -1903    -1903 
   -1888    -1861    -1844    -1840    -1838    -1830    -1817    -1799 
   -1783    -1769    -1760    -1755    -1752    -1745    -1734    -1721 
   -1705    -1687    -1677    -1680    -1680    -1665    -1645    -1632 
   -1626    -1611    -1601    -1595    -1588    -1576    -1563    -1547 
   -1530    -1516    -1509    -1507    -1495    -1480    -1468    -1457 
   -1445    -1428    -1410    -1404    -1405    -1401    -1385    -1360 
   -1340    -1336    -1340    -1336    -1325    -1312    -1297    -1287 
   -1282    -1277    -1266    -1258    -1258    -1255    -1244    -1230 
   -1217    -1208    -1212    -1219    -1213    -1200    -1192    -1185 
   -1185    -1189    -1189    -1181    -1174    -1178    -1179    -1173 
   -1166    -1170    -1181    -1179    -1175    -1182    -1190    -1188 
   -1185    -1194    -1202    -1206    -1213    -1220    -1227    -1232 
   -1235    -1239    -1244    -1255    -1271    -1275    -1273    -1275 
   -1281    -1286    -1290    -1294    -1301    -1306    -1310    -1306 
   -1296    -1297    -1302    -1300    -1297    -1300    -1297    -1286 
   -1274    -1263    -1259    -1260    -1260    -1252    -1239    -1228 
   -1221    -1216    -1205    -1196    -1193    -1189    -1185    -1179 
   -1166    -1154    -1148    -1146    -1142    -1146    -1148    -1140 
   -1128    -1124    -1127    -1132    -1132    -1131    -1136    -1140 
   -1135    -1129    -1133    -1140    -1143    -1148    -1148    -1148 
   -1155    -1156    -1150    -1148    -1155    -1162    -1165    -1165 
   -1159    -1152    -1151    -1155    -1159    -1158    -1154    -1147 
   -1138    -1132    -1132    -1135    -1133    -1123    -1107    -1096 
   -1092    -1093    -1090    -1086    -1075    -1057    -1043    -1035 
   -1028    -1019    -1011    -1009    -1004     -984     -963     -957 
    -954     -951     -950     -942     -920     -903     -901     -897 
    -890     -888     -882     -869     -859     -859     -858     -845 
    -832     -832     -838     -841     -831     -814     -805     -812 
    -822     -823     -820     -819     -812     -804     -805     -815 
    -819     -816     -820     -830     -834     -828     -819     -820 
    -838     -858     -862     -859     -859     -859     -854     -854 
    -873     -899     -908     -900     -895     -899     -905     -911 
    -922     -942     -961     -966     -957     -951     -963     -986 
   -1000    -1009    -1023    -1034    -1030    -1032    -1055    -1074 
   -1085    -1096    -1100    -1105    -1123    -1142    -1151    -1158 
   -1167    -1183    -1200    -1210    -1219    -1228    -1239    -1255 
   -1275    -1290    -1297    -1297    -1300    -1320    -1345    -1358 
   -1351    -1340    -1351    -1381    -1398    -1391    -1381    -1381 
   -1387    -1399    -1408    -1404    -1394    -1389    -1387    -1387 
   -1393    -1394    -1378    -1355    -1350    -1362    -1363    -1345 
   -1320    -1298    -1300    -1308    -1293    -1260    -1240    -1233 
   -1229    -1220    -1200    -1175    -1155    -1138    -1128    -1123 
   -1105    -1077    -1044    -1023    -1021    -1019     -990     -955 
    -932     -923     -918     -900     -868     -841     -827     -819 
    -805     -783     -760     -743     -728     -712     -697     -683 
    -672     -661     -646     -630     -618     -608     -599     -587 
    -577     -569     -562     -553     -540     -532     -533     -532 
    -522     -510     -508     -513     -511     -502     -490     -486 
    -491     -493     -493     -492     -491     -491     -493     -495 
    -498     -500     -500     -504     -511     -517     -525     -526 
    -526     -532     -545     -553     -560     -564     -572     -583 
    -594     -602     -611     -618     -623     -634     -650     -657 
    -660     -669     -676     -684     -696     -700     -702     -708 
    -712     -714     -718     -722     -720     -715     -714     -715 
    -715     -712     -714     -710     -696     -689     -689     -685 
    -679     -670     -658     -652     -649     -639     -630     -626 
    -618     -607     -603     -599     -589     -583     -579     -576 
    -569     -566     -564     -557     -553     -557     -557     -556 
    -553     -556     -557     -558     -562     -572     -577     -579 
    -585     -596     -603     -611     -625     -635     -645     -658 
    -672     -683     -695     -710     -723     -741     -757     -770 
    -783     -800     -820     -832     -842     -857     -876     -889 
    -899     -913     -928     -938     -946     -961     -980     -987 
    -992    -1000    -1013    -1020    -1028    -1036    -1039    -1044 
   -1047    -1053    -1058    -1059    -1055    -1055    -1057    -1055 
   -1053    -1050    -1042    -1034    -1030    -1024    -1017    -1007 
    -993     -984     -976     -965     -953     -938     -926     -915 
    -903     -889     -874     -857     -842     -830     -816     -799 
    -776     -761     -750     -731     -710     -697     -681     -660 
    -641     -623     -606     -588     -566     -544     -526     -510 
    -490     -464     -444     -423     -400     -380     -361     -336 
    -310     -292     -275     -248     -222     -202     -183     -160 
    -133     -109      -91      -71      -47      -23        0       18 
