Origin Time       2016/04/16 01:25:00
Lat.              32.753
Long.             130.762
Depth. (km)       12
Mag.              7.3
Station Code      SZO025
Station Lat.      34.7194
Station Long.     137.5314
Station Height(m) 4
Record Time       2016/04/16 01:28:22
Sampling Freq(Hz) 100Hz
Duration Time(s)  60
Dir.              E-W
Scale Factor      7845(gal)/8223790
Max. Acc. (gal)   0.744
Last Correction   2016/04/16 01:28:23
Memo.             
[...]
   -6354    -6367    -6370    -6378    -6386    -6389    -6393    -6396 
   -6405    -6407    -6409    -6413    -6417    -6417    -6415    -6417 
   -6405    -6407    -6416    -6417    -6417    -6399    -6389    -6405 
   -6412    -6397    -6388    -6403    -6404    -6405    -6407    -6401 
   -6392    -6385    -6404    -6419    -6416    -6409    -6416    -6430 
   -6424    -6423    -6426    -6427    -6436    -6444    -6457    -6458 
   -6460    -6455    -6451    -6465    -6474    -6477    -6478    -6485 
   -6492    -6501    -6511    -6498    -6501    -6516    -6520    -6524 
   -6531    -6544    -6551    -6559    -6555    -6550    -6561    -6564 
   -6577    -6588    -6593    -6594    -6590    -6590    -6583    -6590 
   -6602    -6602    -6601    -6598    -6600    -6586    -6577    -6574 
   -6573    -6574    -6558    -6550    -6547    -6540    -6528    -6512 
   -6496    -6481    -6482    -6484    -6469    -6454    -6434    -6426 
   -6413    -6397    -6384    -6382    -6384    -6361    -6347    -6340 
   -6328    -6319    -6305    -6297    -6296    -6300    -6297    -6288 
   -6285    -6276    -6272    -6272    -6273    -6269    -6272    -6285 
   -6280    -6274    -6265    -6259    -6269    -6272    -6277    -6274 
   -6269    -6264    -6261    -6261    -6249    -6252    -6258    -6250 
   -6234    -6223    -6228    -6227    -6218    -6203    -6192    -6189 
   -6185    -6192    -6186    -6177    -6170    -6166    -6164    -6156 
   -6168    -6176    -6174    -6183    -6189    -6191    -6188    -6197 
   -6207    -6214    -6234    -6243    -6252    -6264    -6284    -6301 
   -6311    -6326    -6342    -6366    -6384    -6394    -6405    -6417 
   -6444    -6457    -6460    -6477    -6497    -6509    -6509    -6520 
   -6523    -6525    -6542    -6551    -6555    -6555    -6561    -6562 
   -6559    -6558    -6548    -6544    -6531    -6527    -6531    -6534 
   -6525    -6501    -6488    -6478    -6467    -6459    -6447    -6435 
   -6420    -6416    -6407    -6382    -6367    -6354    -6347    -6330 
   -6315    -6308    -6296    -6292    -6285    -6278    -6259    -6251 
   -6255    -6246    -6246    -6249    -6247    -6249    -6254    -6257 
   -6257    -6274    -6277    -6280    -6295    -6297    -6297    -6303 
   -6315    -6323    -6336    -6349    -6343    -6345    -6347    -6356 
   -6363    -6358    -6359    -6365    -6373    -6367    -6361    -6370 
   -6369    -6365    -6356    -6359    -6365    -6365    -6366    -6361 
   -6358    -6353    -6355    -6356    -6343    -6343    -6349    -6355 
   -6353    -6355    -6361    -6355    -6351    -6349    -6356    -6369 
   -6374    -6378    -6377    -6380    -6376    -6386    -6401    -6389 
   -6384    -6394    -6404    -6394    -6388    -6392    -6385    -6385 
   -6382    -6374    -6363    -6365    -6374    -6369    -6361    -6347 
   -6339    -6342    -6335    -6338    -6331    -6323    -6316    -6301 
   -6296    -6303    -6303    -6289    -6292    -6292    -6272    -6264 
   -6259    -6254    -6250    -6251    -6249    -6234    -6227    -6219 
   -6218    -6208    -6200    -6208    -6214    -6211    -6193    -6185 
   -6185    -6184    -6196    -6201    -6203    -6197    -6191    -6192 
   -6186    -6191    -6199    -6212    -6216    -6205    -6205    -6214 
   -6232    -6239    -6245    -6250    -6250    -6259    -6266    -6282 
   -6293    -6295    -6305    -6312    -6318    -6326    -6349    -6361 
   -6356    -6369    -6378    -6386    -6403    -6419    -6417    -6413 
   -6435    -6444    -6450    -6463    -6470    -6477    -6481    -6478 
   -6474    -6484    -6493    -6498    -6505    -6493    -6490    -6496 
   -6498    -6494    -6477    -6470    -6471    -6474    -6462    -6446 
   -6444    -6438    -6426    -6419    -6420    -6417    -6408    -6411 
   -6401    -6386    -6376    -6374    -6386    -6386    -6376    -6361 
   -6365    -6372    -6370    -6378    -6374    -6376    -6377    -6369 
   -6356    -6363    -6389    -6389    -6378    -6373    -6363    -6361 
   -6366    -6376    -6370    -6372    -6372    -6349    -6342    -6349 
   -6356    -6355    -6349    -6343    -6335    -6345    -6353    -6346 
   -6332    -6334    -6347    -6343    -6349    -6358    -6347    -6334 
   -6334    -6343    -6346    -6355    -6350    -6340    -6347    -6340 
   -6332    -6335    -6345    -6331    -6311    -6316    -6319    -6323 
   -6323    -6323    -6319    -6311    -6312    -6307    -6312    -6320 
   -6322    -6331    -6330    -6330    -6338    -6350    -6353    -6355 
   -6366    -6359    -6361    -6366    -6367    -6373    -6374    -6381 
   -6382    -6378    -6374    -6380    -6384    -6370    -6370    -6365 
   -6356    -6356    -6355    -6359    -6351    -6340    -6322    -6312 
   -6323    -6323    -6313    -6305    -6305    -6288    -6268    -6269 
   -6273    -6278    -6265    -6254    -6262    -6261    -6265    -6264 
   -6247    -6231    -6238    -6251    -6252    -6266    -6270    -6258 
   -6252    -6252    -6262    -6272    -6284    -6280    -6282    -6297 
   -6288    -6290    -6308    -6313    -6305    -6307    -6322    -6320 
   -6330    -6332    -6323    -6322    -6327    -6332    -6323    -6323 
   -6323    -6318    -6313    -6290    -6282    -6292    -6295    -6285 
   -6270    -6265    -6245    -6226    -6224    -6230    -6227    -6205 
   -6199    -6184    -6170    -6176    -6168    -6158    -6142    -6133 
   -6126    -6118    -6126    -6127    -6123    -6114    -6106    -6100 
   -6103    -6126    -6123    -6119    -6131    -6129    -6129    -6135 
   -6150    -6146    -6151    -6177    -6184    -6195    -6211    -6227 
   -6218    -6208    -6237    -6252    -6268    -6282    -6289    -6289 
   -6282    -6303    -6318    -6327    -6346    -6349    -6356    -6374 
   -6396    -6401    -6409    -6431    -6427    -6443    -6474    -6494 
   -6521    -6550    -6571    -6569    -6588    -6617    -6629    -6659 
   -6685    -6706    -6723    -6731    -6744    -6762    -6797    -6808 
   -6805    -6814    -6812    -6809    -6804    -6808    -6806    -6801 
   -6805    -6782    -6767    -6759    -6747    -6721    -6681    -6671 
   -6658    -6635    -6621    -6596    -6573    -6542    -6523    -6500 
   -6465    -6460    -6448    -6420    -6392    -6381    -6373    -6343 
   -6339    -6330    -6312    -6309    -6307    -6311    -6307    -6307 
   -6290    -6270    -6280    -6280    -6277    -6278    -6280    -6276 
   -6255    -6259    -6262    -6254    -6251    -6245    -6243    -6227 
   -6227    -6230    -6212    -6200    -6181    -6184    -6191    -6186 
   -6180    -6162    -6156    -6146    -6146    -6156    -6146    -6146 
   -6150    -6158    -6160    -6158    -6165    -6162    -6183    -6197 
   -6196    -6211    -6222    -6234    -6243    -6262    -6274    -6270 
   -6305    -6328    -6330    -6338    -6356    -6380    -6381    -6399 
   -6413    -6416    -6435    -6448    -6457    -6453    -6467    -6486 
   -6471    -6484    -6494    -6490    -6489    -6486    -6488    -6474 
   -6477    -6477    -6454    -6455    -6457    -6453    -6439    -6427 
   -6415    -6386    -6388    -6381    -6361    -6350    -6336    -6328 
   -6299    -6278    -6272    -6255    -6249    -6227    -6210    -6189 
   -6168    -6165    -6154    -6143    -6123    -6106    -6097    -6081 
   -6083    -6068    -6053    -6044    -6027    -6027    -6015    -6004 
   -6000    -6000    -6010    -5994    -5988    -5984    -5972    -5981 
   -5989    -5992    -5981    -5987    -5998    -5996    -6019    -6018 
   -6014    -6029    -6030    -6038    -6052    -6065    -6060    -6062 
   -6087    -6076    -6070    -6077    -6080    -6080    -6072    -6088 
   -6076    -6058    -6075    -6073    -6057    -6044    -6046    -6034 
   -6018    -6022    -6002    -5994    -5996    -5981    -5964    -5950 
   -5957    -5940    -5929    -5937    -5917    -5900    -5902    -5910 
   -5902    -5888    -5900    -5886    -5881    -5902    -5907    -5902 
   -5904    -5934    -5938    -5938    -5967    -5983    -6003    -6011 
   -6025    -6054    -6069    -6088    -6104    -6138    -6169    -6169 
   -6189    -6219    -6249    -6258    -6272    -6290    -6282    -6308 
   -6342    -6354    -6361    -6363    -6377    -6384    -6393    -6403 
   -6404    -6426    -6434    -6432    -6436    -6434    -6432    -6434 
   -6465    -6459    -6434    -6446    -6457    -6463    -6457    -6458 
   -6465    -6454    -6459    -6459    -6451    -6446    -6448    -6454 
   -6435    -6439    -6439    -6417    -6416    -6407    -6389    -6369 
   -6369    -6369    -6346    -6345    -6323    -6289    -6273    -6265 
   -6246    -6210    -6207    -6195    -6153    -6142    -6124    -6088 
   -6060    -6056    -6052    -6014    -5996    -5981    -5965    -5953 
   -5938    -5938    -5915    -5892    -5891    -5899    -5910    -5886 
   -5883    -5906    -5915    -5921    -5913    -5923    -5934    -5937 
   -5964    -5987    -6000    -6011    -6035    -6049    -6058    -6097 
   -6106    -6119    -6153    -6161    -6178    -6201    -6219    -6232 
   -6254    -6273    -6259    -6274    -6295    -6295    -6290    -6305 
   -6339    -6326    -6311    -6318    -6303    -6305    -6313    -6313 
   -6304    -6299    -6305    -6285    -6277    -6280    -6270    -6261 
   -6258    -6261    -6235    -6232    -6238    -6204    -6196    -6199 
   -6188    -6176    -6172    -6169    -6133    -6123    -6129    -6104 
   -6079    -6068    -6072    -6056    -6041    -6034    -6018    -6018 
   -5995    -5971    -5961    -5940    -5942    -5937    -5922    -5902 
   -5891    -5902    -5895    -5886    -5873    -5860    -5854    -5842 
   -5859    -5871    -5864    -5864    -5871    -5879    -5871    -5886 
   -5902    -5899    -5921    -5933    -5933    -5945    -5961    -5965 
   -5964    -5998    -6000    -5989    -6014    -6029    -6035    -6039 
   -6060    -6069    -6052    -6058    -6057    -6054    -6069    -6089 
   -6095    -6077    -6085    -6084    -6068    -6084    -6089    -6080 
   -6073    -6083    -6075    -6057    -6092    -6095    -6068    -6073 
   -6081    -6075    -6075    -6103    -6097    -6091    -6124    -6110 
   -6087    -6102    -6129    -6146    -6142    -6151    -6160    -6173 
   -6183    -6177    -6188    -6188    -6192    -6211    -6226    -6226 
   -6208    -6230    -6251    -6243    -6250    -6247    -6243    -6237 
   -6237    -6245    -6235    -6241    -6243    -6249    -6249    -6237 
   -6231    -6211    -6214    -6227    -6211    -6207    -6214    -6218 
   -6200    -6193    -6197    -6181    -6185    -6185    -6176    -6174 
   -6191    -6216    -6199    -6189    -6196    -6184    -6186    -6204 
   -6228    -6232    -6232    -6242    -6231    -6245    -6264    -6266 
   -6274    -6282    -6292    -6299    -6330    -6346    -6336    -6359 
   -6369    -6374    -6393    -6413    -6423    -6411    -6442    -6460 
   -6434    -6442    -6471    -6489    -6484    -6484    -6492    -6488 
   -6500    -6488    -6477    -6485    -6478    -6470    -6459    -6453 
   -6439    -6434    -6436    -6401    -6381    -6386    -6384    -6363 
   -6331    -6331    -6323    -6307    -6303    -6299    -6304    -6295 
   -6289    -6274    -6254    -6272    -6276    -6269    -6272    -6274 
   -6278    -6295    -6316    -6295    -6293    -6326    -6319    -6322 
   -6354    -6392    -6399    -6397    -6424    -6424    -6427    -6459 
   -6484    -6502    -6520    -6546    -6543    -6555    -6590    -6590 
   -6602    -6623    -6633    -6643    -6658    -6686    -6687    -6687 
   -6689    -6683    -6697    -6704    -6710    -6704    -6713    -6736 
   -6710    -6701    -6721    -6736    -6733    -6717    -6729    -6728 
   -6725    -6736    -6729    -6729    -6736    -6748    -6744    -6736 
   -6736    -6727    -6748    -6755    -6739    -6751    -6754    -6739 
   -6723    -6728    -6743    -6727    -6725    -6735    -6735    -6733 
   -6728    -6718    -6704    -6720    -6718    -6704    -6718    -6718 
   -6705    -6705    -6717    -6711    -6696    -6718    -6708    -6677 
   -6693    -6721    -6727    -6713    -6718    -6701    -6679    -6706 
   -6720    -6710    -6700    -6708    -6716    -6702    -6718    -6714 
   -6694    -6718    -6731    -6724    -6729    -6744    -6739    -6743 
   -6758    -6739    -6755    -6793    -6794    -6787    -6789    -6815 
   -6820    -6814    -6837    -6845    -6848    -6858    -6874    -6876 
   -6872    -6893    -6885    -6875    -6883    -6889    -6898    -6893 
   -6886    -6876    -6881    -6891    -6864    -6866    -6880    -6867 
   -6851    -6848    -6847    -6813    -6809    -6825    -6804    -6798 
   -6795    -6777    -6756    -6758    -6759    -6727    -6735    -6744 
   -6714    -6709    -6716    -6702    -6682    -6693    -6689    -6662 
   -6681    -6694    -6690    -6689    -6693    -6693    -6671    -6685 
   -6701    -6693    -6704    -6710    -6718    -6724    -6736    -6744 
   -6735    -6748    -6759    -6764    -6777    -6786    -6801    -6809 
   -6814    -6795    -6786    -6818    -6821    -6804    -6805    -6821 
   -6815    -6787    -6801    -6809    -6791    -6786    -6777    -6768 
   -6747    -6748    -6752    -6729    -6718    -6706    -6700    -6689 
   -6670    -6666    -6670    -6677    -6654    -6648    -6664    -6650 
   -6647    -6655    -6652    -6639    -6644    -6686    -6690    -6689 
   -6716    -6729    -6735    -6750    -6774    -6781    -6806    -6848 
   -6853    -6875    -6903    -6914    -6941    -6974    -6978    -6963 
   -7003    -7056    -7059    -7071    -7088    -7087    -7072    -7083 
   -7111    -7101    -7101    -7111    -7110    -7102    -7091    -7096 
   -7078    -7059    -7061    -7042    -7029    -7022    -7022    -7026 
   -7013    -6983    -6955    -6967    -6966    -6932    -6926    -6934 
   -6934    -6914    -6912    -6916    -6893    -6899    -6914    -6916 
   -6917    -6921    -6934    -6926    -6932    -6945    -6952    -6970 
   -6967    -6972    -6990    -7001    -6999    -7002    -7033    -7040 
   -7032    -7047    -7040    -7021    -7013    -7029    -7028    -7007 
   -7015    -7001    -6975    -6961    -6949    -6933    -6903    -6895 
   -6870    -6836    -6832    -6804    -6767    -6752    -6727    -6671 
   -6635    -6632    -6592    -6564    -6552    -6509    -6469    -6434 
   -6404    -6366    -6327    -6307    -6277    -6257    -6227    -6192 
   -6157    -6115    -6099    -6073    -6049    -6034    -6006    -5999 
   -5985    -5958    -5933    -5922    -5922    -5899    -5891    -5899 
   -5892    -5873    -5872    -5902    -5888    -5864    -5887    -5902 
   -5896    -5890    -5915    -5930    -5918    -5937    -5958    -5968 
   -5967    -5967    -5996    -6008    -6012    -6029    -6057    -6077 
   -6081    -6106    -6110    -6107    -6126    -6150    -6165    -6158 
   -6183    -6212    -6207    -6219    -6241    -6247    -6235    -6254 
   -6280    -6266    -6289    -6305    -6292    -6313    -6338    -6327 
   -6309    -6340    -6363    -6347    -6366    -6384    -6388    -6386 
   -6384    -6385    -6372    -6386    -6403    -6407    -6416    -6412 
   -6416    -6411    -6415    -6417    -6396    -6400    -6399    -6394 
   -6401    -6389    -6372    -6354    -6349    -6330    -6311    -6309 
   -6285    -6259    -6241    -6241    -6230    -6185    -6176    -6169 
   -6142    -6123    -6108    -6099    -6081    -6076    -6064    -6034 
   -6015    -5995    -5995    -5983    -5957    -5952    -5958    -5971 
   -5950    -5940    -5946    -5933    -5926    -5917    -5918    -5921 
   -5925    -5952    -5962    -5968    -5967    -5957    -5964    -5977 
   -5998    -5984    -5992    -6038    -6035    -6034    -6054    -6062 
   -6053    -6054    -6077    -6070    -6083    -6115    -6114    -6104 
   -6099    -6095    -6065    -6052    -6077    -6081    -6083    -6077 
   -6058    -6048    -6042    -6039    -6019    -6015    -6006    -5979 
   -5985    -5979    -5964    -5956    -5950    -5944    -5915    -5911 
   -5910    -5884    -5875    -5884    -5879    -5838    -5831    -5857 
   -5849    -5836    -5825    -5822    -5813    -5803    -5814    -5805 
   -5803    -5802    -5791    -5792    -5783    -5784    -5795    -5807 
   -5798    -5787    -5817    -5810    -5786    -5791    -5795    -5790 
   -5786    -5809    -5821    -5821    -5834    -5823    -5821    -5826 
   -5833    -5833    -5830    -5850    -5841    -5841    -5864    -5854 
   -5845    -5844    -5853    -5852    -5854    -5894    -5894    -5873 
   -5867    -5869    -5872    -5861    -5873    -5891    -5904    -5910 
   -5898    -5899    -5902    -5913    -5918    -5917    -5926    -5917 
   -5926    -5940    -5938    -5946    -5946    -5949    -5940    -5938 
   -5954    -5944    -5940    -5949    -5942    -5925    -5934    -5967 
   -5938    -5911    -5927    -5933    -5923    -5913    -5915    -5892 
   -5880    -5899    -5883    -5863    -5845    -5833    -5836    -5827 
   -5813    -5793    -5805    -5793    -5753    -5748    -5738    -5725 
   -5711    -5705    -5713    -5699    -5697    -5691    -5682    -5684 
   -5676    -5671    -5668    -5692    -5697    -5676    -5691    -5694 
   -5697    -5713    -5713    -5707    -5707    -5744    -5763    -5746 
   -5746    -5751    -5760    -5757    -5767    -5791    -5792    -5807 
   -5814    -5810    -5819    -5833    -5841    -5833    -5848    -5861 
   -5861    -5867    -5856    -5869    -5881    -5877    -5883    -5886 
   -5895    -5894    -5907    -5930    -5913    -5900    -5913    -5934 
   -5938    -5940    -5968    -5977    -5981    -5987    -5992    -5999 
   -6006    -6044    -6061    -6060    -6075    -6083    -6108    -6134 
   -6148    -6157    -6176    -6207    -6207    -6227    -6257    -6265 
   -6278    -6295    -6322    -6338    -6355    -6374    -6373    -6399 
   -6423    -6427    -6444    -6465    -6475    -6473    -6492    -6500 
   -6497    -6523    -6527    -6531    -6539    -6544    -6562    -6561 
   -6556    -6543    -6540    -6558    -6552    -6555    -6555    -6555 
   -6548    -6529    -6536    -6542    -6536    -6527    -6529    -6542 
   -6517    -6504    -6505    -6509    -6515    -6497    -6489    -6490 
   -6496    -6494    -6490    -6507    -6489    -6470    -6478    -6480 
   -6486    -6492    -6505    -6504    -6493    -6505    -6508    -6507 
   -6500    -6507    -6520    -6508    -6511    -6515    -6521    -6517 
   -6511    -6525    -6513    -6507    -6516    -6516    -6516    -6505 
   -6505    -6501    -6497    -6505    -6498    -6496    -6480    -6478 
   -6493    -6480    -6471    -6469    -6471    -6463    -6450    -6457 
   -6455    -6460    -6454    -6438    -6447    -6451    -6465    -6470 
   -6453    -6434    -6427    -6454    -6448    -6443    -6462    -6457 
   -6458    -6457    -6463    -6471    -6463    -6469    -6473    -6477 
   -6475    -6474    -6493    -6504    -6508    -6498    -6507    -6525 
   -6516    -6523    -6531    -6538    -6538    -6538    -6554    -6550 
   -6543    -6554    -6562    -6569    -6561    -6569    -6575    -6566 
   -6562    -6562    -6574    -6569    -6559    -6559    -6552    -6551 
   -6551    -6569    -6575    -6555    -6559    -6571    -6566    -6540 
   -6538    -6546    -6531    -6550    -6558    -6538    -6539    -6548 
   -6552    -6536    -6542    -6552    -6539    -6552    -6552    -6535 
   -6534    -6544    -6546    -6525    -6534    -6540    -6542    -6555 
   -6542    -6531    -6534    -6538    -6536    -6523    -6529    -6531 
