Origin Time       2016/04/16 01:25:00
Lat.              32.753
Long.             130.762
Depth. (km)       12
Mag.              7.3
Station Code      SZO016
Station Lat.      34.8566
Station Long.     138.3113
Station Height(m) 3
Record Time       2016/04/16 01:28:47
Sampling Freq(Hz) 100Hz
Duration Time(s)  78
Dir.              N-S
Scale Factor      7845(gal)/8223790
Max. Acc. (gal)   2.730
Last Correction   2016/04/16 01:28:48
Memo.             
[...]
    -160     -155     -144     -144     -151     -155     -153     -144 
    -137     -133     -129     -125     -121     -110     -105     -105 
     -91      -70      -56      -52      -51      -47      -29       -8 
       4       14       29       41       51       58       74       93 
     102      112      129      147      160      171      180      190 
     202      216      230      248      263      271      278      291 
     305      318      336      346      351      360      373      382 
     390      402      413      422      433      441      446      451 
     457      464      472      487      502      506      500      496 
     514      535      535      523      521      529      537      548 
     560      553      530      525      537      540      544      540 
     526      526      526      518      522      519      502      504 
     508      503      511      506      486      483      493      488 
     473      472      468      456      459      461      438      411 
     411      429      421      391      369      351      355      372 
     360      334      315      297      279      263      256      263 
     259      240      207      175      163      163      166      151 
     118       97       81       55       40       36       29       22 
      11       -5      -35      -56      -52      -36      -28      -36 
     -67      -93      -87      -65      -47      -49      -64      -68 
     -68      -59      -37      -28      -28      -20      -18      -14 
       2       20       32       37       36       56       85       83 
      82      106      122      133      153      163      163      183 
     198      202      229      259      265      270      282      295 
     322      348      357      375      395      400      421      453 
     464      469      499      526      538      556      585      592 
     599      634      666      683      707      726      726      738 
     776      805      808      820      855      869      859      873 
     907      919      918      931      945      942      942      950 
     962      982      990      977      973      981      982      986 
     999      999      993      999      994      981      984      990 
     981      981      994      982      954      943      945      946 
     939      928      913      893      873      864      861      850 
     834      818      788      751      738      735      714      684 
     658      626      591      569      553      523      493      475 
     444      405      375      341      313      306      288      243 
     197      167      139      112       93       70       35        1 
     -29      -58      -72      -90     -128     -157     -171     -197 
    -225     -234     -253     -289     -306     -310     -338     -368 
    -372     -388     -419     -433     -440     -454     -454     -469 
    -515     -540     -530     -530     -537     -537     -561     -600 
    -602     -587     -595     -595     -588     -615     -642     -630 
    -621     -641     -643     -629     -642     -654     -638     -642 
    -661     -646     -634     -657     -652     -612     -618     -656 
    -638     -603     -615     -622     -588     -594     -629     -608 
    -579     -604     -596     -549     -576     -612     -571     -557 
    -589     -572     -540     -565     -577     -540     -540     -569 
    -546     -510     -521     -530     -514     -517     -513     -476 
    -464     -487     -467     -427     -432     -440     -414     -391 
    -388     -380     -367     -356     -334     -305     -287     -283 
    -272     -249     -233     -217     -184     -160     -155     -131 
    -102     -105      -90      -28        5      -16      -20       25 
      64       78       93      110      128      148      171      186 
     194      217      246      263      279      301      314      309 
     321      375      422      419      405      425      453      464 
     483      518      540      526      515      526      558      594 
     616      608      577      577      622      656      641      626 
     639      639      627      643      675      666      630      616 
     634      658      669      654      626      611      610      607 
     604      604      595      575      553      540      535      530 
     514      499      486      463      444      436      423      409 
     394      373      344      318      309      313      309      295 
     271      237      209      197      199      209      207      178 
     140      129      133      136      136      124      103       90 
      87       89       89       82       76       74       71       60 
      49       51       55       55       52       51       52       47 
      44       47       47       45       47       45       44       45 
      47       47       44       43       47       52       52       47 
      49       55       54       43       36       47       65       64 
      51       32       14       29       59       44       23       39 
      45       29       16        5        8       16       10       -1 
     -16      -29      -29      -29      -40      -58      -74      -86 
     -86      -89     -106     -125     -136     -151     -172     -180 
    -186     -202     -217     -236     -257     -266     -275     -294 
    -313     -330     -344     -357     -367     -380     -402     -417 
    -422     -433     -454     -475     -484     -487     -493     -513 
    -540     -542     -530     -546     -577     -583     -577     -579 
    -581     -592     -600     -602     -607     -611     -606     -603 
    -603     -596     -591     -598     -595     -587     -579     -571 
    -558     -553     -545     -530     -515     -502     -487     -475 
    -461     -445     -427     -411     -394     -375     -352     -330 
    -315     -297     -268     -245     -225     -203     -176     -144 
    -112      -87      -65      -39       -8       25       62       91 
     120      157      191      221      259      302      340      376 
     413      450      496      538      572      612      657      692 
     734      780      819      858      901      938      973     1015 
    1055     1092     1128     1165     1197     1228     1262     1293 
    1318     1347     1372     1393     1414     1441     1462     1475 
    1487     1503     1521     1532     1541     1552     1554     1553 
    1556     1556     1554     1554     1552     1544     1535     1528 
    1514     1499     1489     1478     1457     1429     1402     1386 
    1362     1329     1300     1267     1232     1196     1154     1112 
    1063     1017      978      932      876      820      766      712 
     657      594      532      479      418      349      283      216 
     149       86       10      -64     -126     -190     -266     -340 
    -399     -469     -553     -623     -679     -747     -820     -877 
    -936    -1005    -1063    -1111    -1173    -1235    -1282    -1333 
   -1391    -1433    -1471    -1526    -1574    -1602    -1640    -1684 
   -1715    -1737    -1768    -1800    -1819    -1837    -1865    -1884 
   -1894    -1910    -1927    -1933    -1934    -1945    -1949    -1949 
   -1948    -1941    -1935    -1934    -1921    -1899    -1885    -1873 
   -1854    -1831    -1811    -1787    -1759    -1729    -1696    -1669 
   -1641    -1602    -1564    -1532    -1495    -1453    -1410    -1370 
   -1332    -1291    -1248    -1202    -1155    -1109    -1067    -1023 
    -976     -927     -880     -831     -785     -739     -689     -637 
    -594     -545     -492     -446     -403     -352     -301     -256 
    -216     -162     -106      -72      -39       14       68      110 
     155      191      224      272      319      356      390      425 
     464      513      553      584      611      643      685      730 
     765      791      823      857      888      926      961      984 
    1004     1032     1065     1096     1119     1129     1146     1178 
    1206     1229     1247     1247     1244     1267     1297     1305 
    1321     1348     1336     1317     1339     1368     1379     1359 
    1318     1324     1375     1372     1328     1332     1328     1278 
    1267     1291     1285     1260     1240     1220     1208     1171 
    1109     1096     1116     1096     1065     1047     1012      970 
     927      889      888      886      837      787      778      754 
     710      684      662      634      611      585      558      538 
     517      490      468      450      433      421      406      387 
     367      344      329      322      317      306      295      286 
     272      253      240      246      253      244      234      240 
     240      225      224      236      238      240      246      248 
     251      252      249      259      274      275      280      301 
     314      315      311      310      318      349      388      382 
     342      340      363      363      390      460      467      405 
     378      390      423      467      464      459      486      463 
     423      444      464      473      490      469      453      467 
     459      444      454      464      457      442      438      441 
     433      419      421      423      410      392      383      386 
     387      368      336      333      349      334      298      280 
     278      266      249      225      211      210      184      144 
     129      125      109       97       85       62       27      -11 
     -35      -37      -44      -64      -83     -105     -144     -191 
    -206     -199     -211     -243     -268     -283     -302     -337 
    -380     -392     -372     -388     -425     -440     -449     -463 
    -483     -514     -523     -503     -518     -564     -569     -560 
    -575     -581     -575     -572     -577     -592     -599     -588 
    -577     -579     -573     -556     -546     -544     -535     -518 
    -495     -473     -454     -436     -423     -403     -369     -333 
    -307     -284     -249     -217     -198     -163     -114      -82 
     -44        0       31       75      122      151      186      233 
     272      303      342      399      441      460      496      535 
     566      607      642      666      707      741      753      787 
     828      841      858      890      915      931      950      976 
     997     1009     1016     1012     1011     1034     1069     1078 
    1050     1042     1042     1013     1026     1077     1063      996 
     963      982     1000      974      938      943      936      881 
     837      832      842      827      769      724      714      685 
     650      626      598      571      533      488      467      448 
     400      365      346      314      275      232      194      172 
     143      101       74       41       -4      -32      -59      -91 
    -114     -148     -186     -212     -245     -263     -279     -319 
    -346     -360     -392     -406     -407     -438     -461     -471 
    -490     -491     -495     -508     -506     -511     -518     -506 
    -514     -518     -483     -461     -464     -453     -436     -409 
    -372     -355     -330     -292     -271     -234     -186     -162 
    -124      -79      -45        9       60       97      149      191 
     225      283      338      392      450      500      553      603 
     642      695      757      819      866      900      947     1007 
    1057     1096     1132     1181     1236     1282     1321     1352 
    1389     1435     1471     1514     1559     1579     1610     1663 
    1692     1710     1736     1769     1811     1836     1841     1867 
    1896     1917     1941     1958     1979     1991     1987     1998 
    2022     2031     2037     2038     2039     2047     2043     2037 
    2046     2041     2030     2037     2033     2011     1999     1988 
    1977     1964     1945     1925     1900     1873     1858     1833 
    1794     1764     1742     1695     1637     1605     1593     1566 
    1502     1426     1377     1343     1291     1228     1177     1133 
    1070      993      924      854      791      749      687      595 
     514      456      399      332      245      156       85       20 
     -49     -124     -195     -259     -333     -407     -480     -560 
    -629     -672     -723     -797     -864     -919     -973    -1023 
   -1070    -1117    -1166    -1206    -1239    -1278    -1325    -1355 
   -1374    -1405    -1435    -1448    -1462    -1476    -1494    -1520 
   -1541    -1553    -1549    -1534    -1534    -1543    -1539    -1537 
   -1545    -1541    -1520    -1487    -1470    -1466    -1437    -1398 
   -1385    -1378    -1352    -1304    -1248    -1205    -1170    -1144 
   -1111    -1062    -1015     -962     -893     -837     -799     -741 
    -661     -598     -537     -469     -405     -338     -263     -183 
    -105      -32       49      135      205      282      373      460 
     540      625      710      792      874      958     1047     1129 
    1204     1289     1379     1459     1532     1602     1674     1750 
    1823     1890     1966     2041     2095     2149     2215     2285 
    2340     2389     2440     2498     2552     2597     2640     2681 
    2716     2758     2805     2840     2862     2890     2924     2949 
    2972     2994     3006     3021     3044     3053     3055     3061 
    3067     3067     3057     3052     3045     3028     3015     2999 
    2970     2952     2930     2896     2870     2840     2799     2759 
    2720     2673     2627     2583     2536     2492     2442     2381 
    2317     2255     2196     2135     2068     2007     1942     1865 
    1787     1715     1651     1586     1512     1433     1364     1293 
    1220     1150     1071      992      918      835      754      685 
     610      526      448      365      284      207      125       47 
     -28     -110     -193     -275     -356     -432     -513     -594 
    -666     -745     -830     -907     -976    -1050    -1129    -1205 
   -1273    -1343    -1413    -1475    -1541    -1613    -1679    -1744 
   -1802    -1852    -1906    -1961    -2011    -2065    -2116    -2160 
   -2201    -2243    -2282    -2317    -2350    -2382    -2413    -2436 
   -2458    -2482    -2504    -2520    -2528    -2533    -2543    -2550 
   -2544    -2542    -2543    -2536    -2521    -2506    -2489    -2467 
   -2444    -2420    -2394    -2363    -2331    -2293    -2249    -2205 
   -2162    -2110    -2056    -2011    -1958    -1898    -1836    -1772 
   -1707    -1640    -1572    -1502    -1428    -1352    -1277    -1198 
   -1120    -1042     -959     -877     -795     -706     -621     -542 
    -457     -367     -280     -198     -114      -27       59      140 
     224      305      380      464      548      621      692      767 
     842      918      984     1046     1111     1174     1236     1296 
    1348     1409     1466     1513     1557     1601     1641     1690 
    1733     1768     1806     1844     1872     1898     1927     1956 
    1982     2003     2026     2046     2057     2068     2081     2091 
    2098     2107     2111     2115     2115     2110     2102     2095 
    2085     2079     2073     2061     2046     2029     2008     1982 
    1960     1939     1914     1881     1857     1830     1794     1761 
    1729     1688     1648     1611     1574     1528     1485     1443 
    1404     1360     1313     1266     1220     1175     1128     1075 
    1026      982      931      881      835      784      731      683 
     631      579      529      480      434      383      329      283 
     240      194      144      101       60       21      -21      -62 
    -101     -137     -171     -209     -243     -268     -297     -321 
    -344     -375     -395     -413     -440     -457     -468     -486 
    -499     -503     -514     -530     -535     -535     -533     -535 
    -542     -542     -535     -529     -523     -517     -510     -498 
    -490     -481     -467     -451     -438     -425     -407     -386 
    -368     -357     -340     -317     -297     -275     -252     -229 
    -209     -190     -170     -144     -124      -99      -72      -54 
     -36      -11        5       27       51       71       90      105 
     116      137      157      170      186      201      209      220 
     228      234      244      246      252      255      249      249 
     255      248      240      234      225      218      209      191 
     178      166      147      129      112       91       70       49 
      32        9      -21      -47      -72      -98     -121     -144 
    -172     -203     -240     -276     -302     -330     -363     -394 
    -427     -463     -496     -529     -557     -587     -619     -646 
    -675     -707     -734     -757     -778     -800     -826     -850 
    -868     -884     -900     -909     -923     -940     -953     -959 
    -961     -963     -969     -969     -969     -972     -967     -958 
    -947     -935     -923     -911     -899     -886     -864     -842 
    -818     -789     -764     -741     -710     -672     -641     -606 
    -566     -530     -490     -451     -415     -369     -322     -283 
    -240     -194     -148     -101      -60      -14       32       74 
     117      164      206      246      292      337      382      421 
     459      496      535      573      612      648      685      726 
     754      780      814      847      877      909      936      959 
     984     1003     1024     1046     1069     1092     1107     1116 
    1131     1142     1150     1162     1173     1181     1185     1183 
    1185     1188     1182     1179     1177     1166     1156     1150 
    1138     1125     1109     1088     1069     1044     1017      994 
     967      932      899      864      830      793      750      704 
     661      616      571      521      464      413      355      294 
     236      178      121       62       -1      -64     -129     -201 
    -261     -321     -386     -451     -515     -579     -642     -702 
    -761     -816     -877     -938     -990    -1042    -1094    -1140 
   -1183    -1229    -1273    -1312    -1343    -1372    -1404    -1431 
   -1455    -1475    -1490    -1503    -1518    -1528    -1537    -1543 
   -1539    -1533    -1530    -1522    -1516    -1505    -1490    -1476 
   -1456    -1431    -1408    -1382    -1358    -1333    -1300    -1266 
   -1233    -1196    -1159    -1121    -1078    -1039     -999     -953 
    -911     -866     -816     -767     -723     -677     -627     -576 
    -526     -479     -429     -380     -337     -288     -237     -191 
    -147     -101      -55       -9       32       72      114      152 
     187      229      263      298      333      364      395      433 
     464      488      515      546      576      596      618      645 
     668      691      715      734      754      776      792      810 
     827      838      853      870      884      895      908      922 
     932      942      947      954      959      962      963      965 
     967      966      963      962      959      954      947      935 
     924      913      899      884      873      857      841      827 
