Origin Time       2016/04/16 01:25:00
Lat.              32.753
Long.             130.762
Depth. (km)       12
Mag.              7.3
Station Code      SZO010
Station Lat.      35.3134
Station Long.     138.9063
Station Height(m) 537
Record Time       2016/04/16 01:29:27
Sampling Freq(Hz) 100Hz
Duration Time(s)  61
Dir.              E-W
Scale Factor      7845(gal)/8223790
Max. Acc. (gal)   1.552
Last Correction   2016/04/16 01:29:29
Memo.             
[...]
    4581     4583     4579     4585     4591     4591     4595     4599 
    4600     4606     4614     4617     4619     4625     4630     4638 
    4645     4649     4653     4661     4671     4676     4677     4685 
    4696     4704     4710     4719     4726     4734     4743     4753 
    4762     4773     4777     4785     4800     4814     4819     4827 
    4842     4851     4858     4870     4881     4891     4900     4911 
    4923     4932     4939     4949     4962     4970     4977     4986 
    4997     5007     5013     5023     5034     5039     5044     5058 
    5063     5067     5080     5089     5089     5097     5109     5112 
    5113     5123     5131     5134     5136     5144     5150     5154 
    5157     5162     5164     5167     5174     5174     5171     5178 
    5186     5185     5184     5185     5188     5186     5186     5188 
    5185     5185     5184     5182     5179     5175     5171     5169 
    5167     5162     5159     5158     5152     5144     5139     5131 
    5127     5119     5108     5101     5097     5089     5081     5076 
    5065     5058     5051     5036     5024     5022     5016     5005 
    4996     4986     4977     4969     4958     4950     4945     4934 
    4923     4922     4912     4899     4896     4895     4887     4878 
    4872     4865     4860     4852     4845     4841     4835     4827 
    4822     4822     4816     4808     4806     4801     4796     4793 
    4788     4780     4777     4776     4768     4762     4762     4757 
    4750     4745     4742     4737     4731     4727     4722     4716 
    4715     4710     4702     4696     4691     4684     4677     4673 
    4665     4658     4654     4646     4638     4631     4618     4608 
    4606     4592     4579     4575     4564     4549     4541     4527 
    4514     4502     4491     4482     4473     4457     4441     4431 
    4422     4409     4396     4387     4378     4364     4349     4337 
    4332     4325     4310     4301     4293     4284     4276     4266 
    4261     4256     4248     4245     4247     4241     4236     4233 
    4230     4230     4230     4228     4232     4236     4233     4236 
    4240     4237     4243     4253     4258     4261     4271     4280 
    4287     4294     4305     4317     4326     4336     4348     4360 
    4374     4384     4395     4410     4422     4438     4456     4469 
    4484     4502     4515     4529     4548     4563     4579     4598 
    4614     4630     4649     4666     4680     4699     4720     4734 
    4747     4770     4785     4796     4816     4837     4850     4869 
    4889     4905     4922     4941     4958     4976     4994     5013 
    5030     5047     5070     5088     5104     5124     5142     5161 
    5181     5200     5220     5239     5255     5277     5300     5319 
    5337     5359     5377     5394     5414     5433     5452     5475 
    5494     5509     5526     5547     5566     5583     5601     5617 
    5632     5649     5665     5683     5701     5717     5729     5742 
    5759     5768     5778     5795     5809     5815     5827     5844 
    5852     5857     5872     5886     5890     5895     5907     5918 
    5922     5925     5930     5937     5940     5940     5945     5953 
    5956     5954     5957     5958     5957     5958     5956     5952 
    5950     5950     5948     5944     5938     5931     5926     5919 
    5913     5902     5895     5888     5876     5867     5857     5844 
    5831     5822     5807     5792     5782     5767     5749     5738 
    5724     5702     5686     5671     5653     5638     5621     5598 
    5580     5566     5545     5524     5506     5489     5468     5445 
    5424     5404     5385     5363     5339     5317     5298     5275 
    5252     5232     5213     5190     5169     5148     5127     5105 
    5082     5058     5038     5017     4993     4973     4953     4931 
    4908     4889     4868     4846     4830     4814     4793     4773 
    4758     4741     4722     4706     4688     4671     4660     4645 
    4627     4614     4602     4588     4577     4568     4556     4546 
    4541     4531     4519     4511     4507     4498     4488     4484 
    4480     4475     4471     4467     4463     4463     4460     4456 
    4456     4459     4455     4455     4459     4459     4459     4464 
    4464     4467     4473     4476     4480     4484     4486     4488 
    4495     4502     4506     4510     4518     4525     4527     4535 
    4544     4548     4550     4557     4564     4568     4573     4579 
    4581     4588     4596     4602     4603     4606     4612     4618 
    4622     4625     4627     4633     4633     4633     4639     4644 
    4642     4645     4652     4656     4656     4656     4657     4658 
    4661     4666     4665     4660     4662     4666     4666     4668 
    4666     4665     4668     4671     4669     4671     4669     4668 
    4673     4673     4673     4675     4673     4672     4677     4683 
    4680     4680     4687     4691     4689     4689     4695     4706 
    4708     4704     4706     4716     4723     4723     4726     4734 
    4741     4741     4750     4761     4758     4760     4773     4777 
    4779     4791     4797     4799     4807     4814     4819     4827 
    4830     4834     4846     4852     4854     4864     4874     4877 
    4880     4887     4895     4900     4905     4911     4915     4920 
    4926     4930     4932     4939     4945     4950     4955     4958 
    4959     4961     4965     4968     4970     4972     4973     4978 
    4980     4977     4978     4981     4980     4978     4980     4984 
    4985     4981     4978     4978     4978     4977     4973     4972 
    4973     4973     4970     4968     4966     4961     4961     4962 
    4959     4956     4953     4953     4956     4955     4950     4951 
    4954     4950     4949     4950     4949     4951     4953     4951 
    4953     4955     4954     4954     4955     4955     4958     4962 
    4963     4965     4966     4965     4968     4974     4976     4977 
    4978     4978     4980     4985     4986     4985     4986     4989 
    4992     4992     4993     4996     4999     4999     5000     5003 
    5003     5003     5004     5005     5009     5011     5008     5007 
    5008     5008     5008     5011     5007     5003     5007     5003 
    4999     5003     5001     4994     4994     4992     4985     4985 
    4982     4976     4972     4970     4968     4962     4956     4953 
    4949     4945     4938     4927     4922     4922     4916     4907 
    4903     4899     4892     4888     4881     4876     4870     4864 
    4858     4854     4845     4835     4837     4834     4827     4826 
    4822     4814     4818     4818     4811     4808     4810     4807 
    4807     4812     4814     4814     4814     4814     4818     4828 
    4833     4834     4839     4846     4851     4855     4862     4869 
    4876     4884     4893     4901     4909     4918     4926     4935 
    4947     4959     4966     4974     4986     5000     5012     5023 
    5032     5042     5055     5073     5084     5092     5105     5120 
    5131     5144     5161     5177     5188     5200     5215     5228 
    5242     5256     5273     5286     5298     5312     5325     5339 
    5358     5370     5383     5398     5412     5424     5439     5455 
    5470     5481     5494     5508     5518     5529     5544     5552 
    5560     5572     5582     5593     5603     5607     5610     5621 
    5628     5628     5633     5638     5641     5645     5645     5647 
    5649     5641     5634     5637     5636     5626     5623     5618 
    5607     5601     5594     5580     5576     5570     5551     5536 
    5526     5510     5494     5481     5463     5443     5428     5409 
    5390     5371     5347     5325     5306     5283     5258     5235 
    5211     5184     5159     5135     5107     5082     5058     5027 
    5000     4970     4936     4912     4889     4858     4826     4797 
    4765     4737     4710     4680     4650     4625     4594     4561 
    4535     4510     4479     4449     4426     4403     4376     4348 
    4322     4299     4278     4255     4228     4209     4190     4164 
    4144     4131     4112     4093     4081     4063     4045     4035 
    4021     4005     3997     3989     3978     3969     3960     3951 
    3947     3940     3932     3931     3932     3931     3925     3924 
    3925     3927     3929     3929     3931     3936     3942     3944 
    3950     3955     3960     3973     3979     3981     3990     4003 
    4016     4025     4035     4045     4058     4071     4085     4094 
    4105     4121     4135     4147     4166     4185     4194     4210 
    4228     4240     4256     4282     4298     4314     4336     4355 
    4374     4392     4410     4428     4449     4473     4496     4515 
    4531     4550     4573     4595     4614     4633     4658     4680 
    4696     4712     4737     4760     4779     4800     4816     4830 
    4851     4873     4888     4905     4923     4939     4956     4974 
    4986     5003     5020     5034     5047     5063     5078     5090 
    5103     5117     5130     5142     5155     5164     5171     5184 
    5197     5202     5212     5224     5235     5244     5252     5259 
    5267     5275     5285     5292     5297     5304     5310     5316 
    5324     5328     5331     5339     5346     5347     5352     5356 
    5356     5359     5363     5364     5364     5367     5370     5368 
    5367     5367     5368     5368     5367     5364     5360     5359 
    5356     5348     5343     5341     5335     5328     5327     5324 
    5317     5310     5302     5296     5292     5285     5275     5267 
    5263     5256     5242     5229     5225     5220     5206     5197 
    5192     5184     5171     5158     5147     5142     5136     5123 
    5111     5101     5089     5078     5069     5058     5049     5042 
    5031     5019     5011     5001     4989     4976     4966     4961 
    4953     4939     4930     4922     4909     4899     4893     4884 
    4872     4866     4860     4849     4839     4831     4823     4818 
    4810     4800     4796     4789     4779     4777     4779     4769 
    4765     4761     4752     4746     4746     4746     4745     4739 
    4737     4741     4738     4733     4735     4735     4731     4735 
    4739     4735     4738     4745     4742     4741     4748     4753 
    4752     4754     4761     4761     4761     4766     4770     4769 
    4770     4776     4779     4783     4784     4784     4789     4792 
    4791     4793     4796     4796     4796     4799     4800     4796 
    4799     4804     4801     4797     4800     4800     4799     4800 
    4800     4799     4799     4796     4795     4795     4789     4787 
    4791     4789     4783     4785     4784     4779     4777     4780 
    4780     4779     4776     4776     4776     4776     4774     4773 
    4774     4776     4772     4772     4777     4777     4774     4779 
    4783     4779     4781     4787     4783     4785     4793     4795 
    4797     4804     4806     4804     4810     4814     4814     4822 
    4827     4830     4835     4838     4842     4850     4857     4855 
    4857     4865     4869     4873     4881     4884     4884     4888 
    4892     4896     4903     4907     4911     4911     4911     4915 
    4918     4918     4923     4923     4923     4931     4930     4923 
    4927     4928     4922     4922     4922     4918     4918     4918 
    4909     4908     4901     4891     4892     4891     4878     4877 
    4873     4860     4851     4847     4837     4826     4819     4808 
    4800     4792     4779     4768     4761     4747     4734     4723 
    4710     4696     4683     4672     4660     4645     4631     4617 
    4598     4584     4572     4554     4541     4526     4507     4487 
    4473     4457     4438     4423     4406     4384     4368     4351 
    4330     4310     4294     4275     4253     4233     4215     4194 
    4175     4159     4140     4118     4101     4085     4067     4048 
    4028     4009     3994     3977     3956     3943     3932     3917 
    3899     3883     3871     3861     3850     3836     3828     3820 
    3808     3801     3798     3790     3784     3780     3776     3776 
    3774     3773     3774     3778     3778     3778     3785     3793 
    3796     3805     3819     3828     3838     3848     3859     3875 
    3890     3902     3921     3946     3963     3979     4001     4025 
    4044     4063     4088     4117     4140     4164     4194     4225 
    4248     4275     4305     4336     4365     4396     4431     4463 
    4490     4517     4550     4588     4621     4649     4681     4719 
    4754     4783     4816     4854     4888     4920     4953     4985 
    5019     5055     5088     5120     5154     5186     5223     5258 
    5290     5319     5350     5387     5422     5448     5478     5510 
    5544     5580     5610     5636     5671     5703     5732     5765 
    5795     5819     5852     5887     5913     5938     5968     5996 
    6023     6054     6084     6107     6131     6157     6180     6201 
    6228     6252     6273     6293     6315     6334     6351     6372 
    6386     6400     6419     6434     6443     6458     6473     6480 
    6488     6496     6502     6512     6519     6521     6524     6525 
    6525     6525     6528     6525     6520     6517     6515     6507 
    6496     6490     6486     6477     6465     6453     6440     6430 
    6419     6403     6384     6372     6356     6336     6320     6307 
    6285     6265     6246     6227     6204     6183     6161     6141 
    6119     6093     6073     6056     6027     5995     5973     5954 
    5930     5904     5876     5852     5829     5802     5773     5751 
    5725     5694     5670     5648     5622     5593     5566     5541 
    5517     5489     5459     5435     5414     5387     5358     5335 
    5312     5282     5255     5235     5212     5185     5159     5134 
    5113     5093     5070     5046     5022     4997     4976     4955 
    4932     4914     4891     4866     4850     4830     4804     4784 
    4766     4747     4727     4708     4689     4668     4649     4633 
    4614     4592     4577     4558     4537     4519     4504     4483 
    4464     4453     4434     4411     4395     4382     4365     4349 
    4336     4318     4302     4287     4271     4256     4245     4232 
    4215     4200     4191     4182     4164     4149     4140     4131 
    4117     4105     4097     4088     4077     4067     4060     4054 
    4041     4032     4028     4023     4014     4009     4006     4000 
    3991     3987     3989     3987     3982     3979     3982     3983 
    3984     3986     3987     3991     3994     3996     4001     4010 
    4016     4017     4027     4036     4040     4047     4060     4072 
    4081     4094     4109     4121     4133     4144     4155     4172 
    4191     4205     4220     4238     4256     4271     4289     4307 
    4326     4344     4364     4384     4402     4422     4445     4464 
    4483     4502     4525     4548     4568     4587     4610     4633 
    4653     4675     4699     4715     4733     4760     4783     4804 
    4827     4842     4857     4884     4904     4918     4942     4965 
    4982     5001     5017     5032     5054     5071     5084     5100 
    5120     5136     5146     5159     5175     5188     5201     5216 
    5223     5235     5250     5255     5266     5279     5282     5286 
    5302     5310     5312     5320     5327     5332     5339     5341 
    5344     5354     5359     5356     5356     5363     5366     5367 
    5370     5371     5370     5375     5377     5371     5370     5371 
    5370     5373     5373     5363     5360     5359     5356     5355 
    5352     5350     5348     5346     5341     5333     5329     5329 
    5321     5313     5312     5308     5300     5298     5292     5278 
    5275     5277     5267     5255     5251     5248     5239     5233 
    5228     5220     5216     5212     5201     5194     5193     5186 
    5179     5178     5169     5161     5161     5159     5151     5147 
    5142     5139     5139     5134     5127     5125     5123     5121 
    5124     5121     5119     5115     5113     5112     5111     5111 
    5112     5111     5111     5112     5111     5113     5120     5116 
    5113     5121     5125     5124     5125     5130     5131     5135 
    5140     5143     5146     5147     5151     5159     5164     5167 
    5171     5175     5182     5188     5193     5197     5201     5206 
    5213     5217     5221     5225     5227     5233     5239     5242 
    5247     5254     5256     5256     5259     5262     5267     5270 
    5271     5273     5273     5275     5278     5273     5271     5273 
    5270     5263     5263     5263     5256     5252     5252     5246 
    5235     5228     5220     5212     5208     5201     5188     5178 
    5169     5158     5147     5136     5125     5109     5093     5084 
    5074     5058     5043     5030     5017     5007     4989     4970 
    4961     4951     4930     4914     4903     4887     4873     4862 
    4847     4837     4824     4812     4801     4788     4777     4770 
    4760     4750     4741     4729     4725     4719     4707     4702 
    4699     4692     4687     4681     4675     4675     4673     4669 
    4672     4671     4666     4666     4669     4672     4675     4676 
    4679     4685     4687     4687     4693     4704     4708     4710 
    4720     4729     4733     4739     4750     4756     4764     4772 
    4777     4787     4801     4807     4814     4828     4835     4842 
    4854     4864     4872     4881     4889     4899     4908     4916 
    4923     4932     4943     4951     4955     4966     4976     4980 
    4989     4999     4999     5001     5011     5017     5023     5030 
    5034     5039     5046     5049     5047     5051     5059     5059 
    5058     5066     5070     5071     5077     5074     5071     5077 
    5078     5076     5081     5082     5078     5080     5081     5080 
    5080     5080     5080     5078     5076     5074     5074     5074 
    5073     5067     5067     5071     5067     5059     5058     5059 
    5059     5058     5050     5043     5047     5047     5040     5040 
    5042     5034     5027     5031     5027     5020     5019     5016 
    5011     5008     5007     5003     5000     4997     4989     4984 
    4984     4980     4973     4973     4970     4962     4958     4954 
    4951     4949     4941     4932     4934     4934     4926     4918 
    4915     4909     4907     4904     4900     4897     4893     4887 
    4880     4877     4874     4869     4868     4865     4861     4861 
    4858     4849     4843     4843     4839     4834     4835     4833 
    4826     4824     4823     4818     4814     4812     4810     4808 
    4806     4797     4793     4797     4793     4784     4783     4780 
    4773     4769     4766     4764     4760     4754     4746     4742 
    4739     4731     4720     4716     4712     4704     4699     4693 
    4685     4677     4672     4662     4654     4650     4641     4631 
