Origin Time       2016/04/16 01:25:00
Lat.              32.753
Long.             130.762
Depth. (km)       12
Mag.              7.3
Station Code      SZO017
Station Lat.      34.6374
Station Long.     138.1281
Station Height(m) 8
Record Time       2016/04/16 01:28:41
Sampling Freq(Hz) 100Hz
Duration Time(s)  71
Dir.              E-W
Scale Factor      7845(gal)/8223790
Max. Acc. (gal)   1.375
Last Correction   2016/04/16 01:28:43
Memo.             
[...]
   -7643    -7628    -7612    -7603    -7596    -7581    -7572    -7562 
   -7550    -7542    -7534    -7519    -7510    -7504    -7495    -7488 
   -7480    -7473    -7468    -7460    -7456    -7450    -7442    -7439 
   -7435    -7430    -7423    -7420    -7418    -7406    -7402    -7404 
   -7400    -7395    -7393    -7389    -7383    -7378    -7376    -7369 
   -7362    -7366    -7365    -7354    -7352    -7354    -7346    -7340 
   -7342    -7338    -7335    -7338    -7335    -7337    -7339    -7339 
   -7335    -7335    -7344    -7350    -7352    -7356    -7366    -7369 
   -7369    -7381    -7391    -7395    -7406    -7416    -7423    -7433 
   -7447    -7457    -7462    -7474    -7491    -7500    -7510    -7526 
   -7538    -7547    -7560    -7573    -7585    -7596    -7608    -7619 
   -7628    -7639    -7652    -7666    -7678    -7692    -7700    -7707 
   -7717    -7726    -7734    -7744    -7749    -7751    -7763    -7773 
   -7773    -7776    -7782    -7784    -7781    -7780    -7780    -7778 
   -7777    -7776    -7770    -7766    -7766    -7763    -7759    -7758 
   -7758    -7751    -7744    -7747    -7749    -7744    -7747    -7749 
   -7746    -7747    -7751    -7754    -7753    -7759    -7769    -7771 
   -7780    -7792    -7796    -7798    -7808    -7817    -7830    -7844 
   -7857    -7865    -7879    -7894    -7905    -7912    -7923    -7940 
   -7958    -7967    -7974    -7985    -7996    -8010    -8028    -8040 
   -8048    -8056    -8064    -8071    -8082    -8091    -8101    -8110 
   -8120    -8128    -8133    -8139    -8143    -8147    -8152    -8159 
   -8163    -8163    -8168    -8176    -8177    -8176    -8177    -8176 
   -8177    -8182    -8186    -8186    -8186    -8186    -8187    -8189 
   -8189    -8190    -8191    -8194    -8197    -8197    -8198    -8202 
   -8202    -8202    -8209    -8208    -8202    -8205    -8209    -8208 
   -8209    -8213    -8212    -8208    -8210    -8212    -8205    -8198 
   -8198    -8201    -8199    -8197    -8198    -8197    -8193    -8190 
   -8187    -8185    -8185    -8185    -8182    -8185    -8186    -8181 
   -8182    -8185    -8185    -8186    -8189    -8190    -8189    -8189 
   -8193    -8193    -8187    -8190    -8195    -8197    -8198    -8201 
   -8201    -8202    -8205    -8205    -8203    -8205    -8208    -8206 
   -8203    -8205    -8206    -8203    -8198    -8197    -8197    -8191 
   -8193    -8189    -8175    -8170    -8174    -8166    -8155    -8151 
   -8144    -8137    -8132    -8124    -8114    -8108    -8097    -8086 
   -8081    -8073    -8060    -8043    -8035    -8029    -8017    -8005 
   -7997    -7981    -7964    -7956    -7946    -7929    -7917    -7905 
   -7892    -7879    -7865    -7846    -7830    -7813    -7796    -7781 
   -7771    -7756    -7738    -7719    -7696    -7681    -7673    -7657 
   -7639    -7626    -7607    -7589    -7578    -7561    -7545    -7535 
   -7518    -7503    -7495    -7479    -7460    -7446    -7435    -7425 
   -7411    -7396    -7381    -7368    -7358    -7352    -7338    -7318 
   -7306    -7298    -7287    -7275    -7263    -7246    -7236    -7227 
   -7217    -7209    -7198    -7190    -7182    -7172    -7164    -7157 
   -7148    -7142    -7138    -7132    -7127    -7125    -7125    -7121 
   -7117    -7119    -7118    -7115    -7123    -7127    -7123    -7122 
   -7127    -7132    -7136    -7141    -7144    -7144    -7148    -7155 
   -7160    -7165    -7172    -7173    -7177    -7184    -7187    -7192 
   -7203    -7211    -7215    -7221    -7229    -7240    -7245    -7250 
   -7261    -7271    -7279    -7291    -7298    -7306    -7319    -7330 
   -7337    -7350    -7358    -7361    -7375    -7389    -7392    -7398 
   -7414    -7419    -7425    -7438    -7447    -7452    -7457    -7461 
   -7469    -7480    -7485    -7488    -7493    -7503    -7510    -7515 
   -7526    -7533    -7533    -7539    -7548    -7555    -7565    -7572 
   -7574    -7580    -7589    -7596    -7600    -7604    -7608    -7614 
   -7619    -7628    -7631    -7627    -7624    -7627    -7631    -7634 
   -7631    -7623    -7619    -7619    -7614    -7607    -7601    -7593 
   -7580    -7572    -7566    -7553    -7542    -7530    -7515    -7507 
   -7501    -7484    -7470    -7460    -7441    -7429    -7426    -7411 
   -7395    -7385    -7373    -7360    -7353    -7344    -7326    -7312 
   -7307    -7298    -7283    -7275    -7264    -7253    -7245    -7234 
   -7218    -7203    -7198    -7190    -7180    -7168    -7155    -7142 
   -7132    -7123    -7113    -7096    -7082    -7076    -7067    -7053 
   -7049    -7042    -7026    -7017    -7015    -7007    -7003    -7003 
   -6994    -6984    -6988    -6988    -6984    -6987    -6985    -6982 
   -6983    -6987    -6988    -6990    -6999    -7006    -7005    -7009 
   -7018    -7018    -7018    -7026    -7032    -7033    -7036    -7037 
   -7041    -7051    -7056    -7060    -7063    -7065    -7071    -7082 
   -7088    -7091    -7092    -7098    -7106    -7113    -7118    -7129 
   -7137    -7142    -7149    -7160    -7167    -7173    -7183    -7191 
   -7198    -7203    -7207    -7213    -7223    -7231    -7240    -7248 
   -7252    -7258    -7271    -7275    -7281    -7291    -7296    -7304 
   -7319    -7330    -7335    -7344    -7354    -7362    -7375    -7391 
   -7403    -7408    -7420    -7435    -7446    -7457    -7472    -7487 
   -7499    -7510    -7522    -7534    -7551    -7568    -7574    -7584 
   -7601    -7611    -7619    -7634    -7645    -7652    -7665    -7677 
   -7685    -7700    -7711    -7716    -7731    -7747    -7755    -7763 
   -7774    -7788    -7798    -7808    -7821    -7836    -7847    -7860 
   -7871    -7881    -7896    -7911    -7920    -7929    -7944    -7958 
   -7969    -7978    -7992    -8005    -8017    -8028    -8037    -8046 
   -8059    -8071    -8082    -8090    -8100    -8113    -8125    -8135 
   -8147    -8156    -8160    -8171    -8187    -8193    -8199    -8215 
   -8232    -8241    -8248    -8257    -8272    -8284    -8293    -8302 
   -8319    -8333    -8338    -8349    -8365    -8383    -8398    -8410 
   -8421    -8436    -8449    -8464    -8479    -8494    -8510    -8526 
   -8533    -8543    -8563    -8581    -8592    -8602    -8614    -8623 
   -8631    -8648    -8662    -8669    -8679    -8688    -8695    -8707 
   -8721    -8730    -8738    -8749    -8758    -8765    -8775    -8789 
   -8799    -8803    -8814    -8822    -8823    -8830    -8842    -8846 
   -8851    -8857    -8858    -8857    -8856    -8858    -8860    -8851 
   -8849    -8846    -8835    -8829    -8824    -8812    -8799    -8789 
   -8779    -8764    -8748    -8729    -8714    -8702    -8688    -8669 
   -8650    -8634    -8615    -8594    -8575    -8556    -8537    -8517 
   -8494    -8473    -8456    -8433    -8411    -8390    -8367    -8343 
   -8321    -8298    -8276    -8256    -8232    -8208    -8189    -8168 
   -8139    -8110    -8090    -8066    -8040    -8020    -7996    -7969 
   -7944    -7916    -7886    -7865    -7842    -7811    -7782    -7756 
   -7730    -7704    -7680    -7650    -7616    -7585    -7560    -7535 
   -7504    -7473    -7443    -7411    -7388    -7364    -7330    -7294 
   -7264    -7238    -7213    -7187    -7157    -7129    -7106    -7080 
   -7056    -7036    -7013    -6990    -6967    -6945    -6928    -6909 
   -6894    -6881    -6866    -6851    -6840    -6829    -6817    -6810 
   -6806    -6799    -6787    -6782    -6782    -6782    -6782    -6789 
   -6786    -6777    -6782    -6794    -6797    -6802    -6815    -6828 
   -6837    -6848    -6860    -6872    -6886    -6903    -6925    -6944 
   -6964    -6980    -6997    -7020    -7047    -7064    -7083    -7111 
   -7134    -7153    -7180    -7209    -7231    -7253    -7276    -7296 
   -7318    -7342    -7368    -7389    -7414    -7442    -7462    -7477 
   -7495    -7515    -7541    -7562    -7577    -7591    -7609    -7630 
   -7647    -7663    -7674    -7682    -7693    -7708    -7722    -7731 
   -7736    -7743    -7756    -7765    -7765    -7771    -7782    -7786 
   -7789    -7789    -7785    -7788    -7803    -7807    -7807    -7804 
   -7804    -7808    -7812    -7808    -7799    -7794    -7799    -7804 
   -7798    -7792    -7788    -7788    -7792    -7789    -7776    -7766 
   -7770    -7770    -7761    -7755    -7754    -7753    -7751    -7751 
   -7749    -7743    -7742    -7746    -7744    -7740    -7740    -7742 
   -7739    -7739    -7742    -7738    -7736    -7739    -7736    -7730 
   -7728    -7730    -7732    -7732    -7728    -7723    -7720    -7716 
   -7712    -7708    -7708    -7709    -7705    -7703    -7704    -7703 
   -7701    -7700    -7699    -7696    -7697    -7701    -7705    -7709 
   -7712    -7717    -7722    -7728    -7735    -7740    -7750    -7765 
   -7773    -7782    -7796    -7809    -7821    -7838    -7851    -7867 
   -7888    -7902    -7916    -7939    -7960    -7974    -7992    -8010 
   -8032    -8052    -8073    -8094    -8113    -8124    -8141    -8172 
   -8197    -8206    -8221    -8244    -8267    -8286    -8305    -8319 
   -8336    -8356    -8379    -8391    -8403    -8424    -8444    -8456 
   -8467    -8482    -8494    -8513    -8530    -8542    -8546    -8553 
   -8568    -8584    -8598    -8600    -8598    -8603    -8612    -8617 
   -8617    -8619    -8622    -8621    -8618    -8614    -8610    -8607 
   -8610    -8606    -8587    -8576    -8575    -8571    -8565    -8557 
   -8545    -8530    -8515    -8505    -8492    -8474    -8463    -8451 
   -8430    -8413    -8398    -8382    -8367    -8347    -8319    -8297 
   -8280    -8262    -8239    -8215    -8195    -8171    -8144    -8127 
   -8106    -8078    -8056    -8040    -8017    -7990    -7969    -7947 
   -7925    -7909    -7892    -7873    -7854    -7835    -7817    -7805 
   -7793    -7777    -7758    -7744    -7736    -7727    -7715    -7707 
   -7695    -7681    -7677    -7673    -7661    -7652    -7655    -7650 
   -7639    -7635    -7631    -7630    -7630    -7627    -7623    -7626 
   -7631    -7631    -7628    -7631    -7634    -7632    -7636    -7645 
   -7649    -7652    -7661    -7663    -7665    -7672    -7680    -7685 
   -7690    -7695    -7705    -7713    -7715    -7720    -7732    -7738 
   -7740    -7746    -7754    -7766    -7771    -7771    -7778    -7788 
   -7796    -7803    -7812    -7817    -7820    -7831    -7847    -7854 
   -7857    -7862    -7875    -7885    -7890    -7900    -7911    -7917 
   -7927    -7940    -7950    -7960    -7971    -7978    -7986    -8001 
   -8014    -8027    -8039    -8047    -8056    -8068    -8081    -8093 
   -8101    -8110    -8121    -8129    -8139    -8154    -8158    -8160 
   -8171    -8181    -8185    -8187    -8191    -8197    -8198    -8201 
   -8201    -8198    -8199    -8203    -8195    -8190    -8190    -8182 
   -8172    -8170    -8163    -8151    -8139    -8125    -8111    -8098 
   -8078    -8058    -8043    -8025    -8004    -7982    -7962    -7942 
   -7919    -7892    -7867    -7843    -7816    -7792    -7766    -7740 
   -7715    -7695    -7677    -7652    -7627    -7604    -7581    -7561 
   -7543    -7524    -7501    -7484    -7470    -7453    -7438    -7423 
   -7411    -7399    -7385    -7373    -7362    -7353    -7346    -7338 
   -7329    -7321    -7315    -7312    -7307    -7300    -7294    -7291 
   -7288    -7285    -7283    -7277    -7272    -7269    -7269    -7269 
   -7263    -7260    -7264    -7263    -7261    -7264    -7261    -7256 
   -7258    -7260    -7258    -7258    -7261    -7261    -7263    -7264 
   -7264    -7268    -7267    -7269    -7277    -7277    -7279    -7288 
   -7292    -7292    -7298    -7302    -7307    -7312    -7319    -7327 
   -7335    -7346    -7360    -7368    -7375    -7385    -7399    -7411 
   -7427    -7446    -7460    -7470    -7485    -7499    -7510    -7524 
   -7541    -7560    -7577    -7588    -7597    -7614    -7632    -7645 
   -7654    -7665    -7680    -7693    -7700    -7708    -7716    -7723 
   -7731    -7736    -7738    -7743    -7744    -7746    -7749    -7751 
   -7751    -7746    -7740    -7740    -7738    -7732    -7726    -7715 
   -7704    -7700    -7696    -7684    -7670    -7659    -7651    -7638 
   -7627    -7614    -7597    -7581    -7574    -7564    -7548    -7534 
   -7518    -7503    -7491    -7479    -7466    -7454    -7442    -7425 
   -7406    -7398    -7387    -7371    -7360    -7349    -7334    -7326 
   -7317    -7302    -7295    -7284    -7271    -7261    -7250    -7241 
   -7233    -7221    -7214    -7207    -7196    -7190    -7184    -7175 
   -7165    -7160    -7157    -7152    -7148    -7145    -7138    -7137 
   -7141    -7141    -7132    -7130    -7134    -7138    -7138    -7142 
   -7149    -7150    -7155    -7167    -7172    -7177    -7190    -7198 
   -7207    -7219    -7233    -7248    -7261    -7272    -7287    -7307 
   -7329    -7345    -7364    -7387    -7410    -7433    -7456    -7480 
   -7507    -7534    -7561    -7592    -7619    -7650    -7680    -7712 
   -7747    -7784    -7817    -7850    -7888    -7928    -7963    -7993 
   -8029    -8073    -8110    -8147    -8186    -8222    -8256    -8293 
   -8326    -8363    -8408    -8444    -8469    -8500    -8540    -8572 
   -8600    -8627    -8655    -8685    -8719    -8748    -8766    -8789 
   -8818    -8839    -8858    -8881    -8903    -8920    -8939    -8955 
   -8972    -8989    -9004    -9022    -9038    -9049    -9059    -9076 
   -9088    -9093    -9100    -9111    -9120    -9130    -9135    -9136 
   -9142    -9143    -9142    -9147    -9153    -9150    -9147    -9147 
   -9142    -9136    -9135    -9131    -9117    -9104    -9099    -9090 
   -9078    -9067    -9055    -9040    -9024    -9009    -8993    -8974 
   -8958    -8942    -8923    -8900    -8881    -8866    -8843    -8818 
   -8799    -8777    -8753    -8731    -8704    -8677    -8657    -8635 
   -8608    -8579    -8553    -8529    -8503    -8479    -8453    -8424 
   -8397    -8371    -8341    -8309    -8280    -8253    -8224    -8194 
   -8167    -8137    -8104    -8073    -8040    -8006    -7979    -7947 
   -7911    -7879    -7851    -7819    -7786    -7755    -7722    -7688 
   -7662    -7634    -7597    -7564    -7538    -7508    -7474    -7447 
   -7419    -7387    -7360    -7334    -7302    -7273    -7248    -7219 
   -7191    -7165    -7144    -7118    -7089    -7065    -7044    -7022 
   -6999    -6975    -6952    -6934    -6919    -6898    -6875    -6856 
   -6837    -6818    -6801    -6786    -6772    -6755    -6739    -6728 
   -6713    -6697    -6679    -6662    -6654    -6650    -6635    -6620 
   -6608    -6594    -6583    -6578    -6571    -6558    -6546    -6540 
   -6535    -6520    -6507    -6504    -6498    -6492    -6488    -6478 
   -6463    -6457    -6453    -6448    -6444    -6438    -6426    -6420 
   -6419    -6415    -6407    -6404    -6403    -6399    -6392    -6389 
   -6389    -6384    -6380    -6386    -6389    -6386    -6386    -6389 
   -6389    -6396    -6403    -6408    -6417    -6430    -6435    -6439 
   -6444    -6457    -6470    -6480    -6493    -6504    -6509    -6521 
   -6540    -6552    -6566    -6582    -6593    -6601    -6616    -6633 
   -6648    -6662    -6677    -6691    -6706    -6721    -6735    -6750 
   -6766    -6782    -6797    -6810    -6831    -6848    -6862    -6879 
   -6898    -6918    -6941    -6960    -6975    -6994    -7014    -7034 
   -7055    -7076    -7096    -7113    -7132    -7153    -7173    -7196 
   -7217    -7229    -7245    -7271    -7294    -7311    -7329    -7348 
   -7365    -7387    -7410    -7425    -7434    -7447    -7470    -7495 
   -7514    -7523    -7534    -7550    -7569    -7589    -7605    -7614 
   -7622    -7641    -7663    -7677    -7685    -7696    -7712    -7735 
   -7754    -7765    -7774    -7789    -7812    -7834    -7846    -7858 
   -7869    -7885    -7909    -7931    -7948    -7962    -7974    -7992 
   -8019    -8039    -8044    -8058    -8078    -8095    -8113    -8129 
   -8139    -8149    -8167    -8181    -8189    -8199    -8209    -8213 
   -8217    -8224    -8229    -8230    -8226    -8228    -8233    -8235 
   -8230    -8224    -8214    -8208    -8208    -8206    -8198    -8185 
   -8170    -8159    -8156    -8151    -8133    -8111    -8101    -8095 
   -8086    -8073    -8062    -8044    -8028    -8020    -8012    -7993 
   -7977    -7964    -7951    -7939    -7929    -7916    -7898    -7882 
   -7870    -7860    -7848    -7835    -7817    -7797    -7782    -7770 
   -7759    -7746    -7723    -7699    -7685    -7674    -7657    -7641 
   -7619    -7593    -7573    -7560    -7545    -7524    -7497    -7474 
   -7456    -7438    -7422    -7399    -7373    -7356    -7339    -7318 
   -7296    -7273    -7253    -7238    -7221    -7198    -7180    -7160 
   -7145    -7134    -7121    -7102    -7083    -7068    -7061    -7056 
   -7047    -7032    -7020    -7014    -7010    -7007    -7003    -7001 
   -7003    -7007    -7005    -7003    -7007    -7017    -7029    -7033 
   -7040    -7053    -7061    -7074    -7092    -7102    -7110    -7130 
   -7150    -7167    -7186    -7206    -7226    -7248    -7269    -7291 
   -7318    -7344    -7372    -7398    -7426    -7460    -7489    -7512 
   -7545    -7578    -7611    -7654    -7690    -7716    -7744    -7774 
   -7809    -7852    -7890    -7923    -7958    -7989    -8019    -8051 
   -8078    -8110    -8149    -8186    -8215    -8237    -8253    -8278 
   -8311    -8345    -8372    -8387    -8403    -8428    -8444    -8457 
   -8476    -8499    -8525    -8542    -8549    -8553    -8557    -8561 
   -8586    -8611    -8618    -8615    -8618    -8625    -8629    -8629 
   -8638    -8653    -8658    -8653    -8642    -8637    -8645    -8646 
   -8641    -8644    -8641    -8627    -8618    -8612    -8607    -8598 
   -8588    -8581    -8567    -8543    -8522    -8510    -8505    -8496 
   -8469    -8428    -8401    -8395    -8387    -8352    -8311    -8290 
   -8271    -8240    -8201    -8171    -8149    -8124    -8087    -8044 
   -8010    -7987    -7951    -7905    -7881    -7860    -7812    -7758 
   -7722    -7697    -7669    -7631    -7589    -7548    -7510    -7472 
   -7438    -7406    -7376    -7335    -7287    -7250    -7226    -7194 
   -7152    -7117    -7084    -7049    -7021    -6988    -6951    -6918 
   -6891    -6870    -6845    -6810    -6781    -6770    -6755    -6725 
   -6708    -6694    -6673    -6658    -6651    -6640    -6633    -6628 
   -6620    -6616    -6619    -6620    -6621    -6625    -6629    -6628 
   -6635    -6658    -6673    -6670    -6669    -6691    -6721    -6729 
   -6728    -6747    -6782    -6808    -6812    -6818    -6845    -6875 
   -6894    -6918    -6943    -6952    -6967    -6995    -7028    -7049 
   -7063    -7079    -7105    -7132    -7156    -7177    -7203    -7225 
   -7242    -7269    -7300    -7322    -7339    -7362    -7393    -7414 
   -7429    -7457    -7491    -7510    -7523    -7546    -7577    -7605 
   -7630    -7647    -7666    -7690    -7719    -7747    -7773    -7794 
   -7809    -7827    -7860    -7896    -7920    -7931    -7952    -7981 
   -8006    -8035    -8060    -8077    -8094    -8121    -8149    -8174 
   -8194    -8210    -8229    -8248    -8272    -8295    -8309    -8318 
   -8337    -8359    -8376    -8387    -8397    -8410    -8418    -8421 
   -8434    -8451    -8460    -8461    -8460    -8461    -8473    -8487 
