Origin Time       2016/04/16 01:25:00
Lat.              32.753
Long.             130.762
Depth. (km)       12
Mag.              7.3
Station Code      SZO024
Station Lat.      34.7102
Station Long.     137.7197
Station Height(m) 29
Record Time       2016/04/16 01:28:37
Sampling Freq(Hz) 100Hz
Duration Time(s)  75
Dir.              E-W
Scale Factor      7845(gal)/8223790
Max. Acc. (gal)   1.445
Last Correction   2016/04/16 01:28:38
Memo.             
[...]
    4700     4693     4691     4689     4683     4676     4673     4669 
    4664     4661     4661     4662     4661     4662     4665     4664 
    4661     4664     4664     4661     4665     4671     4671     4672 
    4677     4676     4677     4685     4692     4689     4693     4700 
    4702     4703     4708     4712     4715     4722     4729     4729 
    4729     4734     4741     4743     4747     4757     4765     4770 
    4776     4783     4788     4793     4800     4810     4818     4827 
    4838     4849     4858     4865     4870     4880     4895     4904 
    4909     4916     4923     4936     4946     4955     4969     4980 
    4984     4988     4993     5001     5015     5024     5027     5036 
    5046     5049     5051     5059     5066     5074     5084     5090 
    5092     5096     5104     5109     5113     5120     5127     5135 
    5140     5144     5150     5152     5152     5157     5161     5161 
    5167     5169     5166     5164     5169     5174     5174     5171 
    5166     5163     5166     5163     5155     5150     5147     5144 
    5139     5131     5125     5120     5113     5104     5097     5092 
    5086     5084     5081     5071     5063     5058     5049     5043 
    5042     5036     5026     5019     5013     5003     4994     4989 
    4982     4972     4962     4954     4949     4942     4935     4927 
    4918     4911     4903     4895     4887     4882     4878     4870 
    4862     4861     4854     4847     4843     4839     4833     4824 
    4822     4819     4812     4807     4803     4799     4796     4793 
    4789     4783     4779     4780     4784     4780     4774     4777 
    4773     4769     4770     4768     4762     4761     4760     4754 
    4752     4748     4743     4737     4731     4729     4725     4722 
    4715     4707     4702     4695     4689     4688     4683     4675 
    4669     4665     4665     4661     4653     4650     4649     4645 
    4639     4639     4638     4633     4634     4638     4635     4635 
    4639     4637     4637     4646     4652     4653     4656     4657 
    4664     4669     4671     4676     4683     4685     4692     4703 
    4708     4708     4714     4723     4731     4735     4742     4748 
    4757     4762     4764     4770     4781     4787     4788     4793 
    4795     4796     4800     4803     4806     4810     4811     4814 
    4818     4819     4816     4814     4814     4814     4811     4808 
    4810     4810     4806     4804     4803     4795     4792     4792 
    4785     4783     4783     4774     4768     4766     4762     4754 
    4747     4745     4742     4735     4731     4730     4726     4722 
    4719     4715     4714     4714     4710     4710     4714     4716 
    4716     4718     4722     4726     4727     4734     4742     4743 
    4748     4761     4770     4777     4784     4793     4804     4810 
    4814     4823     4833     4841     4852     4860     4862     4865 
    4869     4874     4881     4887     4888     4887     4889     4893 
    4891     4889     4895     4892     4885     4884     4881     4876 
    4873     4872     4869     4869     4866     4860     4857     4854 
    4847     4845     4845     4841     4839     4838     4834     4830 
    4827     4824     4822     4818     4818     4814     4810     4808 
    4808     4801     4797     4800     4800     4796     4795     4793 
    4789     4793     4799     4795     4793     4797     4797     4797 
    4800     4800     4797     4801     4803     4801     4803     4803 
    4806     4807     4806     4806     4807     4806     4804     4807 
    4807     4806     4804     4804     4804     4801     4799     4797 
    4792     4788     4792     4793     4787     4781     4779     4772 
    4765     4760     4754     4747     4741     4734     4730     4725 
    4718     4710     4703     4696     4691     4684     4677     4671 
    4664     4660     4653     4642     4634     4630     4621     4611 
    4606     4596     4591     4588     4579     4567     4563     4560 
    4550     4544     4541     4534     4529     4530     4533     4530 
    4527     4531     4538     4540     4545     4550     4554     4567 
    4576     4581     4594     4610     4623     4637     4650     4666 
    4683     4698     4715     4734     4752     4772     4792     4811 
    4828     4849     4872     4891     4908     4931     4953     4972 
    4994     5019     5040     5060     5081     5101     5120     5140 
    5164     5186     5204     5227     5246     5263     5282     5301 
    5319     5339     5359     5371     5387     5409     5421     5432 
    5448     5463     5472     5490     5503     5510     5521     5535 
    5544     5549     5556     5566     5572     5576     5583     5589 
    5590     5594     5597     5597     5598     5597     5594     5594 
    5597     5595     5590     5589     5583     5574     5572     5570 
    5559     5552     5548     5540     5529     5518     5506     5491 
    5476     5464     5448     5433     5417     5401     5385     5362 
    5339     5317     5293     5271     5251     5228     5200     5177 
    5157     5131     5101     5076     5051     5027     5004     4980 
    4955     4928     4904     4881     4857     4835     4814     4791 
    4770     4752     4733     4715     4700     4687     4673     4660 
    4648     4639     4631     4623     4621     4619     4614     4611 
    4614     4617     4618     4625     4631     4637     4646     4658 
    4668     4679     4692     4707     4722     4734     4752     4770 
    4787     4806     4823     4835     4857     4880     4891     4904 
    4923     4938     4949     4963     4980     4992     5003     5016 
    5023     5031     5044     5050     5057     5066     5070     5073 
    5078     5085     5089     5090     5090     5096     5098     5093 
    5097     5097     5093     5092     5092     5090     5086     5082 
    5078     5077     5077     5076     5071     5066     5060     5054 
    5050     5047     5040     5036     5032     5023     5017     5015 
    5009     5000     4994     4993     4984     4976     4976     4970 
    4959     4955     4954     4953     4945     4932     4928     4932 
    4927     4918     4914     4905     4900     4899     4893     4885 
    4878     4872     4862     4852     4842     4833     4824     4814 
    4803     4799     4788     4770     4758     4752     4739     4726 
    4715     4702     4687     4676     4666     4650     4639     4629 
    4611     4596     4587     4576     4561     4549     4540     4527 
    4515     4506     4496     4487     4476     4468     4455     4438 
    4428     4419     4411     4402     4391     4380     4374     4367 
    4359     4349     4338     4330     4329     4325     4320     4315 
    4307     4302     4305     4305     4303     4305     4306     4307 
    4307     4307     4314     4321     4322     4325     4330     4336 
    4341     4345     4345     4347     4351     4355     4360     4368 
    4372     4372     4378     4386     4386     4388     4393     4395 
    4399     4405     4406     4409     4415     4419     4418     4421 
    4422     4423     4428     4433     4437     4440     4440     4438 
    4441     4446     4446     4446     4453     4459     4463     4468 
    4473     4475     4477     4484     4488     4490     4495     4502 
    4504     4509     4515     4521     4525     4529     4531     4537 
    4542     4546     4552     4557     4564     4568     4576     4583 
    4594     4599     4603     4610     4619     4630     4639     4649 
    4658     4668     4680     4693     4708     4720     4730     4742 
    4758     4770     4781     4797     4812     4824     4841     4857 
    4872     4885     4901     4918     4931     4947     4968     4984 
    5004     5024     5039     5057     5076     5093     5113     5135 
    5155     5177     5196     5216     5235     5255     5273     5296 
    5319     5337     5352     5374     5395     5410     5428     5448 
    5463     5476     5491     5502     5514     5528     5537     5549 
    5563     5568     5575     5583     5587     5590     5598     5606 
    5610     5610     5609     5610     5613     5616     5616     5616 
    5616     5613     5610     5606     5603     5602     5598     5590 
    5585     5579     5571     5566     5555     5544     5536     5524 
    5513     5499     5479     5460     5448     5433     5410     5390 
    5371     5348     5321     5296     5273     5247     5217     5190 
    5163     5130     5096     5063     5034     5003     4972     4938 
    4908     4876     4839     4807     4777     4742     4708     4679 
    4646     4615     4581     4550     4521     4487     4455     4430 
    4403     4374     4347     4321     4295     4271     4248     4225 
    4205     4185     4164     4148     4136     4120     4104     4094 
    4085     4069     4055     4051     4044     4036     4029     4029 
    4031     4025     4023     4029     4031     4029     4036     4048 
    4055     4064     4077     4090     4106     4120     4135     4155 
    4176     4195     4218     4240     4266     4291     4311     4337 
    4368     4392     4415     4444     4472     4498     4521     4548 
    4579     4604     4631     4661     4684     4706     4731     4760 
    4787     4814     4839     4858     4880     4903     4920     4936 
    4955     4976     4992     5004     5013     5026     5036     5049 
    5058     5065     5071     5077     5074     5080     5086     5086 
    5086     5085     5082     5080     5074     5069     5065     5057 
    5049     5044     5036     5019     5005     4994     4980     4963 
    4950     4934     4915     4893     4870     4850     4833     4810 
    4785     4760     4735     4712     4693     4673     4649     4627 
    4606     4585     4565     4548     4533     4519     4504     4491 
    4477     4461     4450     4446     4444     4440     4437     4431 
    4430     4431     4433     4437     4445     4456     4464     4472 
    4483     4495     4509     4521     4538     4560     4580     4596 
    4617     4637     4658     4687     4710     4733     4762     4797 
    4828     4860     4891     4920     4953     4988     5026     5067 
    5103     5139     5181     5217     5254     5298     5332     5367 
    5414     5452     5486     5525     5560     5593     5630     5665 
    5698     5730     5756     5783     5814     5842     5864     5883 
    5902     5929     5952     5968     5984     5996     6006     6019 
    6030     6039     6044     6048     6049     6050     6049     6044 
    6038     6030     6021     6015     6006     5988     5968     5949 
    5930     5915     5898     5869     5838     5809     5780     5753 
    5724     5689     5652     5616     5582     5545     5501     5459 
    5422     5382     5341     5304     5259     5211     5164     5121 
    5082     5043     4992     4943     4897     4852     4811     4770 
    4726     4683     4642     4602     4561     4522     4479     4437 
    4405     4374     4337     4302     4270     4240     4210     4178 
    4153     4129     4098     4071     4055     4039     4023     4002 
    3977     3959     3958     3951     3936     3925     3921     3916 
    3910     3912     3913     3909     3912     3925     3936     3932 
    3935     3951     3971     3987     4005     4017     4035     4058 
    4074     4105     4147     4170     4187     4220     4256     4287 
    4321     4359     4395     4430     4464     4500     4538     4575 
    4611     4649     4692     4735     4765     4799     4841     4872 
    4897     4936     4978     5009     5035     5070     5104     5130 
    5155     5186     5220     5243     5255     5281     5317     5341 
    5358     5381     5402     5422     5445     5467     5487     5506 
    5524     5545     5567     5584     5609     5630     5636     5648 
    5671     5687     5698     5710     5718     5730     5741     5746 
    5749     5752     5772     5784     5768     5759     5764     5753 
    5748     5757     5755     5744     5732     5706     5676     5668 
    5672     5660     5634     5613     5589     5556     5530     5514 
    5498     5476     5448     5412     5377     5356     5333     5308 
    5293     5279     5246     5205     5174     5155     5144     5138 
    5116     5086     5066     5047     5034     5027     5026     5019 
    5012     5003     4985     4978     4988     4989     4986     4985 
    4986     4986     4985     4989     4997     5001     5007     5008 
    5007     5009     5013     5017     5024     5020     5017     5026 
    5030     5019     5016     5023     5026     5019     5007     5001 
    5003     4993     4976     4970     4978     4973     4954     4936 
    4922     4911     4908     4899     4874     4852     4842     4827 
    4810     4797     4781     4753     4726     4716     4707     4680 
    4648     4625     4600     4576     4568     4550     4510     4487 
    4472     4437     4406     4390     4364     4325     4298     4288 
    4271     4236     4191     4159     4143     4124     4094     4058 
    4028     3998     3963     3942     3921     3879     3840     3824 
    3800     3761     3738     3719     3681     3645     3624     3603 
    3576     3553     3535     3511     3489     3473     3454     3434 
    3419     3403     3391     3383     3373     3361     3353     3343 
    3336     3336     3338     3333     3326     3323     3325     3331 
    3338     3334     3334     3350     3364     3368     3384     3402 
    3407     3422     3447     3468     3489     3514     3532     3558 
    3589     3615     3649     3684     3711     3738     3773     3809 
    3844     3879     3913     3947     3987     4028     4067     4109 
    4145     4183     4228     4275     4314     4359     4407     4448 
    4490     4545     4590     4629     4681     4730     4768     4818 
    4874     4922     4968     5022     5070     5115     5164     5217 
    5260     5298     5344     5395     5437     5472     5512     5556 
    5594     5625     5652     5682     5717     5752     5778     5793 
    5819     5844     5854     5868     5894     5910     5910     5911 
    5921     5931     5931     5923     5922     5922     5911     5900 
    5895     5880     5854     5831     5819     5806     5780     5748 
    5717     5686     5652     5617     5589     5560     5517     5471 
    5433     5393     5351     5312     5271     5227     5182     5139 
    5092     5042     5004     4966     4920     4874     4835     4796 
    4750     4700     4665     4637     4598     4556     4529     4498 
    4453     4422     4403     4375     4341     4310     4291     4278 
    4252     4214     4200     4203     4171     4131     4132     4135 
    4107     4086     4081     4071     4055     4047     4047     4051 
    4029     4013     4033     4048     4029     4020     4043     4067 
    4066     4062     4082     4112     4129     4135     4159     4199 
    4214     4228     4271     4307     4322     4359     4414     4452 
    4476     4514     4565     4611     4652     4693     4739     4795 
    4843     4878     4923     4977     5030     5080     5125     5171 
    5224     5282     5332     5370     5417     5478     5521     5555 
    5609     5661     5691     5725     5773     5817     5845     5873 
    5915     5949     5972     6003     6029     6044     6068     6080 
    6088     6122     6142     6130     6130     6153     6156     6131 
    6126     6135     6123     6103     6093     6080     6065     6041 
    6002     5980     5968     5930     5883     5852     5821     5779 
    5737     5703     5655     5594     5555     5521     5462     5405 
    5371     5328     5267     5209     5158     5115     5074     5016 
    4951     4908     4881     4830     4760     4715     4679     4625 
    4576     4535     4486     4436     4402     4369     4320     4274 
    4252     4223     4176     4139     4114     4091     4063     4028 
    4002     3984     3967     3950     3929     3913     3898     3882 
    3870     3861     3856     3851     3847     3847     3844     3836 
    3842     3851     3846     3846     3859     3870     3874     3877 
    3889     3906     3916     3927     3942     3951     3960     3979 
    3998     4016     4031     4045     4066     4082     4094     4117 
    4140     4156     4176     4200     4220     4240     4258     4279 
    4302     4324     4345     4367     4386     4407     4426     4441 
    4464     4486     4498     4517     4537     4552     4568     4587 
    4604     4618     4633     4650     4666     4681     4693     4707 
    4723     4735     4739     4746     4760     4773     4779     4780 
    4791     4799     4797     4799     4806     4808     4810     4807 
    4803     4796     4795     4793     4785     4779     4770     4760 
    4754     4745     4729     4719     4715     4704     4685     4669 
    4660     4650     4634     4614     4603     4591     4577     4567 
    4549     4529     4522     4515     4502     4487     4472     4471 
    4464     4445     4438     4434     4425     4425     4419     4409 
    4411     4414     4410     4405     4409     4425     4428     4419 
    4434     4445     4444     4461     4476     4479     4500     4521 
    4529     4544     4567     4595     4621     4634     4648     4679 
    4714     4735     4746     4770     4814     4852     4866     4881 
    4923     4958     4974     5009     5047     5063     5097     5142 
    5162     5186     5227     5262     5293     5312     5331     5381 
    5425     5440     5455     5487     5528     5564     5583     5602 
    5633     5659     5680     5711     5734     5751     5771     5790 
    5805     5825     5845     5860     5871     5876     5879     5896 
    5911     5913     5914     5918     5918     5913     5910     5907 
    5899     5890     5880     5869     5852     5830     5821     5811 
    5782     5760     5749     5721     5688     5665     5643     5622 
    5595     5559     5539     5519     5479     5443     5424     5393 
    5358     5329     5300     5270     5240     5198     5167     5146 
    5107     5069     5047     5012     4973     4947     4916     4881 
    4850     4811     4780     4762     4730     4693     4665     4633 
    4603     4580     4549     4523     4504     4471     4442     4423 
    4398     4374     4355     4329     4306     4293     4274     4251 
    4237     4223     4202     4182     4174     4166     4155     4144 
    4131     4118     4112     4106     4101     4095     4093     4090 
    4087     4090     4091     4086     4088     4098     4101     4099 
    4109     4120     4131     4139     4145     4155     4170     4183 
    4199     4214     4228     4245     4263     4283     4302     4324 
    4342     4360     4379     4401     4425     4448     4468     4491 
    4517     4545     4571     4587     4606     4635     4654     4672 
    4703     4729     4743     4769     4797     4811     4835     4862 
    4880     4900     4918     4935     4954     4974     4992     5007 
    5017     5031     5049     5063     5074     5086     5097     5107 
    5119     5128     5134     5143     5148     5152     5163     5166 
