Origin Time       2016/04/16 01:25:00
Lat.              32.753
Long.             130.762
Depth. (km)       12
Mag.              7.3
Station Code      SZO019
Station Lat.      34.7699
Station Long.     137.9981
Station Height(m) 37
Record Time       2016/04/16 01:28:46
Sampling Freq(Hz) 100Hz
Duration Time(s)  60
Dir.              N-S
Scale Factor      7845(gal)/8223790
Max. Acc. (gal)   2.043
Last Correction   2016/04/16 01:28:47
Memo.             
[...]
    5420     5413     5408     5400     5391     5383     5374     5366 
    5358     5350     5341     5336     5331     5324     5323     5317 
    5306     5300     5297     5290     5286     5287     5285     5277 
    5273     5275     5273     5267     5266     5266     5260     5258 
    5262     5263     5265     5266     5268     5270     5267     5271 
    5277     5273     5277     5287     5294     5300     5305     5309 
    5314     5323     5328     5332     5337     5351     5363     5367 
    5374     5387     5400     5405     5414     5425     5435     5445 
    5455     5464     5475     5487     5497     5505     5516     5529 
    5541     5548     5556     5568     5582     5593     5605     5617 
    5626     5634     5645     5655     5663     5676     5687     5694 
    5706     5718     5724     5733     5746     5756     5764     5773 
    5783     5791     5803     5817     5830     5841     5850     5860 
    5871     5881     5891     5904     5918     5921     5929     5945 
    5954     5958     5968     5981     5985     5991     5998     5998 
    6000     6010     6015     6012     6010     6010     6006     5999 
    5995     5996     5994     5985     5977     5968     5958     5949 
    5938     5923     5913     5902     5891     5879     5863     5848 
    5834     5821     5805     5788     5772     5756     5741     5729 
    5713     5694     5684     5670     5655     5643     5628     5610 
    5594     5580     5567     5552     5540     5533     5519     5503 
    5494     5481     5462     5447     5429     5414     5404     5390 
    5379     5371     5356     5341     5328     5308     5289     5271 
    5255     5243     5228     5211     5201     5190     5169     5150 
    5138     5120     5097     5080     5065     5049     5034     5020 
    5005     4989     4976     4958     4942     4928     4909     4893 
    4880     4864     4852     4843     4833     4822     4808     4792 
    4780     4770     4761     4752     4743     4738     4730     4725 
    4720     4715     4706     4698     4693     4689     4685     4683 
    4681     4679     4679     4679     4677     4676     4676     4677 
    4675     4672     4673     4675     4677     4681     4685     4687 
    4691     4699     4704     4706     4706     4714     4722     4726 
    4731     4742     4750     4757     4768     4781     4793     4807 
    4816     4824     4838     4852     4868     4885     4901     4918 
    4938     4961     4984     5004     5023     5046     5069     5089 
    5112     5140     5166     5189     5220     5250     5273     5304 
    5333     5356     5383     5412     5432     5454     5481     5505 
    5526     5555     5582     5601     5617     5637     5659     5678 
    5698     5718     5734     5753     5771     5788     5809     5825 
    5836     5850     5868     5880     5892     5908     5922     5937 
    5950     5961     5973     5984     5992     6004     6015     6021 
    6033     6046     6057     6069     6079     6080     6085     6099 
    6106     6108     6118     6130     6134     6139     6148     6154 
    6157     6166     6172     6176     6181     6183     6181     6186 
    6192     6191     6188     6188     6189     6192     6191     6185 
    6181     6181     6177     6169     6164     6162     6156     6143 
    6135     6131     6120     6107     6099     6095     6083     6068 
    6060     6052     6038     6027     6016     6002     5991     5981 
    5964     5948     5938     5925     5904     5888     5873     5853 
    5838     5826     5806     5780     5756     5737     5718     5694 
    5674     5653     5629     5605     5584     5562     5535     5513 
    5489     5458     5435     5420     5394     5367     5346     5317 
    5283     5260     5239     5217     5194     5169     5142     5117 
    5092     5070     5051     5027     5003     4981     4959     4938 
    4920     4904     4888     4869     4849     4838     4826     4810 
    4799     4792     4785     4774     4764     4754     4750     4747 
    4745     4743     4741     4738     4737     4738     4743     4747 
    4748     4753     4754     4762     4773     4777     4784     4795 
    4804     4812     4828     4846     4855     4869     4891     4904 
    4918     4941     4961     4978     4999     5022     5042     5060 
    5086     5116     5136     5155     5182     5213     5238     5262 
    5289     5316     5341     5373     5402     5431     5464     5499 
    5529     5559     5590     5618     5656     5698     5727     5753 
    5791     5826     5859     5895     5926     5954     5987     6016 
    6042     6073     6104     6129     6154     6177     6197     6219 
    6239     6259     6280     6296     6309     6323     6343     6355 
    6361     6373     6385     6389     6399     6409     6413     6416 
    6420     6419     6417     6420     6421     6419     6415     6412 
    6404     6396     6388     6378     6369     6358     6345     6334 
    6322     6307     6292     6273     6252     6237     6219     6199 
    6180     6157     6134     6114     6092     6069     6044     6018 
    5992     5971     5948     5921     5894     5868     5842     5813 
    5787     5767     5738     5709     5686     5660     5633     5609 
    5584     5560     5536     5512     5491     5470     5447     5425 
    5404     5385     5368     5348     5329     5313     5296     5278 
    5265     5250     5235     5224     5211     5193     5179     5171 
    5161     5150     5148     5140     5127     5117     5111     5103 
    5097     5093     5082     5071     5070     5070     5058     5049 
    5049     5040     5030     5030     5023     5008     5008     5011 
    4996     4988     4988     4980     4973     4968     4962     4963 
    4962     4951     4947     4947     4939     4934     4938     4931 
    4923     4927     4928     4928     4923     4915     4916     4926 
    4927     4923     4923     4923     4923     4923     4926     4922 
    4923     4930     4932     4935     4939     4942     4941     4943 
    4947     4945     4945     4950     4949     4945     4950     4953 
    4951     4953     4951     4949     4949     4951     4951     4950 
    4954     4959     4959     4962     4966     4965     4968     4972 
    4978     4988     4994     4997     5005     5016     5022     5030 
    5040     5051     5066     5076     5080     5093     5111     5119 
    5130     5144     5155     5169     5184     5196     5211     5225 
    5235     5244     5256     5268     5281     5290     5302     5317 
    5325     5332     5343     5352     5363     5375     5382     5387 
    5397     5404     5409     5420     5428     5436     5443     5443 
    5452     5463     5466     5472     5481     5483     5489     5502 
    5506     5510     5517     5518     5522     5532     5536     5540 
    5544     5549     5556     5555     5560     5571     5574     5574 
    5580     5582     5583     5587     5590     5595     5597     5595 
    5597     5599     5599     5602     5603     5598     5595     5594 
    5589     5587     5584     5579     5576     5574     5568     5562 
    5556     5555     5551     5541     5533     5525     5518     5514 
    5506     5495     5491     5487     5476     5467     5462     5454 
    5447     5440     5431     5421     5413     5404     5395     5389 
    5382     5377     5370     5363     5359     5354     5344     5337 
    5333     5333     5331     5321     5314     5309     5305     5301 
    5296     5292     5289     5281     5271     5270     5270     5262 
    5255     5251     5246     5243     5238     5229     5228     5224 
    5219     5213     5205     5198     5198     5196     5189     5185 
    5186     5186     5179     5171     5169     5171     5169     5167 
    5169     5171     5173     5177     5179     5179     5181     5184 
    5186     5189     5190     5198     5204     5208     5215     5217 
    5221     5227     5231     5238     5244     5246     5251     5262 
    5260     5262     5273     5278     5279     5285     5287     5287 
    5292     5296     5296     5294     5296     5297     5297     5298 
    5298     5294     5296     5301     5302     5301     5301     5304 
    5306     5306     5305     5306     5312     5317     5317     5320 
    5323     5328     5337     5339     5339     5344     5343     5339 
    5339     5343     5348     5351     5358     5363     5360     5360 
    5362     5351     5344     5344     5339     5336     5336     5337 
    5339     5331     5321     5314     5308     5297     5287     5279 
    5270     5266     5262     5255     5250     5244     5235     5225 
    5216     5209     5198     5189     5184     5175     5167     5162 
    5152     5142     5135     5131     5117     5101     5090     5081 
    5073     5066     5055     5047     5043     5034     5020     5009 
    4997     4982     4973     4965     4953     4946     4939     4927 
    4916     4911     4904     4893     4881     4873     4865     4857 
    4851     4845     4837     4833     4827     4820     4814     4808 
    4801     4795     4792     4787     4781     4779     4777     4774 
    4772     4770     4772     4768     4760     4758     4756     4747 
    4743     4745     4743     4743     4743     4742     4743     4743 
    4741     4745     4747     4743     4742     4752     4757     4758 
    4766     4774     4781     4785     4789     4799     4808     4816 
    4824     4837     4849     4858     4866     4877     4893     4907 
    4915     4923     4934     4946     4962     4972     4981     4996 
    5007     5015     5030     5042     5053     5062     5070     5080 
    5086     5098     5113     5121     5130     5143     5150     5151 
    5159     5169     5173     5179     5184     5189     5196     5194 
    5194     5202     5204     5204     5206     5206     5205     5205 
    5198     5197     5198     5194     5190     5192     5189     5186 
    5185     5186     5184     5178     5181     5184     5181     5182 
    5181     5181     5186     5192     5194     5197     5202     5204 
    5204     5209     5216     5219     5223     5231     5239     5246 
    5251     5252     5246     5246     5259     5273     5277     5281 
    5286     5286     5281     5287     5301     5304     5300     5301 
    5304     5312     5316     5319     5324     5328     5329     5329 
    5339     5355     5362     5364     5371     5377     5386     5394 
    5405     5420     5432     5437     5448     5463     5478     5497 
    5513     5519     5530     5552     5574     5593     5609     5618 
    5630     5644     5653     5671     5698     5725     5746     5763 
    5776     5791     5803     5815     5830     5848     5861     5877 
    5896     5913     5930     5945     5953     5962     5979     5994 
    6003     6015     6027     6038     6044     6060     6081     6088 
    6091     6107     6115     6119     6129     6138     6143     6154 
    6165     6173     6181     6189     6195     6203     6207     6211 
    6214     6216     6227     6235     6238     6246     6252     6251 
    6254     6264     6266     6266     6273     6280     6281     6284 
    6288     6289     6292     6296     6297     6293     6290     6285 
    6288     6290     6285     6280     6277     6272     6266     6264 
    6259     6254     6245     6232     6224     6214     6203     6199 
    6195     6184     6177     6173     6161     6143     6131     6123 
    6114     6099     6089     6081     6073     6066     6056     6048 
    6046     6035     6018     6010     6004     5992     5980     5976 
    5972     5968     5965     5953     5940     5934     5929     5921 
    5914     5907     5900     5894     5888     5875     5857     5852 
    5845     5829     5815     5805     5786     5771     5760     5744 
    5729     5715     5698     5680     5663     5640     5616     5593 
    5574     5552     5529     5508     5481     5454     5429     5402 
    5375     5346     5313     5286     5259     5223     5189     5161 
    5130     5096     5062     5027     4997     4966     4927     4889 
    4857     4822     4787     4754     4723     4691     4656     4619 
    4585     4554     4523     4494     4460     4428     4401     4371 
    4344     4317     4288     4258     4230     4205     4180     4158 
    4136     4117     4097     4074     4060     4045     4025     4010 
    4001     3987     3973     3962     3955     3950     3943     3936 
    3932     3929     3931     3932     3939     3946     3950     3954 
    3963     3977     3989     4006     4024     4040     4058     4081 
    4105     4131     4159     4183     4203     4236     4271     4303 
    4340     4376     4413     4446     4482     4523     4565     4606 
    4646     4687     4730     4780     4823     4861     4905     4954 
    5001     5047     5096     5146     5194     5242     5297     5348 
    5390     5437     5495     5549     5601     5656     5707     5759 
    5811     5867     5921     5971     6025     6077     6129     6185 
    6242     6296     6351     6405     6454     6501     6547     6596 
    6644     6693     6744     6793     6841     6893     6937     6978 
    7014     7052     7094     7132     7169     7209     7248     7284 
    7315     7345     7373     7398     7420     7449     7473     7491 
    7510     7531     7545     7557     7572     7581     7586     7592 
    7596     7593     7595     7603     7605     7597     7589     7588 
    7584     7572     7561     7553     7545     7530     7518     7499 
    7480     7469     7452     7423     7403     7385     7361     7338 
    7317     7291     7260     7231     7203     7171     7140     7111 
    7080     7049     7014     6978     6944     6914     6883     6844 
    6809     6782     6751     6718     6687     6654     6623     6588 
    6555     6523     6486     6453     6424     6393     6369     6347 
    6322     6289     6257     6231     6207     6177     6151     6127 
    6102     6083     6061     6039     6025     6003     5976     5960 
    5945     5925     5906     5888     5871     5852     5834     5822 
    5807     5788     5769     5752     5736     5719     5702     5682 
    5663     5648     5629     5606     5587     5571     5551     5530 
    5512     5490     5472     5454     5432     5418     5401     5377 
    5362     5346     5327     5312     5293     5273     5260     5247 
    5232     5223     5208     5189     5178     5164     5150     5143 
    5134     5121     5115     5105     5098     5093     5088     5080 
    5071     5065     5060     5058     5059     5060     5060     5062 
    5062     5062     5067     5071     5071     5078     5088     5090 
    5096     5109     5121     5125     5131     5140     5148     5162 
    5174     5182     5193     5204     5216     5228     5238     5248 
    5262     5275     5286     5298     5313     5328     5337     5346 
    5362     5383     5394     5398     5410     5424     5439     5451 
    5456     5467     5481     5487     5497     5510     5522     5532 
    5543     5552     5563     5571     5578     5584     5594     5603 
    5613     5621     5629     5636     5641     5651     5656     5661 
    5668     5676     5683     5689     5698     5706     5710     5715 
    5721     5725     5727     5733     5737     5741     5746     5755 
    5760     5760     5764     5771     5773     5776     5786     5790 
    5791     5795     5798     5800     5803     5811     5819     5823 
    5827     5831     5833     5836     5841     5848     5852     5853 
    5853     5857     5861     5863     5867     5872     5875     5873 
    5873     5876     5876     5877     5881     5880     5876     5876 
    5877     5875     5871     5864     5860     5859     5856     5849 
    5840     5827     5821     5818     5810     5796     5788     5778 
    5765     5756     5744     5729     5719     5711     5698     5686 
    5678     5668     5660     5649     5638     5630     5620     5613 
    5607     5598     5593     5585     5576     5578     5576     5568 
    5562     5557     5562     5567     5563     5556     5562     5564 
    5564     5568     5572     5574     5575     5574     5575     5579 
    5584     5587     5590     5594     5597     5597     5599     5606 
    5611     5611     5610     5610     5610     5609     5614     5617 
    5610     5609     5607     5601     5598     5595     5589     5584 
    5583     5582     5579     5571     5566     5562     5552     5547 
    5544     5536     5528     5525     5518     5510     5506     5497 
    5485     5481     5479     5474     5470     5466     5458     5448 
    5445     5443     5441     5439     5437     5433     5432     5433 
    5432     5433     5436     5435     5436     5439     5437     5439 
    5445     5448     5448     5448     5452     5452     5454     5459 
    5462     5463     5470     5472     5472     5475     5476     5476 
    5483     5489     5491     5494     5498     5506     5513     5513 
    5513     5519     5526     5529     5533     5541     5548     5556 
    5564     5572     5582     5584     5579     5580     5584     5583 
    5585     5598     5607     5614     5617     5617     5614     5609 
    5607     5610     5606     5603     5606     5605     5602     5605 
    5602     5597     5594     5587     5575     5566     5563     5555 
    5545     5539     5535     5524     5510     5499     5490     5476 
    5462     5452     5443     5432     5416     5398     5389     5379 
    5366     5354     5341     5328     5312     5296     5285     5273 
    5258     5250     5246     5232     5223     5217     5208     5193 
    5184     5177     5171     5166     5163     5164     5161     5155 
    5158     5158     5151     5150     5152     5157     5159     5161 
    5169     5175     5177     5182     5193     5196     5204     5217 
    5223     5228     5238     5250     5266     5278     5289     5305 
    5321     5337     5351     5362     5377     5394     5408     5422 
    5439     5462     5485     5499     5516     5540     5564     5580 
    5594     5611     5633     5649     5664     5684     5701     5713 
    5727     5742     5755     5768     5776     5786     5798     5805 
    5810     5818     5822     5823     5823     5829     5836     5831 
    5818     5814     5815     5803     5790     5788     5779     5760 
    5752     5737     5717     5702     5683     5659     5638     5620 
    5601     5574     5549     5529     5505     5476     5448     5418 
    5389     5360     5335     5309     5282     5252     5215     5184 
    5159     5131     5104     5077     5043     5013     4988     4962 
    4941     4918     4892     4873     4852     4831     4814     4799 
    4783     4764     4750     4745     4737     4726     4719     4712 
    4704     4699     4696     4691     4684     4684     4689     4691 
    4691     4692     4692     4691     4695     4702     4704     4704 
    4710     4712     4716     4722     4725     4727     4730     4735 
    4739     4742     4746     4756     4762     4768     4772     4776 
    4784     4789     4792     4793     4797     4806     4812     4816 
    4824     4831     4838     4845     4849     4854     4852     4854 
