Origin Time       2016/04/16 01:25:00
Lat.              32.753
Long.             130.762
Depth. (km)       12
Mag.              7.3
Station Code      SZO012
Station Lat.      35.1271
Station Long.     138.6213
Station Height(m) 10
Record Time       2016/04/16 01:29:06
Sampling Freq(Hz) 100Hz
Duration Time(s)  60
Dir.              N-S
Scale Factor      7845(gal)/8223790
Max. Acc. (gal)   1.334
Last Correction   2016/04/16 01:29:07
Memo.             
[...]
     820      805      795      793      785      770      766      769 
     764      753      749      737      710      702      710      697 
     675      681      699      685      664      657      662      672 
     675      660      634      627      657      688      695      684 
     668      668      688      702      700      702      708      704 
     684      664      681      731      774      803      795      756 
     719      688      689      727      739      751      788      795 
     773      769      780      793      805      812      810      799 
     788      789      819      864      872      826      805      842 
     873      885      886      874      872      877      880      885 
     905      935      951      934      905      908      942      980 
     986      974      961      949      965     1007     1035     1034 
    1026     1035     1053     1067     1077     1086     1105     1124 
    1119     1101     1109     1142     1169     1174     1170     1167 
    1170     1183     1194     1196     1217     1250     1252     1227 
    1219     1248     1281     1290     1293     1310     1331     1336 
    1328     1306     1297     1336     1382     1391     1395     1394 
    1377     1374     1391     1404     1409     1435     1479     1497 
    1487     1489     1489     1480     1505     1554     1580     1560 
    1533     1545     1552     1535     1543     1571     1586     1603 
    1632     1642     1628     1609     1593     1586     1620     1664 
    1658     1653     1694     1725     1706     1686     1698     1718 
    1721     1714     1711     1728     1757     1775     1779     1781 
    1794     1796     1775     1738     1715     1737     1798     1846 
    1858     1838     1807     1810     1840     1848     1818     1775 
    1772     1821     1852     1848     1817     1794     1809     1825 
    1804     1787     1788     1796     1810     1815     1800     1779 
    1768     1768     1764     1745     1711     1684     1672     1687 
    1734     1755     1722     1682     1636     1602     1606     1605 
    1578     1548     1526     1528     1548     1559     1543     1509 
    1471     1444     1433     1418     1395     1383     1389     1394 
    1382     1356     1325     1285     1250     1250     1255     1233 
    1212     1213     1205     1182     1166     1150     1116     1081 
    1071     1081     1092     1084     1039      987      969      963 
     955      963      955      928      924      924      899      874 
     862      832      791      778      793      800      801      797 
     781      769      766      746      734      734      719      702 
     708      723      726      711      693      684      677      673 
     662      643      648      676      685      675      668      656 
     637      637      643      633      623      635      653      662 
     660      635      623      649      666      645      629      637 
     654      677      685      665      642      645      670      693 
     687      675      696      734      737      711      702      722 
     731      722      738      777      780      757      761      788 
     789      767      773      805      837      842      828      835 
     876      892      837      777      810      897      940      926 
     892      884      924      958      939      913      928      965 
     994     1009     1005      985      958      966     1020     1081 
    1113     1093     1055     1060     1094     1115     1143     1163 
    1128     1084     1119     1210     1263     1244     1196     1185 
    1247     1313     1327     1304     1282     1296     1350     1394 
    1404     1394     1391     1393     1399     1443     1495     1491 
    1472     1489     1517     1545     1568     1570     1568     1582 
    1598     1621     1657     1695     1706     1691     1674     1683 
    1726     1775     1794     1777     1763     1768     1794     1833 
    1863     1856     1830     1838     1880     1908     1904     1899 
    1911     1939     1977     1996     1975     1941     1937     1956 
    1985     2027     2041     2015     1987     1980     1991     2011 
    2026     2027     2022     2022     2027     2023     2022     2022 
    2006     1998     2014     2016     1998     1984     1972     1960 
    1965     1964     1938     1930     1934     1918     1907     1918 
    1904     1875     1859     1840     1813     1813     1822     1813 
    1799     1787     1767     1742     1715     1696     1683     1652 
    1632     1636     1632     1620     1599     1566     1537     1517 
    1493     1471     1457     1445     1421     1391     1377     1364 
    1337     1312     1291     1256     1223     1201     1175     1154 
    1139     1131     1127     1116     1090     1051     1016      987 
     962      943      932      919      899      874      842      811 
     795      795      795      784      772      761      735      708 
     695      681      657      637      626      631      635      619 
     608      618      614      602      604      604      596      589 
     579      569      569      566      557      557      562      556 
     548      549      557      564      561      553      556      562 
     562      561      557      566      579      576      575      579 
     568      573      611      627      612      611      625      629 
     641      649      645      649      657      666      689      702 
     696      689      702      728      735      733      745      760 
     767      789      815      820      804      800      816      841 
     861      864      869      888      908      932      951      943 
     935      955      992     1017     1026     1034     1035     1038 
    1051     1069     1077     1086     1102     1101     1101     1121 
    1128     1127     1136     1154     1177     1193     1179     1159 
    1159     1169     1175     1189     1200     1197     1194     1193 
    1189     1183     1185     1204     1228     1233     1206     1175 
    1177     1202     1217     1221     1227     1220     1210     1217 
    1229     1232     1228     1221     1224     1220     1206     1217 
    1235     1223     1215     1221     1228     1242     1250     1250 
    1248     1247     1252     1254     1251     1260     1264     1250 
    1233     1233     1252     1270     1267     1252     1244     1256 
    1282     1287     1259     1248     1263     1258     1243     1260 
    1273     1254     1247     1255     1248     1246     1263     1270 
    1260     1263     1277     1278     1263     1248     1246     1251 
    1256     1260     1258     1248     1247     1262     1267     1248 
    1225     1212     1220     1236     1250     1251     1237     1224 
    1215     1204     1204     1196     1173     1162     1173     1185 
    1194     1188     1147     1112     1120     1139     1129     1104 
    1081     1075     1084     1081     1077     1071     1053     1038 
    1039     1028     1013     1020     1016      996      990      992 
     980      976      977      951      923      932      958      973 
     972      954      918      886      893      915      920      929 
     939      913      893      920      927      877      862      905 
     931      922      916      903      870      854      877      907 
     929      946      953      962      969      950      920      923 
     969     1024     1053     1021      953      927      962     1024 
    1071     1088     1094     1107     1129     1150     1139     1120 
    1132     1171     1219     1251     1263     1258     1239     1240 
    1269     1293     1320     1368     1416     1436     1414     1367 
    1344     1359     1405     1474     1518     1522     1509     1483 
    1463     1472     1505     1532     1541     1547     1557     1557 
    1543     1535     1539     1544     1547     1535     1517     1524 
    1561     1591     1598     1578     1539     1509     1509     1532 
    1551     1539     1495     1467     1482     1509     1517     1506 
    1466     1420     1393     1385     1409     1447     1441     1413 
    1401     1385     1343     1306     1294     1296     1301     1313 
    1324     1301     1255     1227     1220     1215     1209     1206 
    1197     1177     1163     1144     1124     1129     1140     1129 
    1109     1086     1069     1071     1090     1092     1059     1030 
    1017     1011     1019     1035     1023      987      976      986 
     982      987     1021     1028      993      974      977      974 
     990     1012     1000      978      961      953      958      973 
     984      981      982      989      993      986      965      955 
     963      965      965      973      965      942      935      955 
     986     1000      987      967      957      950      955      961 
     939      927      935      934      942      962      961      953 
     945      919      893      899      919      929      935      939 
     918      889      889      903      915      919      918      923 
     922      919      932      923      903      901      915      927 
     924      924      939      947      949      957      958      936 
     922      942      967      980      997     1009     1004      999 
     997      999     1015     1042     1055     1047     1048     1059 
    1059     1078     1107     1097     1081     1101     1123     1138 
    1154     1173     1198     1212     1202     1210     1240     1262 
    1270     1267     1275     1318     1356     1372     1395     1408 
    1398     1398     1422     1455     1476     1487     1509     1535 
    1549     1566     1584     1597     1606     1626     1645     1660 
    1658     1649     1656     1679     1696     1703     1703     1703 
    1714     1734     1745     1744     1726     1707     1707     1711 
    1701     1698     1711     1710     1694     1686     1677     1665 
    1657     1656     1655     1645     1621     1595     1579     1564 
    1559     1560     1553     1547     1528     1497     1495     1509 
    1497     1468     1440     1422     1428     1435     1425     1405 
    1379     1351     1344     1362     1367     1345     1323     1310 
    1297     1293     1300     1301     1296     1291     1279     1260 
    1254     1256     1252     1252     1255     1246     1251     1271 
    1269     1246     1237     1243     1246     1251     1273     1281 
    1262     1259     1270     1273     1279     1287     1294     1296 
    1293     1302     1327     1344     1348     1332     1314     1324 
    1358     1379     1368     1367     1379     1367     1374     1414 
    1429     1417     1416     1425     1431     1429     1429     1435 
    1439     1444     1452     1456     1464     1483     1505     1522 
    1524     1507     1489     1487     1498     1506     1516     1528 
    1522     1501     1495     1514     1526     1524     1525     1524 
    1516     1512     1509     1497     1487     1493     1487     1476 
    1490     1503     1495     1485     1485     1491     1493     1474 
    1453     1463     1493     1501     1482     1462     1453     1453 
    1455     1462     1475     1483     1480     1479     1486     1495 
    1501     1494     1493     1497     1490     1487     1506     1524 
    1526     1535     1544     1539     1543     1552     1544     1543 
    1561     1571     1568     1579     1599     1609     1617     1629 
    1629     1611     1609     1636     1658     1664     1669     1669 
    1657     1651     1663     1676     1687     1702     1701     1684 
    1677     1675     1675     1687     1703     1707     1709     1715 
    1711     1696     1677     1663     1663     1667     1665     1674 
    1684     1677     1664     1660     1660     1651     1638     1626 
    1613     1615     1634     1642     1629     1618     1624     1624 
    1611     1606     1603     1588     1584     1595     1595     1595 
    1606     1611     1611     1614     1606     1594     1597     1610 
    1603     1597     1606     1613     1606     1613     1622     1622 
    1626     1629     1629     1630     1624     1613     1610     1613 
    1617     1621     1624     1618     1598     1583     1588     1597 
    1602     1601     1599     1595     1586     1572     1559     1548 
    1539     1528     1534     1551     1545     1528     1525     1509 
    1478     1471     1479     1467     1444     1436     1436     1425 
    1417     1412     1402     1405     1410     1399     1385     1377 
    1366     1354     1350     1352     1356     1362     1372     1379 
    1372     1368     1375     1364     1348     1362     1385     1395 
    1409     1413     1412     1433     1449     1425     1401     1412 
    1437     1462     1501     1534     1526     1517     1544     1551 
    1539     1552     1574     1603     1637     1644     1638     1648 
    1656     1668     1696     1723     1733     1749     1768     1780 
    1804     1826     1833     1846     1868     1891     1919     1944 
    1958     1973     1995     2020     2034     2047     2070     2096 
    2115     2139     2172     2204     2222     2234     2254     2270 
    2288     2312     2328     2338     2357     2381     2413     2455 
    2481     2486     2493     2504     2508     2509     2532     2559 
    2565     2574     2589     2593     2598     2613     2621     2627 
    2633     2636     2647     2662     2668     2667     2655     2636 
    2636     2650     2660     2668     2662     2644     2636     2640 
    2643     2636     2616     2596     2596     2590     2562     2539 
    2529     2520     2515     2509     2485     2463     2452     2431 
    2405     2384     2358     2335     2317     2299     2272     2253 
    2246     2230     2205     2173     2130     2093     2066     2045 
    2034     2027     2010     1999     1980     1946     1915     1883 
    1846     1817     1795     1783     1772     1755     1734     1715 
    1694     1667     1645     1629     1606     1579     1554     1535 
    1513     1490     1483     1487     1482     1468     1449     1414 
    1379     1360     1333     1308     1304     1302     1298     1298 
    1278     1250     1243     1223     1178     1165     1170     1159 
    1158     1159     1151     1150     1140     1123     1115     1100 
    1077     1063     1048     1039     1044     1039     1026     1020 
    1031     1039     1028     1005      996     1000      993      974 
     959      942      935      950      961      947      936      939 
     923      896      905      924      922      920      924      922 
     903      885      889      908      923      924      920      918 
     903      888      889      901      918      929      940      949 
     946      936      931      927      932      940      940      945 
     955      953      951      963      969      972      982      994 
    1005     1004     1000      996      993     1005     1020     1034 
    1053     1063     1069     1089     1094     1081     1086     1115 
    1123     1113     1129     1159     1166     1181     1219     1230 
    1225     1237     1263     1274     1275     1300     1321     1328 
    1347     1364     1372     1390     1414     1433     1439     1453 
    1476     1486     1490     1493     1495     1509     1528     1547 
    1560     1571     1593     1609     1614     1611     1597     1599 
    1615     1621     1637     1655     1645     1644     1655     1661 
    1676     1691     1692     1682     1667     1663     1657     1656 
    1672     1686     1684     1672     1649     1632     1628     1632 
    1641     1642     1640     1622     1591     1576     1580     1580 
    1579     1575     1556     1532     1521     1520     1506     1505 
    1509     1493     1475     1472     1464     1443     1420     1412 
    1418     1421     1416     1405     1383     1363     1350     1327 
    1308     1312     1318     1314     1301     1285     1266     1230 
    1210     1215     1213     1205     1193     1183     1174     1152 
    1135     1132     1124     1107     1096     1071     1038     1020 
    1009     1004     1000      981      954      938      927      912 
     913      923      895      842      804      781      772      792 
     810      781      724      688      675      660      660      669 
     645      602      566      535      525      533      540      518 
     490      467      432      403      406      406      380      361 
     353      326      291      279      263      248      249      238 
     209      184      168      167      170      152      125      112 
      97       75       70       78       71       44       14       10 
       9       -5        1       18        5      -18      -23      -20 
     -18      -23      -37      -43      -32      -32      -40      -35 
     -35      -40      -35      -29      -32      -39      -28      -13 
     -10       -5       -2       -2        1       17       39       49 
      45       45       55       72       98      108      105      112 
     125      139      153      167      193      211      207      199 
     211      241      263      275      282      292      307      324 
     337      353      369      378      388      407      425      436 
     444      460      487      513      526      535      538      545 
     566      589      604      629      650      658      668      681 
     696      720      734      735      760      800      818      820 
     828      838      850      869      881      890      916      951 
     966      962      958      970      981      978      986     1009 
    1023     1023     1034     1042     1034     1030     1026     1028 
    1053     1080     1088     1088     1090     1085     1069     1057 
    1050     1055     1073     1077     1070     1070     1073     1077 
    1074     1053     1039     1046     1048     1042     1047     1050 
    1031     1016     1023     1031     1016      997     1007     1020 
    1020     1030     1035     1017     1000     1000      997      993 
     993      999     1009     1005      996      996      986      978 
     984      978      963      963      977      982      972      959 
     966      976      969      961      962      961      949      951 
     963      954      950      959      951      951      962      945 
     928      939      946      959      976      973      963      966 
     982      994      986      989     1000      993     1000     1024 
    1004      990     1038     1059     1017     1019     1069     1073 
    1044     1036     1030     1032     1069     1100     1086     1063 
    1069     1085     1098     1105     1081     1057     1071     1104 
    1111     1105     1094     1077     1074     1090     1090     1067 
    1051     1057     1069     1060     1047     1043     1042     1035 
    1038     1055     1039      989      974      981      976      986 
     994      962      926      919      927      938      938      911 
     889      885      858      837      842      822      807      827 
     830      801      772      757      747      741      739      733 
     727      715      688      662      656      654      652      650 
