Origin Time       2016/04/16 01:25:00
Lat.              32.753
Long.             130.762
Depth. (km)       12
Mag.              7.3
Station Code      SZO025
Station Lat.      34.7194
Station Long.     137.5314
Station Height(m) 4
Record Time       2016/04/16 01:28:22
Sampling Freq(Hz) 100Hz
Duration Time(s)  60
Dir.              N-S
Scale Factor      7845(gal)/8223790
Max. Acc. (gal)   1.823
Last Correction   2016/04/16 01:28:23
Memo.             
[...]
    9444     9454     9463     9468     9470     9467     9471     9472 
    9472     9474     9474     9472     9470     9468     9463     9454 
    9443     9437     9437     9433     9429     9417     9414     9416 
    9408     9405     9406     9402     9396     9397     9391     9390 
    9388     9375     9370     9369     9362     9352     9346     9333 
    9322     9320     9309     9294     9282     9265     9246     9238 
    9231     9220     9215     9202     9193     9194     9192     9188 
    9186     9189     9190     9194     9198     9201     9208     9208 
    9212     9221     9231     9234     9235     9239     9240     9246 
    9250     9251     9254     9261     9270     9271     9282     9298 
    9306     9312     9324     9336     9347     9364     9371     9382 
    9397     9402     9409     9423     9435     9437     9447     9460 
    9471     9482     9485     9485     9487     9490     9487     9485 
    9482     9475     9479     9478     9468     9466     9464     9460 
    9459     9458     9444     9441     9445     9444     9447     9447 
    9443     9445     9456     9454     9459     9472     9475     9479 
    9485     9491     9497     9505     9508     9512     9520     9517 
    9521     9524     9517     9514     9514     9510     9502     9497 
    9487     9479     9477     9470     9462     9451     9441     9432 
    9427     9418     9409     9404     9394     9388     9385     9378 
    9370     9362     9354     9342     9337     9329     9319     9308 
    9296     9283     9270     9262     9250     9234     9221     9217 
    9209     9193     9189     9186     9189     9189     9189     9197 
    9205     9216     9231     9250     9265     9278     9301     9324 
    9343     9359     9381     9401     9421     9441     9456     9471 
    9482     9494     9495     9490     9497     9510     9517     9512 
    9513     9517     9514     9517     9516     9509     9502     9505 
    9505     9505     9508     9497     9491     9494     9490     9477 
    9477     9483     9479     9474     9463     9458     9450     9440 
    9432     9427     9421     9414     9410     9401     9393     9387 
    9383     9383     9377     9373     9364     9360     9363     9363 
    9364     9369     9377     9375     9378     9378     9367     9367 
    9370     9369     9366     9367     9369     9370     9371     9366 
    9362     9359     9354     9348     9348     9350     9347     9352 
    9354     9347     9347     9351     9355     9364     9374     9377 
    9387     9398     9405     9418     9435     9451     9467     9489 
    9504     9520     9543     9562     9589     9612     9626     9653 
    9684     9701     9714     9740     9756     9769     9786     9798 
    9813     9833     9849     9855     9864     9871     9876     9886 
    9883     9883     9886     9888     9886     9883     9880     9873 
    9868     9859     9841     9826     9821     9807     9787     9769 
    9748     9734     9718     9694     9676     9661     9640     9610 
    9591     9574     9552     9533     9521     9514     9497     9483 
    9468     9460     9451     9441     9439     9437     9439     9440 
    9440     9433     9433     9448     9454     9458     9468     9482 
    9490     9497     9506     9509     9517     9521     9517     9518 
    9524     9521     9514     9514     9510     9510     9512     9508 
    9502     9493     9491     9486     9477     9468     9463     9456 
    9451     9450     9441     9428     9414     9408     9404     9393 
    9382     9373     9373     9374     9371     9367     9364     9367 
    9362     9359     9364     9374     9382     9390     9398     9402 
    9417     9431     9443     9463     9471     9479     9497     9512 
    9516     9529     9544     9547     9553     9558     9556     9556 
    9555     9552     9553     9555     9549     9552     9548     9541 
    9539     9533     9524     9514     9512     9502     9494     9495 
    9494     9490     9487     9486     9482     9485     9483     9482 
    9493     9494     9494     9497     9502     9505     9512     9518 
    9518     9525     9530     9528     9526     9529     9530     9532 
    9537     9540     9548     9555     9559     9562     9563     9574 
    9579     9587     9599     9605     9612     9617     9620     9625 
    9632     9629     9632     9641     9640     9640     9641     9641 
    9639     9640     9640     9633     9629     9622     9620     9612 
    9599     9590     9579     9572     9556     9543     9530     9518 
    9504     9485     9467     9452     9447     9437     9427     9417 
    9400     9386     9378     9369     9362     9363     9363     9355 
    9351     9347     9347     9346     9340     9337     9339     9342 
    9340     9344     9347     9347     9348     9350     9355     9355 
    9362     9367     9378     9382     9385     9396     9400     9401 
    9406     9417     9424     9425     9431     9436     9443     9444 
    9447     9452     9454     9451     9444     9444     9440     9437 
    9432     9427     9427     9418     9408     9393     9383     9377 
    9364     9354     9347     9340     9329     9327     9322     9319 
    9320     9320     9331     9346     9355     9367     9385     9404 
    9421     9447     9466     9493     9528     9553     9575     9598 
    9617     9629     9651     9664     9668     9680     9684     9678 
    9670     9660     9644     9632     9614     9583     9558     9530 
    9505     9479     9451     9414     9383     9370     9343     9312 
    9294     9279     9258     9235     9221     9205     9196     9190 
    9188     9188     9186     9185     9186     9194     9198     9211 
    9228     9240     9252     9265     9278     9293     9315     9332 
    9348     9377     9404     9421     9437     9460     9479     9495 
    9516     9533     9553     9563     9572     9585     9593     9595 
    9602     9613     9612     9609     9610     9607     9607     9602 
    9594     9593     9598     9595     9589     9586     9582     9583 
    9582     9576     9575     9580     9583     9589     9599     9598 
    9596     9601     9603     9603     9607     9613     9607     9609 
    9609     9598     9586     9574     9566     9555     9540     9525 
    9516     9506     9483     9460     9445     9437     9424     9410 
    9398     9381     9367     9355     9344     9333     9327     9324 
    9322     9322     9315     9308     9302     9297     9296     9297 
    9294     9290     9296     9288     9277     9275     9271     9258 
    9251     9250     9240     9232     9227     9219     9220     9219 
    9216     9211     9209     9208     9211     9216     9212     9211 
    9205     9198     9201     9204     9204     9200     9201     9194 
    9189     9182     9170     9162     9158     9159     9151     9146 
    9143     9135     9134     9128     9126     9132     9140     9136 
    9135     9144     9144     9151     9163     9170     9171     9180 
    9196     9205     9221     9231     9240     9254     9269     9292 
    9309     9320     9333     9358     9381     9396     9418     9441 
    9463     9485     9510     9533     9560     9583     9589     9610 
    9640     9661     9687     9703     9713     9730     9749     9756 
    9769     9783     9782     9790     9799     9801     9795     9795 
    9791     9782     9782     9771     9767     9763     9749     9740 
    9737     9734     9724     9721     9718     9714     9717     9715 
    9714     9713     9720     9721     9724     9733     9733     9732 
    9737     9744     9748     9749     9751     9752     9755     9752 
    9751     9751     9752     9748     9744     9749     9738     9726 
    9733     9738     9736     9732     9728     9720     9714     9705 
    9699     9698     9684     9676     9668     9657     9649     9645 
    9636     9620     9616     9606     9596     9593     9587     9580 
    9576     9572     9560     9553     9549     9547     9547     9541 
    9543     9540     9540     9533     9529     9530     9528     9530 
    9535     9530     9524     9525     9530     9533     9535     9530 
    9532     9532     9535     9537     9536     9536     9536     9544 
    9544     9533     9526     9528     9530     9530     9530     9521 
    9516     9514     9501     9495     9491     9482     9470     9463 
    9451     9433     9417     9396     9378     9363     9346     9325 
    9309     9296     9273     9259     9248     9232     9220     9208 
    9201     9198     9197     9184     9178     9185     9180     9180 
    9184     9185     9186     9190     9188     9189     9200     9201 
    9204     9202     9205     9211     9217     9221     9215     9221 
    9228     9234     9244     9252     9256     9263     9275     9283 
    9296     9306     9316     9331     9340     9348     9354     9363 
    9374     9379     9387     9397     9408     9409     9414     9421 
    9421     9431     9444     9462     9466     9463     9468     9482 
    9491     9489     9497     9506     9510     9520     9524     9526 
    9530     9543     9556     9567     9572     9575     9589     9591 
    9596     9607     9612     9613     9616     9622     9618     9616 
    9610     9607     9613     9609     9605     9602     9601     9594 
    9589     9587     9585     9593     9593     9590     9594     9598 
    9602     9606     9613     9610     9613     9621     9621     9624 
    9629     9644     9649     9656     9661     9664     9679     9687 
    9707     9729     9745     9760     9775     9798     9818     9846 
    9873     9894     9913     9931     9957     9976     9996    10014 
   10027    10042    10052    10064    10065    10066    10073    10076 
   10076    10068    10069    10068    10064    10064    10064    10057 
   10045    10049    10045    10035    10037    10035    10044    10042 
   10038    10044    10048    10046    10044    10050    10046    10042 
   10048    10046    10045    10035    10033    10025    10018    10006 
    9979     9967     9952     9931     9907     9886     9868     9837 
    9804     9765     9734     9702     9659     9628     9590     9548 
    9502     9466     9425     9370     9331     9286     9235     9184 
    9139     9094     9042     9003     8958     8922     8888     8843 
    8810     8777     8743     8706     8679     8654     8630     8625 
    8617     8607     8598     8599     8608     8614     8631     8640 
    8655     8684     8706     8741     8770     8806     8842     8883 
    8920     8964     9018     9055     9093     9139     9186     9228 
    9265     9308     9344     9387     9424     9454     9497     9526 
    9558     9586     9614     9645     9672     9701     9720     9748 
    9771     9795     9826     9849     9872     9895     9925     9944 
    9954     9977     9992    10015    10034    10052    10069    10080 
   10098    10110    10123    10127    10131    10146    10147    10150 
   10150    10152    10147    10134    10127    10106    10088    10069 
   10046    10022     9992     9968     9931     9895     9856     9814 
    9786     9745     9709     9668     9629     9598     9556     9524 
    9491     9467     9445     9421     9404     9385     9370     9347 
    9343     9339     9328     9339     9339     9336     9337     9346 
    9359     9366     9377     9385     9401     9414     9425     9441 
    9447     9460     9471     9481     9489     9495     9506     9502 
    9516     9522     9517     9524     9526     9536     9540     9537 
    9528     9522     9525     9516     9517     9512     9508     9510 
    9499     9487     9471     9464     9452     9441     9433     9410 
    9404     9398     9385     9369     9355     9352     9339     9337 
    9325     9312     9302     9293     9293     9279     9274     9270 
    9263     9265     9252     9246     9238     9224     9211     9196 
    9190     9177     9169     9150     9134     9124     9099     9084 
    9065     9050     9038     9027     9024     9008     8992     8978 
    8970     8959     8949     8955     8954     8955     8957     8968 
    8980     8972     8986     9008     9031     9050     9063     9092 
    9115     9137     9155     9188     9229     9259     9293     9322 
    9358     9388     9416     9452     9485     9524     9558     9596 
    9637     9672     9703     9732     9775     9810     9842     9882 
    9913     9950     9983    10017    10046    10076    10112    10142 
   10184    10216    10242    10272    10299    10324    10345    10372 
   10395    10417    10446    10461    10482    10493    10501    10509 
   10521    10546    10557    10566    10567    10570    10579    10584 
   10590    10588    10594    10600    10600    10598    10589    10586 
   10570    10561    10557    10536    10527    10508    10486    10465 
   10440    10411    10377    10354    10322    10289    10262    10234 
   10211    10177    10156    10127    10098    10072    10044    10022 
    9998     9973     9941     9906     9880     9844     9815     9787 
    9761     9734     9698     9656     9607     9578     9536     9491 
    9459     9405     9354     9305     9255     9204     9157     9103 
    9034     8986     8928     8863     8803     8735     8673     8617 
    8565     8502     8437     8383     8322     8266     8195     8132 
    8077     8017     7966     7911     7863     7815     7771     7728 
    7681     7655     7626     7603     7591     7577     7565     7550 
    7553     7553     7553     7562     7578     7603     7626     7657 
    7684     7717     7759     7793     7842     7886     7936     7994 
    8047     8100     8154     8215     8271     8340     8411     8473 
    8543     8608     8679     8746     8818     8896     8965     9043 
    9115     9185     9262     9339     9418     9493     9571     9645 
    9726     9801     9865     9945    10014    10080    10145    10207 
   10268    10318    10372    10420    10470    10514    10547    10582 
   10611    10646    10670    10693    10712    10721    10737    10743 
   10751    10752    10752    10760    10754    10747    10731    10720 
   10705    10673    10654    10631    10606    10584    10561    10531 
   10493    10465    10420    10382    10351    10312    10277    10234 
   10193    10152    10112    10072    10029    10003     9967     9927 
    9894     9861     9832     9803     9780     9745     9725     9705 
    9674     9661     9640     9614     9593     9572     9552     9528 
    9509     9491     9481     9454     9427     9410     9381     9363 
    9342     9320     9300     9273     9251     9221     9202     9186 
    9171     9159     9143     9137     9126     9117     9113     9107 
    9111     9116     9134     9146     9159     9173     9185     9209 
    9224     9250     9286     9315     9339     9366     9398     9423 
    9458     9490     9514     9549     9580     9613     9636     9662 
    9691     9705     9729     9742     9753     9761     9768     9780 
    9780     9774     9757     9749     9732     9707     9693     9656 
    9629     9605     9568     9533     9491     9454     9414     9387 
    9352     9310     9279     9235     9200     9170     9135     9096 
    9063     9045     9009     8978     8947     8922     8903     8878 
    8861     8833     8808     8795     8783     8775     8756     8745 
    8737     8741     8743     8735     8745     8752     8762     8762 
    8768     8795     8808     8823     8843     8870     8892     8912 
    8941     8959     8996     9031     9062     9096     9117     9143 
    9169     9204     9232     9259     9300     9331     9371     9408 
    9436     9464     9499     9540     9574     9618     9651     9682 
    9728     9759     9799     9840     9879     9913     9945     9979 
   10011    10046    10065    10084    10107    10120    10141    10147 
   10157    10161    10161    10161    10145    10138    10127    10111 
   10085    10057    10035    10006     9976     9941     9907     9872 
    9832     9798     9755     9714     9668     9621     9578     9522 
    9479     9432     9378     9329     9283     9242     9180     9127 
    9073     9026     8982     8920     8869     8823     8779     8730 
    8687     8650     8599     8568     8545     8517     8494     8474 
    8461     8444     8437     8428     8428     8446     8453     8479 
    8506     8533     8568     8600     8640     8677     8726     8769 
    8816     8876     8922     8972     9027     9078     9123     9174 
    9235     9283     9339     9385     9427     9475     9524     9572 
    9610     9659     9705     9752     9796     9823     9861     9899 
    9941     9975    10000    10034    10057    10088    10115    10135 
   10162    10185    10204    10216    10230    10242    10254    10263 
   10269    10287    10285    10280    10280    10276    10274    10261 
   10253    10234    10212    10197    10169    10145    10115    10087 
   10052    10011     9973     9930     9898     9850     9803     9764 
    9722     9682     9629     9589     9548     9512     9477     9428 
    9397     9371     9342     9312     9286     9265     9240     9231 
    9209     9193     9192     9182     9180     9175     9167     9161 
    9162     9163     9155     9162     9166     9170     9178     9174 
    9170     9166     9173     9165     9161     9162     9154     9158 
    9150     9134     9119     9108     9097     9077     9069     9054 
    9038     9028     9009     8993     8968     8946     8924     8918 
    8914     8887     8873     8858     8841     8830     8818     8810 
    8800     8795     8784     8775     8762     8743     8737     8727 
    8723     8712     8698     8687     8664     8650     8635     8625 
    8612     8590     8568     8546     8532     8506     8492     8484 
    8463     8456     8446     8436     8421     8406     8403     8401 
    8414     8424     8434     8449     8460     8482     8506     8542 
    8572     8612     8654     8688     8741     8791     8842     8896 
    8946     9003     9053     9107     9153     9205     9261     9310 
    9366     9405     9444     9479     9514     9547     9571     9605 
    9625     9644     9656     9660     9670     9670     9670     9657 
    9644     9626     9605     9595     9567     9539     9514     9489 
    9464     9433     9408     9375     9351     9325     9296     9279 
    9261     9248     9234     9229     9224     9215     9223     9224 
    9236     9255     9275     9304     9327     9358     9388     9424 
    9460     9499     9552     9589     9632     9679     9724     9764 
    9799     9837     9869     9910     9942     9971    10003    10010 
   10022    10033    10033    10030    10033    10038    10022    10012 
    9996     9975     9954     9926     9903     9875     9852     9822 
    9784     9759     9728     9701     9671     9637     9610     9583 
    9563     9539     9518     9493     9459     9436     9412     9388 
    9360     9346     9328     9297     9274     9240     9220     9202 
    9180     9166     9147     9128     9101     9080     9050     9028 
    9020     8999     8985     8969     8951     8938     8919     8912 
    8901     8896     8893     8887     8885     8877     8877     8877 
