Origin Time       2016/04/16 01:25:00
Lat.              32.753
Long.             130.762
Depth. (km)       12
Mag.              7.3
Station Code      SZO016
Station Lat.      34.8566
Station Long.     138.3113
Station Height(m) 3
Record Time       2016/04/16 01:28:47
Sampling Freq(Hz) 100Hz
Duration Time(s)  78
Dir.              E-W
Scale Factor      7845(gal)/8223790
Max. Acc. (gal)   2.375
Last Correction   2016/04/16 01:28:48
Memo.             
[...]
   11608    11607    11601    11599    11596    11587    11581    11578 
   11573    11572    11570    11568    11562    11557    11550    11545 
   11539    11534    11527    11516    11503    11496    11496    11492 
   11481    11476    11470    11457    11445    11438    11430    11425 
   11421    11415    11404    11389    11379    11372    11362    11356 
   11354    11354    11349    11344    11338    11331    11326    11323 
   11318    11313    11313    11317    11315    11315    11313    11300 
   11294    11296    11296    11298    11298    11294    11287    11283 
   11276    11275    11277    11280    11279    11271    11261    11256 
   11253    11257    11264    11260    11252    11249    11256    11261 
   11265    11272    11279    11280    11283    11288    11294    11300 
   11313    11325    11330    11337    11344    11349    11362    11388 
   11403    11402    11408    11421    11421    11438    11464    11468 
   11476    11495    11499    11508    11534    11541    11541    11561 
   11570    11564    11576    11587    11583    11597    11616    11610 
   11610    11620    11616    11627    11647    11645    11646    11661 
   11651    11651    11666    11657    11665    11689    11684    11688 
   11708    11704    11705    11726    11723    11728    11754    11749 
   11747    11772    11767    11767    11794    11796    11796    11807 
   11807    11830    11847    11830    11835    11844    11838    11858 
   11869    11859    11870    11880    11875    11875    11880    11881 
   11892    11904    11898    11894    11901    11902    11904    11909 
   11911    11912    11914    11923    11929    11927    11924    11931 
   11934    11937    11944    11944    11944    11951    11951    11950 
   11951    11951    11951    11950    11946    11950    11955    11954 
   11946    11940    11937    11936    11935    11925    11924    11925 
   11914    11904    11897    11888    11878    11866    11854    11847 
   11840    11824    11813    11803    11781    11762    11759    11751 
   11739    11720    11696    11685    11681    11665    11649    11634 
   11615    11605    11601    11592    11580    11564    11543    11530 
   11519    11503    11497    11506    11502    11475    11448    11433 
   11437    11445    11439    11421    11406    11402    11402    11396 
   11387    11379    11368    11361    11365    11362    11349    11341 
   11344    11342    11338    11340    11342    11341    11340    11342 
   11345    11352    11361    11369    11373    11369    11367    11379 
   11404    11421    11427    11429    11433    11441    11457    11476 
   11484    11495    11511    11516    11526    11547    11558    11554 
   11564    11589    11601    11608    11618    11624    11635    11651 
   11663    11665    11663    11677    11695    11701    11703    11715 
   11728    11736    11745    11751    11750    11755    11766    11778 
   11785    11790    11794    11796    11799    11811    11824    11831 
   11832    11835    11844    11851    11855    11859    11865    11877 
   11889    11890    11892    11893    11893    11902    11916    11925 
   11928    11928    11927    11929    11935    11942    11942    11937 
   11942    11947    11950    11946    11943    11942    11942    11947 
   11947    11937    11931    11931    11928    11934    11940    11929 
   11916    11913    11909    11904    11904    11897    11890    11886 
   11881    11875    11867    11859    11854    11847    11832    11817 
   11808    11803    11799    11793    11781    11761    11745    11735 
   11726    11711    11695    11684    11676    11659    11641    11623 
   11608    11600    11591    11572    11553    11537    11521    11511 
   11497    11484    11468    11452    11450    11445    11422    11410 
   11406    11389    11377    11377    11372    11354    11340    11341 
   11338    11322    11317    11317    11310    11306    11304    11303 
   11300    11294    11287    11290    11296    11296    11292    11287 
   11287    11295    11304    11311    11315    11308    11299    11302 
   11317    11330    11331    11329    11331    11334    11334    11337 
   11338    11334    11341    11354    11361    11364    11361    11353 
   11352    11356    11371    11381    11372    11353    11352    11360 
   11362    11373    11387    11383    11373    11361    11352    11367 
   11389    11391    11388    11387    11379    11375    11381    11395 
   11398    11392    11389    11395    11399    11398    11396    11396 
   11399    11402    11403    11412    11415    11410    11410    11418 
   11422    11418    11412    11418    11422    11427    11453    11466 
   11441    11431    11455    11466    11461    11461    11475    11491 
   11495    11487    11481    11497    11533    11543    11516    11504 
   11537    11564    11564    11566    11578    11585    11595    11611 
   11614    11605    11619    11643    11647    11642    11645    11661 
   11682    11686    11678    11684    11704    11722    11723    11722 
   11735    11749    11750    11751    11762    11790    11800    11778 
   11774    11805    11831    11838    11842    11846    11846    11850 
   11855    11862    11871    11881    11892    11893    11885    11890 
   11904    11909    11904    11904    11909    11912    11907    11901 
   11904    11909    11908    11896    11884    11884    11886    11884 
   11878    11866    11853    11848    11853    11855    11843    11815 
   11794    11794    11792    11781    11769    11751    11734    11728 
   11716    11692    11672    11657    11642    11630    11616    11603 
   11589    11568    11543    11530    11523    11518    11506    11479 
   11446    11435    11445    11450    11434    11402    11371    11362 
   11379    11395    11372    11327    11307    11321    11334    11326 
   11304    11280    11267    11271    11279    11277    11269    11247 
   11221    11219    11237    11247    11240    11217    11191    11187 
   11203    11218    11217    11192    11165    11175    11214    11232 
   11214    11195    11180    11191    11229    11252    11241    11222 
   11221    11246    11280    11299    11311    11306    11291    11311 
   11349    11369    11399    11430    11421    11403    11422    11464 
   11488    11485    11500    11529    11534    11558    11591    11578 
   11564    11595    11643    11655    11641    11643    11666    11685 
   11701    11727    11743    11745    11755    11762    11746    11759 
   11816    11854    11853    11843    11844    11850    11857    11888 
   11912    11911    11935    11961    11947    11934    11944    11975 
   11993    11990    11992    11979    11971    11994    12017    12024 
   12019    12004    12005    11997    11980    11993    12009    12013 
   12016    11988    11952    11943    11947    11967    11973    11940 
   11920    11917    11904    11901    11890    11871    11881    11878 
   11844    11834    11834    11819    11820    11811    11789    11800 
   11793    11747    11736    11742    11728    11742    11747    11706 
   11684    11673    11645    11647    11663    11651    11642    11630 
   11600    11589    11583    11564    11564    11566    11551    11537 
   11527    11503    11480    11481    11492    11488    11464    11435 
   11415    11403    11403    11407    11402    11391    11362    11317 
   11292    11310    11322    11299    11276    11264    11237    11206 
   11191    11186    11179    11171    11153    11114    11086    11079 
   11071    11055    11043    11025    10989    10952    10937    10936 
   10933    10914    10875    10849    10843    10824    10808    10804 
   10783    10755    10758    10759    10722    10689    10692    10705 
   10706    10689    10656    10628    10628    10646    10646    10635 
   10639    10639    10612    10593    10597    10609    10628    10640 
   10627    10612    10615    10623    10631    10642    10652    10666 
   10682    10681    10663    10670    10704    10740    10767    10775 
   10759    10752    10779    10818    10847    10874    10897    10899 
   10899    10925    10963    10994    11024    11045    11057    11076 
   11099    11126    11165    11194    11214    11246    11280    11303 
   11329    11361    11384    11412    11461    11508    11539    11558 
   11570    11593    11641    11706    11757    11770    11781    11811 
   11851    11904    11961    11998    12021    12048    12079    12121 
   12175    12220    12251    12286    12325    12363    12398    12439 
   12484    12515    12545    12586    12634    12687    12729    12745 
   12754    12793    12858    12900    12916    12951    12996    13014 
   13038    13078    13104    13139    13185    13193    13201    13250 
   13281    13288    13314    13340    13351    13375    13392    13396 
   13408    13431    13450    13450    13443    13450    13471    13486 
   13483    13470    13458    13463    13467    13454    13448    13446 
   13432    13410    13393    13377    13371    13366    13344    13317 
   13292    13258    13225    13204    13184    13155    13122    13084 
   13043    12995    12946    12926    12915    12864    12779    12717 
   12688    12654    12603    12550    12495    12439    12387    12334 
   12268    12198    12158    12114    12046    11986    11939    11862 
   11782    11746    11712    11643    11564    11496    11438    11379 
   11327    11283    11225    11149    11074    11007    10955    10917 
   10882    10828    10741    10659    10621    10600    10550    10488 
   10438    10396    10346    10303    10277    10249    10189    10131 
   10106    10095    10080    10055    10018     9976     9949     9936 
    9923     9917     9913     9894     9867     9850     9841     9836 
    9837     9841     9836     9828     9818     9819     9828     9830 
    9845     9857     9845     9840     9857     9875     9900     9929 
    9942     9945     9948     9963     9994    10034    10066    10083 
   10098    10121    10156    10197    10245    10281    10307    10338 
   10377    10419    10462    10514    10569    10613    10656    10706 
   10755    10800    10852    10914    10974    11029    11087    11142 
   11196    11257    11322    11387    11452    11511    11564    11624 
   11688    11750    11812    11877    11943    12008    12071    12133 
   12191    12253    12320    12383    12432    12478    12541    12594 
   12636    12718    12798    12807    12834    12928    12978    12985 
   13045    13115    13134    13163    13219    13246    13271    13327 
   13359    13371    13408    13441    13455    13483    13512    13520 
   13539    13560    13570    13579    13587    13587    13595    13603 
   13603    13598    13586    13572    13563    13555    13543    13521 
   13500    13485    13463    13432    13398    13367    13331    13292 
   13261    13228    13180    13128    13086    13035    12970    12924 
   12895    12820    12729    12695    12656    12560    12495    12453 
   12371    12301    12254    12174    12093    12043    11983    11911 
   11846    11780    11709    11645    11587    11521    11458    11402 
   11340    11279    11222    11157    11098    11045    10984    10924 
   10868    10809    10755    10712    10658    10600    10547    10500 
   10453    10409    10366    10320    10276    10235    10197    10157 
   10119    10085    10052    10018     9987     9958     9933     9909 
    9883     9864     9845     9821     9804     9795     9783     9771 
    9764     9757     9755     9755     9753     9751     9753     9757 
    9767     9780     9790     9798     9807     9825     9842     9857 
    9879     9903     9921     9945     9977    10004    10030    10058 
   10085    10118    10153    10183    10212    10249    10289    10328 
   10362    10400    10442    10481    10514    10557    10602    10639 
   10679    10727    10767    10812    10858    10894    10941    10993 
   11034    11079    11128    11176    11225    11269    11315    11365 
   11416    11461    11506    11560    11612    11655    11703    11751 
   11800    11846    11892    11943    11990    12032    12078    12127 
   12170    12213    12260    12303    12344    12386    12429    12475 
   12513    12552    12594    12629    12667    12711    12746    12775 
   12810    12847    12877    12908    12947    12978    12999    13028 
   13059    13076    13096    13127    13149    13166    13188    13211 
   13223    13231    13248    13266    13269    13281    13301    13302 
   13302    13317    13317    13309    13314    13317    13308    13304 
   13301    13293    13281    13270    13262    13251    13236    13224 
   13208    13188    13170    13151    13129    13112    13092    13063 
   13039    13016    12988    12958    12927    12895    12865    12831 
   12793    12756    12722    12683    12641    12598    12556    12515 
   12476    12433    12388    12344    12302    12254    12204    12159 
   12118    12074    12028    11983    11937    11892    11844    11799 
   11758    11712    11659    11611    11564    11520    11475    11422 
   11369    11321    11271    11218    11169    11121    11072    11022 
   10966    10909    10854    10797    10739    10685    10631    10575 
   10514    10454    10400    10342    10280    10218    10161    10111 
   10058     9996     9938     9886     9832     9780     9730     9682 
    9633     9587     9544     9509     9468     9424     9386     9354 
    9325     9301     9269     9235     9204     9182     9174     9162 
    9137     9121     9111     9094     9096     9108     9099     9094 
    9109     9107     9112     9144     9157     9151     9171     9200 
    9219     9246     9274     9296     9320     9352     9398     9445 
    9471     9504     9567     9625     9670     9725     9768     9806 
    9868     9934     9995    10064    10130    10193    10260    10322 
   10386    10462    10532    10604    10678    10751    10821    10887 
   10951    11034    11111    11169    11237    11313    11379    11449 
   11512    11574    11642    11704    11765    11827    11889    11951 
   12009    12059    12114    12175    12225    12270    12317    12367 
   12415    12467    12518    12565    12606    12645    12687    12730 
   12772    12811    12852    12892    12926    12958    12997    13030 
   13058    13089    13120    13142    13167    13203    13232    13251 
   13263    13286    13325    13342    13342    13369    13385    13363 
   13360    13382    13392    13405    13406    13383    13382    13389 
   13379    13375    13371    13356    13365    13367    13339    13321 
   13309    13292    13281    13267    13244    13225    13203    13189 
   13172    13139    13112    13095    13070    13043    13014    12976 
   12950    12942    12915    12864    12830    12810    12769    12730 
   12702    12665    12629    12600    12557    12507    12472    12429 
   12383    12348    12312    12268    12225    12175    12127    12075 
   12024    11985    11947    11901    11850    11800    11747    11692 
   11641    11597    11557    11508    11448    11388    11344    11303 
   11256    11209    11171    11134    11079    11029    10994    10948 
   10897    10870    10835    10788    10754    10716    10679    10650 
   10612    10578    10555    10516    10480    10458    10430    10393 
   10369    10357    10332    10299    10281    10266    10235    10227 
   10226    10193    10180    10191    10166    10141    10154    10154 
   10135    10145    10147    10139    10147    10142    10139    10161 
   10162    10169    10195    10187    10196    10224    10216    10230 
   10268    10266    10282    10315    10322    10338    10361    10378 
   10407    10432    10451    10478    10494    10512    10547    10573 
   10590    10628    10655    10678    10714    10735    10755    10793 
   10825    10856    10883    10908    10936    10968    11002    11028 
   11059    11084    11109    11138    11153    11186    11229    11232 
   11241    11269    11287    11321    11346    11356    11385    11406 
   11412    11439    11445    11448    11493    11508    11503    11537 
   11543    11546    11581    11574    11574    11614    11608    11610 
   11645    11639    11645    11674    11668    11685    11713    11695 
   11716    11755    11739    11761    11792    11777    11805    11828 
   11809    11850    11878    11867    11908    11920    11912    11955 
   11962    11962    12009    12009    12017    12067    12058    12067 
   12120    12112    12124    12167    12162    12186    12225    12220 
   12252    12285    12272    12309    12339    12329    12372    12401 
   12393    12428    12438    12432    12475    12484    12483    12521 
   12511    12513    12556    12544    12541    12568    12555    12564 
   12583    12564    12580    12592    12568    12573    12579    12567 
   12569    12563    12555    12555    12545    12536    12529    12517 
   12502    12495    12494    12478    12460    12457    12441    12429 
   12420    12396    12394    12382    12356    12363    12343    12295 
   12299    12291    12252    12249    12231    12194    12195    12179 
   12140    12128    12110    12079    12066    12040    12009    12000 
   11979    11937    11919    11904    11870    11846    11823    11781 
   11759    11749    11712    11684    11662    11626    11596    11578 
   11551    11521    11495    11472    11441    11404    11391    11379 
   11341    11307    11288    11260    11237    11223    11194    11173 
   11160    11121    11086    11075    11051    11025    11020    10999 
   10963    10941    10924    10895    10862    10854    10852    10821 
   10797    10787    10755    10728    10739    10729    10697    10683 
   10671    10660    10665    10650    10620    10621    10629    10613 
   10597    10600    10606    10598    10594    10597    10584    10574 
   10596    10606    10588    10590    10606    10604    10596    10601 
   10612    10615    10621    10636    10636    10631    10648    10663 
   10660    10670    10689    10693    10702    10717    10716    10706 
   10712    10740    10767    10774    10782    10797    10804    10813 
   10821    10821    10835    10860    10872    10883    10893    10905 
   10928    10944    10953    10974    10994    11011    11032    11049 
   11067    11080    11098    11126    11144    11157    11190    11218 
   11234    11253    11277    11302    11323    11345    11371    11395 
   11418    11443    11465    11485    11504    11523    11543    11570 
   11593    11608    11626    11642    11657    11676    11693    11708 
   11724    11734    11742    11758    11772    11781    11789    11800 
   11812    11823    11828    11831    11834    11840    11847    11850 
   11847    11846    11850    11853    11847    11838    11834    11828 
   11824    11817    11811    11800    11793    11784    11767    11758 
   11751    11735    11727    11718    11695    11685    11677    11658 
   11650    11639    11623    11611    11599    11593    11589    11576 
   11560    11550    11546    11543    11539    11535    11533    11524 
   11515    11515    11521    11526    11530    11535    11545    11551 
   11547    11553    11573    11587    11599    11614    11632    11653 
   11670    11681    11696    11713    11732    11755    11777    11796 
   11816    11835    11857    11881    11901    11920    11943    11963 
