Origin Time       2016/04/16 01:25:00
Lat.              32.753
Long.             130.762
Depth. (km)       12
Mag.              7.3
Station Code      SZO012
Station Lat.      35.1271
Station Long.     138.6213
Station Height(m) 10
Record Time       2016/04/16 01:29:06
Sampling Freq(Hz) 100Hz
Duration Time(s)  60
Dir.              E-W
Scale Factor      7845(gal)/8223790
Max. Acc. (gal)   1.338
Last Correction   2016/04/16 01:29:07
Memo.             
[...]
   -2236    -2262    -2273    -2249    -2215    -2214    -2234    -2254 
   -2270    -2269    -2243    -2207    -2191    -2214    -2235    -2222 
   -2211    -2219    -2223    -2224    -2218    -2201    -2215    -2246 
   -2245    -2238    -2238    -2222    -2208    -2223    -2235    -2230 
   -2222    -2218    -2224    -2228    -2222    -2228    -2243    -2250 
   -2246    -2234    -2238    -2269    -2289    -2270    -2249    -2257 
   -2272    -2281    -2290    -2272    -2254    -2277    -2300    -2299 
   -2309    -2330    -2340    -2335    -2307    -2285    -2313    -2377 
   -2403    -2376    -2347    -2347    -2378    -2411    -2415    -2409 
   -2425    -2451    -2442    -2408    -2405    -2450    -2493    -2511 
   -2506    -2497    -2501    -2501    -2484    -2471    -2478    -2509 
   -2554    -2578    -2562    -2532    -2517    -2521    -2533    -2552 
   -2589    -2633    -2647    -2617    -2581    -2560    -2569    -2608 
   -2651    -2659    -2647    -2639    -2628    -2619    -2639    -2675 
   -2686    -2671    -2652    -2647    -2658    -2667    -2677    -2690 
   -2698    -2700    -2702    -2710    -2698    -2658    -2639    -2659 
   -2673    -2683    -2712    -2717    -2694    -2688    -2698    -2695 
   -2686    -2666    -2641    -2651    -2690    -2708    -2686    -2662 
   -2660    -2671    -2675    -2659    -2620    -2592    -2602    -2616 
   -2606    -2604    -2601    -2590    -2594    -2587    -2546    -2529 
   -2551    -2558    -2535    -2505    -2481    -2471    -2471    -2470 
   -2469    -2457    -2450    -2461    -2444    -2378    -2331    -2350 
   -2409    -2432    -2397    -2359    -2351    -2363    -2374    -2353 
   -2319    -2340    -2385    -2370    -2308    -2259    -2267    -2322 
   -2351    -2344    -2334    -2327    -2315    -2295    -2263    -2259 
   -2311    -2355    -2332    -2303    -2303    -2301    -2299    -2296 
   -2269    -2243    -2242    -2263    -2312    -2343    -2313    -2267 
   -2247    -2247    -2266    -2295    -2336    -2374    -2362    -2304 
   -2259    -2262    -2295    -2336    -2369    -2378    -2373    -2357 
   -2328    -2316    -2343    -2386    -2423    -2432    -2404    -2370 
   -2363    -2384    -2417    -2448    -2471    -2484    -2482    -2474 
   -2458    -2442    -2448    -2470    -2490    -2506    -2519    -2521 
   -2524    -2532    -2532    -2506    -2492    -2523    -2560    -2584 
   -2609    -2608    -2586    -2577    -2579    -2605    -2643    -2648 
   -2632    -2625    -2624    -2627    -2646    -2658    -2659    -2671 
   -2691    -2710    -2717    -2712    -2705    -2708    -2717    -2724 
   -2720    -2725    -2740    -2739    -2743    -2772    -2785    -2771 
   -2775    -2795    -2803    -2797    -2794    -2798    -2795    -2787 
   -2791    -2814    -2833    -2840    -2849    -2856    -2849    -2844 
   -2844    -2837    -2828    -2820    -2810    -2811    -2826    -2840 
   -2862    -2895    -2895    -2857    -2836    -2829    -2817    -2813 
   -2828    -2867    -2902    -2894    -2874    -2868    -2856    -2847 
   -2847    -2833    -2817    -2806    -2809    -2818    -2817    -2817 
   -2822    -2814    -2790    -2776    -2776    -2758    -2721    -2704 
   -2708    -2704    -2686    -2671    -2656    -2639    -2627    -2625 
   -2612    -2584    -2571    -2565    -2552    -2528    -2493    -2466 
   -2450    -2436    -2452    -2477    -2455    -2408    -2378    -2355 
   -2335    -2322    -2311    -2309    -2315    -2295    -2250    -2212 
   -2201    -2218    -2220    -2161    -2089    -2085    -2096    -2077 
   -2079    -2102    -2079    -2007    -1942    -1930    -1956    -1971 
   -1944    -1903    -1858    -1814    -1798    -1818    -1823    -1799 
   -1775    -1760    -1757    -1760    -1752    -1736    -1688    -1622 
   -1603    -1624    -1630    -1618    -1595    -1587    -1599    -1606 
   -1591    -1547    -1502    -1493    -1505    -1506    -1485    -1462 
   -1474    -1502    -1495    -1467    -1459    -1475    -1468    -1435 
   -1413    -1417    -1433    -1451    -1463    -1471    -1485    -1478 
   -1441    -1412    -1399    -1404    -1447    -1505    -1518    -1497 
   -1494    -1501    -1485    -1463    -1467    -1495    -1522    -1530 
   -1541    -1557    -1547    -1524    -1521    -1541    -1582    -1609 
   -1593    -1570    -1582    -1611    -1624    -1609    -1590    -1594 
   -1630    -1668    -1676    -1671    -1674    -1677    -1682    -1690 
   -1702    -1723    -1740    -1748    -1765    -1786    -1788    -1787 
   -1800    -1821    -1829    -1831    -1845    -1875    -1902    -1911 
   -1918    -1939    -1949    -1956    -1980    -1999    -2006    -2012 
   -2015    -2027    -2060    -2087    -2101    -2114    -2114    -2116 
   -2133    -2141    -2150    -2172    -2184    -2191    -2207    -2220 
   -2241    -2272    -2278    -2280    -2295    -2295    -2292    -2309 
   -2323    -2331    -2351    -2365    -2366    -2374    -2377    -2370 
   -2380    -2397    -2404    -2420    -2434    -2428    -2436    -2450 
   -2444    -2447    -2458    -2461    -2461    -2461    -2466    -2477 
   -2484    -2489    -2497    -2496    -2494    -2513    -2527    -2521 
   -2515    -2512    -2512    -2520    -2524    -2521    -2519    -2520 
   -2523    -2521    -2511    -2505    -2520    -2533    -2528    -2517 
   -2512    -2512    -2506    -2494    -2498    -2506    -2492    -2473 
   -2471    -2474    -2474    -2461    -2446    -2447    -2446    -2434 
   -2431    -2434    -2438    -2440    -2427    -2420    -2428    -2420 
   -2394    -2382    -2384    -2388    -2392    -2394    -2385    -2369 
   -2366    -2366    -2358    -2362    -2377    -2384    -2378    -2359 
   -2338    -2340    -2361    -2371    -2366    -2353    -2343    -2349 
   -2359    -2361    -2346    -2326    -2319    -2331    -2344    -2351 
   -2346    -2331    -2319    -2311    -2301    -2303    -2319    -2327 
   -2328    -2323    -2309    -2309    -2319    -2317    -2313    -2308 
   -2293    -2285    -2286    -2289    -2301    -2313    -2305    -2295 
   -2289    -2286    -2288    -2284    -2277    -2276    -2257    -2241 
   -2259    -2273    -2258    -2251    -2241    -2220    -2220    -2226 
   -2207    -2192    -2201    -2211    -2214    -2208    -2193    -2176 
   -2163    -2161    -2157    -2149    -2146    -2151    -2155    -2154 
   -2142    -2135    -2133    -2124    -2119    -2119    -2124    -2124 
   -2116    -2119    -2128    -2134    -2142    -2141    -2126    -2121 
   -2126    -2134    -2154    -2170    -2174    -2174    -2161    -2143 
   -2151    -2170    -2187    -2196    -2207    -2215    -2207    -2196 
   -2200    -2224    -2247    -2253    -2261    -2270    -2263    -2274 
   -2285    -2278    -2301    -2331    -2335    -2332    -2319    -2315 
   -2350    -2392    -2400    -2388    -2385    -2408    -2434    -2427 
   -2415    -2438    -2466    -2482    -2505    -2521    -2525    -2528 
   -2533    -2551    -2578    -2597    -2621    -2644    -2641    -2636 
   -2659    -2685    -2706    -2732    -2744    -2759    -2779    -2785 
   -2794    -2817    -2826    -2837    -2868    -2890    -2891    -2901 
   -2910    -2918    -2937    -2947    -2947    -2970    -2988    -2976 
   -2963    -2974    -2994    -3006    -3002    -2991    -2992    -3001 
   -3018    -3038    -3034    -3007    -2983    -2974    -2991    -3009 
   -2999    -2984    -2974    -2951    -2933    -2924    -2911    -2913 
   -2907    -2875    -2852    -2835    -2806    -2795    -2791    -2767 
   -2754    -2745    -2708    -2668    -2652    -2639    -2621    -2602 
   -2586    -2581    -2562    -2521    -2489    -2454    -2398    -2382 
   -2417    -2448    -2461    -2440    -2362    -2266    -2200    -2200 
   -2251    -2292    -2304    -2301    -2250    -2147    -2069    -2066 
   -2107    -2165    -2207    -2176    -2068    -1969    -1964    -2031 
   -2089    -2134    -2189    -2196    -2106    -1988    -1933    -1929 
   -1934    -1973    -2072    -2161    -2172    -2147    -2121    -2068 
   -2008    -1988    -2022    -2114    -2211    -2242    -2215    -2160 
   -2095    -2069    -2104    -2184    -2282    -2350    -2351    -2308 
   -2255    -2215    -2209    -2258    -2335    -2390    -2408    -2411 
   -2419    -2427    -2416    -2413    -2451    -2492    -2508    -2533 
   -2581    -2621    -2625    -2587    -2543    -2540    -2592    -2673 
   -2743    -2775    -2772    -2762    -2759    -2766    -2778    -2782 
   -2787    -2816    -2860    -2903    -2934    -2929    -2907    -2898 
   -2899    -2918    -2947    -2967    -2991    -3021    -3038    -3042 
   -3041    -3036    -3032    -3044    -3055    -3049    -3042    -3051 
   -3068    -3098    -3133    -3159    -3156    -3121    -3082    -3053 
   -3034    -3045    -3090    -3152    -3200    -3204    -3175    -3133 
   -3090    -3083    -3118    -3137    -3133    -3141    -3149    -3136 
   -3144    -3175    -3177    -3149    -3119    -3099    -3106    -3141 
   -3167    -3161    -3145    -3122    -3094    -3082    -3088    -3092 
   -3103    -3109    -3099    -3082    -3059    -3042    -3048    -3051 
   -3048    -3044    -3021    -2986    -2982    -2990    -2984    -2978 
   -2955    -2913    -2901    -2917    -2924    -2914    -2906    -2899 
   -2890    -2880    -2875    -2855    -2821    -2805    -2810    -2816 
   -2814    -2810    -2801    -2770    -2743    -2731    -2713    -2698 
   -2694    -2691    -2700    -2691    -2655    -2628    -2606    -2574 
   -2551    -2533    -2519    -2513    -2506    -2501    -2488    -2461 
   -2434    -2396    -2366    -2358    -2358    -2371    -2371    -2328 
   -2281    -2257    -2238    -2236    -2255    -2269    -2262    -2238 
   -2208    -2182    -2151    -2130    -2144    -2181    -2208    -2209 
   -2172    -2107    -2069    -2070    -2093    -2130    -2166    -2168 
   -2142    -2107    -2070    -2053    -2074    -2104    -2110    -2091 
   -2061    -2047    -2053    -2066    -2065    -2061    -2060    -2049 
   -2039    -2045    -2052    -2046    -2033    -2016    -2007    -2014 
   -2031    -2037    -2025    -2018    -2022    -2014    -1998    -1995 
   -1996    -2003    -2020    -2031    -2031    -2019    -2001    -2000 
   -2008    -2006    -2003    -2006    -2008    -2007    -1996    -1988 
   -1998    -2006    -1996    -1991    -1996    -1985    -1971    -1968 
   -1958    -1958    -1981    -1988    -1966    -1953    -1965    -1971 
   -1966    -1971    -1960    -1945    -1954    -1962    -1954    -1954 
   -1958    -1958    -1964    -1972    -1975    -1977    -1988    -1992 
   -1992    -1999    -2004    -2001    -1993    -1999    -2018    -2031 
   -2043    -2043    -2030    -2034    -2043    -2050    -2068    -2087 
   -2085    -2068    -2053    -2057    -2056    -2058    -2087    -2101 
   -2093    -2102    -2107    -2088    -2076    -2076    -2079    -2100 
   -2124    -2130    -2116    -2089    -2068    -2073    -2095    -2115 
   -2116    -2095    -2081    -2091    -2111    -2115    -2106    -2102 
   -2100    -2102    -2111    -2107    -2111    -2116    -2116    -2118 
   -2114    -2115    -2137    -2151    -2147    -2154    -2160    -2141 
   -2126    -2146    -2166    -2168    -2169    -2174    -2172    -2157 
   -2144    -2155    -2176    -2182    -2182    -2170    -2151    -2150 
   -2163    -2181    -2195    -2196    -2192    -2188    -2193    -2189 
   -2169    -2161    -2165    -2168    -2174    -2176    -2177    -2187 
   -2184    -2172    -2168    -2168    -2157    -2147    -2147    -2150 
   -2157    -2158    -2154    -2162    -2154    -2128    -2126    -2130 
   -2133    -2137    -2143    -2130    -2096    -2081    -2102    -2123 
   -2116    -2106    -2116    -2123    -2106    -2095    -2089    -2076 
   -2070    -2062    -2064    -2087    -2098    -2092    -2093    -2095 
   -2091    -2087    -2084    -2081    -2089    -2098    -2106    -2121 
   -2141    -2153    -2166    -2174    -2158    -2141    -2154    -2177 
   -2189    -2209    -2238    -2250    -2241    -2236    -2257    -2276 
   -2288    -2312    -2340    -2349    -2350    -2358    -2367    -2386 
   -2415    -2442    -2475    -2508    -2529    -2540    -2550    -2562 
   -2578    -2610    -2654    -2682    -2701    -2721    -2737    -2763 
   -2813    -2860    -2882    -2887    -2905    -2943    -2976    -3006 
   -3046    -3086    -3122    -3161    -3187    -3203    -3235    -3261 
   -3272    -3307    -3346    -3368    -3396    -3426    -3450    -3478 
   -3499    -3508    -3523    -3541    -3551    -3570    -3586    -3592 
   -3605    -3624    -3630    -3632    -3642    -3658    -3667    -3653 
   -3643    -3658    -3670    -3663    -3663    -3667    -3651    -3639 
   -3646    -3632    -3607    -3595    -3584    -3580    -3586    -3577 
   -3553    -3539    -3530    -3511    -3485    -3470    -3465    -3449 
   -3407    -3369    -3352    -3342    -3326    -3311    -3296    -3264 
   -3231    -3207    -3173    -3133    -3095    -3059    -3030    -3002 
   -2978    -2959    -2929    -2886    -2848    -2813    -2767    -2714 
   -2674    -2644    -2612    -2571    -2532    -2501    -2478    -2454 
   -2417    -2370    -2322    -2276    -2238    -2204    -2162    -2116 
   -2076    -2049    -2029    -1992    -1941    -1903    -1869    -1821 
   -1769    -1740    -1728    -1698    -1645    -1602    -1584    -1568 
   -1540    -1509    -1476    -1439    -1390    -1348    -1328    -1308 
   -1277    -1255    -1247    -1235    -1206    -1171    -1155    -1148 
   -1121    -1078    -1044    -1026    -1019    -1015    -1017    -1026 
   -1026    -1019    -1005     -984     -967     -963     -958     -961 
    -977     -994    -1005    -1012    -1009    -1009    -1026    -1043 
   -1053    -1071    -1097    -1116    -1133    -1146    -1159    -1190 
   -1225    -1254    -1287    -1317    -1340    -1372    -1416    -1457 
   -1486    -1507    -1543    -1586    -1632    -1675    -1699    -1729 
   -1781    -1825    -1852    -1890    -1929    -1960    -1999    -2053 
   -2098    -2130    -2157    -2189    -2230    -2273    -2308    -2335 
   -2363    -2408    -2450    -2466    -2492    -2544    -2586    -2619 
   -2651    -2677    -2704    -2736    -2764    -2791    -2821    -2851 
   -2882    -2909    -2933    -2967    -2998    -3026    -3059    -3083 
   -3100    -3122    -3142    -3163    -3187    -3213    -3244    -3283 
   -3307    -3317    -3334    -3350    -3364    -3373    -3381    -3395 
   -3407    -3407    -3414    -3431    -3429    -3416    -3429    -3449 
   -3459    -3465    -3457    -3439    -3422    -3403    -3391    -3387 
   -3372    -3360    -3375    -3375    -3341    -3308    -3287    -3260 
   -3229    -3198    -3160    -3138    -3127    -3095    -3060    -3040 
   -2999    -2956    -2930    -2887    -2847    -2817    -2762    -2709 
   -2683    -2655    -2613    -2578    -2544    -2505    -2470    -2431 
   -2370    -2311    -2265    -2219    -2174    -2141    -2116    -2096 
   -2061    -2011    -1968    -1930    -1885    -1838    -1798    -1765 
   -1737    -1705    -1676    -1647    -1614    -1591    -1568    -1547 
   -1521    -1487    -1478    -1466    -1433    -1429    -1426    -1395 
   -1389    -1393    -1370    -1341    -1327    -1320    -1308    -1300 
   -1301    -1306    -1302    -1297    -1308    -1314    -1306    -1304 
   -1294    -1293    -1316    -1334    -1331    -1331    -1351    -1368 
   -1371    -1374    -1381    -1390    -1409    -1417    -1425    -1447 
   -1459    -1464    -1483    -1509    -1528    -1541    -1554    -1574 
   -1595    -1605    -1610    -1642    -1684    -1710    -1729    -1744 
   -1752    -1763    -1786    -1819    -1856    -1891    -1919    -1934 
   -1949    -1973    -1999    -2023    -2038    -2068    -2119    -2150 
   -2161    -2182    -2212    -2245    -2267    -2286    -2319    -2355 
   -2376    -2393    -2419    -2451    -2479    -2498    -2512    -2535 
   -2560    -2578    -2600    -2624    -2647    -2662    -2679    -2709 
   -2720    -2713    -2731    -2752    -2758    -2767    -2778    -2791 
   -2802    -2806    -2814    -2811    -2803    -2822    -2828    -2798 
   -2786    -2797    -2810    -2824    -2820    -2802    -2795    -2782 
   -2754    -2740    -2754    -2759    -2740    -2727    -2721    -2717 
   -2714    -2704    -2685    -2664    -2647    -2636    -2619    -2594 
   -2592    -2597    -2579    -2558    -2560    -2570    -2540    -2492 
   -2457    -2435    -2432    -2442    -2446    -2435    -2412    -2393 
   -2384    -2361    -2338    -2332    -2322    -2308    -2300    -2292 
   -2286    -2282    -2277    -2269    -2261    -2265    -2272    -2266 
   -2258    -2258    -2262    -2267    -2270    -2263    -2262    -2274 
   -2289    -2299    -2308    -2322    -2330    -2331    -2336    -2351 
   -2373    -2401    -2431    -2446    -2440    -2436    -2454    -2481 
   -2512    -2542    -2562    -2575    -2592    -2612    -2632    -2655 
   -2677    -2700    -2716    -2720    -2736    -2771    -2787    -2794 
   -2818    -2836    -2844    -2860    -2867    -2876    -2895    -2913 
   -2921    -2925    -2932    -2940    -2943    -2951    -2967    -2978 
   -2976    -2972    -2971    -2979    -2984    -2984    -2986    -2984 
   -2976    -2983    -2995    -3001    -2998    -2986    -2970    -2971 
   -2986    -2992    -2988    -2978    -2967    -2967    -2971    -2956 
   -2934    -2930    -2934    -2929    -2917    -2917    -2925    -2914 
   -2874    -2849    -2852    -2855    -2843    -2824    -2816    -2810 
   -2785    -2759    -2755    -2737    -2705    -2679    -2663    -2652 
   -2641    -2620    -2590    -2571    -2552    -2523    -2497    -2474 
   -2448    -2428    -2415    -2394    -2366    -2343    -2319    -2285 
   -2257    -2249    -2241    -2215    -2193    -2173    -2144    -2126 
   -2116    -2088    -2060    -2053    -2049    -2027    -2004    -1996 
   -1979    -1953    -1937    -1925    -1911    -1904    -1888    -1861 
   -1846    -1836    -1821    -1811    -1804    -1783    -1769    -1776 
   -1772    -1750    -1742    -1742    -1725    -1711    -1717    -1710 
   -1692    -1688    -1680    -1668    -1675    -1683    -1677    -1677 
   -1684    -1676    -1653    -1642    -1651    -1661    -1657    -1644 
   -1644    -1653    -1652    -1649    -1661    -1672    -1669    -1667 
   -1671    -1675    -1683    -1699    -1707    -1703    -1698    -1699 
   -1707    -1721    -1732    -1733    -1741    -1759    -1771    -1787 
   -1804    -1807    -1803    -1810    -1826    -1837    -1840    -1852 
   -1875    -1881    -1877    -1890    -1911    -1919    -1934    -1965 
   -1981    -1982    -1998    -2015    -2018    -2023    -2037    -2039 
   -2046    -2070    -2089    -2093    -2107    -2119    -2116    -2123 
   -2141    -2153    -2166    -2174    -2176    -2182    -2187    -2185 
   -2196    -2218    -2228    -2239    -2250    -2249    -2247    -2257 
   -2269    -2274    -2269    -2267    -2281    -2296    -2296    -2292 
   -2297    -2301    -2303    -2312    -2319    -2324    -2334    -2334 
   -2334    -2347    -2351    -2350    -2351    -2349    -2361    -2381 
   -2384    -2382    -2376    -2373    -2398    -2413    -2397    -2397 
   -2411    -2409    -2415    -2423    -2428    -2448    -2455    -2442 
   -2455    -2474    -2469    -2455    -2455    -2489    -2536    -2538 
   -2513    -2511    -2516    -2529    -2554    -2550    -2539    -2551 
   -2558    -2555    -2569    -2586    -2602    -2612    -2598    -2597 
