Origin Time       2016/04/16 01:25:00
Lat.              32.753
Long.             130.762
Depth. (km)       12
Mag.              7.3
Station Code      SZO018
Station Lat.      34.7402
Station Long.     138.2241
Station Height(m) 4
Record Time       2016/04/16 01:28:43
Sampling Freq(Hz) 100Hz
Duration Time(s)  60
Dir.              E-W
Scale Factor      7845(gal)/8223790
Max. Acc. (gal)   1.500
Last Correction   2016/04/16 01:28:44
Memo.             
[...]
   -5806    -5813    -5800    -5790    -5792    -5788    -5772    -5767 
   -5769    -5759    -5745    -5742    -5736    -5724    -5715    -5711 
   -5706    -5699    -5691    -5689    -5689    -5684    -5684    -5687 
   -5684    -5682    -5686    -5689    -5688    -5692    -5706    -5710 
   -5706    -5718    -5732    -5732    -5737    -5753    -5765    -5772 
   -5776    -5790    -5810    -5817    -5822    -5838    -5852    -5856 
   -5864    -5879    -5886    -5887    -5899    -5911    -5915    -5921 
   -5926    -5929    -5934    -5938    -5935    -5938    -5940    -5934 
   -5933    -5934    -5931    -5923    -5919    -5917    -5902    -5892 
   -5894    -5884    -5864    -5859    -5853    -5840    -5827    -5815 
   -5800    -5786    -5773    -5765    -5753    -5734    -5721    -5710 
   -5697    -5687    -5676    -5659    -5649    -5644    -5637    -5626 
   -5613    -5606    -5598    -5582    -5574    -5572    -5562    -5545 
   -5541    -5539    -5524    -5508    -5508    -5505    -5490    -5478 
   -5471    -5466    -5455    -5443    -5437    -5429    -5420    -5413 
   -5402    -5395    -5390    -5375    -5368    -5367    -5358    -5348 
   -5351    -5350    -5341    -5339    -5346    -5346    -5339    -5344 
   -5355    -5356    -5362    -5370    -5374    -5385    -5400    -5406 
   -5418    -5431    -5443    -5460    -5474    -5485    -5499    -5516 
   -5529    -5540    -5555    -5572    -5584    -5595    -5610    -5625 
   -5632    -5634    -5648    -5659    -5655    -5656    -5672    -5675 
   -5664    -5670    -5678    -5671    -5665    -5671    -5672    -5664 
   -5653    -5656    -5659    -5649    -5641    -5640    -5637    -5628 
   -5621    -5618    -5613    -5605    -5599    -5595    -5589    -5579 
   -5578    -5575    -5567    -5564    -5562    -5556    -5552    -5551 
   -5545    -5539    -5537    -5537    -5529    -5518    -5521    -5522 
   -5509    -5502    -5506    -5501    -5489    -5487    -5491    -5490 
   -5485    -5481    -5486    -5494    -5493    -5489    -5495    -5501 
   -5498    -5503    -5514    -5522    -5524    -5528    -5541    -5551 
   -5552    -5562    -5574    -5576    -5582    -5599    -5613    -5613 
   -5618    -5636    -5645    -5648    -5653    -5664    -5678    -5680 
   -5684    -5694    -5699    -5706    -5710    -5715    -5722    -5722 
   -5719    -5726    -5727    -5721    -5722    -5727    -5721    -5713 
   -5714    -5705    -5694    -5691    -5679    -5670    -5664    -5648 
   -5634    -5628    -5614    -5595    -5580    -5564    -5547    -5535 
   -5521    -5499    -5485    -5478    -5462    -5441    -5433    -5425 
   -5414    -5405    -5395    -5391    -5387    -5381    -5383    -5379 
   -5374    -5383    -5398    -5401    -5401    -5414    -5429    -5433 
   -5441    -5463    -5481    -5490    -5506    -5526    -5541    -5556 
   -5576    -5595    -5607    -5626    -5651    -5664    -5672    -5691 
   -5710    -5718    -5732    -5749    -5756    -5764    -5779    -5787 
   -5790    -5800    -5810    -5811    -5813    -5822    -5826    -5823 
   -5827    -5834    -5831    -5830    -5837    -5838    -5831    -5830 
   -5830    -5829    -5826    -5825    -5823    -5818    -5806    -5806 
   -5807    -5795    -5786    -5786    -5782    -5772    -5760    -5756 
   -5752    -5745    -5738    -5734    -5734    -5729    -5721    -5722 
   -5724    -5718    -5717    -5719    -5715    -5709    -5710    -5707 
   -5699    -5697    -5694    -5689    -5686    -5686    -5684    -5679 
   -5674    -5667    -5667    -5664    -5655    -5653    -5653    -5644 
   -5636    -5636    -5634    -5628    -5618    -5616    -5614    -5606 
   -5598    -5598    -5595    -5587    -5585    -5590    -5583    -5575 
   -5579    -5589    -5585    -5579    -5587    -5597    -5595    -5597 
   -5609    -5614    -5611    -5616    -5626    -5630    -5633    -5641 
   -5649    -5652    -5655    -5656    -5661    -5667    -5674    -5671 
   -5667    -5672    -5676    -5668    -5665    -5670    -5663    -5653 
   -5656    -5653    -5640    -5634    -5637    -5628    -5618    -5618 
   -5610    -5595    -5597    -5595    -5584    -5582    -5582    -5572 
   -5571    -5584    -5567    -5521    -5545    -5605    -5557    -5524 
   -5571    -5552    -5532    -5552    -5537    -5535    -5533    -5519 
   -5525    -5514    -5503    -5514    -5510    -5490    -5486    -5489 
   -5481    -5475    -5474    -5472    -5464    -5452    -5452    -5455 
   -5445    -5437    -5441    -5435    -5421    -5425    -5428    -5417 
   -5412    -5414    -5408    -5404    -5410    -5410    -5404    -5409 
   -5410    -5406    -5413    -5421    -5422    -5424    -5429    -5436 
   -5440    -5445    -5452    -5458    -5464    -5474    -5483    -5489 
   -5497    -5506    -5513    -5522    -5533    -5539    -5549    -5566 
   -5575    -5582    -5594    -5607    -5622    -5634    -5643    -5655 
   -5670    -5679    -5687    -5702    -5717    -5722    -5727    -5737 
   -5749    -5757    -5764    -5768    -5773    -5784    -5788    -5790 
   -5803    -5815    -5814    -5817    -5829    -5837    -5838    -5842 
   -5850    -5854    -5857    -5864    -5869    -5872    -5879    -5884 
   -5884    -5888    -5894    -5895    -5900    -5904    -5907    -5913 
   -5918    -5922    -5927    -5934    -5940    -5940    -5948    -5956 
   -5953    -5954    -5962    -5960    -5957    -5962    -5962    -5952 
   -5940    -5942    -5935    -5915    -5902    -5899    -5884    -5864 
   -5846    -5830    -5810    -5787    -5765    -5751    -5734    -5707 
   -5680    -5661    -5643    -5614    -5590    -5576    -5555    -5529 
   -5513    -5495    -5478    -5462    -5443    -5429    -5416    -5401 
   -5385    -5374    -5364    -5354    -5347    -5343    -5335    -5331 
   -5325    -5323    -5325    -5323    -5323    -5327    -5331    -5335 
   -5339    -5344    -5351    -5355    -5368    -5386    -5391    -5404 
   -5425    -5437    -5451    -5471    -5489    -5505    -5519    -5541 
   -5568    -5587    -5605    -5630    -5652    -5674    -5699    -5721 
   -5749    -5773    -5788    -5818    -5852    -5868    -5890    -5922 
   -5948    -5973    -5998    -6023    -6053    -6075    -6093    -6122 
   -6148    -6166    -6186    -6216    -6232    -6242    -6266    -6288 
   -6297    -6304    -6322    -6339    -6342    -6345    -6359    -6366 
   -6363    -6361    -6361    -6359    -6355    -6353    -6345    -6334 
   -6320    -6309    -6301    -6284    -6261    -6246    -6232    -6214 
   -6195    -6172    -6148    -6123    -6102    -6079    -6053    -6033 
   -6012    -5989    -5962    -5937    -5918    -5895    -5872    -5857 
   -5838    -5817    -5802    -5787    -5768    -5746    -5732    -5726 
   -5711    -5689    -5682    -5676    -5660    -5649    -5649    -5644 
   -5633    -5632    -5634    -5629    -5625    -5629    -5633    -5634 
   -5637    -5643    -5648    -5653    -5656    -5664    -5670    -5676 
   -5682    -5684    -5688    -5694    -5701    -5701    -5701    -5705 
   -5709    -5702    -5694    -5701    -5697    -5683    -5680    -5678 
   -5667    -5656    -5644    -5636    -5626    -5607    -5593    -5583 
   -5563    -5543    -5532    -5512    -5486    -5471    -5458    -5437 
   -5413    -5393    -5381    -5370    -5350    -5331    -5321    -5309 
   -5292    -5281    -5273    -5263    -5252    -5242    -5235    -5231 
   -5227    -5221    -5216    -5216    -5216    -5212    -5215    -5221 
   -5224    -5220    -5224    -5242    -5244    -5239    -5250    -5267 
   -5268    -5271    -5286    -5294    -5294    -5305    -5324    -5332 
   -5335    -5348    -5362    -5364    -5377    -5394    -5401    -5405 
   -5422    -5437    -5443    -5456    -5472    -5486    -5495    -5508 
   -5528    -5544    -5551    -5567    -5590    -5602    -5617    -5643 
   -5659    -5674    -5699    -5724    -5736    -5753    -5782    -5803 
   -5818    -5841    -5861    -5877    -5896    -5913    -5926    -5944 
   -5957    -5965    -5977    -5988    -5996    -6004    -6014    -6015 
   -6016    -6023    -6025    -6022    -6022    -6022    -6018    -6012 
   -6006    -6000    -5992    -5985    -5975    -5961    -5954    -5946 
   -5929    -5914    -5908    -5895    -5875    -5863    -5850    -5827 
   -5809    -5802    -5784    -5760    -5745    -5729    -5705    -5687 
   -5672    -5653    -5637    -5621    -5599    -5578    -5562    -5548 
   -5533    -5517    -5505    -5490    -5471    -5463    -5464    -5454 
   -5437    -5439    -5443    -5436    -5436    -5443    -5447    -5448 
   -5460    -5467    -5472    -5485    -5497    -5506    -5524    -5539 
   -5547    -5556    -5571    -5587    -5603    -5613    -5622    -5637 
   -5651    -5663    -5674    -5682    -5692    -5709    -5719    -5729 
   -5741    -5748    -5760    -5779    -5787    -5792    -5806    -5826 
   -5836    -5837    -5852    -5869    -5879    -5888    -5902    -5910 
   -5915    -5930    -5942    -5948    -5957    -5968    -5977    -5988 
   -6002    -6006    -6012    -6025    -6031    -6035    -6048    -6056 
   -6060    -6068    -6072    -6073    -6080    -6088    -6089    -6089 
   -6095    -6102    -6102    -6103    -6110    -6110    -6102    -6106 
   -6110    -6104    -6100    -6103    -6103    -6099    -6093    -6091 
   -6093    -6087    -6076    -6075    -6072    -6061    -6054    -6043 
   -6031    -6029    -6016    -5999    -5989    -5976    -5956    -5938 
   -5921    -5904    -5881    -5856    -5836    -5810    -5784    -5763 
   -5737    -5711    -5686    -5656    -5625    -5598    -5572    -5544 
   -5513    -5485    -5456    -5425    -5398    -5371    -5344    -5320 
   -5293    -5263    -5240    -5223    -5197    -5171    -5158    -5140 
   -5116    -5100    -5086    -5069    -5057    -5053    -5042    -5027 
   -5026    -5030    -5026    -5026    -5035    -5042    -5043    -5055 
   -5076    -5085    -5092    -5113    -5138    -5155    -5171    -5196 
   -5220    -5239    -5266    -5298    -5320    -5343    -5379    -5408 
   -5427    -5458    -5494    -5524    -5552    -5580    -5610    -5644 
   -5675    -5698    -5726    -5760    -5786    -5806    -5833    -5861 
   -5884    -5904    -5930    -5952    -5965    -5981    -6003    -6016 
   -6029    -6041    -6049    -6056    -6062    -6065    -6064    -6062 
   -6066    -6066    -6054    -6042    -6038    -6026    -6008    -5994 
   -5977    -5958    -5942    -5922    -5899    -5876    -5854    -5825 
   -5798    -5775    -5746    -5715    -5691    -5664    -5637    -5614 
   -5584    -5551    -5528    -5509    -5479    -5448    -5427    -5405 
   -5381    -5356    -5335    -5316    -5294    -5268    -5252    -5238 
   -5215    -5196    -5185    -5169    -5154    -5136    -5128    -5124 
   -5108    -5092    -5090    -5088    -5077    -5073    -5071    -5067 
   -5063    -5062    -5059    -5058    -5058    -5059    -5062    -5065 
   -5066    -5069    -5074    -5078    -5081    -5085    -5089    -5096 
   -5101    -5104    -5113    -5121    -5119    -5121    -5131    -5139 
   -5138    -5140    -5151    -5154    -5152    -5158    -5166    -5167 
   -5166    -5169    -5177    -5177    -5178    -5184    -5188    -5189 
   -5190    -5193    -5200    -5198    -5198    -5208    -5216    -5216 
   -5221    -5233    -5244    -5250    -5255    -5266    -5278    -5286 
   -5296    -5312    -5324    -5333    -5350    -5366    -5381    -5398 
   -5414    -5425    -5440    -5462    -5479    -5493    -5516    -5540 
   -5555    -5568    -5593    -5617    -5634    -5653    -5678    -5701 
   -5719    -5737    -5760    -5787    -5803    -5818    -5842    -5864 
   -5877    -5895    -5917    -5931    -5946    -5965    -5981    -5995 
   -6003    -6012    -6030    -6043    -6044    -6049    -6061    -6064 
   -6062    -6069    -6073    -6069    -6068    -6068    -6066    -6061 
   -6050    -6046    -6043    -6031    -6021    -6011    -6004    -5992 
   -5971    -5961    -5953    -5931    -5913    -5904    -5888    -5864 
   -5846    -5833    -5813    -5792    -5772    -5752    -5734    -5713 
   -5691    -5672    -5651    -5625    -5603    -5583    -5559    -5535 
   -5513    -5490    -5464    -5443    -5422    -5394    -5367    -5346 
   -5324    -5297    -5270    -5250    -5228    -5198    -5171    -5148 
   -5124    -5100    -5076    -5053    -5031    -5008    -4986    -4965 
   -4942    -4923    -4907    -4891    -4872    -4855    -4839    -4827 
   -4814    -4801    -4787    -4774    -4765    -4760    -4748    -4738 
   -4733    -4729    -4722    -4714    -4715    -4716    -4708    -4710 
   -4719    -4716    -4712    -4720    -4730    -4734    -4742    -4752 
   -4762    -4774    -4787    -4799    -4814    -4837    -4854    -4869 
   -4896    -4928    -4946    -4969    -5007    -5035    -5058    -5096 
   -5138    -5169    -5200    -5242    -5286    -5320    -5356    -5406 
   -5447    -5481    -5525    -5571    -5609    -5651    -5694    -5732 
   -5771    -5815    -5861    -5898    -5931    -5976    -6021    -6056 
   -6091    -6135    -6174    -6204    -6242    -6282    -6311    -6340 
   -6377    -6412    -6440    -6465    -6493    -6519    -6538    -6562 
   -6589    -6606    -6617    -6639    -6662    -6671    -6683    -6701 
   -6714    -6724    -6735    -6744    -6756    -6767    -6775    -6785 
   -6791    -6797    -6805    -6814    -6822    -6831    -6841    -6853 
   -6864    -6872    -6886    -6902    -6916    -6926    -6944    -6968 
   -6980    -6993    -7018    -7038    -7047    -7069    -7099    -7115 
   -7127    -7150    -7168    -7180    -7198    -7214    -7225    -7234 
   -7240    -7245    -7253    -7254    -7252    -7248    -7242    -7236 
   -7223    -7207    -7190    -7171    -7146    -7117    -7089    -7063 
   -7028    -6985    -6949    -6913    -6864    -6818    -6772    -6720 
   -6671    -6620    -6563    -6511    -6457    -6394    -6339    -6285 
   -6226    -6165    -6110    -6050    -5992    -5937    -5879    -5825 
   -5773    -5715    -5656    -5603    -5551    -5499    -5448    -5401 
   -5354    -5302    -5252    -5206    -5166    -5123    -5077    -5035 
   -5000    -4961    -4918    -4887    -4857    -4823    -4788    -4762 
   -4742    -4715    -4687    -4671    -4656    -4631    -4617    -4606 
   -4595    -4583    -4573    -4568    -4567    -4565    -4563    -4565 
   -4568    -4572    -4581    -4595    -4604    -4618    -4635    -4650 
   -4672    -4699    -4718    -4742    -4776    -4804    -4827    -4860 
   -4895    -4931    -4962    -4989    -5027    -5063    -5096    -5131 
   -5166    -5200    -5238    -5271    -5300    -5329    -5363    -5391 
   -5416    -5447    -5476    -5491    -5514    -5549    -5567    -5578 
   -5605    -5628    -5640    -5659    -5679    -5692    -5705    -5721 
   -5744    -5760    -5772    -5790    -5809    -5822    -5837    -5854 
   -5872    -5891    -5904    -5922    -5942    -5961    -5981    -6004 
   -6022    -6042    -6065    -6087    -6103    -6123    -6146    -6164 
   -6183    -6204    -6216    -6224    -6241    -6255    -6264    -6273 
   -6282    -6285    -6284    -6288    -6290    -6284    -6280    -6276 
   -6264    -6250    -6239    -6227    -6211    -6193    -6177    -6157 
   -6134    -6115    -6093    -6068    -6048    -6021    -5998    -5979 
   -5949    -5925    -5913    -5894    -5863    -5837    -5823    -5807 
   -5783    -5760    -5749    -5733    -5706    -5694    -5687    -5668 
   -5656    -5647    -5634    -5621    -5610    -5603    -5599    -5589 
   -5579    -5578    -5578    -5571    -5564    -5562    -5562    -5559 
   -5557    -5560    -5563    -5559    -5559    -5564    -5567    -5564 
   -5564    -5574    -5582    -5578    -5580    -5595    -5598    -5598 
   -5614    -5628    -5628    -5629    -5638    -5653    -5665    -5670 
   -5679    -5699    -5711    -5715    -5727    -5746    -5759    -5765 
   -5782    -5798    -5807    -5819    -5838    -5853    -5860    -5873 
   -5891    -5894    -5900    -5923    -5935    -5935    -5948    -5961 
   -5965    -5972    -5981    -5985    -5992    -5996    -5996    -6000 
   -6004    -6000    -5996    -5995    -5992    -5987    -5983    -5976 
   -5965    -5953    -5942    -5933    -5922    -5906    -5891    -5883 
   -5868    -5846    -5831    -5821    -5806    -5788    -5778    -5768 
   -5751    -5738    -5732    -5725    -5715    -5713    -5707    -5698 
   -5694    -5698    -5697    -5697    -5698    -5703    -5706    -5707 
   -5715    -5725    -5729    -5733    -5742    -5746    -5749    -5759 
   -5769    -5772    -5775    -5784    -5788    -5788    -5798    -5802 
   -5796    -5798    -5807    -5805    -5802    -5806    -5806    -5803 
   -5802    -5800    -5806    -5802    -5798    -5805    -5800    -5795 
   -5807    -5813    -5803    -5811    -5827    -5829    -5829    -5846 
   -5860    -5864    -5881    -5902    -5918    -5934    -5957    -5981 
   -6000    -6022    -6053    -6083    -6103    -6131    -6166    -6191 
   -6214    -6247    -6281    -6311    -6335    -6361    -6396    -6420 
   -6438    -6465    -6496    -6508    -6520    -6546    -6559    -6558 
   -6569    -6581    -6578    -6569    -6566    -6563    -6548    -6527 
   -6515    -6497    -6463    -6434    -6405    -6370    -6328    -6288 
   -6246    -6200    -6148    -6097    -6048    -5992    -5933    -5873 
   -5815    -5756    -5694    -5636    -5579    -5512    -5452    -5401 
   -5339    -5273    -5227    -5177    -5117    -5067    -5026    -4973 
   -4926    -4892    -4852    -4810    -4779    -4745    -4710    -4684 
   -4660    -4633    -4606    -4581    -4557    -4544    -4526    -4502 
   -4491    -4479    -4456    -4442    -4438    -4425    -4407    -4401 
   -4393    -4379    -4367    -4363    -4356    -4348    -4345    -4341 
   -4333    -4329    -4334    -4336    -4326    -4325    -4336    -4337 
   -4340    -4353    -4360    -4363    -4380    -4395    -4406    -4423 
   -4442    -4463    -4480    -4499    -4525    -4552    -4579    -4606 
   -4631    -4660    -4689    -4723    -4754    -4784    -4816    -4851 
   -4882    -4912    -4946    -4977    -5004    -5038    -5076    -5101 
   -5128    -5158    -5184    -5215    -5248    -5268    -5292    -5321 
   -5350    -5377    -5400    -5424    -5451    -5475    -5497    -5522 
   -5551    -5574    -5601    -5632    -5661    -5689    -5717    -5744 
   -5778    -5814    -5842    -5871    -5907    -5940    -5971    -6004 
   -6044    -6080    -6110    -6146    -6183    -6214    -6247    -6281 
   -6313    -6347    -6377    -6404    -6435    -6460    -6480    -6505 
   -6534    -6548    -6556    -6578    -6597    -6600    -6602    -6620 
   -6625    -6617    -6619    -6623    -6615    -6605    -6601    -6594 
   -6581    -6562    -6550    -6544    -6525    -6505    -6493    -6477 
   -6460    -6448    -6431    -6419    -6408    -6392    -6384    -6381 
   -6372    -6363    -6366    -6366    -6361    -6363    -6370    -6374 
   -6378    -6388    -6401    -6408    -6417    -6435    -6450    -6463 
   -6478    -6492    -6507    -6521    -6531    -6543    -6562    -6577 
   -6581    -6588    -6605    -6615    -6615    -6620    -6631    -6633 
   -6631    -6633    -6635    -6629    -6624    -6623    -6620    -6612 
   -6604    -6596    -6588    -6575    -6566    -6556    -6543    -6529 
   -6523    -6511    -6492    -6485    -6481    -6460    -6450    -6451 
   -6436    -6421    -6419    -6413    -6403    -6397    -6392    -6381 
   -6372    -6370    -6367    -6359    -6351    -6350    -6345    -6335 
