Origin Time       2016/04/16 01:25:00
Lat.              32.753
Long.             130.762
Depth. (km)       12
Mag.              7.3
Station Code      TKS002
Station Lat.      34.0438
Station Long.     134.5820
Station Height(m) 3
Record Time       2016/04/16 01:27:01
Sampling Freq(Hz) 100Hz
Duration Time(s)  60
Dir.              E-W
Scale Factor      7845(gal)/8223790
Max. Acc. (gal)   7.943
Last Correction   2016/04/16 01:27:02
Memo.             
[...]
    -876     -784     -683     -571     -459     -349     -251     -180 
    -143     -129     -143     -174     -224     -289     -367     -463 
    -573     -684     -796     -907    -1013    -1101    -1166    -1220 
   -1266    -1306    -1354    -1404    -1452    -1512    -1575    -1644 
   -1707    -1757    -1794    -1813    -1825    -1826    -1803    -1769 
   -1737    -1696    -1640    -1566    -1483    -1404    -1318    -1216 
   -1104     -990     -877     -770     -668     -587     -544     -519 
    -517     -548     -602     -675     -762     -862     -989    -1119 
   -1236    -1352    -1471    -1575    -1649    -1707    -1760    -1799 
   -1831    -1852    -1857    -1857    -1852    -1838    -1815    -1788 
   -1763    -1748    -1741    -1738    -1746    -1765    -1783    -1794 
   -1794    -1775    -1738    -1692    -1641    -1568    -1482    -1404 
   -1321    -1232    -1167    -1119    -1063    -1013     -977     -950 
    -929     -923     -936     -969    -1017    -1086    -1159    -1235 
   -1316    -1393    -1452    -1489    -1516    -1534    -1532    -1516 
   -1485    -1436    -1383    -1332    -1290    -1255    -1225    -1209 
   -1206    -1212    -1216    -1219    -1223    -1215    -1193    -1174 
   -1158    -1138    -1115    -1097    -1088    -1071    -1050    -1035 
   -1026    -1024    -1024    -1020    -1016    -1011    -1009    -1012 
    -999     -978     -962     -940     -919     -907     -905     -907 
    -908     -911     -907     -897     -881     -847     -803     -753 
    -702     -662     -627     -602     -592     -598     -614     -642 
    -675     -700     -731     -761     -778     -793     -816     -843 
    -859     -864     -868     -866     -849     -823     -797     -776 
    -761     -753     -746     -734     -726     -724     -715     -708 
    -707     -702     -699     -702     -712     -719     -722     -728 
    -730     -734     -746     -758     -772     -796     -837     -893 
    -966    -1060    -1173    -1293    -1417    -1533    -1641    -1744 
   -1826    -1902    -1982    -2061    -2142    -2226    -2309    -2400 
   -2478    -2533    -2567    -2586    -2592    -2571    -2528    -2473 
   -2396    -2305    -2201    -2077    -1944    -1810    -1669    -1526 
   -1381    -1232    -1085     -943     -800     -664     -533     -400 
    -266     -133        5      135      241      325      394      437 
     456      469      469      450      434      410      375      337 
     289      224      152       87       31      -13      -41      -54 
     -47      -40      -35      -21        4       27       43       58 
      75       87       97      102      106      110      105      102 
     108       98       70       37        0      -39      -78     -117 
    -151     -180     -216     -249     -288     -328     -349     -365 
    -382     -395     -406     -425     -464     -508     -561     -633 
    -715     -797     -882     -970    -1060    -1154    -1252    -1350 
   -1439    -1524    -1597    -1657    -1719    -1784    -1850    -1926 
   -2006    -2079    -2151    -2224    -2290    -2353    -2417    -2481 
   -2554    -2631    -2708    -2790    -2871    -2932    -2975    -3010 
   -3032    -3022    -2982    -2925    -2862    -2794    -2728    -2671 
   -2616    -2554    -2497    -2448    -2385    -2295    -2203    -2110 
   -2007    -1914    -1821    -1706    -1582    -1466    -1333    -1165 
    -978     -793     -606     -419     -241      -70       86      230 
     357      464      560      650      728      791      838      880 
     903      903      895      873      843      807      765      720 
     670      612      540      441      318      172        0     -191 
    -398     -615     -837    -1062    -1287    -1520    -1755    -1985 
   -2209    -2424    -2621    -2795    -2943    -3067    -3171    -3254 
   -3319    -3379    -3438    -3505    -3576    -3647    -3727    -3816 
   -3902    -3982    -4058    -4125    -4187    -4232    -4270    -4315 
   -4360    -4393    -4414    -4423    -4419    -4391    -4336    -4253 
   -4140    -4006    -3850    -3677    -3492    -3295    -3092    -2889 
   -2683    -2484    -2288    -2091    -1896    -1714    -1540    -1375 
   -1201    -1004     -787     -537     -253       58      379      696 
    1000     1282     1534     1748     1917     2058     2187     2289 
    2366     2420     2450     2444     2403     2327     2215     2073 
    1915     1742     1556     1372     1190     1011      826      630 
     433      234       36     -141     -302     -448     -573     -672 
    -749     -828     -907     -992    -1101    -1215    -1320    -1426 
   -1520    -1591    -1640    -1663    -1664    -1644    -1615    -1584 
   -1534    -1472    -1413    -1362    -1313    -1266    -1239    -1240 
   -1270    -1324    -1404    -1509    -1632    -1767    -1914    -2064 
   -2211    -2355    -2504    -2654    -2787    -2899    -3001    -3087 
   -3145    -3177    -3196    -3187    -3142    -3063    -2955    -2835 
   -2705    -2565    -2415    -2245    -2060    -1873    -1677    -1462 
   -1243    -1038     -849     -684     -546     -434     -349     -288 
    -240     -203     -178     -160     -152     -152     -153     -155 
    -156     -144     -124      -94      -65      -39      -14       -1 
       1        4        4        5       18       41       86      164 
     279      411      552      693      831      966     1090     1205 
    1313     1401     1466     1509     1540     1572     1598     1606 
    1606     1602     1583     1547     1487     1410     1331     1246 
    1161     1085     1026      989      976      986     1026     1077 
    1124     1183     1250     1305     1354     1394     1413     1416 
    1408     1377     1328     1254     1147     1007      834      638 
     423      187      -59     -301     -542     -785    -1023    -1256 
   -1485    -1714    -1953    -2196    -2440    -2691    -2951    -3217 
   -3466    -3701    -3937    -4155    -4356    -4548    -4714    -4852 
   -4968    -5059    -5130    -5173    -5185    -5184    -5188    -5197 
   -5196    -5188    -5173    -5150    -5121    -5082    -5049    -5027 
   -5007    -4994    -4989    -4973    -4949    -4915    -4865    -4803 
   -4715    -4591    -4441    -4278    -4102    -3909    -3697    -3480 
   -3268    -3065    -2863    -2656    -2451    -2250    -2047    -1838 
   -1622    -1389    -1139     -877     -607     -324      -36      249 
     546      853     1148     1425     1682     1910     2111     2290 
    2442     2577     2686     2770     2840     2889     2909     2898 
    2851     2767     2643     2471     2251     1996     1722     1431 
    1128      837      562      303       63     -144     -336     -517 
    -673     -814     -949    -1065    -1169    -1264    -1354    -1456 
   -1568    -1702    -1873    -2072    -2288    -2520    -2766    -3024 
   -3279    -3524    -3762    -3979    -4183    -4380    -4556    -4704 
   -4835    -4950    -5051    -5138    -5206    -5260    -5297    -5310 
   -5302    -5267    -5211    -5142    -5060    -4955    -4830    -4700 
   -4558    -4396    -4215    -4017    -3793    -3553    -3302    -3033 
   -2748    -2446    -2116    -1764    -1394    -1011     -627     -257 
      94      417      691      928     1133     1302     1455     1594 
    1723     1864     1995     2126     2286     2461     2648     2848 
    3055     3271     3488     3701     3896     4068     4222     4334 
    4410     4456     4449     4387     4286     4149     3986     3790 
    3563     3315     3055     2783     2493     2193     1899     1601 
    1308     1038      791      568      357      152      -35     -205 
    -383     -594     -823    -1050    -1274    -1498    -1723    -1939 
   -2142    -2346    -2533    -2693    -2835    -2967    -3096    -3227 
   -3352    -3466    -3563    -3646    -3727    -3802    -3867    -3932 
   -3996    -4062    -4140    -4215    -4279    -4345    -4405    -4436 
   -4438    -4418    -4359    -4261    -4147    -4029    -3908    -3781 
   -3665    -3565    -3472    -3376    -3279    -3186    -3088    -2988 
   -2890    -2779    -2647    -2505    -2365    -2223    -2091    -1981 
   -1888    -1815    -1768    -1733    -1698    -1661    -1615    -1552 
   -1455    -1308    -1128     -928     -696     -436     -166      116 
     407      676      912     1119     1281     1395     1463     1483 
    1468     1422     1327     1206     1090      970      849      730 
     606      472      333      210       90      -35     -144     -259 
    -375     -464     -546     -625     -707     -797     -880     -951 
   -1009    -1055    -1081    -1067    -1023     -969     -915     -861 
    -800     -745     -699     -650     -602     -558     -518     -484 
    -457     -445     -457     -499     -572     -673     -814     -989 
   -1189    -1420    -1674    -1930    -2201    -2482    -2749    -2998 
   -3227    -3442    -3628    -3775    -3882    -3948    -3975    -3958 
   -3908    -3854    -3784    -3693    -3620    -3570    -3511    -3443 
   -3375    -3302    -3208    -3087    -2944    -2755    -2513    -2251 
   -1949    -1590    -1196     -758     -292      163      618     1057 
    1439     1771     2046     2238     2353     2419     2436     2401 
    2343     2280     2203     2146     2118     2087     2060     2047 
    2046     2047     2052     2074     2114     2165     2235     2305 
    2369     2428     2477     2512     2527     2502     2438     2328 
    2174     1973     1725     1457     1178      881      614      372 
     126     -110     -334     -540     -722     -890    -1047    -1194 
   -1328    -1463    -1622    -1792    -1987    -2223    -2469    -2735 
   -3030    -3322    -3615    -3920    -4210    -4483    -4743    -4974 
   -5162    -5308    -5427    -5529    -5607    -5659    -5713    -5775 
   -5840    -5914    -5998    -6096    -6205    -6312    -6435    -6561 
   -6677    -6793    -6901    -6983    -7036    -7061    -7059    -7020 
   -6957    -6870    -6744    -6582    -6372    -6122    -5836    -5497 
   -5135    -4769    -4388    -4013    -3653    -3314    -3002    -2704 
   -2415    -2137    -1865    -1610    -1375    -1161     -953     -753 
    -569     -387     -210      -35      159      342      510      688 
     864     1039     1215     1372     1509     1625     1717     1781 
    1811     1813     1794     1767     1729     1705     1698     1680 
    1661     1657     1655     1657     1672     1701     1742     1780 
    1815     1850     1884     1923     1958     1975     1982     1995 
    1996     1971     1934     1885     1819     1744     1647     1534 
    1390     1197      981      747      481      189     -122     -445 
    -773    -1101    -1414    -1722    -2014    -2281    -2542    -2771 
   -2951    -3095    -3204    -3295    -3361    -3400    -3427    -3426 
   -3388    -3333    -3283    -3249    -3225    -3213    -3227    -3271 
   -3350    -3458    -3566    -3676    -3805    -3954    -4088    -4197 
   -4299    -4392    -4455    -4486    -4484    -4453    -4409    -4333 
   -4228    -4129    -4033    -3927    -3815    -3705    -3603    -3492 
   -3357    -3194    -2998    -2758    -2486    -2181    -1833    -1468 
   -1100     -715     -328       55      448      854     1264     1669 
    2064     2442     2786     3073     3310     3510     3658     3736 
    3742     3701     3634     3519     3343     3144     2932     2693 
    2447     2207     1965     1749     1557     1360     1175     1011 
     858      712      556      398      236       47     -147     -344 
    -540     -722     -903    -1088    -1246    -1386    -1520    -1645 
   -1768    -1885    -2010    -2146    -2280    -2403    -2528    -2677 
   -2825    -2963    -3122    -3303    -3492    -3697    -3915    -4139 
   -4367    -4596    -4837    -5080    -5304    -5506    -5687    -5838 
   -5954    -6029    -6062    -6054    -5996    -5904    -5776    -5616 
   -5443    -5256    -5044    -4822    -4594    -4353    -4104    -3865 
   -3634    -3415    -3218    -3041    -2867    -2702    -2550    -2396 
   -2238    -2064    -1887    -1710    -1518    -1317    -1119     -924 
    -737     -550     -365     -184       -5      167      341      522 
     706      890     1081     1270     1463     1668     1861     2042 
    2231     2413     2581     2740     2882     3005     3115     3215 
    3303     3396     3485     3573     3663     3746     3811     3858 
    3885     3888     3842     3761     3662     3534     3391     3241 
    3073     2894     2697     2481     2254     2011     1755     1499 
    1254     1011      766      533      314       87     -135     -353 
    -583     -822    -1060    -1291    -1521    -1767    -2020    -2281 
   -2554    -2840    -3146    -3476    -3828    -4199    -4576    -4958 
   -5335    -5701    -6072    -6419    -6724    -7022    -7300    -7538 
   -7753    -7944    -8116    -8262    -8367    -8440    -8487    -8519 
   -8526    -8499    -8453    -8383    -8286    -8159    -7982    -7776 
   -7546    -7290    -7013    -6716    -6411    -6102    -5793    -5498 
   -5200    -4899    -4604    -4309    -4012    -3707    -3387    -3046 
   -2698    -2340    -1956    -1571    -1196     -811     -442      -78 
     295      649     1009     1387     1757     2143     2548     2953 
    3360     3762     4168     4558     4911     5238     5533     5805 
    6048     6243     6419     6581     6727     6862     6963     7045 
    7125     7187     7225     7217     7171     7094     6964     6786 
    6574     6316     6035     5738     5422     5090     4746     4401 
    4060     3721     3379     3028     2686     2338     1966     1594 
    1213      831      459       71     -311     -683    -1047    -1394 
   -1734    -2076    -2397    -2697    -2984    -3264    -3527    -3761 
   -3962    -4121    -4251    -4363    -4431    -4453    -4471    -4496 
   -4523    -4549    -4575    -4610    -4650    -4680    -4702    -4710 
   -4681    -4608    -4511    -4378    -4202    -4006    -3793    -3569 
   -3366    -3180    -2986    -2794    -2627    -2473    -2317    -2160 
   -2004    -1842    -1674    -1505    -1325    -1127     -923     -722 
    -537     -359     -178      -11      144      321      502      668 
     812      942     1062     1147     1179     1169     1121     1043 
     950      841      715      607      518      434      363      313 
     282      271      266      263      271      276      266      252 
     225      193      139       64       -1      -64     -153     -240 
    -302     -367     -429     -464     -487     -498     -526     -571 
    -581     -585     -616     -635     -630     -625     -631     -656 
    -679     -711     -780     -876     -997    -1148    -1323    -1514 
   -1715    -1923    -2118    -2293    -2459    -2601    -2725    -2835 
   -2925    -3001    -3057    -3111    -3159    -3176    -3177    -3177 
   -3176    -3167    -3165    -3180    -3192    -3194    -3196    -3184 
   -3156    -3113    -3032    -2917    -2794    -2650    -2489    -2313 
   -2119    -1925    -1736    -1540    -1331    -1121     -924     -739 
    -588     -475     -370     -276     -211     -157     -102      -44 
      32      125      233      373      531      695      864     1016 
    1138     1254     1355     1416     1444     1445     1416     1355 
    1258     1139     1008      845      658      460      259       75 
    -101     -272     -427     -562     -677     -784     -884     -966 
   -1042    -1120    -1185    -1244    -1305    -1372    -1435    -1486 
   -1530    -1561    -1575    -1572    -1549    -1517    -1466    -1381 
   -1273    -1159    -1035     -892     -737     -584     -432     -284 
    -160      -55       32       78       81       52      -13     -131 
    -297     -483     -675     -877    -1094    -1314    -1525    -1733 
   -1935    -2130    -2316    -2478    -2605    -2706    -2791    -2867 
   -2926    -2957    -2978    -2995    -3003    -3009    -3014    -3024 
   -3026    -3033    -3060    -3088    -3111    -3146    -3194    -3252 
   -3306    -3352    -3395    -3418    -3423    -3423    -3396    -3325 
   -3232    -3130    -3013    -2876    -2736    -2600    -2448    -2282 
   -2130    -1992    -1846    -1703    -1571    -1433    -1266    -1084 
    -874     -607     -310       -2      340      702     1063     1428 
    1795     2157     2506     2847     3179     3500     3802     4079 
    4332     4557     4752     4900     5004     5069     5084     5051 
    4972     4847     4692     4518     4327     4125     3917     3700 
    3473     3238     2991     2728     2444     2142     1838     1535 
    1210      870      526      191     -135     -464     -789    -1096 
   -1399    -1701    -1991    -2277    -2552    -2813    -3060    -3289 
   -3492    -3672    -3839    -3991    -4126    -4258    -4391    -4517 
   -4649    -4788    -4914    -5034    -5154    -5270    -5370    -5452 
   -5525    -5570    -5578    -5559    -5513    -5443    -5347    -5208 
   -5049    -4882    -4688    -4471    -4238    -3984    -3731    -3483 
   -3231    -2994    -2767    -2539    -2313    -2088    -1863    -1630 
   -1394    -1161     -916     -666     -407     -109      225      579 
     945     1321     1703     2085     2455     2798     3106     3376 
    3608     3798     3946     4054     4126     4164     4174     4170 
    4148     4102     4041     3978     3904     3813     3719     3611 
    3473     3296     3079     2825     2542     2231     1892     1530 
    1156      773      390       11     -373     -754    -1112    -1468 
   -1821    -2149    -2454    -2744    -3025    -3303    -3562    -3788 
   -3987    -4168    -4320    -4438    -4535    -4611    -4645    -4642 
   -4622    -4572    -4488    -4391    -4275    -4145    -4031    -3915 
   -3788    -3680    -3586    -3501    -3442    -3396    -3355    -3338 
   -3331    -3315    -3300    -3298    -3303    -3326    -3353    -3372 
   -3403    -3447    -3495    -3550    -3622    -3697    -3748    -3776 
   -3797    -3817    -3865    -3932    -4003    -4082    -4159    -4228 
   -4294    -4338    -4357    -4360    -4338    -4297    -4222    -4110 
   -3977    -3823    -3650    -3457    -3252    -3042    -2832    -2639 
   -2452    -2257    -2069    -1887    -1714    -1557    -1393    -1220 
   -1050     -876     -695     -515     -333     -144       40      216 
     387      550      720      901     1078     1254     1439     1630 
    1814     1977     2124     2259     2389     2529     2656     2770 
    2884     2983     3060     3119     3152     3165     3165     3150 
    3119     3079     3026     2956     2876     2778     2658     2513 
    2328     2119     1907     1682     1436     1170      907      657 
     386      105     -153     -399     -638     -868    -1069    -1229 
   -1385    -1530    -1655    -1773    -1892    -2015    -2150    -2286 
   -2408    -2531    -2671    -2821    -2964    -3115    -3284    -3449 
   -3604    -3769    -3944    -4122    -4284    -4431    -4557    -4658 
   -4737    -4791    -4828    -4858    -4876    -4882    -4872    -4828 
   -4761    -4684    -4591    -4482    -4353    -4205    -4041    -3863 
   -3690    -3508    -3314    -3123    -2917    -2686    -2442    -2193 
   -1942    -1690    -1428    -1174     -926     -664     -407     -166 
