Origin Time       2016/04/16 01:25:00
Lat.              32.753
Long.             130.762
Depth. (km)       12
Mag.              7.3
Station Code      TKS003
Station Lat.      33.8716
Station Long.     134.6039
Station Height(m) 8
Record Time       2016/04/16 01:26:21
Sampling Freq(Hz) 100Hz
Duration Time(s)  118
Dir.              E-W
Scale Factor      7845(gal)/8223790
Max. Acc. (gal)   2.530
Last Correction   2016/04/16 01:26:21
Memo.             
[...]
  -13844   -13791   -13768   -13770   -13787   -13828   -13876   -13917 
  -13959   -13996   -14014   -14023   -14017   -13981   -13921   -13860 
  -13803   -13755   -13724   -13706   -13697   -13705   -13738   -13794 
  -13867   -13948   -14026   -14098   -14154   -14184   -14185   -14164 
  -14129   -14080   -14014   -13948   -13883   -13814   -13755   -13717 
  -13695   -13674   -13656   -13640   -13617   -13594   -13586   -13587 
  -13593   -13603   -13610   -13608   -13598   -13586   -13581   -13572 
  -13560   -13549   -13524   -13489   -13474   -13482   -13501   -13543 
  -13601   -13651   -13689   -13705   -13699   -13679   -13636   -13582 
  -13528   -13466   -13408   -13358   -13309   -13286   -13292   -13316 
  -13365   -13428   -13482   -13520   -13543   -13555   -13563   -13581 
  -13617   -13662   -13707   -13765   -13818   -13860   -13914   -13976 
  -14034   -14085   -14112   -14103   -14062   -13996   -13915   -13832 
  -13747   -13672   -13605   -13532   -13466   -13420   -13392   -13383 
  -13412   -13475   -13554   -13649   -13759   -13849   -13919   -13984 
  -14023   -14026   -14011   -13979   -13918   -13834   -13740   -13644 
  -13568   -13525   -13516   -13536   -13586   -13667   -13761   -13848 
  -13926   -13998   -14057   -14104   -14143   -14154   -14142   -14123 
  -14087   -14034   -13990   -13950   -13907   -13860   -13811   -13772 
  -13740   -13721   -13714   -13710   -13701   -13695   -13689   -13678 
  -13674   -13676   -13676   -13680   -13691   -13705   -13720   -13751 
  -13805   -13875   -13950   -14037   -14131   -14222   -14319   -14416 
  -14488   -14538   -14574   -14582   -14563   -14538   -14503   -14457 
  -14412   -14377   -14347   -14324   -14319   -14323   -14320   -14305 
  -14277   -14218   -14141   -14058   -13963   -13855   -13740   -13612 
  -13467   -13336   -13243   -13197   -13211   -13292   -13425   -13587 
  -13765   -13952   -14123   -14265   -14386   -14469   -14490   -14458 
  -14391   -14284   -14153   -14026   -13907   -13798   -13706   -13635 
  -13565   -13505   -13481   -13475   -13478   -13510   -13555   -13586 
  -13598   -13602   -13586   -13535   -13455   -13363   -13246   -13115 
  -12996   -12883   -12781   -12715   -12690   -12684   -12707   -12752 
  -12799   -12854   -12923   -12993   -13058   -13131   -13211   -13288 
  -13354   -13417   -13475   -13521   -13560   -13598   -13636   -13668 
  -13709   -13756   -13790   -13818   -13844   -13844   -13821   -13787 
  -13730   -13649   -13568   -13495   -13423   -13347   -13270   -13194 
  -13126   -13081   -13065   -13078   -13120   -13182   -13250   -13308 
  -13352   -13400   -13444   -13482   -13516   -13532   -13521   -13497 
  -13467   -13427   -13375   -13325   -13274   -13223   -13188   -13162 
  -13139   -13120   -13106   -13095   -13084   -13085   -13104   -13131 
  -13166   -13209   -13250   -13277   -13292   -13302   -13300   -13288 
  -13277   -13259   -13247   -13265   -13319   -13405   -13522   -13656 
  -13786   -13907   -14008   -14087   -14149   -14192   -14200   -14175 
  -14113   -14026   -13919   -13805   -13707   -13631   -13570   -13529 
  -13514   -13518   -13548   -13598   -13666   -13730   -13783   -13829 
  -13857   -13864   -13872   -13879   -13871   -13865   -13867   -13872 
  -13900   -13965   -14057   -14165   -14293   -14426   -14546   -14650 
  -14735   -14787   -14800   -14769   -14701   -14586   -14427   -14249 
  -14053   -13857   -13690   -13558   -13466   -13425   -13429   -13481 
  -13586   -13730   -13902   -14080   -14253   -14403   -14516   -14589 
  -14623   -14620   -14584   -14538   -14492   -14443   -14407   -14392 
  -14397   -14426   -14490   -14588   -14704   -14829   -14962   -15074 
  -15152   -15194   -15184   -15117   -14998   -14840   -14648   -14435 
  -14222   -14023   -13838   -13694   -13598   -13548   -13539   -13574 
  -13651   -13759   -13892   -14045   -14192   -14321   -14436   -14516 
  -14551   -14544   -14496   -14407   -14295   -14172   -14050   -13948 
  -13882   -13860   -13880   -13936   -14014   -14102   -14193   -14292 
  -14386   -14462   -14516   -14542   -14529   -14481   -14407   -14311 
  -14206   -14099   -13988   -13878   -13783   -13713   -13657   -13621 
  -13614   -13628   -13652   -13693   -13740   -13787   -13839   -13895 
  -13937   -13953   -13952   -13945   -13919   -13872   -13828   -13794 
  -13768   -13763   -13786   -13818   -13853   -13891   -13915   -13919 
  -13907   -13883   -13841   -13786   -13725   -13657   -13579   -13504 
  -13440   -13387   -13350   -13328   -13320   -13327   -13350   -13385 
  -13416   -13443   -13464   -13467   -13444   -13393   -13311   -13196 
  -13070   -12945   -12820   -12721   -12660   -12631   -12638   -12683 
  -12761   -12860   -12974   -13104   -13235   -13350   -13443   -13501 
  -13495   -13432   -13328   -13186   -13020   -12860   -12722   -12622 
  -12576   -12592   -12663   -12784   -12947   -13126   -13294   -13450 
  -13579   -13662   -13690   -13676   -13628   -13541   -13431   -13316 
  -13203   -13096   -13011   -12953   -12920   -12918   -12962   -13043 
  -13144   -13262   -13377   -13477   -13559   -13614   -13631   -13625 
  -13601   -13548   -13474   -13389   -13294   -13190   -13089   -12993 
  -12908   -12843   -12803   -12779   -12758   -12752   -12758   -12762 
  -12762   -12781   -12806   -12827   -12855   -12892   -12924   -12961 
  -13009   -13065   -13127   -13198   -13285   -13380   -13493   -13633 
  -13788   -13941   -14092   -14242   -14381   -14508   -14620   -14704 
  -14750   -14764   -14759   -14731   -14701   -14694   -14704   -14728 
  -14773   -14831   -14891   -14963   -15033   -15078   -15093   -15093 
  -15063   -14998   -14921   -14837   -14744   -14647   -14550   -14458 
  -14377   -14312   -14265   -14229   -14211   -14210   -14218   -14241 
  -14284   -14345   -14413   -14489   -14566   -14613   -14628   -14631 
  -14601   -14529   -14443   -14338   -14216   -14100   -14014   -13975 
  -13986   -14057   -14184   -14338   -14496   -14648   -14773   -14855 
  -14902   -14917   -14879   -14786   -14648   -14454   -14216   -13963 
  -13713   -13486   -13301   -13162   -13073   -13034   -13049   -13120 
  -13248   -13423   -13609   -13773   -13899   -13975   -14004   -13976 
  -13894   -13776   -13624   -13444   -13275   -13131   -13023   -12970 
  -12980   -13046   -13170   -13355   -13585   -13829   -14076   -14298 
  -14473   -14585   -14643   -14646   -14597   -14517   -14427   -14331 
  -14237   -14176   -14165   -14199   -14277   -14396   -14527   -14661 
  -14801   -14922   -15016   -15091   -15132   -15120   -15063   -14967 
  -14832   -14678   -14528   -14391   -14265   -14168   -14099   -14056 
  -14030   -14017   -14018   -14031   -14042   -14050   -14050   -14025 
  -13976   -13905   -13803   -13678   -13547   -13421   -13309   -13213 
  -13129   -13063   -13022   -13008   -13019   -13053   -13105   -13169 
  -13221   -13257   -13274   -13273   -13250   -13212   -13154   -13066 
  -12961   -12845   -12717   -12594   -12499   -12436   -12401   -12398 
  -12421   -12471   -12561   -12691   -12847   -13027   -13216   -13393 
  -13536   -13648   -13730   -13775   -13773   -13730   -13656   -13563 
  -13464   -13383   -13331   -13314   -13347   -13419   -13506   -13608 
  -13714   -13813   -13896   -13954   -13973   -13948   -13890   -13811 
  -13730   -13663   -13617   -13591   -13581   -13572   -13572   -13582 
  -13601   -13637   -13686   -13737   -13786   -13825   -13845   -13846 
  -13837   -13815   -13791   -13791   -13799   -13801   -13809   -13821 
  -13828   -13829   -13819   -13796   -13770   -13736   -13695   -13641 
  -13571   -13495   -13412   -13314   -13207   -13099   -12997   -12910 
  -12845   -12798   -12771   -12777   -12808   -12861   -12935   -13019 
  -13095   -13158   -13200   -13217   -13217   -13209   -13198   -13180 
  -13149   -13103   -13042   -12973   -12904   -12849   -12820   -12822 
  -12850   -12904   -12972   -13050   -13143   -13250   -13363   -13474 
  -13563   -13628   -13667   -13666   -13621   -13544   -13437   -13312 
  -13181   -13055   -12943   -12855   -12798   -12777   -12792   -12841 
  -12939   -13085   -13258   -13444   -13636   -13819   -13981   -14123 
  -14238   -14312   -14357   -14373   -14354   -14316   -14280   -14245 
  -14208   -14177   -14161   -14164   -14185   -14231   -14303   -14393 
  -14485   -14561   -14615   -14656   -14689   -14709   -14725   -14737 
  -14733   -14697   -14636   -14548   -14423   -14277   -14123   -13946 
  -13759   -13581   -13412   -13265   -13154   -13069   -13000   -12947 
  -12918   -12911   -12923   -12969   -13049   -13144   -13262   -13397 
  -13527   -13640   -13752   -13860   -13953   -14031   -14100   -14150 
  -14172   -14173   -14161   -14126   -14073   -14017   -13953   -13887 
  -13833   -13794   -13765   -13743   -13725   -13720   -13716   -13706 
  -13701   -13686   -13654   -13613   -13554   -13481   -13413   -13351 
  -13294   -13259   -13242   -13236   -13247   -13262   -13269   -13271 
  -13265   -13238   -13189   -13128   -13070   -13008   -12941   -12888 
  -12855   -12845   -12861   -12904   -12957   -13009   -13063   -13117 
  -13151   -13165   -13166   -13136   -13073   -12999   -12912   -12808 
  -12715   -12646   -12606   -12617   -12679   -12781   -12919   -13088 
  -13271   -13451   -13617   -13759   -13865   -13926   -13942   -13917 
  -13853   -13763   -13668   -13581   -13512   -13479   -13483   -13517 
  -13582   -13682   -13810   -13965   -14142   -14318   -14473   -14608 
  -14735   -14864   -14980   -15082   -15163   -15210   -15229   -15239 
  -15237   -15232   -15244   -15268   -15299   -15338   -15385   -15441 
  -15510   -15599   -15696   -15784   -15881   -15979   -16055   -16114 
  -16170   -16204   -16217   -16206   -16174   -16117   -16042   -15975 
  -15920   -15878   -15865   -15881   -15908   -15944   -15997   -16060 
  -16120   -16173   -16209   -16206   -16173   -16113   -16021   -15905 
  -15788   -15682   -15591   -15520   -15479   -15454   -15444   -15453 
  -15477   -15515   -15572   -15638   -15704   -15754   -15786   -15790 
  -15753   -15687   -15604   -15490   -15352   -15199   -15028   -14843 
  -14665   -14504   -14368   -14273   -14227   -14229   -14273   -14364 
  -14494   -14652   -14825   -15001   -15149   -15259   -15331   -15356 
  -15327   -15264   -15175   -15059   -14908   -14732   -14538   -14326 
  -14119   -13948   -13817   -13728   -13683   -13664   -13654   -13651 
  -13649   -13643   -13629   -13597   -13533   -13437   -13302   -13132 
  -12945   -12750   -12567   -12406   -12270   -12160   -12075   -12017 
  -11989   -11996   -12035   -12100   -12187   -12290   -12393   -12487 
  -12565   -12618   -12650   -12665   -12654   -12618   -12557   -12467 
  -12349   -12221   -12101   -11998   -11920   -11881   -11880   -11897 
  -11928   -11986   -12069   -12160   -12253   -12343   -12402   -12434 
  -12445   -12422   -12371   -12320   -12271   -12217   -12168   -12131 
  -12108   -12101   -12110   -12143   -12194   -12259   -12345   -12451 
  -12563   -12692   -12837   -12978   -13111   -13219   -13289   -13332 
  -13342   -13316   -13278   -13236   -13201   -13185   -13193   -13236 
  -13309   -13405   -13528   -13664   -13801   -13940   -14080   -14202 
  -14291   -14347   -14378   -14373   -14331   -14261   -14156   -14025 
  -13895   -13770   -13652   -13562   -13495   -13446   -13423   -13417 
  -13427   -13455   -13502   -13565   -13636   -13716   -13814   -13918 
  -14010   -14095   -14162   -14200   -14216   -14218   -14199   -14158 
  -14111   -14072   -14034   -14003   -13980   -13944   -13891   -13828 
  -13745   -13652   -13571   -13501   -13439   -13389   -13359   -13356 
  -13382   -13429   -13501   -13594   -13701   -13818   -13933   -14040 
  -14149   -14262   -14359   -14430   -14478   -14496   -14470   -14415 
  -14341   -14258   -14188   -14134   -14094   -14077   -14088   -14118 
  -14160   -14214   -14285   -14369   -14454   -14539   -14619   -14671 
  -14710   -14743   -14747   -14725   -14683   -14613   -14526   -14440 
  -14362   -14291   -14231   -14187   -14158   -14137   -14123   -14121 
  -14126   -14137   -14156   -14179   -14188   -14177   -14142   -14076 
  -13975   -13846   -13697   -13528   -13352   -13186   -13028   -12896 
  -12800   -12733   -12707   -12721   -12762   -12831   -12923   -13024 
  -13126   -13231   -13342   -13448   -13545   -13630   -13702   -13755 
  -13790   -13829   -13872   -13918   -13981   -14062   -14152   -14250 
  -14362   -14481   -14600   -14717   -14828   -14909   -14965   -14997 
  -14988   -14951   -14889   -14800   -14694   -14581   -14457   -14327 
  -14197   -14084   -14007   -13964   -13961   -14004   -14085   -14196 
  -14326   -14457   -14586   -14709   -14805   -14868   -14905   -14913 
  -14889   -14843   -14797   -14752   -14714   -14697   -14704   -14737 
  -14796   -14875   -14967   -15056   -15134   -15203   -15246   -15259 
  -15257   -15241   -15196   -15134   -15061   -14976   -14882   -14785 
  -14683   -14569   -14459   -14369   -14274   -14164   -14054   -13981 
  -13937   -13884   -13839   -13837   -13838   -13825   -13815   -13801 
  -13786   -13783   -13778   -13770   -13763   -13749   -13718   -13686 
  -13663   -13637   -13609   -13583   -13536   -13464   -13369   -13259 
  -13147   -13032   -12906   -12764   -12617   -12475   -12332   -12206 
  -12127   -12078   -12058   -12069   -12096   -12129   -12167   -12198 
  -12224   -12225   -12195   -12143   -12054   -11917   -11762   -11600 
  -11437   -11299   -11202   -11137   -11115   -11146   -11221   -11337 
  -11496   -11686   -11884   -12066   -12226   -12357   -12452   -12521 
  -12573   -12611   -12630   -12637   -12637   -12627   -12619   -12631 
  -12654   -12683   -12731   -12788   -12839   -12904   -12984   -13065 
  -13154   -13238   -13301   -13340   -13367   -13382   -13396   -13425 
  -13479   -13563   -13671   -13806   -13963   -14126   -14293   -14457 
  -14601   -14721   -14812   -14862   -14867   -14846   -14808   -14744 
  -14677   -14619   -14555   -14499   -14465   -14451   -14458   -14494 
  -14566   -14652   -14743   -14843   -14940   -15014   -15070   -15113 
  -15134   -15133   -15115   -15071   -14985   -14870   -14746   -14611 
  -14481   -14376   -14293   -14222   -14154   -14095   -14052   -14031 
  -14038   -14060   -14095   -14145   -14185   -14204   -14204   -14187 
  -14162   -14123   -14072   -14019   -13957   -13905   -13882   -13861 
  -13846   -13851   -13852   -13846   -13834   -13815   -13788   -13747 
  -13691   -13620   -13524   -13413   -13298   -13181   -13081   -13015 
  -12978   -12966   -12977   -13007   -13051   -13103   -13163   -13223 
  -13270   -13314   -13347   -13347   -13331   -13302   -13247   -13174 
  -13095   -13009   -12927   -12850   -12787   -12750   -12744   -12773 
  -12833   -12908   -13000   -13111   -13220   -13319   -13409   -13478 
  -13520   -13536   -13518   -13462   -13387   -13311   -13231   -13159 
  -13109   -13077   -13058   -13065   -13093   -13139   -13208   -13294 
  -13402   -13513   -13614   -13707   -13779   -13822   -13844   -13829 
  -13760   -13656   -13527   -13363   -13185   -13020   -12883   -12773 
  -12708   -12695   -12712   -12756   -12839   -12946   -13069   -13201 
  -13320   -13412   -13466   -13489   -13482   -13441   -13378   -13296 
  -13190   -13073   -12966   -12873   -12807   -12765   -12745   -12734 
  -12735   -12752   -12765   -12775   -12785   -12792   -12796   -12798 
  -12796   -12796   -12806   -12822   -12841   -12854   -12866   -12877 
  -12895   -12924   -12964   -13020   -13090   -13170   -13271   -13385 
  -13495   -13606   -13706   -13790   -13865   -13934   -13991   -14046 
  -14103   -14152   -14188   -14211   -14226   -14234   -14235   -14237 
  -14222   -14192   -14153   -14096   -14027   -13960   -13886   -13806 
  -13720   -13624   -13537   -13462   -13404   -13380   -13379   -13393 
  -13423   -13456   -13482   -13509   -13539   -13568   -13595   -13625 
  -13659   -13691   -13730   -13776   -13824   -13871   -13918   -13952 
  -13961   -13959   -13942   -13905   -13848   -13782   -13702   -13606 
  -13510   -13421   -13346   -13290   -13250   -13215   -13185   -13157 
  -13127   -13096   -13059   -13023   -12980   -12927   -12879   -12830 
  -12779   -12753   -12749   -12753   -12769   -12798   -12833   -12870 
  -12910   -12954   -13003   -13057   -13138   -13227   -13317   -13423 
  -13533   -13647   -13765   -13872   -13957   -14029   -14080   -14121 
  -14146   -14156   -14154   -14142   -14118   -14092   -14064   -14022 
  -13983   -13960   -13948   -13959   -13996   -14046   -14096   -14149 
  -14204   -14251   -14288   -14331   -14372   -14397   -14424   -14439 
  -14432   -14422   -14400   -14372   -14351   -14343   -14345   -14351 
  -14368   -14400   -14442   -14493   -14550   -14602   -14652   -14697 
  -14720   -14702   -14658   -14593   -14508   -14412   -14316   -14224 
  -14142   -14075   -14034   -14027   -14047   -14100   -14176   -14250 
  -14324   -14397   -14450   -14481   -14493   -14477   -14424   -14353 
  -14269   -14169   -14072   -13987   -13913   -13861   -13834   -13826 
  -13829   -13849   -13888   -13933   -13971   -14003   -14027   -14037 
  -14034   -14013   -13963   -13888   -13806   -13722   -13633   -13549 
  -13486   -13433   -13389   -13367   -13365   -13367   -13383   -13410 
  -13437   -13471   -13517   -13565   -13614   -13653   -13672   -13657 
  -13616   -13570   -13521   -13470   -13433   -13421   -13420   -13425 
  -13450   -13500   -13565   -13641   -13724   -13794   -13853   -13905 
  -13936   -13936   -13936   -13941   -13948   -13965   -13988   -14010 
  -14042   -14084   -14131   -14185   -14245   -14310   -14373   -14419 
  -14454   -14486   -14503   -14508   -14499   -14465   -14416   -14361 
  -14288   -14200   -14125   -14073   -14027   -13990   -13973   -13969 
  -13971   -13976   -13968   -13948   -13927   -13913   -13890   -13856 
  -13828   -13805   -13775   -13748   -13729   -13706   -13668   -13614 
  -13537   -13440   -13343   -13251   -13158   -13069   -12995   -12934 
  -12884   -12849   -12825   -12799   -12773   -12761   -12749   -12722 
  -12688   -12658   -12622   -12583   -12552   -12525   -12502   -12491 
  -12488   -12486   -12486   -12499   -12517   -12542   -12592   -12658 
  -12734   -12827   -12928   -13035   -13151   -13269   -13374   -13460 
  -13524   -13570   -13594   -13590   -13572   -13549   -13520   -13497 
  -13495   -13513   -13551   -13614   -13697   -13786   -13875   -13961 
  -14029   -14080   -14123   -14145   -14142   -14123   -14085   -14035 
  -13976   -13905   -13836   -13772   -13713   -13667   -13630   -13598 
  -13591   -13605   -13635   -13682   -13745   -13817   -13892   -13973 
  -14042   -14090   -14139   -14181   -14195   -14192   -14179   -14143 
  -14089   -14034   -13981   -13948   -13942   -13961   -13996   -14042 
  -14112   -14203   -14281   -14345   -14393   -14405   -14388   -14361 
  -14305   -14218   -14116   -14002   -13872   -13756   -13654   -13562 
  -13489   -13444   -13409   -13385   -13380   -13398   -13436   -13486 
  -13545   -13610   -13651   -13667   -13671   -13649   -13598   -13529 
  -13443   -13340   -13230   -13122   -13012   -12910   -12837   -12788 
  -12758   -12765   -12802   -12855   -12931   -13022   -13116   -13211 
  -13301   -13367   -13408   -13432   -13443   -13432   -13398   -13358 
