Origin Time       2016/04/16 01:25:00
Lat.              32.753
Long.             130.762
Depth. (km)       12
Mag.              7.3
Station Code      TKS007
Station Lat.      34.0905
Station Long.     134.2850
Station Height(m) 48
Record Time       2016/04/16 01:26:15
Sampling Freq(Hz) 100Hz
Duration Time(s)  137
Dir.              N-S
Scale Factor      7845(gal)/8223790
Max. Acc. (gal)   8.125
Last Correction   2016/04/16 01:25:59
Memo.             
[...]
   -3532    -3519    -3500    -3476    -3458    -3439    -3416    -3404 
   -3395    -3384    -3385    -3387    -3387    -3397    -3411    -3422 
   -3442    -3465    -3480    -3505    -3535    -3557    -3580    -3595 
   -3596    -3597    -3599    -3595    -3597    -3601    -3600    -3596 
   -3591    -3581    -3576    -3573    -3563    -3558    -3568    -3569 
   -3569    -3582    -3582    -3572    -3570    -3566    -3566    -3576 
   -3581    -3586    -3604    -3619    -3630    -3647    -3658    -3661 
   -3662    -3645    -3601    -3547    -3474    -3387    -3299    -3202 
   -3094    -2990    -2882    -2766    -2654    -2544    -2436    -2347 
   -2276    -2215    -2184    -2173    -2178    -2204    -2242    -2288 
   -2354    -2428    -2498    -2575    -2656    -2727    -2801    -2886 
   -2960    -3036    -3121    -3194    -3275    -3366    -3456    -3544 
   -3634    -3709    -3775    -3844    -3909    -3982    -4071    -4156 
   -4238    -4320    -4382    -4433    -4483    -4514    -4529    -4535 
   -4526    -4509    -4496    -4472    -4433    -4395    -4342    -4271 
   -4203    -4128    -4040    -3960    -3886    -3812    -3759    -3724 
   -3688    -3661    -3646    -3627    -3615    -3607    -3588    -3572 
   -3561    -3543    -3527    -3526    -3528    -3538    -3558    -3577 
   -3596    -3612    -3618    -3622    -3627    -3619    -3607    -3596 
   -3578    -3566    -3568    -3570    -3581    -3603    -3622    -3638 
   -3662    -3682    -3703    -3731    -3753    -3765    -3778    -3775 
   -3759    -3736    -3697    -3653    -3623    -3585    -3537    -3491 
   -3438    -3376    -3322    -3265    -3203    -3152    -3105    -3057 
   -3025    -2999    -2972    -2959    -2959    -2964    -2988    -3022 
   -3055    -3095    -3141    -3177    -3217    -3261    -3299    -3346 
   -3407    -3465    -3527    -3593    -3646    -3701    -3757    -3801 
   -3834    -3865    -3890    -3920    -3956    -3987    -4016    -4045 
   -4058    -4055    -4047    -4017    -3974    -3931    -3879    -3831 
   -3797    -3759    -3717    -3680    -3634    -3581    -3534    -3483 
   -3427    -3380    -3331    -3284    -3262    -3254    -3254    -3275 
   -3307    -3348    -3410    -3480    -3550    -3631    -3711    -3781 
   -3855    -3928    -3986    -4040    -4087    -4121    -4163    -4205 
   -4233    -4266    -4297    -4320    -4342    -4359    -4352    -4337 
   -4324    -4294    -4255    -4218    -4176    -4139    -4107    -4067 
   -4029    -3996    -3950    -3904    -3867    -3827    -3797    -3786 
   -3766    -3738    -3721    -3699    -3669    -3653    -3645    -3632 
   -3632    -3643    -3659    -3685    -3709    -3730    -3751    -3767 
   -3773    -3774    -3771    -3757    -3738    -3713    -3677    -3639 
   -3604    -3568    -3532    -3501    -3466    -3433    -3397    -3357 
   -3330    -3314    -3300    -3304    -3321    -3330    -3339    -3352 
   -3357    -3369    -3391    -3400    -3403    -3404    -3393    -3384 
   -3393    -3407    -3429    -3462    -3496    -3520    -3547    -3570 
   -3589    -3608    -3624    -3638    -3658    -3677    -3700    -3734 
   -3766    -3796    -3835    -3866    -3885    -3904    -3910    -3901 
   -3896    -3890    -3873    -3858    -3842    -3816    -3790    -3765 
   -3732    -3713    -3705    -3696    -3704    -3719    -3727    -3736 
   -3742    -3730    -3716    -3701    -3676    -3657    -3650    -3640 
   -3638    -3646    -3647    -3647    -3662    -3674    -3684    -3703 
   -3723    -3743    -3774    -3804    -3828    -3850    -3846    -3815 
   -3774    -3719    -3658    -3599    -3534    -3469    -3419    -3369 
   -3319    -3280    -3238    -3188    -3144    -3094    -3029    -2967 
   -2903    -2837    -2789    -2759    -2740    -2748    -2770    -2790 
   -2820    -2855    -2891    -2945    -3010    -3073    -3148    -3230 
   -3307    -3387    -3472    -3553    -3639    -3726    -3797    -3863 
   -3925    -3970    -4013    -4055    -4082    -4097    -4112    -4112 
   -4102    -4088    -4055    -4017    -3986    -3950    -3904    -3859 
   -3800    -3730    -3665    -3593    -3522    -3466    -3419    -3380 
   -3357    -3338    -3322    -3314    -3299    -3277    -3260    -3245 
   -3227    -3219    -3215    -3217    -3235    -3264    -3296    -3339 
   -3379    -3404    -3429    -3451    -3461    -3470    -3481    -3484 
   -3483    -3473    -3442    -3400    -3348    -3275    -3200    -3134 
   -3059    -2983    -2909    -2817    -2718    -2624    -2529    -2446 
   -2382    -2327    -2290    -2278    -2269    -2269    -2288    -2308 
   -2331    -2366    -2404    -2440    -2486    -2532    -2577    -2628 
   -2675    -2714    -2752    -2774    -2772    -2770    -2763    -2745 
   -2733    -2720    -2705    -2708    -2720    -2737    -2772    -2826 
   -2889    -2965    -3046    -3119    -3191    -3264    -3323    -3380 
   -3443    -3500    -3553    -3608    -3658    -3700    -3732    -3753 
   -3761    -3759    -3743    -3719    -3696    -3666    -3638    -3626 
   -3624    -3634    -3663    -3701    -3747    -3805    -3858    -3905 
   -3955    -3998    -4036    -4077    -4110    -4144    -4183    -4217 
   -4243    -4270    -4284    -4291    -4303    -4310    -4314    -4336 
   -4364    -4386    -4415    -4448    -4479    -4519    -4557    -4583 
   -4618    -4652    -4668    -4688    -4706    -4706    -4706    -4712 
   -4712    -4719    -4727    -4730    -4743    -4764    -4777    -4800 
   -4835    -4869    -4905    -4947    -4976    -5000    -5031    -5047 
   -5053    -5066    -5070    -5065    -5065    -5051    -5030    -5013 
   -4986    -4950    -4918    -4878    -4837    -4806    -4774    -4742 
   -4719    -4693    -4665    -4648    -4623    -4591    -4567    -4535 
   -4496    -4464    -4425    -4374    -4329    -4271    -4194    -4122 
   -4044    -3955    -3875    -3800    -3712    -3630    -3546    -3451 
   -3369    -3296    -3217    -3148    -3092    -3034    -2986    -2949 
   -2911    -2887    -2872    -2856    -2847    -2843    -2825    -2809 
   -2798    -2772    -2751    -2740    -2725    -2717    -2724    -2728 
   -2740    -2772    -2811    -2848    -2891    -2934    -2972    -3017 
   -3064    -3114    -3173    -3226    -3268    -3316    -3365    -3406 
   -3449    -3489    -3519    -3547    -3569    -3580    -3597    -3612 
   -3620    -3634    -3642    -3634    -3628    -3615    -3578    -3535 
   -3478    -3397    -3308    -3211    -3096    -2982    -2868    -2745 
   -2628    -2517    -2400    -2284    -2173    -2052    -1933    -1826 
   -1718    -1614    -1528    -1444    -1362    -1302    -1247    -1194 
   -1159    -1128    -1098    -1078    -1055    -1032    -1020    -1007 
    -997    -1011    -1032    -1063    -1112    -1166    -1219    -1285 
   -1358    -1425    -1495    -1560    -1615    -1675    -1734    -1781 
   -1831    -1891    -1952    -2023    -2106    -2191    -2281    -2371 
   -2447    -2512    -2567    -2604    -2631    -2658    -2673    -2690 
   -2718    -2737    -2754    -2776    -2794    -2813    -2837    -2849 
   -2856    -2868    -2871    -2868    -2876    -2884    -2896    -2921 
   -2940    -2961    -3002    -3044    -3084    -3136    -3180    -3219 
   -3265    -3307    -3341    -3379    -3411    -3437    -3465    -3491 
   -3515    -3551    -3592    -3630    -3676    -3724    -3762    -3808 
   -3861    -3913    -3979    -4047    -4110    -4183    -4256    -4320 
   -4379    -4430    -4472    -4519    -4568    -4617    -4677    -4743 
   -4806    -4873    -4947    -5019    -5093    -5174    -5254    -5341 
   -5439    -5536    -5637    -5744    -5846    -5958    -6083    -6201 
   -6309    -6415    -6509    -6589    -6662    -6723    -6770    -6808 
   -6833    -6853    -6871    -6880    -6883    -6883    -6875    -6855 
   -6831    -6791    -6731    -6656    -6561    -6442    -6309    -6156 
   -5975    -5790    -5599    -5404    -5213    -5027    -4843    -4665 
   -4492    -4327    -4178    -4045    -3927    -3828    -3751    -3684 
   -3636    -3611    -3596    -3596    -3611    -3632    -3665    -3713 
   -3762    -3815    -3880    -3951    -4017    -4085    -4148    -4203 
   -4256    -4297    -4329    -4360    -4382    -4393    -4407    -4413 
   -4414    -4429    -4445    -4461    -4490    -4521    -4542    -4571 
   -4603    -4634    -4679    -4733    -4789    -4864    -4950    -5040 
   -5154    -5286    -5414    -5548    -5689    -5831    -5987    -6153 
   -6313    -6480    -6648    -6805    -6952    -7101    -7230    -7348 
   -7454    -7539    -7612    -7674    -7717    -7749    -7770    -7774 
   -7761    -7735    -7692    -7630    -7560    -7474    -7376    -7279 
   -7176    -7074    -6982    -6889    -6791    -6702    -6610    -6515 
   -6432    -6353    -6259    -6169    -6080    -5976    -5868    -5752 
   -5614    -5474    -5333    -5175    -5012    -4849    -4676    -4506 
   -4344    -4178    -4014    -3863    -3711    -3562    -3419    -3276 
   -3140    -3014    -2887    -2763    -2652    -2544    -2444    -2358 
   -2270    -2181    -2089    -1989    -1884    -1776    -1655    -1513 
   -1359    -1185     -984     -767     -533     -276       -5      276 
     573      873     1178     1478     1760     2026     2280     2512 
    2721     2915     3092     3245     3379     3492     3586     3663 
    3721     3773     3836     3889     3920     3946     3962     3971 
    3989     4000     4001     4009     4017     4012     3996     3973 
    3928     3854     3762     3646     3504     3339     3153     2949 
    2725     2482     2231     1969     1694     1414     1127      834 
     549      266      -23     -315     -599     -872    -1136    -1397 
   -1657    -1900    -2130    -2366    -2600    -2818    -3040    -3254 
   -3450    -3646    -3842    -4025    -4205    -4391    -4561    -4730 
   -4912    -5089    -5265    -5443    -5618    -5791    -5956    -6108 
   -6264    -6426    -6579    -6725    -6860    -6984    -7117    -7246 
   -7354    -7450    -7533    -7599    -7657    -7697    -7711    -7723 
   -7739    -7743    -7730    -7703    -7662    -7616    -7573    -7518 
   -7452    -7391    -7323    -7257    -7206    -7149    -7086    -7029 
   -6964    -6883    -6797    -6696    -6573    -6430    -6262    -6068 
   -5860    -5645    -5429    -5219    -5017    -4818    -4631    -4457 
   -4298    -4158    -4032    -3920    -3832    -3757    -3680    -3622 
   -3580    -3543    -3535    -3550    -3569    -3601    -3645    -3676 
   -3701    -3730    -3742    -3738    -3726    -3700    -3665    -3618 
   -3551    -3474    -3396    -3314    -3238    -3172    -3106    -3038 
   -2976    -2911    -2847    -2789    -2733    -2679    -2632    -2590 
   -2565    -2567    -2586    -2620    -2681    -2764    -2867    -2995 
   -3145    -3321    -3530    -3771    -4029    -4307    -4600    -4896 
   -5200    -5505    -5798    -6089    -6377    -6651    -6914    -7175 
   -7430    -7678    -7917    -8141    -8359    -8568    -8754    -8919 
   -9073    -9209    -9331    -9447    -9553    -9653    -9748    -9833 
   -9911    -9991   -10058   -10110   -10152   -10166   -10149   -10114 
  -10058    -9991    -9922    -9842    -9752    -9662    -9568    -9463 
   -9355    -9238    -9103    -8968    -8837    -8699    -8572    -8451 
   -8318    -8193    -8063    -7912    -7756    -7595    -7410    -7211 
   -6998    -6766    -6527    -6280    -6014    -5729    -5431    -5111 
   -4779    -4445    -4102    -3754    -3418    -3096    -2785    -2479 
   -2187    -1914    -1664    -1436    -1228    -1047     -899     -784 
    -700     -638     -599     -581     -568     -556     -553     -550 
    -542     -545     -549     -550     -564     -573     -566     -550 
    -515     -456     -386     -311     -229     -143      -55       37 
     141      251      361      468      568      660      746      828 
     908      986     1059     1127     1185     1232     1271     1301 
    1321     1341     1359     1367     1375     1385     1395     1420 
    1451     1479     1513     1540     1559     1580     1595     1606 
    1622     1630     1624     1617     1601     1563     1514     1445 
    1355     1259     1152     1031      907      767      604      436 
     252       40     -187     -429     -697     -978    -1274    -1587 
   -1908    -2235    -2571    -2903    -3223    -3535    -3832    -4112 
   -4375    -4617    -4839    -5051    -5252    -5433    -5597    -5751 
   -5884    -5992    -6089    -6173    -6237    -6285    -6316    -6319 
   -6312    -6293    -6246    -6186    -6118    -6026    -5914    -5783 
   -5633    -5481    -5321    -5147    -4981    -4819    -4648    -4487 
   -4333    -4172    -4025    -3882    -3727    -3577    -3434    -3281 
   -3133    -2988    -2840    -2702    -2577    -2450    -2326    -2208 
   -2081    -1949    -1811    -1649    -1476    -1297    -1092     -881 
    -673     -454     -228       -2      232      464      689      915 
    1124     1302     1464     1610     1733     1840     1921     1979 
    2025     2053     2053     2038     2018     1982     1937     1890 
    1836     1779     1728     1668     1597     1524     1444     1354 
    1252     1131      990      835      657      454      222      -45 
    -341     -665    -1026    -1420    -1837    -2282    -2747    -3222 
   -3708    -4192    -4666    -5131    -5582    -6012    -6440    -6853 
   -7245    -7626    -7992    -8338    -8676    -9007    -9321    -9622 
   -9918   -10197   -10457   -10701   -10924   -11117   -11277   -11415 
  -11551   -11677   -11772   -11858   -11936   -11997   -12037   -12056 
  -12044   -12020   -12002   -11963   -11907   -11843   -11747   -11630 
  -11516   -11379   -11221   -11072   -10908   -10722   -10546   -10361 
  -10164    -9975    -9780    -9583    -9385    -9184    -8977    -8764 
   -8540    -8305    -8051    -7785    -7510    -7230    -6949    -6667 
   -6392    -6122    -5853    -5589    -5325    -5057    -4783    -4515 
   -4247    -3977    -3719    -3473    -3227    -2983    -2743    -2504 
   -2265    -2026    -1790    -1567    -1355    -1151     -962     -783 
    -607     -441     -278     -112       40      183      321      449 
     572      692      799      895      972     1023     1047     1044 
    1013      969      908      824      734      637      515      380 
     255      112      -44     -197     -364     -538     -699     -869 
   -1055    -1228    -1390    -1566    -1748    -1933    -2116    -2290 
   -2466    -2646    -2820    -2983    -3134    -3273    -3415    -3549 
   -3649    -3726    -3794    -3847    -3894    -3937    -3960    -3970 
   -3969    -3942    -3898    -3848    -3780    -3697    -3615    -3528 
   -3431    -3342    -3254    -3167    -3090    -3026    -2964    -2920 
   -2899    -2891    -2899    -2928    -2967    -3011    -3067    -3136 
   -3218    -3311    -3407    -3505    -3611    -3719    -3836    -3962 
   -4095    -4240    -4402    -4568    -4725    -4873    -5007    -5128 
   -5232    -5300    -5332    -5333    -5293    -5223    -5135    -5035 
   -4927    -4806    -4673    -4541    -4402    -4251    -4086    -3910 
   -3721    -3532    -3357    -3183    -2997    -2824    -2675    -2535 
   -2398    -2266    -2130    -1993    -1864    -1726    -1586    -1451 
   -1316    -1193    -1088     -984     -884     -795     -710     -629 
    -556     -490     -433     -390     -357     -336     -340     -365 
    -395     -430     -469     -503     -533     -556     -571     -581 
    -579     -568     -544     -508     -464     -421     -376     -328 
    -272     -217     -163     -108      -52       -1       45       90 
     129      163      189      205      217      224      222      214 
     198      164      114       54      -14      -95     -178     -257 
    -340     -419     -480     -531     -579     -611     -630     -638 
    -633     -614     -585     -537     -472     -388     -278     -152 
     -20      128      284      441      602      772      929     1065 
    1185     1286     1364     1428     1474     1495     1494     1478 
    1441     1379     1294     1190     1067      926      777      623 
     463      307      170       37      -87     -202     -318     -436 
    -549     -676     -810     -942    -1081    -1223    -1356    -1482 
   -1601    -1706    -1802    -1891    -1968    -2029    -2081    -2124 
   -2160    -2191    -2227    -2278    -2336    -2404    -2482    -2573 
   -2678    -2799    -2929    -3067    -3213    -3364    -3519    -3670 
   -3815    -3956    -4099    -4243    -4371    -4495    -4633    -4779 
   -4928    -5092    -5260    -5431    -5617    -5810    -5998    -6186 
   -6366    -6524    -6682    -6847    -6994    -7140    -7298    -7446 
   -7589    -7731    -7851    -7958    -8055    -8127    -8176    -8214 
   -8218    -8202    -8175    -8118    -8044    -7963    -7865    -7763 
   -7665    -7564    -7460    -7348    -7230    -7113    -6990    -6848 
   -6694    -6531    -6353    -6150    -5930    -5707    -5493    -5286 
   -5085    -4889    -4710    -4558    -4444    -4356    -4276    -4213 
   -4168    -4136    -4120    -4110    -4101    -4099    -4106    -4114 
   -4116    -4114    -4114    -4107    -4091    -4074    -4058    -4043 
   -4039    -4054    -4086    -4137    -4207    -4303    -4419    -4550 
   -4692    -4841    -4994    -5147    -5285    -5406    -5522    -5623 
   -5709    -5793    -5879    -5961    -6044    -6137    -6231    -6323 
   -6415    -6494    -6562    -6617    -6654    -6673    -6683    -6683 
   -6670    -6637    -6593    -6536    -6455    -6347    -6216    -6061 
   -5892    -5707    -5501    -5275    -5051    -4828    -4606    -4396 
   -4200    -4012    -3836    -3682    -3549    -3419    -3296    -3190 
   -3099    -3034    -2995    -2984    -3003    -3049    -3118    -3196 
   -3280    -3360    -3439    -3519    -3586    -3640    -3693    -3743 
   -3788    -3828    -3869    -3902    -3935    -3959    -3975    -3987 
   -3981    -3954    -3923    -3894    -3865    -3839    -3820    -3802 
   -3794    -3793    -3794    -3815    -3848    -3882    -3931    -3990 
   -4047    -4104    -4163    -4210    -4251    -4287    -4315    -4336 
   -4359    -4367    -4359    -4340    -4298    -4233    -4155    -4050 
   -3921    -3782    -3627    -3462    -3300    -3141    -2986    -2844 
   -2710    -2584    -2474    -2367    -2269    -2180    -2096    -2022 
   -1962    -1921    -1896    -1890    -1895    -1918    -1964    -2015 
   -2066    -2115    -2150    -2169    -2177    -2165    -2137    -2097 
   -2047    -1992    -1939    -1890    -1849    -1825    -1810    -1806 
   -1815    -1831    -1856    -1894    -1934    -1973    -2019    -2070 
   -2124    -2196    -2286    -2384    -2494    -2614    -2724    -2833 
   -2944    -3041    -3123    -3194    -3254    -3308    -3365    -3410 
   -3446    -3484    -3514    -3528    -3530    -3518    -3492    -3459 
   -3407    -3345    -3277    -3194    -3100    -3009    -2910    -2803 
   -2702    -2602    -2505    -2413    -2315    -2219    -2138    -2053 
   -1969    -1894    -1826    -1768    -1725    -1691    -1668    -1661 
   -1668    -1694    -1745    -1806    -1877    -1979    -2101    -2230 
   -2371    -2521    -2664    -2805    -2941    -3064    -3187    -3303 
   -3407    -3520    -3634    -3731    -3825    -3919    -3993    -4062 
   -4136    -4209    -4287    -4378    -4479    -4596    -4727    -4861 
