Origin Time       2016/04/16 01:25:00
Lat.              32.753
Long.             130.762
Depth. (km)       12
Mag.              7.3
Station Code      TKS004
Station Lat.      33.7749
Station Long.     134.5914
Station Height(m) 5
Record Time       2016/04/16 01:26:54
Sampling Freq(Hz) 100Hz
Duration Time(s)  87
Dir.              E-W
Scale Factor      7845(gal)/8223790
Max. Acc. (gal)   2.406
Last Correction   2016/04/16 01:26:55
Memo.             
[...]
   -1135    -1123    -1073    -1008     -996    -1039    -1121    -1179 
   -1225    -1289    -1333    -1368    -1413    -1456    -1483    -1533 
   -1611    -1647    -1660    -1698    -1723    -1741    -1773    -1826 
   -1861    -1844    -1830    -1836    -1775    -1721    -1723    -1656 
   -1553    -1505    -1455    -1397    -1355    -1362    -1413    -1444 
   -1520    -1644    -1718    -1776    -1872    -1952    -1954    -1944 
   -1975    -1941    -1852    -1802    -1733    -1618    -1543    -1506 
   -1410    -1302    -1263    -1224    -1161    -1120    -1107    -1074 
   -1004     -953     -918     -905     -929     -913     -928     -994 
   -1016    -1058    -1132    -1197    -1269    -1336    -1394    -1441 
   -1514    -1583    -1576    -1561    -1567    -1526    -1462    -1418 
   -1359    -1293    -1251    -1179    -1107    -1051     -980     -939 
    -931     -929     -955     -976     -939     -908     -967    -1017 
   -1005    -1053    -1117    -1127    -1155    -1166    -1131    -1140 
   -1202    -1258    -1306    -1360    -1399    -1405    -1375    -1327 
   -1269    -1229    -1192    -1096    -1016     -949     -800     -658 
    -561     -446     -372     -353     -337     -344     -425     -561 
    -699     -843    -1013    -1156    -1266    -1378    -1441    -1462 
   -1494    -1493    -1444    -1413    -1412    -1379    -1304    -1243 
   -1155    -1016     -913     -824     -710     -611     -550     -526 
    -504     -460     -444     -430     -395     -376     -369     -392 
    -464     -569     -747     -981    -1201    -1412    -1601    -1725 
   -1815    -1872    -1865    -1829    -1798    -1779    -1729    -1655 
   -1615    -1549    -1449    -1393    -1339    -1259    -1167    -1077 
   -1005     -918     -851     -830     -783     -730     -708     -684 
    -645     -607     -584     -576     -584     -621     -677     -727 
    -823     -970    -1078    -1193    -1337    -1418    -1485    -1587 
   -1658    -1664    -1675    -1705    -1626    -1505    -1435    -1304 
   -1174    -1101     -999     -861     -741     -669     -591     -498 
    -441     -434     -464     -484     -546     -668     -753     -862 
   -1035    -1163    -1275    -1466    -1649    -1715    -1784    -1894 
   -1935    -1946    -1956    -1914    -1826    -1729    -1632    -1503 
   -1367    -1259    -1152    -1058    -1007     -980     -938     -901 
    -901     -912     -922     -974    -1081    -1185    -1277    -1389 
   -1503    -1603    -1664    -1715    -1784    -1791    -1818    -1894 
   -1894    -1899    -1919    -1876    -1811    -1736    -1671    -1630 
   -1583    -1505    -1389    -1291    -1206    -1057     -899     -777 
    -627     -486     -417     -376     -352     -392     -481     -587 
    -731     -928    -1121    -1275    -1460    -1651    -1779    -1907 
   -2018    -2073    -2130    -2189    -2191    -2147    -2111    -2037 
   -1894    -1744    -1572    -1375    -1202    -1055     -927     -819 
    -723     -618     -530     -472     -407     -398     -469     -549 
    -648     -797     -958    -1088    -1255    -1456    -1598    -1729 
   -1883    -1969    -2011    -2056    -2069    -2038    -2016    -1980 
   -1883    -1773    -1657    -1525    -1386    -1198    -1019     -876 
    -734     -629     -545     -459     -413     -407     -399     -379 
    -405     -460     -500     -577     -660     -715     -804     -926 
   -1038    -1143    -1275    -1413    -1528    -1628    -1680    -1703 
   -1736    -1752    -1741    -1725    -1667    -1532    -1393    -1285 
   -1113     -923     -789     -646     -496     -407     -334     -272 
    -287     -355     -429     -506     -616     -767     -896    -1031 
   -1210    -1355    -1480    -1586    -1641    -1690    -1728    -1753 
   -1746    -1695    -1658    -1626    -1561    -1494    -1424    -1344 
   -1297    -1281    -1237    -1167    -1111    -1057     -994     -967 
    -951     -920     -922     -945     -965     -981    -1019    -1074 
   -1117    -1178    -1256    -1308    -1368    -1448    -1502    -1522 
   -1559    -1606    -1605    -1572    -1563    -1554    -1548    -1543 
   -1517    -1476    -1429    -1395    -1367    -1320    -1274    -1232 
   -1212    -1205    -1182    -1154    -1143    -1161    -1167    -1181 
   -1223    -1242    -1260    -1316    -1362    -1391    -1439    -1479 
   -1476    -1478    -1489    -1460    -1449    -1449    -1409    -1389 
   -1389    -1390    -1422    -1447    -1448    -1456    -1466    -1475 
   -1501    -1514    -1494    -1494    -1526    -1544    -1564    -1617 
   -1663    -1714    -1781    -1779    -1729    -1715    -1683    -1611 
   -1564    -1543    -1506    -1487    -1497    -1459    -1416    -1417 
   -1393    -1359    -1355    -1339    -1328    -1347    -1354    -1368 
   -1404    -1401    -1405    -1424    -1382    -1324    -1294    -1255 
   -1201    -1155    -1139    -1144    -1142    -1150    -1165    -1154 
   -1159    -1196    -1215    -1242    -1291    -1339    -1401    -1451 
   -1474    -1518    -1583    -1637    -1660    -1656    -1658    -1624 
   -1574    -1552    -1478    -1386    -1329    -1274    -1213    -1096 
    -985     -932     -859     -804     -792     -805     -881     -958 
   -1055    -1225    -1393    -1572    -1759    -1907    -2066    -2218 
   -2330    -2401    -2446    -2489    -2508    -2523    -2527    -2478 
   -2450    -2444    -2432    -2421    -2349    -2251    -2176    -2079 
   -1949    -1786    -1636    -1486    -1337    -1239    -1116    -1011 
    -974     -935     -913     -901     -884     -919     -967    -1009 
   -1069    -1124    -1190    -1273    -1359    -1441    -1490    -1526 
   -1578    -1597    -1557    -1490    -1451    -1417    -1331    -1255 
   -1213    -1147    -1071     -974     -822     -634     -445     -298 
    -157       22      171      257      341      409      438      456 
     461      430      364      272      151       21      -98     -221 
    -348     -456     -540     -637     -731     -780     -810     -850 
    -876     -899     -942     -962     -961    -1005    -1062    -1088 
   -1123    -1162    -1205    -1275    -1345    -1370    -1351    -1316 
   -1254    -1177    -1075     -947     -845     -758     -687     -619 
    -530     -461     -400     -340     -287     -218     -182     -176 
    -162     -162     -190     -238     -287     -378     -491     -573 
    -707     -888    -1042    -1224    -1440    -1618    -1781    -1939 
   -2046    -2104    -2118    -2116    -2126    -2100    -2018    -1945 
   -1868    -1729    -1582    -1452    -1287    -1112     -992     -912 
    -805     -700     -665     -622     -550     -511     -469     -425 
    -427     -436     -434     -464     -525     -603     -691     -770 
    -847     -924    -1009    -1062    -1071    -1093    -1113    -1111 
   -1128    -1132    -1105    -1090    -1075    -1053    -1051    -1039 
   -1012     -996     -982     -977     -984    -1013    -1090    -1181 
   -1285    -1405    -1530    -1677    -1818    -1948    -2072    -2160 
   -2246    -2322    -2317    -2278    -2243    -2189    -2116    -2074 
   -2083    -2076    -2050    -2066    -2101    -2096    -2084    -2092 
   -2079    -2047    -2033    -2019    -2006    -2003    -1971    -1917 
   -1865    -1814    -1748    -1675    -1657    -1674    -1675    -1714 
   -1752    -1741    -1744    -1768    -1765    -1725    -1703    -1699 
   -1665    -1630    -1570    -1483    -1431    -1381    -1355    -1367 
   -1372    -1395    -1425    -1470    -1509    -1507    -1520    -1530 
   -1535    -1537    -1487    -1447    -1417    -1341    -1293    -1271 
   -1220    -1185    -1204    -1209    -1185    -1208    -1259    -1267 
   -1256    -1271    -1294    -1306    -1304    -1273    -1217    -1179 
   -1181    -1156    -1133    -1200    -1285    -1327    -1391    -1471 
   -1557    -1636    -1701    -1811    -1922    -2015    -2142    -2241 
   -2288    -2309    -2292    -2249    -2187    -2079    -1956    -1850 
   -1698    -1540    -1435    -1306    -1171    -1104    -1067    -1015 
   -1000    -1051    -1102    -1146    -1205    -1244    -1269    -1316 
   -1375    -1436    -1524    -1632    -1729    -1807    -1868    -1907 
   -1939    -1972    -1969    -1938    -1891    -1796    -1641    -1426 
   -1194     -946     -648     -379     -131      148      364      526 
     677      718      670      602      473      299      112      -90 
    -325     -583     -815    -1071    -1366    -1605    -1802    -1984 
   -2120    -2201    -2223    -2218    -2195    -2141    -2068    -1979 
   -1881    -1783    -1691    -1614    -1513    -1405    -1310    -1190 
   -1050     -897     -741     -627     -537     -438     -391     -411 
    -427     -464     -579     -718     -831     -980    -1182    -1354 
   -1453    -1535    -1599    -1601    -1599    -1591    -1513    -1441 
   -1391    -1285    -1139     -994     -830     -654     -513     -368 
    -198      -56       58      189      306      399      510      598 
     631      626      606      565      454      310      164      -17 
    -191     -349     -521     -642     -731     -826     -855     -838 
    -828     -787     -727     -702     -662     -561     -473     -390 
    -252     -112        5      122      214      265      252      190 
     101      -55     -245     -425     -638     -889    -1136    -1372 
   -1622    -1895    -2133    -2332    -2543    -2708    -2816    -2930 
   -3018    -3057    -3083    -3090    -3083    -3071    -3040    -3002 
   -2945    -2874    -2839    -2803    -2724    -2650    -2598    -2548 
   -2488    -2442    -2405    -2338    -2276    -2253    -2214    -2144 
   -2095    -2087    -2073    -2034    -2016    -2014    -1999    -2010 
   -2023    -2012    -2062    -2150    -2196    -2249    -2316    -2370 
   -2423    -2454    -2459    -2457    -2451    -2446    -2380    -2313 
   -2297    -2251    -2238    -2263    -2261    -2295    -2353    -2382 
   -2403    -2428    -2461    -2475    -2505    -2571    -2624    -2650 
   -2668    -2685    -2688    -2655    -2610    -2573    -2489    -2386 
   -2303    -2163    -2012    -1899    -1734    -1539    -1374    -1219 
   -1094    -1007     -923     -892     -900     -884     -872     -874 
    -870     -896     -950     -978    -1013    -1116    -1202    -1216 
   -1262    -1313    -1275    -1247    -1255    -1224    -1185    -1146 
   -1084    -1008     -926     -877     -873     -859     -837     -837 
    -838     -810     -747     -638     -492     -355     -228     -108 
     -32      -10       -4       -4      -18      -29      -25      -87 
    -205     -263     -311     -396     -498     -626     -723     -787 
    -869     -909     -967    -1101    -1205    -1286    -1393    -1509 
   -1614    -1652    -1660    -1680    -1622    -1518    -1445    -1308 
   -1081     -866     -662     -411     -186      -39      117      268 
     336      368      429      483      488      498      523      503 
     460      433      375      238       91      -11     -159     -348 
    -477     -615     -812     -969    -1107    -1269    -1375    -1417 
   -1433    -1453    -1456    -1391    -1340    -1304    -1189    -1109 
   -1070     -970     -890     -868     -823     -762     -750     -749 
    -704     -726     -816     -855     -922    -1053    -1158    -1267 
   -1417    -1579    -1719    -1846    -1998    -2110    -2178    -2276 
   -2359    -2374    -2346    -2277    -2162    -2019    -1842    -1626 
   -1382    -1170    -1024     -850     -645     -526     -464     -425 
    -421     -398     -382     -387     -405     -434     -449     -488 
    -596     -724     -857    -1024    -1197    -1351    -1499    -1634 
   -1746    -1833    -1926    -1999    -1996    -1984    -1960    -1891 
   -1854    -1826    -1768    -1732    -1721    -1732    -1742    -1733 
   -1734    -1757    -1813    -1871    -1902    -1966    -2049    -2064 
   -2031    -2029    -2043    -2018    -2016    -2074    -2123    -2169 
   -2246    -2296    -2299    -2295    -2255    -2154    -2014    -1858 
   -1701    -1489    -1267    -1129     -976     -810     -747     -712 
    -676     -719     -788     -819     -880    -1008    -1098    -1163 
   -1308    -1448    -1532    -1658    -1786    -1829    -1867    -1930 
   -1953    -1982    -2026    -2033    -2025    -1993    -1944    -1877 
   -1777    -1684    -1559    -1389    -1243    -1051     -824     -687 
    -558     -396     -314     -280     -225     -214     -230     -259 
    -319     -398     -496     -599     -712     -846     -984    -1098 
   -1166    -1233    -1286    -1266    -1258    -1250    -1162    -1085 
   -1016     -876     -728     -595     -442     -270      -65      103 
     261      475      610      675      774      793      727      645 
     506      333      152      -41     -272     -523     -734     -972 
   -1240    -1468    -1687    -1877    -2016    -2165    -2235    -2187 
   -2123    -2031    -1859    -1647    -1402    -1116     -800     -484 
    -180      117      402      641      843     1015     1119     1156 
    1135     1032      872      665      410      112     -217     -546 
    -886    -1247    -1564    -1850    -2166    -2455    -2673    -2884 
   -3100    -3221    -3264    -3315    -3314    -3206    -3063    -2884 
   -2624    -2324    -2041    -1761    -1480    -1243    -1028     -815 
    -665     -573     -508     -523     -595     -685     -846    -1070 
   -1340    -1637    -1930    -2245    -2548    -2841    -3152    -3395 
   -3554    -3678    -3759    -3784    -3738    -3628    -3504    -3338 
   -3119    -2917    -2708    -2469    -2253    -2022    -1776    -1575 
   -1398    -1239    -1131    -1116    -1166    -1223    -1352    -1554 
   -1729    -1903    -2126    -2351    -2548    -2754    -2960    -3117 
   -3230    -3335    -3438    -3515    -3532    -3520    -3495    -3397 
   -3225    -3029    -2803    -2540    -2284    -2034    -1796    -1622 
   -1474    -1321    -1227    -1154    -1073    -1051    -1057    -1038 
   -1059    -1140    -1228    -1316    -1440    -1617    -1792    -1939 
   -2116    -2290    -2405    -2509    -2604    -2631    -2602    -2551 
   -2450    -2270    -2064    -1849    -1595    -1300     -976     -660 
    -353      -62      168      379      556      642      673      672 
     599      445      263       58     -220     -519     -799    -1101 
   -1395    -1626    -1856    -2072    -2218    -2353    -2447    -2452 
   -2425    -2351    -2196    -2006    -1806    -1543    -1219     -919 
    -625     -319      -59      174      375      523      642      724 
     776      770      719      679      589      445      279       65 
    -125     -303     -549     -792    -1012    -1244    -1463    -1669 
   -1868    -2039    -2187    -2313    -2438    -2543    -2563    -2513 
   -2442    -2332    -2193    -2030    -1821    -1583    -1352    -1128 
    -895     -676     -488     -318     -189     -110      -47       -1 
     -17      -76     -160     -282     -430     -627     -896    -1204 
   -1528    -1867    -2234    -2589    -2891    -3150    -3342    -3458 
   -3524    -3530    -3483    -3403    -3284    -3127    -2944    -2709 
   -2417    -2128    -1872    -1610    -1340    -1124     -938     -757 
    -652     -583     -513     -496     -506     -513     -540     -610 
    -712     -824     -978    -1173    -1377    -1594    -1815    -2022 
   -2191    -2338    -2484    -2565    -2584    -2586    -2562    -2511 
   -2442    -2377    -2290    -2201    -2165    -2118    -2018    -1937 
   -1884    -1836    -1792    -1738    -1690    -1660    -1626    -1599 
   -1576    -1540    -1509    -1495    -1487    -1472    -1448    -1449 
   -1491    -1532    -1590    -1652    -1674    -1694    -1702    -1658 
   -1595    -1532    -1455    -1336    -1206    -1080     -908     -747 
    -615     -475     -357     -268     -201     -131      -32       49 
     112      205      318      411      481      566      643      679 
     692      689      635      535      442      321      151        5 
    -126     -263     -387     -510     -583     -639     -700     -677 
    -634     -614     -579     -535     -477     -430     -396     -363 
    -367     -387     -379     -391     -438     -467     -498     -562 
    -629     -696     -784     -911    -1058    -1201    -1363    -1530 
   -1694    -1841    -1958    -2087    -2220    -2336    -2427    -2504 
   -2578    -2617    -2627    -2621    -2612    -2594    -2559    -2546 
   -2528    -2479    -2457    -2442    -2423    -2413    -2421    -2425 
   -2405    -2421    -2435    -2394    -2389    -2412    -2394    -2361 
   -2358    -2373    -2366    -2376    -2421    -2452    -2465    -2496 
   -2520    -2506    -2493    -2488    -2446    -2361    -2286    -2214 
   -2089    -1946    -1845    -1745    -1609    -1483    -1387    -1282 
   -1170    -1058     -945     -847     -766     -688     -623     -557 
    -506     -486     -476     -481     -479     -448     -433     -418 
    -398     -378     -328     -272     -210     -117      -11      114 
     251      367      495      629      715      784      845      870 
     855      818      783      689      552      456      346      175 
       0     -182     -369     -531     -677     -843     -992    -1096 
   -1196    -1277    -1343    -1428    -1470    -1462    -1485    -1507 
   -1479    -1451    -1433    -1363    -1281    -1228    -1152    -1055 
    -981     -897     -769     -668     -598     -477     -370     -302 
    -203     -112      -29       40       47       52       71       58 
      47       17      -37      -59      -89     -151     -207     -263 
    -318     -360     -383     -395     -407     -376     -322     -297 
    -244     -180     -148      -90      -25        9       41       76 
      85       39      -23      -90     -180     -276     -391     -544 
    -679     -832    -1034    -1228    -1426    -1625    -1795    -1956 
   -2111    -2270    -2417    -2520    -2605    -2700    -2772    -2795 
   -2787    -2783    -2768    -2713    -2640    -2582    -2511    -2419 
   -2349    -2289    -2212    -2155    -2133    -2106    -2076    -2069 
   -2092    -2106    -2123    -2187    -2214    -2220    -2278    -2331 
   -2373    -2417    -2434    -2439    -2467    -2512    -2509    -2498 
   -2527    -2515    -2452    -2373    -2247    -2111    -2001    -1877 
   -1719    -1579    -1501    -1447    -1370    -1289    -1242    -1228 
   -1217    -1235    -1297    -1362    -1445    -1554    -1649    -1736 
   -1826    -1918    -2004    -2087    -2166    -2227    -2267    -2300 
   -2315    -2303    -2235    -2158    -2107    -2038    -1944    -1838 
   -1710    -1580    -1449    -1310    -1159    -1005     -877     -785 
    -728     -669     -622     -660     -722     -770     -888    -1024 
   -1142    -1294    -1457    -1611    -1764    -1922    -2081    -2203 
   -2308    -2394    -2411    -2398    -2367    -2284    -2172    -2064 
   -1948    -1777    -1614    -1480    -1262    -1021     -869     -702 
    -504     -380     -328     -279     -255     -301     -378     -468 
    -584     -689     -797     -915    -1013    -1100    -1163    -1210 
   -1243    -1242    -1216    -1171    -1107    -1046     -985     -889 
    -757     -626     -522     -425     -266     -114       -8      133 
     274      400      535      638      730      804      828      827 
