Origin Time       2016/04/16 01:25:00
Lat.              32.753
Long.             130.762
Depth. (km)       12
Mag.              7.3
Station Code      TKS008
Station Lat.      33.9344
Station Long.     134.2120
Station Height(m) 332
Record Time       2016/04/16 01:26:48
Sampling Freq(Hz) 100Hz
Duration Time(s)  81
Dir.              N-S
Scale Factor      7845(gal)/8223790
Max. Acc. (gal)   2.699
Last Correction   2016/04/16 01:26:48
Memo.             
[...]
     433      449      484      576      662      649      594      562 
     504      398      309      266      205       97       43       74 
      89      109      217      353      432      472      526      561 
     511      448      454      484      508      581      712      820 
     847      862      916      949      942      961     1009     1015 
     961      928      919      855      769      733      707      639 
     573      576      608      607      616      666      681      631 
     576      557      540      492      495      576      626      630 
     661      700      680      615      594      618      619      639 
     734      828      859      874      920      942      895      847 
     846      814      739      702      708      710      706      753 
     835      862      843      838      831      769      669      611 
     595      553      526      579      642      645      645      702 
     754      753      784      858      873      832      823      849 
     838      784      757      739      661      584      588      623 
     637      648      691      723      675      603      576      532 
     461      429      436      398      289      198      164      133 
      99      128      194      222      214      230      278      286 
     294      380      475      493      487      510      515      469 
     467      552      638      696      785      889      939      945 
     970     1000      965      881      814      754      669      602 
     615      681      715      743      811      835      774      708 
     684      666      630      637      715      784      811      851 
     896      869      762      676      643      589      542      587 
     658      677      668      661      606      459      315      261 
     245      237      299      440      573      643      702      774 
     787      749      754      789      783      751      761      785 
     743      661      604      542      444      357      332      338 
     344      391      511      607      603      584      584      531 
     446      423      457      453      430      464      511      511 
     508      544      584      561      506      479      436      356 
     321      351      357      303      253      241      224      199 
     225      287      322      322      344      380      357      305 
     326      402      464      545      681      807      838      828 
     859      870      827      819      869      896      874      873 
     905      897      862      893      962      993     1020     1097 
    1181     1202     1197     1229     1247     1198     1162     1183 
    1200     1179     1185     1270     1350     1382     1441     1524 
    1540     1489     1444     1426     1382     1318     1328     1390 
    1393     1344     1324     1304     1217     1140     1154     1185 
    1173     1171     1205     1206     1150     1119     1139     1128 
    1065     1044     1062     1048     1012     1009     1028      989 
     922      915      924      881      841      824      785      689 
     576      518      463      380      359      425      513      573 
     638      726      747      681      629      592      503      415 
     425      493      532      572      665      734      723      706 
     710      683      603      529      498      453      370      330 
     348      342      306      301      326      317      284      291 
     305      266      214      206      234      246      268      361 
     456      473      461      449      398      305      257      302 
     348      356      394      437      410      333      278      243 
     178      116      108      105       52       -1        2       51 
      94      156      275      370      376      364      379      349 
     270      237      284      336      367      430      499      493 
     442      415      387      292      183      155      157      122 
     110      170      252      301      351      449      511      495 
     493      517      481      399      364      373      344      301 
     322      370      396      446      553      664      720      737 
     757      739      665      616      621      623      611      625 
     675      691      656      648      677      685      683      731 
     819      853      847      877      900      862      826      857 
     913      942      990     1089     1155     1148     1146     1162 
    1139     1097     1107     1167     1221     1263     1345     1431 
    1455     1431     1413     1409     1368     1314     1332     1378 
    1379     1389     1433     1435     1351     1256     1212     1179 
    1147     1189     1294     1344     1308     1258     1193     1048 
     864      757      707      657      643      708      778      778 
     745      735      711      645      611      641      672      683 
     730      822      874      869      877      899      868      816 
     824      880      908      923      993     1060     1044     1008 
     997      969      889      797      741      679      591      564 
     634      712      773      862      966      999      955      927 
     908      838      767      764      787      785      800      896 
    1015     1094     1188     1313     1398     1409     1382     1334 
    1217     1011      810      669      552      472      500      626 
     741      805      872      901      831      720      643      568 
     425      274      198      149       81       83      178      259 
     297      334      392      399      348      344      390      396 
     396      440      493      506      495      535      594      599 
     616      693      766      783      787      820      815      745 
     710      738      757      766      831      936      985      965 
     969      989      950      900      913      945      935      928 
     985     1051     1065     1097     1182     1248     1273     1314 
    1398     1444     1420     1402     1389     1314     1189     1069 
     961      820      661      561      503      414      329      301 
     280      210      112       47       -9      -98     -139      -95 
     -51      -18       59      178      266      318      388      464 
     475      442      440      440      375      275      209      126 
     -32     -202     -330     -468     -637     -792     -892     -980 
   -1071    -1096    -1042     -985     -951     -908     -857     -857 
    -903     -909     -869     -838     -793     -704     -621     -598 
    -616     -623     -650     -749     -855     -909     -950    -1000 
   -1004     -927     -849     -835     -831     -830     -903    -1023 
   -1098    -1113    -1120    -1112    -1035     -929     -859     -787 
    -672     -558     -476     -406     -330     -297     -344     -413 
    -437     -438     -422     -338     -182      -23       93      214 
     337      399      411      425      449      444      405      410 
     451      463      479      553      638      683      731      824 
     920      966     1020     1112     1175     1205     1255     1331 
    1387     1409     1452     1513     1522     1493     1480     1467 
    1414     1345     1318     1327     1316     1323     1394     1482 
    1545     1629     1760     1875     1948     2049     2193     2309 
    2393     2482     2560     2567     2498     2423     2342     2208 
    2070     1996     1944     1865     1799     1791     1800     1773 
    1755     1771     1749     1682     1632     1628     1611     1570 
    1563     1588     1578     1545     1537     1540     1513     1470 
    1449     1445     1405     1363     1377     1421     1475     1570 
    1726     1896     2016     2114     2200     2215     2147     2070 
    2018     1948     1861     1829     1833     1800     1738     1698 
    1641     1524     1386     1302     1259     1201     1161     1174 
    1175     1112     1015      899      722      459      182      -64 
    -329     -602     -804     -908     -945     -927     -822     -656 
    -540     -492     -464     -495     -625     -800     -935    -1026 
   -1111    -1120    -1000     -837     -683     -515     -352     -263 
    -276     -324     -379     -491     -637     -749     -834     -932 
   -1031    -1081    -1101    -1144    -1185    -1173    -1140    -1132 
   -1111    -1042     -970     -939     -903     -837     -818     -855 
    -886     -903     -935     -982     -984     -918     -850     -764 
    -606     -418     -272     -184     -129     -128     -234     -391 
    -513     -621     -733     -795     -778     -724     -675     -577 
    -402     -238     -121      -14       68       75        5      -55 
     -87     -126     -135      -59       52      139      202      279 
     337      309      238      178       85      -70     -229     -368 
    -529     -712     -846     -903     -938     -935     -835     -660 
    -487     -338     -171       -9       52       47       49       31 
     -21      -32       37      143      230      340      490      604 
     677      757      824      842      810      770      739      679 
     594      540      506      446      386      383      414      433 
     487      626      796      953     1125     1325     1501     1613 
    1694     1760     1755     1692     1648     1632     1606     1576 
    1595     1660     1707     1755     1844     1922     1949     1972 
    2026     2085     2107     2134     2205     2253     2242     2219 
    2205     2176     2133     2153     2251     2336     2409     2533 
    2675     2755     2762     2739     2656     2457     2207     1982 
    1749     1509     1343     1282     1278     1270     1291     1367 
    1414     1401     1390     1378     1302     1171     1062      987 
     886      791      765      761      731      712      741      776 
     747      704      691      645      538      438      388      344 
     278      236      211      114      -54     -205     -336     -483 
    -606     -643     -626     -631     -653     -649     -660     -719 
    -762     -727     -638     -531     -364     -114      129      328 
     521      684      745      714      684      677      654      650 
     714      803      868      915      976     1044     1075     1081 
    1096     1074      974      830      696      572      445      370 
     387      440      504      615      750      861      929      989 
    1039     1035      985      947      899      814      738      731 
     772      826      924     1071     1175     1198     1175     1104 
     969      795      637      521      410      291      207      151 
      75        0      -13       36       79      131      249      357 
     378      353      319      234       76      -89     -217     -349 
    -481     -525     -467     -365     -237      -41      202      409 
     558      702      808      826      797      791      787      741 
     714      769      864      966     1113     1316     1521     1692 
    1856     2006     2060     1998     1892     1767     1597     1421 
    1301     1228     1159     1113     1115     1105     1032      923 
     805      646      430      234      112       11      -63      -32 
      94      236      376      571      796      961     1080     1220 
    1332     1374     1418     1520     1642     1742     1850     1991 
    2087     2100     2081     2047     1971     1850     1760     1732 
    1695     1642     1625     1602     1502     1350     1221     1133 
    1036      967     1000     1074     1120     1174     1252     1294 
    1269     1239     1232     1185     1111     1085     1098     1094 
    1069     1077     1116     1115     1092     1119     1152     1146 
    1127     1125     1120     1090     1089     1162     1240     1282 
    1327     1367     1329     1193     1034      901      738      568 
     481      460      441      451      542      676      778      866 
     974     1043     1026      974      920      849      727      614 
     550      457      319      224      170       99       18      -31 
     -64     -147     -261     -334     -369     -399     -390     -302 
    -162      -39       71      182      236      214      164      117 
      67        8      -10       32       56       41       39       29 
     -25     -105     -152     -147     -133      -74      101      336 
     575      827     1070     1223     1243     1201     1154     1065 
     951      913      962     1044     1146     1294     1460     1563 
    1611     1653     1637     1512     1344     1208     1104     1009 
     972     1035     1144     1262     1422     1606     1728     1755 
    1729     1658     1480     1206      939      688      430      216 
     106       94      109      156      271      392      468      544 
     650      753      810      842      889      888      827      799 
     824      872      951     1092     1277     1425     1509     1578 
    1622     1613     1572     1549     1547     1518     1491     1526 
    1586     1636     1717     1833     1921     1927     1890     1849 
    1767     1624     1498     1405     1313     1230     1201     1220 
    1223     1196     1196     1215     1204     1185     1216     1291 
    1381     1501     1677     1858     1987     2096     2207     2299 
    2361     2424     2540     2683     2817     2980     3171     3323 
    3418     3484     3526     3488     3368     3232     3078     2884 
    2717     2633     2610     2594     2582     2577     2493     2299 
    2073     1859     1636     1413     1248     1152     1057      966 
     961     1026     1101     1194     1333     1482     1566     1594 
    1636     1665     1632     1602     1606     1610     1588     1567 
    1579     1564     1472     1375     1291     1161      989      842 
     722      560      365      220      110      -11     -103     -109 
     -64      -25       44      187      337      445      556      672 
     734      734      731      747      739      700      693      708 
     692      666      683      728      753      769      822      851 
     792      687      584      480      370      314      355      425 
     492      604      741      824      857      900      959      981 
     967      984     1011     1005     1012     1081     1179     1255 
    1344     1487     1615     1692     1798     1952     2096     2222 
    2381     2562     2679     2728     2770     2794     2759     2718 
    2725     2752     2748     2731     2743     2745     2700     2675 
    2733     2839     2957     3109     3284     3411     3459     3481 
    3480     3410     3296     3199     3118     3019     2930     2918 
    2970     3013     3075     3183     3276     3310     3331     3380 
    3415     3414     3427     3466     3478     3459     3453     3468 
    3458     3415     3396     3380     3319     3234     3144     3041 
    2899     2716     2551     2393     2180     1945     1736     1540 
    1337     1159     1053      989      927      909      951      986 
     994     1017     1059     1058     1011      985      973      922 
     858      820      788      728      657      633      630      585 
     542      546      557      526      492      479      425      313 
     212      139       32      -93     -176     -222     -282     -326 
    -284     -193     -126      -52       63      159      178      147 
     110       45      -71     -149     -135      -81      -11      110 
     261      341      311      245      149      -17     -206     -336 
    -419     -488     -519     -473     -398     -357     -315     -257 
    -236     -263     -291     -268     -222     -190     -135      -41 
      39      103      187      272      297      228      114      -21 
    -225     -463     -648     -788     -926    -1028    -1058    -1074 
   -1138    -1206    -1248    -1316    -1417    -1474    -1459    -1426 
   -1385    -1282    -1148    -1073    -1046    -1016    -1000    -1021 
   -1039    -1004     -947     -918     -877     -784     -675     -577 
    -459     -289     -136      -56        0       62       68       11 
     -31      -23      -17      -13       56      174      253      307 
     372      410      387      344      355      380      375      395 
     464      519      526      515      500      432      305      214 
     190      164      141      170      217      221      194      190 
     186      121       45        9      -27      -86     -110      -52 
      25       75      149      249      298      301      318      363 
     400      436      525      645      712      735      761      769 
     718      664      687      743      777      827      915      974 
     987     1012     1074     1131     1170     1243     1351     1429 
    1475     1520     1549     1534     1478     1431     1409     1370 
    1348     1391     1441     1440     1412     1387     1316     1174 
    1046      970      901      838      849      928      987      999 
    1034     1093     1107     1105     1151     1200     1192     1171 
    1198     1233     1232     1252     1327     1377     1347     1271 
    1166      985      738      506      324      152        1      -68 
     -59      -41      -40        0       51       32       -2       23 
      72       95      128      199      251      210      133       59 
     -55     -201     -301     -330     -352     -395     -409     -406 
    -468     -584     -688     -789     -922    -1058    -1151    -1220 
   -1324    -1428    -1475    -1502    -1537    -1530    -1462    -1375 
   -1304    -1206    -1073     -984     -955     -924     -885     -870 
    -870     -828     -754     -711     -676     -606     -544     -532 
    -557     -577     -611     -710     -824     -903     -990    -1093 
   -1159    -1165    -1150    -1148    -1115    -1039     -987     -949 
    -864     -747     -631     -506     -342     -170      -49       40 
     125      171      164      151      178      233      280      357 
     484      592      664      739      824      873      874      888 
     919      905      854      830      820      785      749      753 
     761      720      683      687      679      648      657      711 
     770      818      895     1000     1070     1119     1193     1270 
    1308     1310     1328     1356     1324     1260     1216     1150 
    1050      961      907      857      778      708      677      634 
     561      499      442      344      210       94        4     -120 
    -253     -341     -425     -540     -634     -664     -666     -681 
    -672     -621     -592     -618     -658     -699     -780     -905 
   -1000    -1039    -1085    -1113    -1069     -973     -882     -799 
    -684     -557     -486     -445     -395     -380     -418     -459 
    -456     -419     -399     -364     -289     -255     -292     -341 
    -369     -392     -394     -307     -131       35      163      292 
     387      388      325      265      232      191      203      322 
     477      615      762      915     1019     1038     1013      980 
     885      735      603      508      421      348      349      423 
     495      558      660      774      849      884      936     1009 
