Origin Time       2016/04/16 01:25:00
Lat.              32.753
Long.             130.762
Depth. (km)       12
Mag.              7.3
Station Code      TKS004
Station Lat.      33.7749
Station Long.     134.5914
Station Height(m) 5
Record Time       2016/04/16 01:26:54
Sampling Freq(Hz) 100Hz
Duration Time(s)  87
Dir.              N-S
Scale Factor      7845(gal)/8223790
Max. Acc. (gal)   3.077
Last Correction   2016/04/16 01:26:55
Memo.             
[...]
   -2278    -2149    -1996    -1826    -1620    -1414    -1246    -1113 
    -996     -896     -859     -862     -853     -885     -980    -1065 
   -1148    -1267    -1393    -1512    -1641    -1783    -1929    -2061 
   -2168    -2251    -2305    -2323    -2288    -2207    -2111    -2000 
   -1881    -1772    -1661    -1548    -1429    -1313    -1224    -1155 
   -1090    -1057    -1089    -1177    -1282    -1416    -1602    -1819 
   -2022    -2215    -2401    -2577    -2737    -2870    -2986    -3060 
   -3079    -3099    -3092    -3009    -2893    -2782    -2677    -2570 
   -2469    -2378    -2311    -2274    -2226    -2170    -2121    -2053 
   -1962    -1850    -1759    -1703    -1630    -1568    -1590    -1642 
   -1656    -1672    -1729    -1803    -1861    -1904    -1988    -2089 
   -2118    -2134    -2200    -2218    -2173    -2151    -2134    -2066 
   -1941    -1822    -1745    -1620    -1447    -1324    -1229    -1119 
   -1032     -976     -947     -959     -986    -1016    -1048    -1069 
   -1096    -1117    -1120    -1125    -1133    -1152    -1147    -1094 
   -1034     -938     -789     -633     -451     -232      -14      202 
     414      602      761      864      912      922      859      754 
     648      514      340      159       -5     -175     -344     -477 
    -584     -662     -684     -664     -621     -526     -396     -256 
     -70      149      336      502      692      888     1031     1111 
    1185     1247     1220     1112      976      824      599      313 
      51     -206     -477     -737     -980    -1169    -1343    -1520 
   -1602    -1622    -1644    -1614    -1522    -1385    -1233    -1092 
    -928     -753     -607     -481     -363     -288     -275     -292 
    -341     -425     -530     -660     -764     -842     -959    -1097 
   -1205    -1285    -1383    -1509    -1586    -1609    -1647    -1671 
   -1658    -1620    -1528    -1402    -1287    -1159     -980     -766 
    -564     -410     -268      -86       62      126      153      148 
     112       45     -103     -301     -441     -572     -746     -884 
    -963    -1017    -1065    -1125    -1138    -1111    -1111    -1062 
    -958     -886     -800     -685     -604     -544     -513     -504 
    -473     -481     -522     -508     -495     -493     -481     -506 
    -561     -619     -715     -812     -881     -953    -1005    -1047 
   -1089    -1113    -1150    -1196    -1219    -1230    -1232    -1216 
   -1198    -1150    -1078    -1057    -1065    -1057    -1077    -1142 
   -1228    -1308    -1367    -1441    -1516    -1572    -1641    -1668 
   -1657    -1669    -1663    -1611    -1548    -1474    -1393    -1320 
   -1236    -1159    -1140    -1174    -1221    -1264    -1324    -1405 
   -1460    -1475    -1501    -1554    -1603    -1613    -1614    -1642 
   -1644    -1582    -1521    -1471    -1401    -1356    -1344    -1334 
   -1360    -1429    -1522    -1660    -1833    -2014    -2189    -2353 
   -2508    -2654    -2747    -2756    -2735    -2725    -2683    -2570 
   -2436    -2346    -2243    -2068    -1908    -1792    -1655    -1532 
   -1443    -1358    -1301    -1277    -1291    -1362    -1476    -1626 
   -1810    -2031    -2286    -2544    -2772    -2982    -3177    -3357 
   -3535    -3684    -3790    -3906    -4016    -4041    -4017    -4013 
   -3990    -3920    -3815    -3701    -3619    -3530    -3376    -3215 
   -3083    -2910    -2704    -2504    -2295    -2089    -1927    -1791 
   -1665    -1572    -1520    -1513    -1530    -1543    -1568    -1606 
   -1630    -1644    -1642    -1626    -1625    -1632    -1636    -1661 
   -1719    -1760    -1749    -1749    -1768    -1734    -1663    -1606 
   -1528    -1409    -1289    -1159     -996     -812     -638     -484 
    -317     -143        4      140      256      340      398      419 
     396      348      305      261      160       22      -70     -170 
    -372     -584     -706     -815     -959    -1074    -1133    -1165 
   -1162    -1152    -1166    -1140    -1065    -1000     -946     -886 
    -812     -722     -658     -629     -606     -577     -557     -589 
    -633     -652     -707     -767     -807     -870     -913     -923 
    -963    -1013    -1034    -1055    -1090    -1124    -1150    -1158 
   -1181    -1225    -1229    -1206    -1223    -1250    -1255    -1279 
   -1329    -1368    -1429    -1495    -1506    -1513    -1547    -1545 
   -1509    -1470    -1426    -1410    -1383    -1293    -1178    -1070 
    -947     -780     -566     -355     -178      -10      209      457 
     648      824     1042     1209     1316     1386     1374     1296 
    1179     1004      780      510      216      -55     -334     -680 
   -1024    -1306    -1557    -1768    -1925    -2026    -2047    -1993 
   -1907    -1815    -1714    -1603    -1482    -1327    -1179    -1092 
    -985     -831     -774     -819     -853     -932    -1101    -1334 
   -1617    -1880    -2147    -2458    -2736    -2972    -3184    -3338 
   -3447    -3550    -3618    -3607    -3541    -3489    -3464    -3369 
   -3186    -3014    -2844    -2617    -2376    -2160    -1972    -1825 
   -1707    -1615    -1543    -1485    -1441    -1394    -1358    -1358 
   -1398    -1464    -1561    -1701    -1826    -1918    -2058    -2185 
   -2224    -2269    -2328    -2315    -2276    -2246    -2196    -2142 
   -2085    -2039    -1985    -1883    -1817    -1790    -1733    -1687 
   -1655    -1624    -1610    -1579    -1540    -1518    -1491    -1444 
   -1397    -1370    -1337    -1281    -1228    -1182    -1127    -1071 
   -1023     -978     -939     -923     -927     -908     -880     -889 
    -903     -886     -855     -823     -822     -835     -810     -780 
    -757     -741     -747     -697     -633     -649     -641     -589 
    -584     -594     -603     -612     -595     -560     -542     -538 
    -511     -449     -386     -326     -251     -178     -110      -32 
      32      105      167      217      302      394      461      522 
     595      685      734      728      723      712      695      668 
     623      614      639      631      600      591      600      612 
     600      542      493      453      341      194       81      -62 
    -272     -460     -610     -803     -996    -1143    -1290    -1428 
   -1518    -1570    -1599    -1599    -1557    -1509    -1456    -1366 
   -1251    -1142    -1013     -849     -708     -595     -467     -382 
    -359     -359     -410     -515     -635     -787     -990    -1205 
   -1405    -1603    -1768    -1906    -2034    -2115    -2169    -2215 
   -2189    -2137    -2089    -1996    -1878    -1753    -1656    -1621 
   -1545    -1456    -1487    -1539    -1545    -1593    -1657    -1729 
   -1807    -1840    -1890    -1987    -2047    -2091    -2153    -2196 
   -2204    -2208    -2196    -2162    -2111    -2011    -1872    -1761 
   -1617    -1405    -1202     -986     -739     -498     -241      -11 
     197      413      538      615      720      749      689      635 
     612      571      472      372      302      229      143       39 
     -56     -109     -156     -211     -217     -167      -70       64 
     191      326      499      654      756      826      889      922 
     912      922      934      870      784      708      573      370 
     162      -41     -241     -444     -637     -788     -907    -1009 
   -1096    -1151    -1156    -1133    -1081     -984     -861     -734 
    -579     -399     -259     -171      -65       21       21      -27 
     -64     -117     -240     -398     -530     -680     -854    -1024 
   -1194    -1323    -1431    -1557    -1640    -1690    -1746    -1772 
   -1783    -1794    -1790    -1809    -1831    -1833    -1844    -1844 
   -1844    -1864    -1865    -1842    -1810    -1763    -1687    -1535 
   -1345    -1167     -949     -685     -438     -210       22      270 
     479      615      715      776      777      730      630      506 
     383      209       -4     -178     -332     -514     -679     -801 
    -916    -1012    -1059    -1063    -1036     -986     -900     -745 
    -553     -378     -186       25      210      357      481      572 
     639      691      726      776      819      814      808      783 
     650      475      325      140      -99     -326     -493     -656 
    -868    -1062    -1200    -1351    -1516    -1626    -1699    -1755 
   -1746    -1653    -1528    -1387    -1215    -1011     -815     -648 
    -487     -334     -202      -99      -63      -59      -43      -65 
    -159     -259     -326     -407     -538     -653     -731     -822 
    -911     -976    -1063    -1146    -1178    -1216    -1251    -1252 
   -1242    -1217    -1179    -1165    -1151    -1101    -1075    -1111 
   -1143    -1151    -1143    -1143    -1171    -1192    -1192    -1190 
   -1201    -1242    -1220    -1111    -1021     -939     -804     -641 
    -461     -309     -201      -89       11       76      121      144 
     129       94       45      -40     -163     -283     -386     -502 
    -639     -764     -850     -899     -949    -1024    -1089    -1121 
   -1146    -1170    -1198    -1225    -1248    -1263    -1278    -1301 
   -1336    -1363    -1372    -1389    -1424    -1452    -1452    -1435 
   -1410    -1387    -1367    -1328    -1287    -1275    -1278    -1281 
   -1278    -1287    -1314    -1331    -1341    -1372    -1399    -1404 
   -1409    -1425    -1424    -1389    -1336    -1294    -1217    -1073 
    -911     -739     -540     -322      -94      116      292      446 
     568      627      654      669      625      525      400      259 
     135      -22     -225     -394     -518     -642     -765     -851 
    -881     -880     -843     -758     -642     -483     -298     -128 
      23      167      280      363      407      407      396      367 
     313      253      160       43      -54     -148     -259     -376 
    -479     -566     -658     -753     -831     -881     -911     -929 
    -947     -969     -980     -970     -982    -1011    -1036    -1073 
   -1107    -1148    -1219    -1282    -1340    -1405    -1467    -1518 
   -1544    -1533    -1530    -1551    -1541    -1520    -1522    -1524 
   -1497    -1441    -1374    -1279    -1158    -1063     -994     -903 
    -828     -803     -796     -792     -810     -868     -950    -1028 
   -1127    -1237    -1352    -1486    -1605    -1714    -1815    -1892 
   -1954    -1972    -1926    -1895    -1869    -1761    -1629    -1544 
   -1453    -1358    -1296    -1236    -1165    -1101    -1051     -993 
    -912     -822     -770     -751     -719     -680     -693     -746 
    -756     -751     -810     -880     -905     -916     -955    -1012 
   -1013     -984     -990     -996     -962     -903     -851     -791 
    -702     -602     -493     -383     -289     -203     -122      -75 
     -82      -98     -118     -195     -319     -437     -544     -689 
    -851     -965    -1055    -1156    -1216    -1236    -1263    -1277 
   -1239    -1181    -1132    -1050     -931     -830     -741     -634 
    -533     -471     -427     -379     -346     -353     -378     -395 
    -434     -508     -598     -695     -815     -965    -1135    -1308 
   -1468    -1605    -1717    -1800    -1840    -1838    -1786    -1683 
   -1553    -1408    -1237    -1034     -814     -612     -441     -278 
    -108       45      139      152      139      114        0     -189 
    -378     -565     -780    -1016    -1247    -1445    -1625    -1821 
   -1989    -2087    -2160    -2212    -2195    -2124    -2047    -1945 
   -1787    -1626    -1479    -1304    -1144    -1034     -935     -859 
    -816     -785     -773     -807     -864     -922    -1003    -1101 
   -1200    -1298    -1382    -1472    -1584    -1664    -1734    -1833 
   -1915    -1964    -2011    -2047    -2064    -2084    -2104    -2089 
   -2056    -2033    -1988    -1914    -1840    -1736    -1614    -1539 
   -1482    -1404    -1325    -1282    -1277    -1262    -1223    -1198 
   -1221    -1254    -1259    -1275    -1317    -1347    -1364    -1381 
   -1375    -1375    -1404    -1405    -1405    -1431    -1429    -1439 
   -1489    -1513    -1494    -1509    -1566    -1586    -1564    -1554 
   -1586    -1609    -1578    -1547    -1560    -1561    -1503    -1457 
   -1474    -1466    -1441    -1491    -1575    -1638    -1713    -1821 
   -1934    -2018    -2114    -2238    -2324    -2398    -2496    -2562 
   -2596    -2608    -2597    -2582    -2560    -2493    -2390    -2315 
   -2241    -2137    -2033    -1923    -1810    -1742    -1701    -1630 
   -1568    -1564    -1574    -1574    -1561    -1557    -1622    -1690 
   -1703    -1771    -1884    -1938    -1973    -2053    -2110    -2106 
   -2115    -2155    -2162    -2144    -2142    -2139    -2130    -2114 
   -2089    -2084    -2079    -2062    -2079    -2130    -2173    -2212 
   -2295    -2401    -2486    -2562    -2639    -2721    -2797    -2813 
   -2798    -2783    -2733    -2643    -2513    -2359    -2195    -1989 
   -1781    -1621    -1460    -1306    -1209    -1162    -1154    -1185 
   -1248    -1359    -1512    -1675    -1848    -2020    -2173    -2331 
   -2474    -2569    -2651    -2710    -2721    -2740    -2759    -2717 
   -2664    -2666    -2663    -2600    -2542    -2538    -2524    -2463 
   -2416    -2398    -2370    -2331    -2315    -2326    -2344    -2384 
   -2470    -2582    -2682    -2787    -2941    -3123    -3267    -3379 
   -3549    -3775    -3956    -4062    -4148    -4256    -4341    -4341 
   -4307    -4288    -4260    -4191    -4107    -4048    -3975    -3865 
   -3754    -3669    -3569    -3423    -3302    -3242    -3173    -3083 
   -3019    -2971    -2926    -2896    -2874    -2844    -2820    -2835 
   -2879    -2894    -2905    -2975    -3044    -3071    -3105    -3137 
   -3115    -3071    -3040    -2967    -2847    -2735    -2616    -2470 
   -2326    -2182    -2015    -1831    -1669    -1532    -1375    -1205 
   -1084    -1000     -889     -764     -699     -656     -564     -475 
    -429     -387     -349     -330     -318     -324     -348     -342 
    -330     -341     -322     -276     -261     -261     -225     -193 
    -207     -217     -210     -233     -279     -336     -429     -550 
    -661     -783     -942    -1102    -1228    -1354    -1495    -1594 
   -1641    -1674    -1701    -1722    -1714    -1675    -1642    -1628 
   -1613    -1582    -1541    -1513    -1516    -1539    -1539    -1522 
   -1539    -1587    -1629    -1676    -1728    -1776    -1845    -1877 
   -1865    -1876    -1873    -1826    -1786    -1745    -1683    -1618 
   -1568    -1495    -1401    -1317    -1223    -1098     -973     -862 
    -734     -602     -496     -388     -313     -265     -198     -172 
    -207     -241     -259     -314     -411     -473     -498     -550 
    -610     -634     -648     -680     -692     -664     -643     -656 
    -646     -573     -518     -521     -496     -421     -355     -340 
    -318     -241     -175     -128      -51       59      175      265 
     369      496      579      629      680      699      658      591 
     515      417      315      232      131       14      -56      -90 
    -143     -193     -197     -191     -178     -136      -98      -90 
     -83      -32      -13      -83     -136     -147     -191     -298 
    -425     -492     -545     -666     -778     -827     -880     -962 
   -1003     -993    -1017    -1059    -1055    -1042    -1039    -1026 
   -1003     -955     -903     -877     -811     -722     -685     -645 
    -569     -518     -498     -472     -421     -396     -421     -427 
    -429     -451     -480     -522     -553     -564     -589     -626 
    -661     -707     -762     -814     -881     -954     -993    -1044 
   -1124    -1167    -1201    -1281    -1339    -1345    -1375    -1418 
   -1405    -1348    -1290    -1224    -1116     -980     -847     -710 
    -568     -449     -373     -321     -255     -212     -234     -252 
    -240     -251     -294     -336     -368     -402     -415     -427 
    -453     -440     -361     -279     -236     -182      -91      -18 
      10        8       21       54       52       27       10        1 
     -18      -70     -120     -153     -183     -201     -229     -259 
    -263     -253     -230     -191     -125      -35       56      144 
     249      378      479      542      616      668      685      688 
     646      594      560      468      328      211      110      -14 
    -163     -276     -330     -370     -394     -370     -322     -266 
    -191      -97      -20       22       71      149      209      229 
     257      295      317      298      249      218      178       90 
      -2      -55     -106     -168     -211     -245     -302     -365 
    -410     -454     -522     -595     -660     -712     -770     -837 
    -895     -958    -1024    -1063    -1111    -1201    -1262    -1274 
   -1308    -1350    -1348    -1333    -1328    -1294    -1229    -1190 
   -1148    -1062     -972     -911     -862     -795     -710     -648 
    -608     -556     -495     -446     -419     -413     -409     -396 
    -392     -418     -441     -449     -484     -540     -585     -641 
    -724     -799     -853     -934    -1030    -1086    -1139    -1204 
   -1232    -1237    -1247    -1251    -1277    -1301    -1306    -1334 
   -1374    -1383    -1379    -1394    -1405    -1389    -1386    -1385 
   -1371    -1377    -1386    -1379    -1387    -1413    -1413    -1405 
   -1412    -1402    -1402    -1425    -1422    -1431    -1486    -1507 
   -1490    -1495    -1503    -1499    -1489    -1466    -1459    -1459 
   -1431    -1408    -1404    -1390    -1366    -1345    -1327    -1317 
   -1321    -1327    -1325    -1333    -1366    -1397    -1414    -1440 
   -1464    -1491    -1539    -1584    -1632    -1687    -1721    -1741 
   -1791    -1840    -1833    -1829    -1859    -1896    -1904    -1872 
   -1876    -1937    -1949    -1934    -1953    -1975    -2007    -2037 
   -2039    -2039    -2049    -2068    -2061    -2003    -1979    -2011 
   -1993    -1930    -1903    -1895    -1872    -1818    -1759    -1722 
   -1691    -1653    -1620    -1584    -1551    -1525    -1495    -1457 
   -1410    -1381    -1378    -1362    -1344    -1354    -1387    -1435 
   -1455    -1482    -1549    -1579    -1570    -1613    -1661    -1647 
   -1628    -1665    -1694    -1677    -1675    -1680    -1686    -1695 
   -1677    -1692    -1713    -1671    -1657    -1656    -1597    -1554 
   -1530    -1464    -1405    -1352    -1271    -1209    -1175    -1123 
   -1059    -1036    -1058    -1059    -1067    -1125    -1197    -1285 
   -1379    -1452    -1543    -1652    -1733    -1795    -1852    -1898 
   -1942    -1981    -1987    -1972    -1977    -1982    -1952    -1900 
   -1871    -1869    -1863    -1841    -1831    -1850    -1873    -1869 
   -1871    -1899    -1941    -1968    -1975    -2030    -2116    -2169 
   -2211    -2265    -2309    -2338    -2335    -2319    -2347    -2349 
   -2293    -2277    -2289    -2263    -2234    -2242    -2250    -2238 
   -2243    -2280    -2309    -2317    -2359    -2428    -2479    -2532 
   -2592    -2660    -2735    -2783    -2843    -2918    -2971    -3026 
   -3095    -3138    -3148    -3156    -3167    -3136    -3071    -3010 
