Origin Time       2016/04/16 01:25:00
Lat.              32.753
Long.             130.762
Depth. (km)       12
Mag.              7.3
Station Code      TKS001
Station Lat.      34.2030
Station Long.     134.6098
Station Height(m) 2
Record Time       2016/04/16 01:26:19
Sampling Freq(Hz) 100Hz
Duration Time(s)  130
Dir.              N-S
Scale Factor      7845(gal)/8223790
Max. Acc. (gal)   3.993
Last Correction   2016/04/16 01:26:19
Memo.             
[...]
     660      619      575      537      510      488      469      450 
     432      415      402      391      380      365      346      319 
     289      259      224      195      175      159      152      156 
     163      180      216      259      313      392      491      599 
     715      838      959     1078     1190     1281     1351     1405 
    1448     1485     1520     1548     1574     1595     1613     1621 
    1614     1587     1541     1486     1424     1351     1275     1202 
    1125     1053      984      915      847      791      739      692 
     654      626      606      592      581      566      538      495 
     448      400      352      310      284      265      255      263 
     284      307      341      378      407      441      476      503 
     529      568      615      666      733      805      877      953 
    1026     1085     1131     1169     1197     1219     1242     1262 
    1275     1285     1289     1281     1260     1229     1194     1159 
    1125     1097     1084     1081     1088     1102     1120     1135 
    1152     1165     1162     1155     1144     1117     1081     1046 
    1000      957      915      866      815      766      715      666 
     615      561      508      457      395      340      297      263 
     249      257      279      317      363      414      471      526 
     583      646      714      774      838      912      987     1062 
    1135     1204     1264     1314     1354     1381     1394     1401 
    1409     1418     1426     1441     1460     1471     1472     1463 
    1435     1389     1327     1247     1159     1069      974      882 
     799      718      641      569      499      429      363      292 
     225      166      114       79       67       75      101      141 
     189      241      299      351      391      429      464      490 
     510      526      535      545      553      562      562      561 
     565      579      608      645      685      731      783      838 
     897      958     1019     1081     1143     1202     1259     1308 
    1355     1391     1410     1417     1413     1394     1359     1306 
    1242     1173     1107     1050      992      931      862      785 
     707      633      556      473      396      326      263      221 
     194      172      162      156      156      160      164      163 
     159      147      129      116      101       89       90      106 
     136      183      248      325      411      504      607      718 
     831      949     1073     1194     1312     1425     1541     1651 
    1741     1821     1896     1949     1987     2018     2034     2027 
    2011     1989     1958     1923     1891     1854     1813     1772 
    1738     1706     1674     1644     1618     1591     1564     1543 
    1518     1490     1460     1426     1385     1329     1259     1171 
    1069      962      851      739      634      537      445      360 
     291      240      201      167      139      120      110      112 
     122      139      163      199      246      299      365      441 
     521      598      666      731      788      838      882      924 
     965     1009     1059     1107     1138     1158     1167     1162 
    1148     1132     1115     1097     1084     1074     1069     1062 
    1055     1047     1028      999      961      908      837      753 
     660      556      450      353      257      160       64      -35 
    -140     -243     -341     -425     -495     -549     -579     -589 
    -583     -564     -548     -544     -549     -561     -577     -594 
    -604     -606     -599     -579     -548     -506     -464     -423 
    -390     -365     -346     -328     -311     -295     -275     -249 
    -211     -162     -102      -32       44      121      195      271 
     352      437      522      599      672      747      828      908 
     978     1036     1077     1102     1117     1129     1147     1165 
    1178     1200     1228     1263     1306     1348     1387     1421 
    1455     1491     1518     1544     1571     1586     1587     1588 
    1586     1572     1541     1502     1460     1417     1372     1333 
    1300     1273     1252     1237     1227     1230     1246     1264 
    1291     1327     1360     1386     1413     1440     1456     1468 
    1478     1482     1482     1472     1448     1417     1381     1340 
    1304     1271     1243     1227     1217     1210     1210     1212 
    1216     1228     1243     1259     1281     1305     1332     1374 
    1416     1443     1468     1489     1494     1489     1476     1455 
    1431     1402     1367     1329     1286     1242     1202     1165 
    1127     1092     1053     1009      969      931      895      864 
     850      843      842      842      843      845      845      842 
     826      797      764      720      670      623      571      504 
     429      355      286      225      172      135      106       89 
      87      103      131      180      245      324      413      506 
     602      687      757      819      874      920      961     1004 
    1047     1089     1131     1166     1192     1201     1192     1165 
    1121     1063      999      928      854      780      714      652 
     594      540      492      446      406      380      365      353 
     355      364      376      400      434      475      521      571 
     615      648      669      683      685      673      652      623 
     589      562      540      510      473      437      400      365 
     330      299      276      256      236      216      193      163 
     126       82       31      -18      -70     -122     -174     -222 
    -263     -305     -349     -391     -421     -449     -475     -490 
    -499     -511     -514     -510     -498     -473     -433     -373 
    -301     -220     -131      -39       52      133      201      252 
     280      294      295      280      252      218      184      148 
     114       85       58       39       23        2      -22      -47 
     -68      -79      -85      -89      -82      -70      -63      -51 
     -39      -40      -45      -44      -54      -75      -98     -131 
    -175     -217     -256     -299     -342     -383     -423     -454 
    -481     -499     -502     -500     -488     -456     -425     -395 
    -352     -306     -268     -229     -191     -163     -129      -89 
     -43        9       76      155      244      348      464      595 
     727      861      997     1131     1254     1371     1482     1580 
    1665     1738     1790     1819     1826     1811     1771     1703 
    1611     1506     1389     1273     1167     1071      982      895 
     818      760      710      664      631      608      595      595 
     607      627      660      704      751      800      853      908 
     966     1026     1078     1125     1165     1189     1198     1194 
    1185     1174     1158     1138     1119     1096     1063     1032 
    1005      976      951      938      916      888      864      843 
     816      780      737      693      648      598      553      515 
     480      449      423      400      386      380      383      396 
     421      451      495      552      625      715      814      920 
    1030     1139     1240     1324     1390     1441     1468     1475 
    1472     1462     1439     1412     1385     1352     1323     1296 
    1264     1228     1196     1170     1147     1129     1124     1131 
    1154     1194     1244     1302     1360     1414     1459     1487 
    1505     1517     1525     1532     1544     1561     1579     1601 
    1626     1648     1656     1657     1651     1636     1613     1588 
    1566     1548     1540     1539     1545     1559     1576     1602 
    1634     1669     1709     1752     1792     1833     1881     1934 
    1991     2049     2102     2151     2187     2203     2205     2199 
    2174     2130     2062     1975     1872     1753     1615     1466 
    1305     1139      969      796      623      453      295      147 
       8     -125     -249     -368     -487     -602     -704     -799 
    -888     -970    -1046    -1115    -1173    -1223    -1251    -1255 
   -1244    -1206    -1139    -1053     -951     -835     -715     -596 
    -464     -326     -189      -49       97      243      380      502 
     607      693      754      791      803      789      746      685 
     604      513      425      346      268      201      147       95 
      47       -1      -63     -137     -214     -291     -368     -434 
    -487     -526     -556     -577     -595     -607     -614     -616 
    -615     -607     -595     -577     -553     -523     -483     -437 
    -387     -326     -255     -178     -102      -22       55      129 
     201      272      346      422      502      587      676      761 
     834      908      987     1063     1146     1240     1334     1425 
    1514     1595     1665     1717     1759     1798     1829     1852 
    1875     1894     1904     1912     1919     1919     1906     1880 
    1845     1802     1749     1698     1645     1590     1532     1476 
    1420     1362     1305     1247     1181     1105     1023      938 
     857      784      724      676      630      591      562      530 
     487      437      378      306      229      160       95       36 
     -14      -59     -105     -147     -183     -232     -292     -353 
    -421     -499     -577     -652     -727     -800     -869     -935 
    -997    -1057    -1111    -1159    -1215    -1275    -1332    -1385 
   -1436    -1476    -1501    -1516    -1507    -1472    -1417    -1347 
   -1256    -1143    -1011     -862     -706     -540     -365     -180 
      13      220      442      675      912     1154     1405     1664 
    1921     2180     2436     2683     2928     3159     3366     3557 
    3724     3856     3962     4043     4086     4093     4077     4029 
    3944     3827     3684     3514     3322     3109     2871     2621 
    2369     2111     1850     1595     1347     1107      886      695 
     531      387      259      141       31      -67     -153     -240 
    -333     -425     -510     -591     -673     -756     -838     -916 
    -980    -1030    -1057    -1051    -1020     -958     -858     -734 
    -588     -423     -252      -81       99      272      425      575 
     715      843      959     1067     1163     1244     1302     1333 
    1337     1313     1264     1202     1121     1028      938      841 
     730      626      526      432      349      282      222      176 
     149      124      105       90       62       27       -5      -55 
    -128     -214     -306     -405     -506     -598     -679     -743 
    -784     -800     -793     -760     -702     -615     -504     -375 
    -228      -63      110      288      472      662      853     1026 
    1194     1366     1520     1660     1807     1945     2058     2149 
    2208     2232     2215     2168     2093     1985     1854     1719 
    1588     1463     1347     1235     1123     1011      899      783 
     661      540      425      307      197      106       29      -32 
     -68      -85      -89      -83      -93     -133     -182     -221 
    -246     -259     -259     -259     -263     -256     -233     -212 
    -198     -174     -148     -131     -116     -102      -87      -65 
     -41      -22       -9       -1       -9      -35      -72     -117 
    -166     -225     -287     -348     -409     -463     -508     -545 
    -565     -571     -562     -526     -457     -352     -221      -63 
     112      295      473      652      820      973     1111     1227 
    1325     1409     1478     1532     1580     1622     1655     1691 
    1726     1755     1779     1802     1819     1838     1852     1859 
    1873     1885     1894     1912     1929     1934     1948     1968 
    1982     2003     2019     2029     2029     2006     1956     1883 
    1788     1669     1537     1398     1254     1111      987      886 
     799      727      681      650      627      621      630      650 
     679      719      778      850      939     1047     1171     1308 
    1457     1610     1757     1891     2015     2135     2255     2378 
    2505     2648     2803     2959     3109     3252     3379     3488 
    3578     3653     3715     3755     3762     3734     3696     3681 
    3669     3626     3561     3478     3362     3226     3086     2937 
    2783     2625     2461     2300     2144     1985     1818     1648 
    1476     1305     1136      980      850      751      679      639 
     634      643      661      689      722      754      796      846 
     908      987     1074     1154     1232     1306     1372     1456 
    1556     1645     1718     1781     1833     1883     1922     1938 
    1944     1938     1908     1852     1776     1683     1579     1464 
    1332     1182     1019      842      661      490      309      109 
     -82     -259     -430     -594     -747     -884    -1007    -1127 
   -1240    -1337    -1417    -1480    -1526    -1547    -1540    -1517 
   -1482    -1439    -1395    -1350    -1298    -1244    -1179    -1097 
   -1000     -869     -697     -502     -266        9      302      611 
     935     1248     1544     1833     2111     2374     2631     2891 
    3152     3407     3659     3896     4097     4263     4406     4525 
    4615     4681     4737     4783     4822     4866     4915     4946 
    4946     4918     4847     4731     4579     4395     4178     3937 
    3686     3427     3159     2884     2616     2355     2100     1850 
    1605     1372     1158      959      783      634      508      400 
     307      217      125       31      -71     -187     -313     -440 
    -562     -672     -756     -816     -851     -864     -858     -834 
    -800     -760     -707     -639     -557     -460     -342     -203 
     -41      139      336      548      760      967     1169     1359 
    1539     1702     1849     1991     2124     2249     2366     2471 
    2574     2673     2755     2825     2882     2918     2938     2952 
    2960     2978     3011     3038     3053     3063     3053     3017 
    2953     2855     2721     2562     2378     2184     1993     1810 
    1629     1459     1300     1142      982      832      687      544 
     414      302      217      171      152      163      210      288 
     386      498      623      750      877     1012     1148     1282 
    1421     1574     1737     1899     2049     2193     2326     2430 
    2501     2550     2579     2593     2601     2610     2609     2601 
    2598     2590     2569     2536     2490     2432     2371     2309 
    2242     2178     2111     2047     1988     1918     1838     1764 
    1687     1602     1520     1440     1358     1279     1202     1125 
    1053      980      901      818      726      627      523      413 
     294      168       41      -85     -206     -324     -445     -569 
    -688     -803     -927    -1060    -1185    -1302    -1416    -1514 
   -1598    -1671    -1721    -1742    -1740    -1710    -1649    -1572 
   -1485    -1393    -1301    -1208    -1121    -1032     -934     -835 
    -737     -623     -499     -361     -211      -64       75      216 
     349      471      579      673      747      814      864      903 
     940      970      981      981      978      969      965      967 
     978     1000     1034     1081     1142     1204     1259     1305 
    1345     1379     1405     1420     1421     1421     1420     1408 
    1387     1363     1331     1286     1237     1190     1150     1112 
    1075     1043     1013      989      963      932      892      845 
     785      710      623      535      457      396      356      336 
     338      357      386      422      461      506      561      625 
     706      815      949     1104     1282     1483     1701     1919 
    2137     2351     2556     2752     2949     3144     3323     3492 
    3645     3773     3875     3944     3965     3939     3865     3742 
    3565     3345     3102     2840     2565     2285     2010     1738 
    1474     1209      942      681      432      191      -31     -228 
    -396     -530     -626     -675     -680     -642     -571     -468 
    -344     -209      -72       65      212      352      477      608 
     741      868      992     1112     1224     1325     1418     1518 
    1626     1729     1833     1944     2047     2141     2224     2290 
    2326     2324     2290     2220     2118     2001     1878     1757 
    1652     1578     1528     1503     1497     1502     1521     1556 
    1597     1649     1714     1784     1868     1969     2079     2192 
    2307     2409     2490     2551     2590     2608     2614     2609 
    2598     2589     2574     2551     2521     2477     2411     2313 
    2173     1998     1802     1584     1359     1140      931      731 
     557      411      288      193      124       76       51       44 
      49       63       71       81      106      139      178      229 
     283      344      421      504      594      687      792      903 
    1005     1096     1174     1228     1255     1258     1232     1179 
    1111     1032      942      847      757      662      560      457 
     361      259      153       56      -35     -126     -214     -298 
    -382     -460     -531     -603     -665     -707     -735     -757 
    -766     -761     -747     -734     -722     -715     -718     -724 
    -747     -796     -862     -936    -1020    -1112    -1209    -1308 
   -1397    -1475    -1554    -1634    -1709    -1787    -1864    -1930 
   -1982    -2014    -2033    -2046    -2039    -2022    -2003    -1965 
   -1908    -1837    -1737    -1602    -1436    -1251    -1053     -846 
    -649     -461     -278     -117       21      155      286      400 
     506      604      683      747      804      835      837      820 
     766      673      553      400      218       20     -184     -379 
    -568     -757     -928    -1086    -1248    -1401    -1534    -1658 
   -1759    -1830    -1876    -1892    -1883    -1852    -1799    -1726 
   -1634    -1525    -1405    -1271    -1132     -997     -866     -743 
    -634     -544     -464     -392     -325     -245     -149      -65 
      16      108      189      257      329      396      449      493 
     525      537      532      514      476      425      360      289 
     212      128       43      -47     -151     -261     -369     -483 
    -603     -712     -814     -909     -997    -1074    -1140    -1192 
   -1223    -1232    -1223    -1202    -1174    -1143    -1112    -1081 
   -1053    -1038    -1035    -1038    -1042    -1043    -1035    -1012 
    -980     -938     -872     -785     -683     -561     -423     -268 
    -105       52      214      386      553      719      893     1067 
    1237     1399     1549     1684     1795     1875     1927     1948 
    1933     1888     1814     1703     1561     1401     1224     1039 
     861      689      517      364      236      112      -14     -133 
    -249     -373     -495     -610     -718     -814     -900     -978 
   -1046    -1101    -1155    -1208    -1247    -1269    -1282    -1290 
