Origin Time       2016/04/16 01:25:00
Lat.              32.753
Long.             130.762
Depth. (km)       12
Mag.              7.3
Station Code      TKS001
Station Lat.      34.2030
Station Long.     134.6098
Station Height(m) 2
Record Time       2016/04/16 01:26:19
Sampling Freq(Hz) 100Hz
Duration Time(s)  130
Dir.              E-W
Scale Factor      7845(gal)/8223790
Max. Acc. (gal)   4.434
Last Correction   2016/04/16 01:26:19
Memo.             
[...]
  -10180   -10174   -10166   -10156   -10145   -10129   -10116   -10111 
  -10112   -10119   -10126   -10121   -10107   -10076   -10029    -9969 
   -9907    -9847    -9791    -9738    -9695    -9659    -9626    -9599 
   -9576    -9553    -9530    -9502    -9466    -9425    -9378    -9332 
   -9290    -9243    -9205    -9188    -9174    -9167    -9169    -9162 
   -9151    -9135    -9109    -9089    -9081    -9085    -9107    -9137 
   -9175    -9227    -9279    -9325    -9370    -9406    -9424    -9435 
   -9448    -9454    -9456    -9454    -9439    -9421    -9401    -9377 
   -9363    -9355    -9355    -9377    -9409    -9454    -9528    -9613 
   -9698    -9794    -9890    -9981   -10076   -10153   -10212   -10263 
  -10288   -10293   -10299   -10301   -10303   -10308   -10316   -10320 
  -10320   -10316   -10307   -10291   -10262   -10223   -10185   -10152 
  -10129   -10115   -10104   -10092   -10080   -10068   -10049   -10025 
   -9998    -9961    -9913    -9861    -9804    -9737    -9662    -9585 
   -9497    -9413    -9340    -9274    -9224    -9184    -9146    -9108 
   -9066    -9038    -9024    -9015    -9020    -9032    -9042    -9054 
   -9069    -9078    -9090    -9115    -9144    -9182    -9232    -9289 
   -9355    -9420    -9477    -9525    -9562    -9587    -9613    -9637 
   -9659    -9687    -9717    -9749    -9783    -9814    -9840    -9868 
   -9898    -9929    -9963    -9999   -10034   -10066   -10084   -10091 
  -10096   -10096   -10081   -10058   -10017    -9952    -9868    -9768 
   -9660    -9544    -9423    -9301    -9180    -9065    -8962    -8880 
   -8820    -8787    -8783    -8810    -8873    -8962    -9067    -9178 
   -9279    -9364    -9441    -9502    -9543    -9568    -9585    -9585 
   -9575    -9563    -9552    -9543    -9543    -9541    -9539    -9539 
   -9537    -9541    -9553    -9570    -9596    -9633    -9675    -9728 
   -9786    -9836    -9883    -9929    -9961    -9989   -10021   -10039 
  -10050   -10055   -10046   -10015    -9969    -9906    -9829    -9745 
   -9651    -9556    -9468    -9383    -9315    -9262    -9225    -9213 
   -9223    -9242    -9270    -9310    -9360    -9413    -9471    -9533 
   -9593    -9649    -9703    -9756    -9804    -9837    -9863    -9884 
   -9898    -9904    -9910    -9915    -9911    -9899    -9880    -9860 
   -9832    -9806    -9794    -9784    -9782    -9787    -9795    -9799 
   -9794    -9779    -9760    -9741    -9726    -9710    -9684    -9657 
   -9624    -9587    -9563    -9541    -9520    -9504    -9487    -9472 
   -9467    -9463    -9460    -9467    -9470    -9466    -9464    -9467 
   -9472    -9482    -9495    -9514    -9541    -9572    -9607    -9656 
   -9713    -9771    -9832    -9876    -9902    -9921    -9934    -9944 
   -9954    -9968    -9985   -10008   -10037   -10064   -10080   -10083 
  -10084   -10079   -10061   -10037    -9999    -9952    -9900    -9842 
   -9779    -9715    -9643    -9563    -9485    -9401    -9310    -9220 
   -9128    -9036    -8951    -8870    -8792    -8723    -8665    -8615 
   -8581    -8553    -8523    -8506    -8527    -8586    -8664    -8750 
   -8845    -8947    -9054    -9159    -9258    -9355    -9458    -9560 
   -9666    -9775    -9877    -9968   -10048   -10115   -10180   -10246 
  -10304   -10354   -10395   -10419   -10431   -10438   -10435   -10427 
  -10413   -10382   -10329   -10263   -10177   -10072    -9961    -9840 
   -9707    -9579    -9464    -9362    -9273    -9193    -9119    -9050 
   -8986    -8931    -8885    -8847    -8812    -8780    -8748    -8715 
   -8687    -8660    -8629    -8602    -8579    -8575    -8610    -8661 
   -8716    -8796    -8895    -8988    -9082    -9192    -9301    -9404 
   -9502    -9591    -9670    -9745    -9810    -9863    -9910    -9949 
   -9984   -10025   -10061   -10095   -10133   -10172   -10207   -10242 
  -10274   -10296   -10303   -10288   -10260   -10214   -10141   -10050 
   -9953    -9844    -9724    -9610    -9505    -9408    -9325    -9252 
   -9178    -9111    -9054    -9004    -8972    -8965    -8976    -9011 
   -9058    -9099    -9136    -9173    -9192    -9200    -9205    -9212 
   -9231    -9270    -9317    -9377    -9452    -9526    -9598    -9676 
   -9748    -9815    -9883    -9945   -10002   -10052   -10083   -10104 
  -10118   -10119   -10110   -10088   -10046    -9992    -9926    -9842 
   -9752    -9653    -9552    -9458    -9369    -9286    -9213    -9147 
   -9085    -9030    -8985    -8957    -8947    -8959    -8995    -9046 
   -9103    -9159    -9216    -9266    -9317    -9367    -9413    -9459 
   -9506    -9559    -9622    -9694    -9769    -9853    -9936   -10015 
  -10091   -10158   -10220   -10277   -10322   -10355   -10384   -10409 
  -10435   -10454   -10451   -10430   -10392   -10342   -10287   -10230 
  -10172   -10107   -10033    -9953    -9882    -9809    -9724    -9637 
   -9541    -9431    -9315    -9193    -9074    -8958    -8849    -8758 
   -8688    -8630    -8600    -8598    -8596    -8606    -8642    -8684 
   -8716    -8753    -8797    -8846    -8889    -8932    -8984    -9030 
   -9071    -9116    -9157    -9197    -9246    -9312    -9391    -9485 
   -9587    -9698    -9809    -9915   -10017   -10104   -10173   -10228 
  -10272   -10301   -10323   -10335   -10328   -10305   -10262   -10192 
  -10110   -10019    -9917    -9802    -9687    -9578    -9468    -9366 
   -9271    -9180    -9092    -9005    -8918    -8829    -8745    -8675 
   -8621    -8584    -8560    -8552    -8579    -8627    -8672    -8721 
   -8783    -8845    -8905    -8965    -9031    -9096    -9158    -9236 
   -9322    -9416    -9521    -9625    -9724    -9818    -9904    -9985 
  -10054   -10111   -10156   -10192   -10224   -10257   -10287   -10315 
  -10339   -10350   -10335   -10300   -10255   -10200   -10134   -10062 
   -9992    -9927    -9867    -9807    -9751    -9690    -9622    -9558 
   -9501    -9443    -9390    -9344    -9294    -9240    -9193    -9150 
   -9108    -9076    -9050    -9031    -9023    -9019    -9022    -9036 
   -9055    -9090    -9150    -9231    -9335    -9460    -9598    -9744 
   -9891   -10030   -10158   -10274   -10384   -10485   -10578   -10665 
  -10733   -10781   -10806   -10805   -10777   -10732   -10679   -10619 
  -10546   -10461   -10362   -10247   -10120    -9989    -9844    -9694 
   -9552    -9412    -9277    -9154    -9036    -8924    -8820    -8714 
   -8606    -8513    -8430    -8352    -8289    -8247    -8221    -8214 
   -8218    -8235    -8274    -8317    -8356    -8414    -8486    -8557 
   -8641    -8735    -8845    -8974    -9104    -9240    -9390    -9532 
   -9668    -9811    -9944   -10062   -10176   -10280   -10368   -10444 
  -10511   -10562   -10601   -10638   -10658   -10656   -10646   -10627 
  -10597   -10563   -10530   -10492   -10450   -10399   -10326   -10245 
  -10153   -10044    -9937    -9830    -9721    -9625    -9541    -9459 
   -9394    -9337    -9275    -9227    -9184    -9140    -9109    -9088 
   -9066    -9051    -9040    -9028    -9023    -9024    -9036    -9063 
   -9104    -9151    -9208    -9269    -9325    -9382    -9436    -9475 
   -9501    -9521    -9535    -9544    -9552    -9559    -9566    -9583 
   -9614    -9652    -9698    -9753    -9804    -9846    -9876    -9894 
   -9902    -9898    -9886    -9869    -9837    -9790    -9744    -9688 
   -9622    -9555    -9481    -9409    -9350    -9302    -9269    -9256 
   -9256    -9275    -9321    -9390    -9479    -9583    -9688    -9795 
   -9910   -10026   -10135   -10234   -10323   -10405   -10480   -10543 
  -10600   -10646   -10679   -10692   -10686   -10663   -10624   -10570 
  -10504   -10427   -10336   -10245   -10147   -10053    -9971    -9902 
   -9853    -9822    -9801    -9791    -9788    -9774    -9749    -9717 
   -9662    -9594    -9522    -9435    -9339    -9234    -9112    -8988 
   -8873    -8764    -8665    -8591    -8529    -8490    -8480    -8484 
   -8510    -8567    -8623    -8683    -8758    -8834    -8893    -8946 
   -8999    -9036    -9066    -9104    -9146    -9190    -9246    -9309 
   -9366    -9414    -9458    -9487    -9516    -9543    -9560    -9580 
   -9613    -9645    -9679    -9721    -9753    -9776    -9796    -9806 
   -9806    -9796    -9771    -9738    -9694    -9639    -9583    -9528 
   -9470    -9414    -9355    -9290    -9219    -9147    -9081    -9020 
   -8970    -8939    -8931    -8938    -8957    -8986    -9024    -9073 
   -9130    -9189    -9254    -9322    -9390    -9468    -9553    -9628 
   -9701    -9769    -9818    -9856    -9882    -9879    -9857    -9819 
   -9764    -9691    -9601    -9495    -9379    -9259    -9143    -9034 
   -8941    -8863    -8803    -8761    -8734    -8718    -8716    -8727 
   -8756    -8797    -8841    -8888    -8937    -8974    -9011    -9038 
   -9065    -9096    -9130    -9174    -9234    -9298    -9366    -9429 
   -9489    -9543    -9586    -9628    -9670    -9707    -9749    -9796 
   -9841    -9888    -9949   -10008   -10060   -10115   -10164   -10200 
  -10230   -10254   -10266   -10282   -10293   -10292   -10288   -10272 
  -10239   -10195   -10133   -10055    -9967    -9863    -9752    -9641 
   -9524    -9400    -9273    -9142    -9013    -8885    -8753    -8623 
   -8503    -8404    -8341    -8301    -8281    -8307    -8371    -8451 
   -8543    -8648    -8760    -8868    -8959    -9043    -9120    -9185 
   -9243    -9300    -9351    -9397    -9444    -9490    -9540    -9598 
   -9662    -9736    -9825    -9929   -10044   -10169   -10307   -10453 
  -10608   -10760   -10905   -11047   -11173   -11273   -11358   -11427 
  -11465   -11484   -11488   -11466   -11430   -11388   -11327   -11246 
  -11153   -11043   -10918   -10790   -10650   -10497   -10343   -10184 
  -10022    -9877    -9741    -9610    -9497    -9401    -9325    -9269 
   -9232    -9213    -9201    -9192    -9185    -9177    -9165    -9147 
   -9131    -9111    -9089    -9071    -9061    -9062    -9088    -9134 
   -9197    -9289    -9414    -9563    -9728    -9904   -10088   -10270 
  -10438   -10596   -10729   -10848   -10953   -11039   -11118   -11192 
  -11260   -11319   -11358   -11371   -11361   -11330   -11279   -11214 
  -11140   -11059   -10974   -10890   -10805   -10717   -10629   -10540 
  -10453   -10370   -10291   -10214   -10146   -10081   -10015    -9941 
   -9850    -9742    -9609    -9456    -9293    -9119    -8938    -8765 
   -8612    -8473    -8343    -8239    -8160    -8078    -8007    -7967 
   -7939    -7915    -7908    -7924    -7955    -7998    -8063    -8137 
   -8209    -8291    -8385    -8463    -8523    -8587    -8649    -8714 
   -8769    -8808    -8853    -8896    -8924    -8955    -8985    -9000 
   -9009    -9013    -9011    -9023    -9040    -9066    -9107    -9150 
   -9190    -9225    -9243    -9239    -9211    -9158    -9090    -9018 
   -8943    -8872    -8806    -8753    -8719    -8698    -8681    -8684 
   -8708    -8731    -8765    -8818    -8860    -8900    -8962    -9031 
   -9109    -9208    -9312    -9427    -9547    -9660    -9764    -9853 
   -9927    -9994   -10042   -10073   -10100   -10120   -10123   -10111 
  -10083   -10027    -9953    -9873    -9782    -9680    -9580    -9481 
   -9378    -9278    -9184    -9093    -9020    -8965    -8919    -8884 
   -8856    -8835    -8822    -8810    -8804    -8815    -8827    -8838 
   -8851    -8862    -8861    -8847    -8826    -8791    -8746    -8692 
   -8629    -8565    -8502    -8426    -8344    -8262    -8175    -8086 
   -8016    -7962    -7915    -7890    -7897    -7924    -7977    -8062 
   -8172    -8305    -8461    -8631    -8803    -8966    -9112    -9246 
   -9360    -9452    -9525    -9578    -9598    -9595    -9587    -9574 
   -9563    -9567    -9576    -9606    -9667    -9759    -9886   -10042 
  -10222   -10422   -10635   -10851   -11061   -11263   -11455   -11635 
  -11797   -11937   -12056   -12148   -12213   -12248   -12249   -12212 
  -12139   -12028   -11886   -11719   -11527   -11311   -11086   -10858 
  -10632   -10412   -10204   -10010    -9828    -9661    -9510    -9369 
   -9228    -9093    -8955    -8812    -8673    -8540    -8403    -8248 
   -8083    -7916    -7744    -7574    -7410    -7248    -7094    -6947 
   -6813    -6702    -6620    -6569    -6561    -6586    -6652    -6759 
   -6906    -7096    -7321    -7570    -7851    -8160    -8494    -8861 
   -9236    -9618   -10006   -10369   -10700   -11017   -11298   -11538 
  -11761   -11965   -12145   -12316   -12478   -12633   -12779   -12907 
  -13016   -13119   -13209   -13281   -13351   -13419   -13471   -13520 
  -13562   -13585   -13588   -13568   -13516   -13425   -13302   -13149 
  -12964   -12758   -12533   -12297   -12058   -11817   -11574   -11329 
  -11072   -10809   -10552   -10296   -10046    -9811    -9594    -9393 
   -9208    -9031    -8858    -8694    -8530    -8361    -8191    -8020 
   -7862    -7723    -7607    -7518    -7453    -7403    -7375    -7373 
   -7398    -7446    -7519    -7614    -7740    -7888    -8060    -8264 
   -8494    -8753    -9040    -9328    -9613    -9911   -10207   -10493 
  -10781   -11057   -11317   -11557   -11762   -11928   -12048   -12120 
  -12162   -12179   -12174   -12155   -12128   -12087   -12040   -11988 
  -11943   -11904   -11862   -11820   -11772   -11701   -11630   -11561 
  -11475   -11376   -11264   -11130   -10975   -10797   -10592   -10366 
  -10115    -9844    -9556    -9248    -8914    -8556    -8187    -7804 
   -7411    -7034    -6667    -6315    -6002    -5733    -5498    -5281 
   -5107    -5008    -4961    -4941    -4969    -5042    -5140    -5262 
   -5405    -5570    -5757    -5961    -6186    -6439    -6708    -6980 
   -7250    -7504    -7734    -7933    -8114    -8272    -8403    -8519 
   -8633    -8730    -8819    -8919    -9026    -9131    -9240    -9355 
   -9470    -9575    -9668    -9753    -9845    -9964   -10095   -10211 
  -10308   -10396   -10471   -10525   -10562   -10573   -10552   -10504 
  -10443   -10372   -10296   -10222   -10143   -10065    -9992    -9919 
   -9842    -9760    -9684    -9614    -9545    -9487    -9451    -9429 
   -9421    -9427    -9443    -9468    -9497    -9517    -9530    -9537 
   -9533    -9513    -9490    -9467    -9425    -9367    -9316    -9270 
   -9223    -9180    -9142    -9100    -9050    -8986    -8910    -8826 
   -8739    -8653    -8579    -8517    -8474    -8464    -8473    -8480 
   -8490    -8497    -8499    -8499    -8494    -8492    -8509    -8552 
   -8608    -8684    -8796    -8945    -9111    -9298    -9504    -9711 
   -9931   -10164   -10405   -10666   -10949   -11246   -11556   -11871 
  -12168   -12437   -12679   -12887   -13065   -13221   -13355   -13470 
  -13572   -13657   -13720   -13755   -13756   -13730   -13679   -13601 
  -13512   -13413   -13296   -13169   -13032   -12876   -12710   -12537 
  -12345   -12133   -11904   -11646   -11362   -11064   -10754   -10431 
  -10106    -9783    -9463    -9150    -8853    -8583    -8337    -8113 
   -7919    -7765    -7651    -7580    -7560    -7596    -7682    -7789 
   -7892    -7987    -8098    -8202    -8286    -8374    -8463    -8542 
   -8622    -8698    -8766    -8835    -8910    -8991    -9073    -9155 
   -9240    -9317    -9383    -9445    -9497    -9535    -9562    -9572 
   -9552    -9512    -9467    -9410    -9355    -9316    -9275    -9229 
   -9186    -9147    -9104    -9063    -9023    -8986    -8955    -8912 
   -8853    -8781    -8694    -8604    -8527    -8437    -8341    -8266 
   -8197    -8109    -8016    -7931    -7855    -7784    -7731    -7689 
   -7655    -7641    -7643    -7666    -7716    -7778    -7850    -7951 
   -8070    -8201    -8344    -8494    -8650    -8807    -8946    -9073 
   -9200    -9325    -9423    -9495    -9555    -9599    -9621    -9626 
   -9618    -9598    -9560    -9506    -9445    -9375    -9296    -9213 
   -9140    -9089    -9063    -9057    -9078    -9117    -9173    -9251 
   -9348    -9459    -9589    -9732    -9880   -10022   -10156   -10276 
  -10380   -10458   -10514   -10558   -10584   -10588   -10584   -10571 
  -10544   -10511   -10481   -10458   -10450   -10462   -10478   -10497 
  -10514   -10517   -10509   -10504   -10496   -10490   -10488   -10482 
  -10489   -10504   -10520   -10539   -10563   -10586   -10606   -10628 
  -10646   -10660   -10670   -10671   -10673   -10675   -10671   -10670 
  -10671   -10673   -10671   -10658   -10640   -10629   -10623   -10629 
  -10667   -10735   -10836   -10976   -11144   -11329   -11526   -11728 
  -11924   -12108   -12276   -12426   -12556   -12658   -12738   -12807 
  -12857   -12877   -12880   -12865   -12820   -12754   -12680   -12586 
  -12475   -12363   -12241   -12106   -11975   -11844   -11709   -11578 
  -11449   -11308   -11164   -11018   -10868   -10728   -10600   -10480 
  -10380   -10303   -10237   -10180   -10127   -10054    -9961    -9849 
   -9714    -9566    -9409    -9240    -9077    -8938    -8818    -8726 
   -8672    -8650    -8657    -8692    -8757    -8846    -8943    -9061 
   -9202    -9358    -9529    -9710    -9899   -10106   -10322   -10532 
  -10740   -10937   -11121   -11290   -11439   -11572   -11682   -11767 
  -11827   -11863   -11880   -11850   -11776   -11673   -11538   -11372 
  -11188   -10989   -10781   -10577   -10370   -10168    -9981    -9807 
   -9639    -9475    -9317    -9163    -9015    -8878    -8753    -8634 
   -8533    -8454    -8395    -8349    -8326    -8329    -8340    -8361 
   -8398    -8437    -8477    -8513    -8550    -8590    -8630    -8673 
   -8719    -8770    -8818    -8863    -8918    -8962    -8996    -9028 
   -9051    -9065    -9073    -9069    -9057    -9046    -9038    -9043 
   -9063    -9099    -9139    -9177    -9213    -9246    -9265    -9273 
   -9278    -9270    -9246    -9212    -9161    -9097    -9035    -8970 
   -8896    -8834    -8791    -8754    -8719    -8688    -8664    -8644 
   -8631    -8629    -8619    -8603    -8602    -8607    -8603    -8594 
   -8591    -8600    -8606    -8598    -8591    -8595    -8607    -8619 
   -8621    -8610    -8599    -8586    -8556    -8523    -8505    -8494 
   -8499    -8515    -8543    -8583    -8621    -8653    -8702    -8750 
   -8781    -8816    -8863    -8900    -8938    -8978    -9007    -9031 
   -9050    -9051    -9040    -9024    -9007    -8985    -8958    -8932 
   -8910    -8889    -8878    -8869    -8853    -8842    -8838    -8826 
   -8806    -8785    -8754    -8715    -8673    -8623    -8569    -8532 
   -8505    -8479    -8456    -8428    -8398    -8379    -8349    -8305 
   -8263    -8225    -8187    -8162    -8159    -8182    -8224    -8284 
   -8361    -8456    -8561    -8669    -8784    -8901    -9024    -9155 
   -9290    -9428    -9567    -9699    -9829    -9957   -10083   -10207 
  -10329   -10447   -10563   -10678   -10782   -10874   -10955   -11029 
  -11095   -11141   -11161   -11156   -11125   -11075   -11011   -10943 
  -10876   -10813   -10758   -10709   -10650   -10584   -10513   -10422 
  -10312   -10193   -10069    -9952    -9845    -9744    -9661    -9599 
   -9552    -9517    -9493    -9474    -9466    -9467    -9483    -9518 
   -9574    -9653    -9757    -9875   -10000   -10134   -10262   -10374 
  -10467   -10551   -10625   -10689   -10755   -10843   -10941   -11047 
  -11160   -11277   -11394   -11508   -11622   -11735   -11854   -11974 
  -12094   -12225   -12368   -12515   -12663   -12798   -12912   -12999 
