Origin Time       2016/04/16 01:25:00
Lat.              32.753
Long.             130.762
Depth. (km)       12
Mag.              7.3
Station Code      TKS003
Station Lat.      33.8716
Station Long.     134.6039
Station Height(m) 8
Record Time       2016/04/16 01:26:21
Sampling Freq(Hz) 100Hz
Duration Time(s)  118
Dir.              N-S
Scale Factor      7845(gal)/8223790
Max. Acc. (gal)   3.011
Last Correction   2016/04/16 01:26:21
Memo.             
[...]
    8078     8046     8019     7987     7971     7981     8000     8013 
    8044     8078     8105     8133     8160     8175     8186     8195 
    8199     8197     8186     8174     8164     8149     8133     8127 
    8129     8132     8139     8139     8127     8118     8110     8090 
    8075     8067     8051     8035     8035     8027     8012     8012 
    8025     8044     8071     8095     8105     8094     8063     8027 
    7989     7952     7931     7928     7912     7889     7862     7824 
    7799     7808     7827     7858     7896     7919     7923     7915 
    7894     7875     7867     7870     7882     7888     7889     7902 
    7923     7939     7959     7990     8025     8062     8104     8135 
    8156     8186     8220     8239     8257     8278     8283     8283 
    8279     8272     8272     8279     8280     8270     8241     8203 
    8162     8121     8093     8089     8097     8113     8144     8181 
    8193     8187     8168     8131     8086     8055     8027     8001 
    7986     7973     7959     7956     7974     8013     8070     8144 
    8222     8289     8333     8352     8349     8321     8276     8222 
    8160     8100     8059     8033     8024     8044     8086     8133 
    8194     8260     8314     8356     8387     8394     8371     8324 
    8257     8182     8108     8033     7971     7928     7906     7908 
    7921     7944     7982     8017     8046     8075     8097     8102 
    8095     8078     8040     7979     7919     7860     7803     7770 
    7765     7774     7811     7869     7927     7982     8024     8047 
    8062     8070     8068     8063     8044     8014     7997     7978 
    7958     7959     7974     8004     8060     8124     8182     8239 
    8275     8284     8274     8252     8232     8215     8198     8182 
    8181     8179     8182     8203     8232     8271     8330     8395 
    8456     8522     8579     8621     8640     8642     8622     8579 
    8532     8476     8424     8390     8364     8349     8359     8378 
    8397     8424     8456     8487     8523     8550     8568     8575 
    8560     8533     8499     8449     8391     8329     8248     8167 
    8102     8047     7997     7964     7955     7974     8016     8071 
    8133     8193     8243     8278     8293     8281     8252     8213 
    8162     8091     8023     7969     7927     7901     7885     7874 
    7879     7901     7921     7948     7990     8040     8100     8160 
    8205     8243     8276     8299     8322     8352     8375     8390 
    8408     8413     8401     8380     8356     8334     8318     8307 
    8311     8326     8334     8330     8318     8301     8278     8260 
    8253     8256     8263     8266     8263     8260     8253     8240 
    8228     8221     8202     8163     8116     8054     7989     7931 
    7888     7867     7873     7894     7935     7982     8027     8086 
    8151     8205     8255     8275     8252     8210     8156     8081 
    8007     7947     7892     7843     7801     7759     7723     7703 
    7707     7743     7805     7886     7986     8094     8190     8274 
    8344     8394     8418     8413     8376     8321     8252     8174 
    8098     8033     7979     7929     7898     7896     7911     7940 
    7971     8000     8037     8073     8100     8122     8131     8125 
    8101     8048     7973     7884     7786     7690     7604     7519 
    7437     7372     7325     7277     7245     7241     7248     7277 
    7335     7399     7465     7535     7603     7666     7723     7773 
    7811     7832     7836     7827     7805     7774     7743     7709 
    7676     7655     7657     7678     7709     7761     7827     7893 
    7969     8037     8090     8133     8172     8205     8229     8239 
    8226     8205     8174     8137     8106     8077     8064     8081 
    8097     8111     8136     8160     8182     8203     8205     8182 
    8144     8085     8009     7931     7870     7827     7807     7815 
    7857     7925     8023     8141     8275     8407     8525     8627 
    8711     8758     8781     8793     8787     8779     8779     8773 
    8769     8784     8806     8835     8884     8945     9020     9104 
    9192     9273     9336     9378     9402     9404     9386     9359 
    9327     9270     9200     9121     9028     8942     8888     8860 
    8857     8881     8920     8955     8996     9049     9090     9115 
    9135     9139     9123     9088     9026     8953     8876     8796 
    8734     8688     8650     8622     8598     8575     8567     8571 
    8572     8573     8572     8545     8496     8437     8352     8259 
    8159     8048     7940     7848     7758     7666     7577     7496 
    7426     7365     7319     7299     7295     7290     7283     7281 
    7269     7248     7234     7226     7214     7211     7219     7227 
    7246     7287     7342     7411     7493     7565     7630     7692 
    7743     7784     7815     7832     7830     7798     7743     7685 
    7634     7588     7578     7607     7649     7716     7809     7900 
    7992     8090     8176     8255     8321     8360     8368     8356 
    8322     8266     8190     8113     8040     7960     7885     7827 
    7788     7765     7765     7786     7809     7832     7858     7865 
    7854     7838     7816     7777     7728     7666     7588     7512 
    7442     7366     7307     7276     7252     7223     7182     7137 
    7089     7013     6917     6828     6739     6654     6574     6488 
    6385     6278     6169     6057     5957     5883     5841     5837 
    5864     5907     5957     6015     6072     6120     6169     6223 
    6281     6335     6376     6409     6427     6426     6411     6401 
    6401     6421     6470     6538     6615     6698     6782     6856 
    6933     7011     7088     7168     7236     7281     7311     7318 
    7302     7284     7256     7225     7210     7206     7210     7238 
    7283     7340     7423     7518     7608     7704     7801     7877 
    7919     7929     7905     7839     7744     7630     7493     7352 
    7227     7130     7068     7055     7092     7173     7283     7423 
    7585     7755     7925     8098     8248     8374     8479     8557 
    8604     8637     8645     8633     8619     8602     8576     8564 
    8561     8560     8564     8575     8590     8619     8664     8719 
    8785     8863     8949     9038     9126     9208     9288     9359 
    9425     9491     9551     9606     9659     9705     9752     9796 
    9841     9880     9913     9957    10004    10050    10099    10142 
   10184    10233    10274    10309    10345    10366    10369    10358 
   10328    10289    10250    10204    10158    10127    10093    10053 
   10019     9979     9933     9891     9847     9814     9795     9790 
    9801     9822     9856     9909     9969    10034    10091    10134 
   10152    10135    10084     9998     9883     9749     9605     9451 
    9296     9158     9034     8923     8839     8776     8730     8700 
    8672     8642     8611     8563     8502     8437     8368     8303 
    8239     8163     8078     7983     7870     7746     7614     7470 
    7325     7182     7036     6898     6779     6679     6624     6623 
    6667     6760     6897     7055     7218     7368     7489     7572 
    7609     7603     7555     7473     7368     7242     7111     6983 
    6871     6790     6748     6743     6774     6831     6898     6975 
    7056     7126     7192     7260     7315     7360     7399     7427 
    7450     7480     7519     7573     7636     7703     7774     7835 
    7873     7890     7885     7867     7847     7813     7765     7723 
    7684     7634     7584     7551     7545     7558     7589     7627 
    7657     7677     7690     7684     7659     7623     7574     7530 
    7495     7466     7462     7484     7520     7569     7619     7673 
    7730     7756     7744     7719     7673     7596     7506     7406 
    7295     7187     7094     7011     6940     6891     6870     6870 
    6890     6924     6970     7022     7078     7130     7171     7202 
    7236     7268     7294     7333     7391     7452     7520     7601 
    7681     7758     7836     7921     8012     8116     8224     8329 
    8433     8536     8629     8714     8789     8851     8899     8918 
    8904     8861     8787     8688     8581     8469     8361     8283 
    8225     8199     8224     8286     8374     8492     8626     8752 
    8858     8935     8976     8980     8958     8922     8872     8822 
    8787     8765     8739     8718     8700     8677     8655     8646 
    8633     8598     8546     8476     8370     8237     8098     7956 
    7824     7715     7616     7535     7487     7458     7447     7456 
    7488     7548     7632     7731     7843     7958     8066     8171 
    8267     8329     8360     8370     8333     8248     8129     7966 
    7765     7542     7321     7122     6971     6880     6841     6837 
    6868     6919     6964     6999     7022     7032     7020     6968 
    6885     6774     6647     6543     6471     6432     6442     6492 
    6558     6644     6755     6864     6963     7053     7119     7155 
    7167     7157     7132     7094     7056     7028     7002     6976 
    6961     6945     6930     6928     6933     6952     6990     7047 
    7117     7188     7260     7325     7377     7427     7476     7510 
    7535     7550     7548     7527     7485     7427     7354     7269 
    7187     7113     7040     6970     6914     6870     6836     6835 
    6864     6914     6993     7092     7186     7261     7322     7356 
    7362     7358     7337     7306     7271     7227     7186     7145 
    7107     7088     7088     7099     7134     7187     7252     7325 
    7398     7466     7535     7601     7659     7716     7777     7839 
    7892     7939     7981     8002     8007     8006     7992     7969 
    7955     7944     7928     7903     7865     7817     7753     7674 
    7597     7515     7427     7338     7244     7150     7079     7041 
    7041     7088     7186     7315     7470     7643     7823     8005 
    8185     8370     8552     8712     8856     8978     9055     9100 
    9121     9115     9088     9053     9012     8958     8885     8810 
    8727     8631     8537     8444     8349     8268     8202     8154 
    8124     8098     8070     8046     8012     7966     7920     7871 
    7820     7765     7711     7665     7635     7619     7636     7697 
    7792     7911     8054     8215     8390     8568     8731     8881 
    9027     9159     9270     9371     9456     9525     9580     9610 
    9610     9587     9551     9510     9474     9458     9459     9482 
    9529     9595     9683     9792     9911    10039    10172    10278 
   10353    10404    10419    10392    10339    10263    10169    10076 
    9981     9898     9844     9813     9814     9853     9910     9984 
   10071    10150    10222    10282    10328    10362    10381    10380 
   10368    10350    10324    10289    10251    10210    10153    10087 
   10018     9933     9841     9760     9678     9595     9524     9459 
    9409     9385     9378     9388     9414     9454     9509     9562 
    9613     9667     9709     9724     9705     9640     9520     9362 
    9178     8968     8753     8549     8352     8182     8044     7946 
    7890     7877     7901     7956     8040     8147     8267     8382 
    8474     8536     8553     8515     8421     8286     8104     7884 
    7645     7395     7145     6907     6683     6478     6326     6235 
    6196     6222     6309     6431     6571     6721     6862     6984 
    7083     7156     7206     7218     7186     7110     6979     6804 
    6608     6411     6226     6079     5976     5910     5894     5934 
    6011     6127     6284     6462     6647     6826     6990     7121 
    7206     7254     7272     7256     7214     7160     7105     7063 
    7051     7080     7146     7256     7415     7600     7803     8032 
    8274     8517     8773     9022     9248     9456     9647     9802 
    9934    10050    10133    10179    10187    10156    10095    10007 
    9899     9790     9675     9572     9497     9440     9394     9367 
    9352     9337     9324     9309     9282     9246     9215     9180 
    9137     9088     9030     8964     8896     8826     8758     8691 
    8625     8564     8506     8444     8395     8365     8351     8361 
    8398     8446     8510     8583     8652     8704     8737     8735 
    8688     8608     8496     8344     8162     7969     7777     7584 
    7387     7209     7060     6934     6847     6808     6789     6785 
    6810     6852     6894     6945     6998     7041     7086     7121 
    7126     7114     7099     7079     7059     7052     7065     7094 
    7142     7219     7325     7454     7614     7797     7992     8189 
    8391     8600     8793     8972     9137     9273     9374     9452 
    9501     9522     9525     9513     9487     9459     9429     9401 
    9381     9370     9369     9381     9404     9445     9497     9543 
    9582     9621     9647     9660     9674     9684     9687     9698 
    9726     9764     9817     9894    10002    10135    10288    10444 
   10590    10725    10836    10905    10944    10956    10940    10906 
   10866    10827    10791    10755    10725    10709    10705    10725 
   10775    10837    10906    10982    11053    11115    11171    11219 
   11249    11265    11267    11246    11204    11149    11083    11003 
   10920    10843    10770    10697    10636    10594    10562    10537 
   10514    10478    10419    10335    10214    10046     9849     9633 
    9386     9119     8851     8588     8337     8113     7921     7758 
    7622     7514     7434     7373     7327     7295     7275     7260 
    7244     7225     7196     7157     7103     7026     6932     6839 
    6743     6647     6564     6490     6412     6346     6290     6239 
    6205     6196     6208     6224     6239     6251     6246     6216 
    6174     6123     6054     5975     5887     5779     5656     5536 
    5416     5296     5204     5147     5112     5113     5167     5251 
    5366     5508     5653     5803     5957     6100     6231     6347 
    6448     6538     6605     6652     6694     6723     6731     6737 
    6760     6802     6870     6970     7089     7222     7369     7515 
    7655     7798     7951     8098     8229     8333     8395     8414 
    8401     8364     8314     8263     8218     8185     8166     8170 
    8202     8259     8333     8433     8545     8654     8769     8868 
    8945     9009     9055     9090     9136     9193     9263     9355 
    9458     9566     9678     9788     9902    10022    10137    10245 
   10345    10422    10471    10503    10514    10504    10489    10471 
   10447    10412    10378    10339    10287    10227    10169    10118 
   10073    10038    10008     9979     9937     9884     9826     9753 
    9668     9579     9478     9375     9270     9163     9067     8986 
    8915     8854     8812     8775     8741     8719     8699     8679 
    8673     8672     8662     8649     8633     8610     8577     8540 
    8509     8486     8473     8479     8503     8543     8599     8673 
    8762     8863     8976     9092     9204     9312     9414     9504 
    9576     9626     9636     9618     9585     9530     9470     9413 
    9354     9300     9251     9197     9140     9089     9038     8992 
    8949     8901     8851     8797     8734     8669     8606     8548 
    8499     8464     8454     8464     8492     8540     8602     8679 
    8770     8862     8945     9016     9061     9074     9061     9020 
    8972     8927     8883     8860     8869     8907     8974     9059 
    9146     9248     9354     9445     9530     9602     9649     9683 
    9703     9705     9695     9687     9682     9683     9693     9709 
    9730     9749     9760     9761     9751     9721     9679     9628 
    9563     9502     9452     9408     9382     9382     9397     9431 
    9490     9556     9613     9662     9705     9702     9656     9612 
    9553     9458     9364     9277     9173     9074     8978     8872 
    8772     8665     8549     8436     8310     8177     8043     7888 
    7727     7576     7419     7267     7136     7015     6910     6828 
    6756     6690     6631     6569     6505     6434     6366     6312 
    6265     6223     6197     6178     6157     6141     6123     6088 
    6033     5975     5902     5814     5727     5643     5549     5460 
    5386     5308     5238     5182     5128     5078     5038     5004 
    4981     4974     4974     4984     4992     5000     5012     5008 
    4996     4994     4989     4984     4989     5008     5032     5076 
    5128     5185     5247     5317     5397     5483     5572     5670 
    5769     5861     5948     6031     6110     6195     6285     6367 
    6444     6524     6598     6651     6698     6747     6781     6805 
    6832     6856     6883     6929     6984     7038     7101     7167 
    7223     7281     7340     7387     7426     7465     7501     7528 
    7541     7535     7515     7480     7437     7395     7352     7321 
    7307     7310     7319     7342     7377     7415     7462     7522 
    7578     7626     7665     7693     7713     7720     7723     7727 
    7732     7751     7782     7812     7846     7897     7956     8010 
    8062     8114     8155     8193     8237     8267     8276     8278 
    8260     8229     8202     8177     8160     8166     8190     8229 
    8276     8329     8383     8431     8474     8520     8549     8563 
    8579     8586     8573     8556     8540     8522     8496     8476 
    8456     8424     8391     8352     8291     8221     8156     8089 
    8028     7982     7954     7942     7942     7950     7967     7978 
    7974     7967     7955     7936     7925     7919     7902     7890 
    7886     7874     7865     7877     7896     7924     7966     8001 
    8013     8001     7951     7865     7758     7635     7501     7356 
    7214     7086     6961     6841     6741     6652     6573     6523 
    6501     6484     6473     6489     6527     6571     6625     6690 
    6758     6815     6860     6890     6903     6894     6862     6812 
    6743     6669     6596     6523     6460     6423     6397     6381 
    6389     6421     6471     6539     6601     6639     6662     6669 
    6650     6615     6569     6520     6474     6431     6397     6378 
    6370     6386     6427     6482     6543     6613     6682     6744 
    6799     6852     6902     6945     6988     7028     7059     7091 
    7125     7152     7177     7203     7230     7261     7299     7350 
    7415     7479     7539     7601     7657     7701     7734     7738 
    7723     7693     7636     7555     7464     7365     7277     7206 
    7150     7119     7121     7148     7194     7248     7310     7371 
    7423     7466     7499     7514     7512     7497     7460     7399 
    7329     7256     7187     7129     7086     7060     7055     7064 
    7082     7107     7138     7177     7218     7253     7283     7306 
    7331     7357     7376     7393     7419     7444     7468     7496 
    7528     7564     7603     7641     7680     7726     7763     7799 
