Origin Time       2016/04/16 01:25:00
Lat.              32.753
Long.             130.762
Depth. (km)       12
Mag.              7.3
Station Code      TKS002
Station Lat.      34.0438
Station Long.     134.5820
Station Height(m) 3
Record Time       2016/04/16 01:27:01
Sampling Freq(Hz) 100Hz
Duration Time(s)  60
Dir.              N-S
Scale Factor      7845(gal)/8223790
Max. Acc. (gal)   9.305
Last Correction   2016/04/16 01:27:02
Memo.             
[...]
   -8602    -8602    -8592    -8583    -8561    -8537    -8517    -8502 
   -8505    -8536    -8584    -8652    -8733    -8811    -8870    -8924 
   -8965    -8976    -8968    -8949    -8916    -8884    -8849    -8802 
   -8752    -8698    -8626    -8542    -8454    -8365    -8270    -8175 
   -8087    -8006    -7939    -7877    -7824    -7792    -7773    -7758 
   -7758    -7767    -7792    -7830    -7871    -7917    -7958    -7997 
   -8040    -8089    -8135    -8181    -8241    -8313    -8367    -8410 
   -8454    -8484    -8487    -8479    -8464    -8437    -8404    -8374 
   -8352    -8345    -8340    -8341    -8361    -8383    -8403    -8426 
   -8444    -8471    -8517    -8581    -8665    -8754    -8858    -8972 
   -9081    -9175    -9252    -9312    -9373    -9418    -9444    -9464 
   -9468    -9454    -9437    -9408    -9374    -9346    -9331    -9321 
   -9305    -9290    -9290    -9288    -9270    -9250    -9228    -9194 
   -9142    -9081    -9027    -8966    -8896    -8830    -8780    -8746 
   -8719    -8681    -8641    -8607    -8573    -8543    -8517    -8490 
   -8457    -8426    -8403    -8376    -8340    -8302    -8252    -8181 
   -8106    -8037    -7971    -7911    -7854    -7798    -7744    -7689 
   -7632    -7573    -7500    -7416    -7345    -7296    -7264    -7263 
   -7291    -7342    -7414    -7515    -7636    -7756    -7867    -7982 
   -8095    -8189    -8255    -8307    -8351    -8372    -8383    -8404 
   -8436    -8467    -8496    -8529    -8556    -8571    -8576    -8577 
   -8569    -8553    -8536    -8529    -8540    -8583    -8649    -8734 
   -8827    -8928    -9032    -9135    -9225    -9305    -9373    -9425 
   -9467    -9504    -9525    -9530    -9524    -9510    -9485    -9440 
   -9390    -9343    -9292    -9236    -9171    -9104    -9042    -8981 
   -8920    -8869    -8829    -8802    -8795    -8802    -8814    -8833 
   -8853    -8873    -8883    -8883    -8887    -8874    -8847    -8830 
   -8820    -8816    -8820    -8820    -8834    -8849    -8846    -8841 
   -8843    -8853    -8854    -8841    -8838    -8841    -8835    -8826 
   -8806    -8775    -8743    -8692    -8618    -8540    -8454    -8348 
   -8225    -8102    -7986    -7873    -7767    -7674    -7589    -7514 
   -7458    -7418    -7392    -7383    -7389    -7416    -7470    -7543 
   -7623    -7699    -7773    -7847    -7923    -7994    -8054    -8105 
   -8152    -8198    -8241    -8279    -8313    -8336    -8357    -8387 
   -8414    -8437    -8467    -8507    -8557    -8618    -8681    -8742 
   -8802    -8862    -8908    -8926    -8924    -8907    -8878    -8849 
   -8816    -8791    -8769    -8761    -8787    -8830    -8883    -8939 
   -8986    -9031    -9078    -9104    -9116    -9130    -9142    -9144 
   -9143    -9127    -9081    -9018    -8950    -8861    -8760    -8671 
   -8581    -8500    -8437    -8384    -8345    -8333    -8313    -8272 
   -8235    -8214    -8199    -8186    -8176    -8167    -8151    -8133 
   -8120    -8095    -8058    -8028    -8005    -7983    -7974    -7974 
   -7967    -7966    -7969    -7971    -7962    -7936    -7917    -7905 
   -7882    -7862    -7859    -7871    -7894    -7928    -7973    -8021 
   -8077    -8160    -8240    -8298    -8375    -8453    -8513    -8569 
   -8621    -8662    -8707    -8746    -8784    -8822    -8853    -8873 
   -8878    -8866    -8850    -8838    -8830    -8812    -8789    -8779 
   -8768    -8752    -8741    -8725    -8699    -8669    -8640    -8600 
   -8553    -8513    -8484    -8451    -8418    -8387    -8359    -8329 
   -8297    -8257    -8222    -8208    -8206    -8208    -8215    -8233 
   -8248    -8260    -8274    -8299    -8322    -8343    -8384    -8453 
   -8540    -8645    -8746    -8845    -8935    -8997    -9035    -9054 
   -9046    -9023    -9001    -8968    -8924    -8892    -8861    -8826 
   -8796    -8779    -8770    -8766    -8769    -8796    -8842    -8900 
   -8977    -9057    -9127    -9194    -9258    -9329    -9385    -9405 
   -9412    -9406    -9383    -9363    -9350    -9342    -9346    -9362 
   -9398    -9458    -9521    -9583    -9659    -9734    -9784    -9806 
   -9802    -9767    -9702    -9612    -9490    -9331    -9153    -8968 
   -8776    -8584    -8391    -8202    -8025    -7865    -7723    -7591 
   -7460    -7335    -7218    -7107    -6999    -6898    -6814    -6741 
   -6673    -6621    -6586    -6551    -6529    -6517    -6509    -6519 
   -6536    -6550    -6569    -6593    -6619    -6646    -6673    -6700 
   -6725    -6759    -6808    -6858    -6919    -6995    -7079    -7165 
   -7257    -7360    -7473    -7596    -7731    -7878    -8035    -8209 
   -8390    -8567    -8725    -8868    -9009    -9135    -9246    -9363 
   -9471    -9585    -9717    -9849    -9985   -10133   -10277   -10408 
  -10508   -10571   -10615   -10639   -10636   -10611   -10574   -10514 
  -10444   -10382   -10320   -10253   -10189   -10133   -10087   -10050 
  -10015    -9984    -9952    -9915    -9877    -9834    -9792    -9751 
   -9701    -9657    -9617    -9575    -9536    -9483    -9424    -9367 
   -9305    -9240    -9180    -9113    -9035    -8934    -8822    -8707 
   -8579    -8437    -8283    -8132    -7996    -7865    -7730    -7593 
   -7457    -7327    -7209    -7099    -7002    -6914    -6841    -6801 
   -6786    -6779    -6782    -6793    -6804    -6801    -6795    -6798 
   -6795    -6782    -6777    -6774    -6768    -6759    -6739    -6724 
   -6727    -6743    -6766    -6809    -6876    -6960    -7059    -7175 
   -7307    -7452    -7595    -7743    -7890    -8029    -8164    -8297 
   -8424    -8538    -8635    -8721    -8789    -8829    -8854    -8873 
   -8885    -8905    -8931    -8974    -9045    -9121    -9202    -9300 
   -9412    -9521    -9626    -9740    -9852    -9952   -10048   -10138 
  -10207   -10253   -10274   -10272   -10260   -10247   -10222   -10179 
  -10139   -10114   -10083   -10049   -10018    -9984    -9938    -9886 
   -9846    -9813    -9780    -9765    -9771    -9795    -9833    -9879 
   -9918    -9940    -9940    -9918    -9882    -9828    -9745    -9647 
   -9537    -9416    -9297    -9182    -9062    -8932    -8804    -8680 
   -8556    -8437    -8324    -8203    -8087    -7986    -7877    -7758 
   -7636    -7510    -7381    -7248    -7107    -6972    -6856    -6751 
   -6660    -6594    -6535    -6488    -6459    -6427    -6389    -6359 
   -6354    -6367    -6389    -6435    -6504    -6588    -6697    -6831 
   -6967    -7102    -7236    -7371    -7504    -7622    -7728    -7835 
   -7939    -8040    -8133    -8213    -8286    -8352    -8404    -8441 
   -8457    -8461    -8463    -8456    -8447    -8444    -8454    -8467 
   -8487    -8522    -8565    -8615    -8671    -8731    -8803    -8873 
   -8928    -8982    -9038    -9090    -9137    -9185    -9229    -9267 
   -9297    -9319    -9331    -9333    -9333    -9331    -9319    -9296 
   -9267    -9228    -9182    -9136    -9086    -9031    -8980    -8920 
   -8847    -8777    -8702    -8618    -8537    -8460    -8383    -8299 
   -8212    -8139    -8078    -8025    -7987    -7958    -7936    -7925 
   -7915    -7915    -7936    -7969    -8007    -8055    -8121    -8199 
   -8283    -8378    -8474    -8563    -8648    -8725    -8787    -8845 
   -8893    -8931    -8962    -8984    -8989    -8978    -8961    -8929 
   -8893    -8868    -8845    -8830    -8843    -8865    -8887    -8923 
   -8976    -9023    -9057    -9096    -9137    -9169    -9198    -9227 
   -9244    -9258    -9261    -9251    -9236    -9213    -9178    -9131 
   -9076    -9027    -8984    -8941    -8903    -8876    -8866    -8877 
   -8908    -8958    -9023    -9099    -9184    -9273    -9364    -9448 
   -9518    -9586    -9636    -9659    -9671    -9667    -9643    -9616 
   -9582    -9529    -9467    -9409    -9342    -9254    -9166    -9085 
   -9004    -8938    -8889    -8856    -8845    -8856    -8884    -8915 
   -8946    -8993    -9038    -9067    -9096    -9113    -9115    -9107 
   -9086    -9061    -9023    -8974    -8923    -8866    -8812    -8766 
   -8731    -8715    -8718    -8733    -8757    -8787    -8827    -8869 
   -8918    -8978    -9031    -9069    -9092    -9096    -9093    -9092 
   -9090    -9085    -9080    -9094    -9127    -9166    -9231    -9312 
   -9400    -9497    -9594    -9691    -9791    -9882    -9977   -10077 
  -10169   -10260   -10347   -10415   -10466   -10504   -10528   -10534 
  -10524   -10503   -10470   -10426   -10370   -10305   -10237   -10166 
  -10093   -10022    -9960    -9896    -9836    -9784    -9744    -9711 
   -9688    -9674    -9659    -9649    -9636    -9601    -9548    -9471 
   -9375    -9271    -9150    -9018    -8885    -8756    -8634    -8513 
   -8391    -8263    -8128    -7997    -7873    -7744    -7618    -7485 
   -7354    -7249    -7160    -7079    -7007    -6943    -6891    -6845 
   -6808    -6770    -6723    -6678    -6644    -6612    -6581    -6555 
   -6542    -6542    -6539    -6539    -6536    -6521    -6502    -6473 
   -6424    -6370    -6304    -6234    -6174    -6119    -6080    -6058 
   -6052    -6073    -6108    -6157    -6238    -6326    -6419    -6529 
   -6640    -6758    -6890    -7023    -7157    -7295    -7438    -7576 
   -7704    -7824    -7933    -8032    -8127    -8220    -8317    -8417 
   -8517    -8626    -8734    -8841    -8949    -9057    -9167    -9270 
   -9362    -9454    -9535    -9606    -9668    -9707    -9740    -9756 
   -9741    -9720    -9698    -9674    -9653    -9633    -9628    -9639 
   -9656    -9691    -9732    -9775    -9822    -9871    -9929    -9991 
  -10054   -10123   -10183   -10235   -10280   -10299   -10295   -10255 
  -10174   -10066    -9925    -9751    -9571    -9388    -9211    -9040 
   -8880    -8725    -8576    -8428    -8280    -8135    -7997    -7865 
   -7735    -7614    -7507    -7400    -7295    -7196    -7099    -7002 
   -6903    -6805    -6709    -6619    -6539    -6463    -6397    -6342 
   -6289    -6239    -6204    -6174    -6137    -6110    -6096    -6084 
   -6084    -6106    -6137    -6174    -6223    -6284    -6353    -6409 
   -6448    -6480    -6511    -6539    -6573    -6631    -6721    -6833 
   -6952    -7074    -7191    -7307    -7426    -7553    -7693    -7848 
   -8027    -8221    -8418    -8622    -8820    -9009    -9186    -9344 
   -9477    -9594    -9701    -9783    -9842    -9896    -9950   -10006 
  -10066   -10134   -10208   -10295   -10386   -10482   -10582   -10685 
  -10788   -10893   -10998   -11103   -11199   -11295   -11399   -11506 
  -11601   -11682   -11751   -11811   -11858   -11889   -11911   -11925 
  -11925   -11900   -11859   -11811   -11757   -11704   -11661   -11635 
  -11637   -11663   -11716   -11789   -11871   -11975   -12089   -12185 
  -12263   -12321   -12340   -12332   -12297   -12216   -12108   -11996 
  -11865   -11712   -11547   -11376   -11209   -11048   -10875   -10702 
  -10547   -10407   -10274   -10156   -10054    -9967    -9888    -9823 
   -9784    -9760    -9741    -9741    -9756    -9764    -9755    -9732 
   -9683    -9591    -9464    -9312    -9144    -8977    -8820    -8683 
   -8572    -8474    -8391    -8314    -8225    -8114    -7977    -7811 
   -7612    -7375    -7106    -6817    -6509    -6193    -5887    -5590 
   -5305    -5022    -4745    -4480    -4233    -4012    -3800    -3604 
   -3427    -3267    -3121    -2992    -2878    -2785    -2717    -2660 
   -2605    -2551    -2494    -2442    -2397    -2361    -2334    -2316 
   -2307    -2297    -2295    -2311    -2332    -2349    -2371    -2412 
   -2481    -2573    -2673    -2786    -2926    -3086    -3257    -3445 
   -3655    -3885    -4140    -4431    -4754    -5123    -5547    -6014 
   -6520    -7067    -7634    -8206    -8775    -9333    -9871   -10380 
  -10870   -11335   -11762   -12160   -12538   -12898   -13238   -13554 
  -13856   -14133   -14372   -14596   -14804   -14994   -15175   -15342 
  -15504   -15660   -15801   -15934   -16052   -16155   -16243   -16309 
  -16348   -16353   -16336   -16302   -16248   -16177   -16087   -15975 
  -15846   -15707   -15549   -15369   -15167   -14943   -14688   -14407 
  -14104   -13780   -13451   -13127   -12802   -12472   -12151   -11838 
  -11535   -11240   -10948   -10654   -10345   -10004    -9636    -9254 
   -8845    -8410    -7978    -7557    -7145    -6774    -6453    -6173 
   -5945    -5784    -5692    -5644    -5625    -5645    -5691    -5737 
   -5779    -5821    -5864    -5902    -5918    -5929    -5931    -5915 
   -5883    -5830    -5759    -5678    -5587    -5495    -5401    -5316 
   -5250    -5201    -5174    -5167    -5181    -5220    -5270    -5323 
   -5387    -5463    -5559    -5674    -5792    -5921    -6068    -6227 
   -6400    -6577    -6752    -6937    -7125    -7306    -7493    -7700 
   -7915    -8144    -8401    -8673    -8965    -9281    -9625    -9988 
  -10368   -10767   -11190   -11616   -12044   -12478   -12904   -13314 
  -13706   -14079   -14424   -14721   -14974   -15184   -15342   -15453 
  -15512   -15500   -15427   -15313   -15155   -14960   -14742   -14506 
  -14269   -14031   -13802   -13587   -13382   -13181   -12996   -12819 
  -12646   -12476   -12295   -12087   -11847   -11566   -11244   -10872 
  -10449    -9992    -9522    -9030    -8520    -8006    -7479    -6949 
   -6447    -5965    -5509    -5084    -4679    -4298    -3942    -3596 
   -3261    -2940    -2640    -2353    -2073    -1800    -1540    -1304 
   -1092     -901     -731     -565     -395     -230      -71       99 
     278      440      603      772      912     1020     1115     1181 
    1202     1182     1120     1013      869      700      511      306 
      97     -112     -324     -535     -745     -962    -1204    -1471 
   -1768    -2104    -2478    -2882    -3325    -3811    -4330    -4873 
   -5433    -6006    -6593    -7186    -7777    -8357    -8923    -9471 
   -9979   -10450   -10902   -11330   -11712   -12055   -12356   -12606 
  -12812   -12989   -13142   -13254   -13328   -13382   -13417   -13450 
  -13509   -13586   -13662   -13734   -13813   -13894   -13965   -14023 
  -14072   -14116   -14158   -14192   -14219   -14255   -14293   -14327 
  -14366   -14409   -14455   -14504   -14555   -14607   -14635   -14644 
  -14652   -14624   -14551   -14451   -14323   -14169   -13995   -13799 
  -13583   -13352   -13126   -12892   -12637   -12372   -12094   -11792 
  -11455   -11090   -10731   -10372    -9998    -9639    -9301    -8966 
   -8642    -8322    -7987    -7635    -7257    -6864    -6460    -6037 
   -5613    -5204    -4812    -4457    -4145    -3865    -3626    -3449 
   -3312    -3203    -3148    -3153    -3177    -3194    -3217    -3249 
   -3269    -3284    -3303    -3308    -3307    -3321    -3355    -3402 
   -3469    -3570    -3711    -3890    -4109    -4351    -4621    -4918 
   -5228    -5547    -5887    -6241    -6590    -6939    -7302    -7669 
   -8023    -8375    -8730    -9062    -9371    -9674    -9952   -10206 
  -10447   -10654   -10832   -10994   -11141   -11267   -11372   -11454 
  -11515   -11556   -11592   -11630   -11669   -11681   -11645   -11593 
  -11546   -11497   -11470   -11446   -11388   -11319   -11257   -11180 
  -11075   -10962   -10843   -10697   -10543   -10386   -10204   -10012 
   -9819    -9599    -9352    -9092    -8819    -8540    -8236    -7900 
   -7550    -7146    -6701    -6251    -5765    -5244    -4729    -4210 
   -3701    -3223    -2792    -2412    -2052    -1725    -1447    -1213 
   -1039     -928     -877     -911    -1015    -1192    -1451    -1776 
   -2165    -2610    -3090    -3588    -4102    -4623    -5136    -5647 
   -6164    -6679    -7192    -7703    -8199    -8687    -9155    -9587 
   -9989   -10351   -10666   -10941   -11180   -11371   -11512   -11614 
  -11689   -11723   -11715   -11684   -11624   -11545   -11455   -11344 
  -11209   -11053   -10895   -10748   -10606   -10476   -10355   -10250 
  -10164   -10084   -10022    -9987    -9964    -9971   -10012   -10073 
  -10162   -10270   -10380   -10507   -10652   -10793   -10925   -11048 
  -11148   -11219   -11272   -11291   -11263   -11217   -11148   -11034 
  -10895   -10728   -10524   -10295   -10046    -9771    -9474    -9192 
   -8912    -8621    -8357    -8124    -7896    -7696    -7515    -7348 
   -7195    -7044    -6895    -6763    -6640    -6536    -6446    -6361 
   -6297    -6235    -6181    -6145    -6118    -6106    -6097    -6087 
   -6087    -6080    -6064    -6043    -6008    -5948    -5853    -5729 
   -5584    -5420    -5251    -5088    -4904    -4704    -4513    -4321 
   -4116    -3902    -3701    -3519    -3342    -3180    -3065    -2998 
   -2949    -2933    -2963    -3026    -3118    -3241    -3402    -3604 
   -3842    -4122    -4452    -4818    -5202    -5605    -6042    -6502 
   -6957    -7411    -7867    -8314    -8757    -9182    -9576    -9950 
  -10295   -10608   -10901   -11165   -11408   -11646   -11862   -12055 
  -12221   -12367   -12503   -12625   -12712   -12768   -12798   -12798 
  -12772   -12726   -12644   -12530   -12396   -12231   -12029   -11812 
  -11599   -11392   -11203   -11036   -10889   -10763   -10660   -10567 
  -10481   -10404   -10343   -10296   -10258   -10228   -10207   -10196 
  -10204   -10211   -10220   -10220   -10187   -10142   -10079    -9987 
   -9867    -9709    -9522    -9306    -9067    -8820    -8553    -8283 
   -8010    -7722    -7443    -7165    -6864    -6566    -6262    -5953 
   -5651    -5352    -5070    -4800    -4546    -4332    -4147    -3994 
   -3886    -3821    -3802    -3821    -3874    -3963    -4074    -4197 
   -4336    -4486    -4649    -4827    -5007    -5200    -5417    -5641 
   -5875    -6122    -6380    -6646    -6899    -7134    -7354    -7542 
   -7695    -7830    -7950    -8047    -8120    -8167    -8190    -8202 
   -8215    -8228    -8233    -8235    -8228    -8210    -8175    -8125 
   -8077    -8033    -7989    -7938    -7885    -7848    -7830    -7809 
   -7789    -7780    -7788    -7807    -7839    -7894    -7986    -8110 
   -8263    -8459    -8692    -8958    -9267    -9602    -9950   -10323 
  -10712   -11118   -11519   -11884   -12224   -12525   -12765   -12954 
  -13076   -13116   -13088   -12993   -12855   -12688   -12482   -12263 
  -12055   -11859   -11669   -11472   -11271   -11079   -10891   -10704 
  -10493   -10266   -10050    -9837    -9626    -9437    -9265    -9113 
   -9000    -8914    -8854    -8827    -8827    -8847    -8877    -8915 
   -8964    -9015    -9055    -9085    -9115    -9140    -9157    -9178 
   -9204    -9227    -9244    -9232    -9182    -9093    -8964    -8785 
   -8553    -8278    -7974    -7641    -7276    -6909    -6555    -6211 
   -5884    -5587    -5336    -5127    -4943    -4795    -4679    -4584 
   -4509    -4442    -4402    -4396    -4392    -4399    -4452    -4538 
   -4653    -4795    -4968    -5161    -5360    -5571    -5791    -6003 
   -6205    -6403    -6597    -6799    -6999    -7192    -7385    -7576 
   -7765    -7943    -8106    -8252    -8387    -8492    -8557    -8599 
   -8618    -8608    -8596    -8583    -8571    -8576    -8600    -8645 
   -8710    -8795    -8903    -9020    -9163    -9343    -9537    -9751 
   -9987   -10242   -10503   -10777   -11079   -11391   -11709   -12046 
  -12376   -12700   -13035   -13354   -13659   -13953   -14207   -14438 
  -14646   -14806   -14945   -15061   -15129   -15175   -15223   -15239 
