Origin Time       2016/04/16 01:25:00
Lat.              32.753
Long.             130.762
Depth. (km)       12
Mag.              7.3
Station Code      TKS007
Station Lat.      34.0905
Station Long.     134.2850
Station Height(m) 48
Record Time       2016/04/16 01:26:15
Sampling Freq(Hz) 100Hz
Duration Time(s)  137
Dir.              E-W
Scale Factor      7845(gal)/8223790
Max. Acc. (gal)   6.974
Last Correction   2016/04/16 01:25:59
Memo.             
[...]
   -4131    -4137    -4145    -4149    -4156    -4164    -4172    -4192 
   -4225    -4261    -4307    -4359    -4411    -4473    -4544    -4619 
   -4699    -4781    -4857    -4928    -4996    -5054    -5104    -5146 
   -5171    -5188    -5201    -5217    -5242    -5267    -5287    -5310 
   -5332    -5352    -5377    -5404    -5432    -5475    -5528    -5580 
   -5641    -5698    -5737    -5769    -5798    -5810    -5818    -5823 
   -5815    -5800    -5791    -5778    -5763    -5752    -5741    -5727 
   -5717    -5694    -5665    -5637    -5595    -5539    -5485    -5428 
   -5362    -5306    -5260    -5220    -5190    -5159    -5123    -5089 
   -5050    -4999    -4954    -4918    -4873    -4831    -4800    -4770 
   -4750    -4741    -4730    -4719    -4718    -4718    -4710    -4706 
   -4703    -4700    -4693    -4681    -4669    -4657    -4641    -4626 
   -4606    -4579    -4545    -4506    -4456    -4405    -4357    -4305 
   -4248    -4199    -4137    -4066    -4002    -3940    -3882    -3840 
   -3808    -3784    -3774    -3774    -3785    -3807    -3825    -3847 
   -3878    -3908    -3936    -3973    -4013    -4064    -4139    -4217 
   -4288    -4367    -4440    -4492    -4533    -4558    -4553    -4530 
   -4496    -4445    -4383    -4311    -4230    -4152    -4078    -4002 
   -3935    -3882    -3831    -3782    -3747    -3713    -3681    -3657 
   -3632    -3609    -3588    -3561    -3526    -3485    -3439    -3385 
   -3330    -3265    -3187    -3109    -3033    -2955    -2887    -2841 
   -2810    -2791    -2786    -2789    -2802    -2821    -2839    -2855 
   -2875    -2902    -2938    -2983    -3032    -3080    -3133    -3194 
   -3260    -3325    -3391    -3459    -3526    -3589    -3653    -3719 
   -3789    -3854    -3908    -3950    -3983    -4009    -4028    -4045 
   -4062    -4068    -4078    -4093    -4107    -4131    -4153    -4172 
   -4194    -4214    -4223    -4240    -4266    -4287    -4313    -4349 
   -4383    -4421    -4469    -4518    -4567    -4629    -4691    -4746 
   -4806    -4861    -4914    -4974    -5030    -5071    -5109    -5140 
   -5164    -5192    -5217    -5246    -5281    -5319    -5351    -5374 
   -5387    -5400    -5409    -5416    -5428    -5448    -5467    -5487 
   -5505    -5516    -5519    -5522    -5524    -5528    -5537    -5543 
   -5537    -5521    -5491    -5448    -5405    -5360    -5308    -5255 
   -5215    -5178    -5155    -5143    -5131    -5130    -5131    -5130 
   -5130    -5130    -5116    -5098    -5086    -5063    -5034    -5005 
   -4961    -4908    -4865    -4816    -4765    -4725    -4676    -4627 
   -4600    -4581    -4568    -4568    -4571    -4556    -4541    -4525 
   -4500    -4482    -4467    -4442    -4417    -4391    -4353    -4309 
   -4263    -4210    -4156    -4105    -4059    -4028    -4005    -3987 
   -3979    -3981    -3984    -3991    -3997    -3994    -3991    -3987 
   -3981    -3973    -3965    -3956    -3950    -3944    -3932    -3921 
   -3915    -3906    -3899    -3889    -3871    -3852    -3828    -3802 
   -3788    -3780    -3770    -3770    -3774    -3776    -3782    -3792 
   -3800    -3812    -3836    -3859    -3885    -3925    -3965    -3998 
   -4035    -4074    -4110    -4148    -4185    -4220    -4263    -4311 
   -4357    -4409    -4461    -4510    -4558    -4606    -4648    -4691 
   -4731    -4762    -4797    -4841    -4881    -4923    -4972    -5012 
   -5047    -5080    -5100    -5113    -5123    -5116    -5101    -5084 
   -5053    -5011    -4976    -4939    -4900    -4866    -4833    -4797 
   -4761    -4725    -4692    -4666    -4645    -4638    -4649    -4662 
   -4671    -4677    -4683    -4681    -4677    -4665    -4648    -4627 
   -4602    -4576    -4552    -4519    -4480    -4442    -4399    -4351 
   -4309    -4263    -4213    -4170    -4124    -4068    -4016    -3969 
   -3919    -3874    -3828    -3774    -3716    -3657    -3588    -3524 
   -3468    -3410    -3360    -3323    -3281    -3235    -3187    -3130 
   -3076    -3036    -3002    -2979    -2972    -2979    -3003    -3046 
   -3094    -3145    -3204    -3262    -3317    -3377    -3434    -3480 
   -3519    -3543    -3551    -3551    -3543    -3532    -3530    -3532 
   -3543    -3563    -3589    -3623    -3658    -3700    -3754    -3819 
   -3898    -3989    -4078    -4163    -4236    -4294    -4341    -4386 
   -4426    -4469    -4519    -4571    -4622    -4672    -4722    -4769 
   -4808    -4842    -4866    -4881    -4896    -4908    -4916    -4935 
   -4961    -4984    -5012    -5042    -5062    -5078    -5093    -5101 
   -5108    -5112    -5100    -5084    -5071    -5060    -5060    -5071 
   -5084    -5101    -5130    -5157    -5185    -5220    -5254    -5285 
   -5324    -5364    -5395    -5432    -5467    -5487    -5508    -5528 
   -5535    -5533    -5517    -5481    -5443    -5398    -5336    -5270 
   -5205    -5135    -5063    -4997    -4927    -4851    -4776    -4696 
   -4614    -4535    -4460    -4387    -4321    -4256    -4192    -4132 
   -4066    -4002    -3943    -3888    -3835    -3782    -3724    -3667 
   -3618    -3572    -3534    -3503    -3465    -3429    -3403    -3384 
   -3379    -3392    -3411    -3431    -3459    -3491    -3530    -3581 
   -3630    -3680    -3738    -3796    -3850    -3905    -3951    -3979 
   -4000    -4008    -3997    -3971    -3931    -3873    -3812    -3743 
   -3663    -3584    -3503    -3411    -3319    -3227    -3132    -3044 
   -2967    -2894    -2829    -2778    -2740    -2721    -2721    -2740 
   -2782    -2840    -2909    -2994    -3099    -3226    -3365    -3510 
   -3647    -3774    -3902    -4021    -4128    -4233    -4330    -4410 
   -4483    -4541    -4576    -4599    -4606    -4595    -4572    -4544 
   -4514    -4488    -4469    -4450    -4433    -4419    -4405    -4386 
   -4367    -4348    -4326    -4306    -4287    -4266    -4237    -4202 
   -4164    -4126    -4090    -4066    -4048    -4035    -4036    -4050 
   -4062    -4077    -4090    -4098    -4110    -4122    -4137    -4162 
   -4189    -4215    -4255    -4310    -4369    -4436    -4510    -4576 
   -4637    -4700    -4757    -4807    -4855    -4896    -4928    -4969 
   -5008    -5035    -5060    -5081    -5092    -5101    -5111    -5116 
   -5125    -5139    -5151    -5161    -5169    -5171    -5161    -5135 
   -5089    -5027    -4953    -4857    -4743    -4612    -4453    -4271 
   -4082    -3883    -3673    -3459    -3240    -3005    -2759    -2511 
   -2261    -2015    -1777    -1553    -1348    -1165    -1008     -872 
    -761     -688     -653     -649     -679     -743     -835     -958 
   -1120    -1308    -1513    -1741    -1980    -2220    -2467    -2721 
   -2976    -3229    -3470    -3696    -3902    -4077    -4217    -4329 
   -4411    -4467    -4507    -4540    -4568    -4592    -4614    -4630 
   -4645    -4662    -4684    -4707    -4734    -4773    -4828    -4901 
   -4986    -5092    -5221    -5360    -5509    -5683    -5875    -6081 
   -6308    -6551    -6791    -7022    -7249    -7468    -7668    -7846 
   -8004    -8152    -8291    -8417    -8540    -8660    -8769    -8883 
   -9000    -9107    -9216    -9331    -9439    -9540    -9641    -9741 
   -9832    -9917   -10002   -10080   -10145   -10197   -10241   -10266 
  -10274   -10266   -10241   -10195   -10126   -10035    -9929    -9806 
   -9659    -9491    -9312    -9120    -8923    -8726    -8517    -8289 
   -8043    -7789    -7524    -7248    -6949    -6632    -6312    -5988 
   -5652    -5314    -4981    -4641    -4297    -3948    -3589    -3230 
   -2882    -2543    -2219    -1915    -1630    -1366    -1121     -899 
    -695     -508     -338     -190      -62       51      147      225 
     298      355      399      438      469      486      492      488 
     477      460      433      411      391      351      288      217 
     129       31      -87     -228     -388     -558     -738     -927 
   -1115    -1300    -1485    -1660    -1826    -1996    -2166    -2334 
   -2504    -2674    -2837    -2991    -3140    -3284    -3431    -3577 
   -3713    -3844    -3978    -4102    -4209    -4298    -4365    -4410 
   -4436    -4441    -4436    -4428    -4409    -4374    -4330    -4275 
   -4197    -4099    -3983    -3851    -3709    -3563    -3411    -3262 
   -3118    -2978    -2853    -2747    -2660    -2600    -2559    -2532 
   -2519    -2512    -2513    -2527    -2550    -2573    -2597    -2627 
   -2658    -2690    -2721    -2740    -2745    -2731    -2698    -2648 
   -2582    -2494    -2388    -2263    -2120    -1966    -1809    -1638 
   -1464    -1289    -1100     -911     -734     -568     -422     -302 
    -199     -112      -47        2       29       28        2      -47 
    -128     -238     -390     -584     -812    -1065    -1347    -1653 
   -1987    -2350    -2733    -3130    -3547    -3978    -4405    -4834 
   -5260    -5661    -6037    -6388    -6708    -7007    -7288    -7548 
   -7797    -8025    -8235    -8431    -8612    -8776    -8920    -9051 
   -9169    -9271    -9362    -9440    -9504    -9558    -9601    -9634 
   -9656    -9661    -9660    -9647    -9620    -9598    -9585    -9576 
   -9582    -9601    -9618    -9633    -9648    -9660    -9668    -9672 
   -9671    -9657    -9634    -9599    -9558    -9516    -9471    -9428 
   -9391    -9370    -9360    -9364    -9374    -9383    -9388    -9382 
   -9371    -9355    -9325    -9286    -9238    -9173    -9096    -9008 
   -8896    -8752    -8583    -8383    -8151    -7897    -7618    -7315 
   -7005    -6686    -6363    -6057    -5765    -5489    -5242    -5022 
   -4818    -4644    -4500    -4375    -4263    -4172    -4095    -4039 
   -4000    -3969    -3955    -3959    -3975    -3997    -4031    -4071 
   -4105    -4129    -4148    -4156    -4155    -4155    -4145    -4131 
   -4122    -4114    -4104    -4094    -4079    -4052    -4017    -3967 
   -3909    -3851    -3796    -3744    -3700    -3667    -3653    -3647 
   -3647    -3651    -3663    -3673    -3674    -3681    -3693    -3705 
   -3723    -3738    -3736    -3728    -3719    -3705    -3692    -3680 
   -3670    -3667    -3667    -3663    -3658    -3651    -3643    -3634 
   -3612    -3574    -3527    -3453    -3341    -3207    -3046    -2863 
   -2681    -2488    -2278    -2070    -1863    -1647    -1437    -1233 
   -1030     -837     -652     -476     -315     -174      -43       79 
     195      313      436      558      679      788      892      993 
    1081     1152     1210     1254     1291     1325     1354     1382 
    1414     1448     1487     1525     1552     1563     1552     1528 
    1487     1418     1331     1242     1147     1032      893      753 
     608      444      274       95      -99     -303     -514     -730 
    -954    -1205    -1476    -1761    -2069    -2398    -2745    -3107 
   -3480    -3854    -4214    -4558    -4876    -5163    -5424    -5649 
   -5838    -5996    -6118    -6207    -6282    -6342    -6380    -6405 
   -6424    -6426    -6423    -6431    -6442    -6458    -6500    -6567 
   -6659    -6782    -6933    -7109    -7315    -7553    -7812    -8073 
   -8334    -8596    -8846    -9076    -9293    -9497    -9688    -9867 
  -10027   -10173   -10301   -10396   -10458   -10493   -10498   -10474 
  -10426   -10362   -10293   -10219   -10135   -10039    -9929    -9803 
   -9661    -9510    -9346    -9162    -8972    -8768    -8542    -8314 
   -8081    -7831    -7581    -7331    -7072    -6812    -6552    -6295 
   -6050    -5810    -5567    -5325    -5076    -4818    -4560    -4305 
   -4055    -3813    -3576    -3353    -3148    -2959    -2791    -2651 
   -2544    -2478    -2439    -2425    -2446    -2488    -2540    -2609 
   -2690    -2785    -2895    -3017    -3145    -3284    -3424    -3555 
   -3688    -3816    -3932    -4048    -4156    -4251    -4340    -4413 
   -4473    -4538    -4596    -4649    -4712    -4781    -4855    -4950 
   -5062    -5181    -5298    -5413    -5524    -5632    -5738    -5842 
   -5953    -6069    -6185    -6296    -6392    -6469    -6529    -6566 
   -6583    -6589    -6571    -6531    -6469    -6374    -6252    -6108 
   -5935    -5737    -5525    -5293    -5035    -4760    -4469    -4174 
   -3886    -3608    -3334    -3082    -2855    -2650    -2474    -2328 
   -2208    -2107    -2023    -1962    -1926    -1922    -1944    -1979 
   -2029    -2096    -2165    -2231    -2289    -2322    -2323    -2297 
   -2242    -2150    -2033    -1888    -1723    -1543    -1347    -1136 
    -907     -662     -430     -225      -40      114      236      333 
     403      433      433      419      392      349      301      256 
     218      194      178      166      163      170      186      203 
     217      230      238      233      222      202      166      116 
      49      -41     -149     -261     -387     -517     -650     -783 
    -905    -1020    -1136    -1252    -1372    -1512    -1660    -1817 
   -1985    -2157    -2334    -2523    -2712    -2901    -3100    -3314 
   -3539    -3781    -4036    -4305    -4576    -4849    -5121    -5394 
   -5670    -5946    -6223    -6501    -6771    -7038    -7299    -7546 
   -7782    -8013    -8230    -8441    -8658    -8876    -9094    -9322 
   -9553    -9778    -9994   -10204   -10405   -10601   -10787   -10963 
  -11124   -11263   -11375   -11454   -11503   -11527   -11527   -11507 
  -11475   -11443   -11416   -11396   -11383   -11377   -11381   -11384 
  -11385   -11387   -11391   -11404   -11429   -11458   -11488   -11524 
  -11561   -11591   -11616   -11642   -11662   -11673   -11681   -11684 
  -11674   -11663   -11655   -11645   -11635   -11619   -11596   -11577 
  -11558   -11529   -11499   -11469   -11427   -11379   -11327   -11257 
  -11176   -11088   -10983   -10860   -10727   -10588   -10442   -10281 
  -10107    -9923    -9720    -9497    -9255    -8988    -8702    -8403 
   -8083    -7744    -7384    -6994    -6582    -6158    -5714    -5267 
   -4824    -4386    -3963    -3558    -3160    -2776    -2415    -2066 
   -1740    -1437    -1143     -864     -612     -376     -152       59 
     261      448      627      808      982     1146     1294     1424 
    1539     1642     1728     1792     1833     1848     1850     1845 
    1817     1777     1729     1669     1611     1557     1499     1447 
    1398     1351     1313     1282     1259     1248     1251     1260 
    1282     1314     1344     1385     1431     1457     1463     1468 
    1467     1445     1410     1359     1287     1206     1116     1009 
     896      780      654      526      396      252       98      -45 
    -183     -319     -449     -572     -700     -838     -980    -1124 
   -1270    -1418    -1566    -1706    -1831    -1938    -2034    -2114 
   -2174    -2228    -2277    -2307    -2324    -2338    -2350    -2361 
   -2362    -2357    -2355    -2361    -2367    -2385    -2415    -2451 
   -2498    -2560    -2639    -2729    -2840    -2972    -3127    -3308 
   -3510    -3728    -3969    -4218    -4476    -4747    -5034    -5320 
   -5610    -5911    -6212    -6513    -6814    -7105    -7389    -7669 
   -7933    -8186    -8431    -8655    -8861    -9057    -9240    -9405 
   -9552    -9683    -9786    -9863    -9919    -9949    -9960    -9956 
   -9937    -9906    -9869    -9822    -9757    -9684    -9603    -9506 
   -9387    -9246    -9076    -8877    -8665    -8437    -8193    -7936 
   -7674    -7414    -7156    -6893    -6623    -6353    -6081    -5817 
   -5568    -5339    -5131    -4942    -4768    -4608    -4455    -4295 
   -4135    -3979    -3831    -3692    -3565    -3453    -3362    -3299 
   -3253    -3222    -3202    -3184    -3164    -3140    -3106    -3059 
   -3001    -2933    -2862    -2789    -2717    -2652    -2592    -2543 
   -2512    -2498    -2508    -2544    -2604    -2674    -2755    -2843 
   -2938    -3038    -3141    -3250    -3365    -3488    -3622    -3767 
   -3920    -4082    -4253    -4418    -4572    -4718    -4854    -4972 
   -5074    -5166    -5248    -5319    -5382    -5443    -5493    -5529 
   -5556    -5575    -5587    -5595    -5599    -5599    -5598    -5590 
   -5572    -5540    -5486    -5408    -5310    -5202    -5092    -4976 
   -4852    -4733    -4610    -4484    -4356    -4222    -4082    -3937 
   -3792    -3642    -3485    -3319    -3154    -2991    -2825    -2658 
   -2497    -2347    -2208    -2083    -1972    -1878    -1798    -1734 
   -1696    -1687    -1706    -1749    -1822    -1926    -2052    -2195 
   -2355    -2521    -2682    -2841    -2997    -3140    -3273    -3403 
   -3522    -3631    -3736    -3828    -3906    -3970    -4013    -4036 
   -4040    -4024    -4005    -3986    -3964    -3942    -3915    -3882 
   -3848    -3811    -3763    -3707    -3643    -3573    -3487    -3385 
   -3273    -3152    -3030    -2913    -2795    -2683    -2577    -2484 
   -2411    -2361    -2328    -2311    -2301    -2296    -2295    -2289 
   -2280    -2266    -2251    -2239    -2235    -2230    -2228    -2239 
   -2254    -2278    -2313    -2354    -2408    -2479    -2563    -2659 
   -2771    -2895    -3034    -3192    -3360    -3532    -3721    -3920 
   -4120    -4318    -4517    -4720    -4926    -5127    -5328    -5526 
   -5715    -5888    -6053    -6201    -6327    -6435    -6529    -6602 
   -6663    -6713    -6750    -6779    -6805    -6817    -6828    -6836 
   -6837    -6844    -6851    -6853    -6864    -6886    -6912    -6947 
   -6993    -7037    -7076    -7109    -7136    -7160    -7183    -7206 
   -7233    -7264    -7295    -7326    -7353    -7372    -7384    -7381 
   -7365    -7340    -7314    -7283    -7245    -7207    -7169    -7127 
   -7078    -7018    -6948    -6868    -6779    -6678    -6567    -6446 
   -6318    -6185    -6048    -5913    -5776    -5633    -5498    -5363 
   -5212    -5053    -4889    -4716    -4533    -4344    -4148    -3951 
   -3757    -3559    -3357    -3148    -2936    -2727    -2521    -2316 
   -2114    -1919    -1732    -1552    -1389    -1243    -1120    -1023 
    -943     -885     -853     -834     -826     -828     -846     -870 
    -892     -916     -947     -985    -1036    -1094    -1161    -1240 
   -1337    -1449    -1571    -1699    -1829    -1956    -2073    -2182 
   -2286    -2390    -2493    -2593    -2688    -2791    -2896    -2997 
   -3092    -3180    -3256    -3322    -3380    -3426    -3468    -3504 
   -3535    -3569    -3607    -3639    -3667    -3701    -3734    -3767 
   -3811    -3854    -3901    -3963    -4028    -4090    -4163    -4243 
   -4318    -4395    -4468    -4523    -4563    -4585    -4584    -4563 
   -4522    -4461    -4383    -4297    -4197    -4083    -3959    -3823 
   -3672    -3511    -3348    -3177    -3001    -2818    -2632    -2448 
   -2269    -2091    -1923    -1769    -1620    -1476    -1345    -1217 
   -1097     -992     -896     -808     -737     -680     -637     -604 
    -581     -566     -553     -544     -542     -549     -565     -587 
    -615     -648     -680     -715     -757     -805     -866     -945 
   -1043    -1156    -1285    -1431    -1593    -1763    -1937    -2111 
   -2289    -2466    -2639    -2803    -2967    -3138    -3310    -3491 
   -3684    -3875    -4067    -4263    -4453    -4635    -4811    -4968 
   -5113    -5265    -5413    -5557    -5707    -5860    -6012    -6176 
   -6351    -6539    -6735    -6936    -7136    -7338    -7539    -7738 
