Origin Time       2016/04/16 01:25:00
Lat.              32.753
Long.             130.762
Depth. (km)       12
Mag.              7.3
Station Code      TKS006
Station Lat.      33.6692
Station Long.     134.4192
Station Height(m) 2
Record Time       2016/04/16 01:26:10
Sampling Freq(Hz) 100Hz
Duration Time(s)  126
Dir.              E-W
Scale Factor      7845(gal)/8223790
Max. Acc. (gal)   4.055
Last Correction   2016/04/16 01:26:11
Memo.             
[...]
   -3163    -3280    -3385    -3468    -3534    -3588    -3651    -3730 
   -3809    -3882    -3920    -3917    -3904    -3871    -3815    -3761 
   -3708    -3636    -3547    -3476    -3423    -3364    -3300    -3237 
   -3163    -3087    -3022    -2979    -2971    -2999    -3042    -3086 
   -3136    -3194    -3249    -3296    -3327    -3327    -3300    -3248 
   -3164    -3065    -2976    -2909    -2879    -2880    -2880    -2863 
   -2829    -2790    -2775    -2792    -2848    -2936    -3024    -3109 
   -3194    -3264    -3342    -3454    -3557    -3620    -3659    -3681 
   -3661    -3615    -3580    -3549    -3508    -3474    -3438    -3380 
   -3316    -3277    -3262    -3261    -3314    -3423    -3532    -3632 
   -3727    -3793    -3838    -3875    -3909    -3929    -3940    -3956 
   -3958    -3924    -3875    -3817    -3727    -3611    -3480    -3334 
   -3177    -3024    -2872    -2731    -2612    -2513    -2431    -2385 
   -2369    -2359    -2366    -2394    -2436    -2511    -2620    -2744 
   -2891    -3065    -3256    -3462    -3670    -3867    -4060    -4228 
   -4344    -4405    -4409    -4348    -4233    -4094    -3936    -3763 
   -3586    -3402    -3203    -3009    -2828    -2659    -2533    -2455 
   -2400    -2365    -2351    -2359    -2384    -2430    -2501    -2600 
   -2725    -2876    -3051    -3231    -3384    -3501    -3596    -3670 
   -3726    -3763    -3808    -3874    -3960    -4062    -4168    -4263 
   -4342    -4402    -4418    -4390    -4341    -4276    -4187    -4087 
   -3989    -3885    -3767    -3640    -3500    -3352    -3204    -3038 
   -2863    -2709    -2562    -2415    -2290    -2196    -2118    -2074 
   -2079    -2102    -2149    -2236    -2336    -2431    -2536    -2646 
   -2745    -2844    -2945    -3052    -3168    -3288    -3404    -3514 
   -3612    -3692    -3748    -3774    -3773    -3753    -3723    -3696 
   -3669    -3638    -3622    -3622    -3615    -3607    -3605    -3595 
   -3570    -3555    -3546    -3542    -3566    -3615    -3658    -3688 
   -3703    -3682    -3622    -3544    -3468    -3388    -3319    -3273 
   -3246    -3222    -3176    -3111    -3032    -2929    -2805    -2667 
   -2529    -2423    -2355    -2317    -2315    -2349    -2401    -2463 
   -2523    -2571    -2610    -2646    -2694    -2767    -2857    -2961 
   -3084    -3222    -3364    -3492    -3601    -3690    -3763    -3807 
   -3831    -3861    -3902    -3951    -3975    -3967    -3946    -3912 
   -3869    -3835    -3817    -3820    -3840    -3866    -3897    -3917 
   -3932    -3955    -3962    -3942    -3909    -3878    -3856    -3828 
   -3788    -3734    -3655    -3557    -3453    -3365    -3300    -3256 
   -3227    -3213    -3202    -3179    -3148    -3098    -3034    -2980 
   -2933    -2887    -2863    -2876    -2913    -2961    -3021    -3084 
   -3156    -3226    -3291    -3362    -3437    -3500    -3561    -3615 
   -3670    -3742    -3827    -3905    -3974    -4028    -4058    -4067 
   -4063    -4036    -3996    -3950    -3896    -3838    -3788    -3731 
   -3659    -3596    -3535    -3477    -3442    -3420    -3407    -3411 
   -3435    -3488    -3568    -3655    -3736    -3808    -3855    -3866 
   -3855    -3828    -3781    -3730    -3684    -3640    -3612    -3595 
   -3577    -3568    -3561    -3538    -3499    -3449    -3391    -3334 
   -3283    -3245    -3238    -3254    -3273    -3299    -3330    -3341 
   -3331    -3312    -3289    -3271    -3257    -3265    -3291    -3308 
   -3327    -3342    -3330    -3292    -3231    -3157    -3090    -3029 
   -2986    -2972    -2976    -2992    -3009    -3026    -3042    -3036 
   -3002    -2952    -2901    -2863    -2852    -2871    -2902    -2924 
   -2943    -2957    -2967    -2980    -2998    -3013    -3011    -3009 
   -3025    -3048    -3090    -3160    -3229    -3283    -3326    -3364 
   -3399    -3427    -3457    -3487    -3500    -3500    -3497    -3491 
   -3488    -3489    -3487    -3477    -3456    -3410    -3334    -3241 
   -3133    -3014    -2903    -2816    -2747    -2701    -2679    -2678 
   -2698    -2740    -2797    -2856    -2929    -3010    -3087    -3173 
   -3273    -3395    -3544    -3715    -3893    -4062    -4205    -4321 
   -4396    -4434    -4434    -4398    -4332    -4243    -4136    -4023 
   -3905    -3804    -3723    -3640    -3563    -3485    -3402    -3325 
   -3244    -3161    -3117    -3114    -3146    -3210    -3289    -3388 
   -3507    -3624    -3744    -3871    -3983    -4074    -4164    -4251 
   -4326    -4393    -4453    -4494    -4518    -4514    -4464    -4390 
   -4302    -4197    -4087    -3981    -3877    -3769    -3653    -3543 
   -3449    -3365    -3277    -3194    -3133    -3087    -3057    -3037 
   -3032    -3052    -3098    -3168    -3249    -3342    -3447    -3546 
   -3628    -3700    -3762    -3813    -3858    -3897    -3925    -3928 
   -3905    -3865    -3821    -3776    -3734    -3699    -3667    -3638 
   -3603    -3555    -3507    -3477    -3445    -3404    -3368    -3341 
   -3326    -3321    -3336    -3379    -3423    -3453    -3478    -3487 
   -3470    -3442    -3399    -3338    -3279    -3232    -3213    -3218 
   -3232    -3262    -3284    -3275    -3223    -3134    -3041    -2951 
   -2874    -2847    -2856    -2867    -2882    -2906    -2926    -2930 
   -2921    -2907    -2893    -2882    -2880    -2875    -2866    -2866 
   -2866    -2868    -2891    -2938    -2988    -3032    -3079    -3117 
   -3138    -3148    -3150    -3165    -3187    -3190    -3186    -3192 
   -3199    -3192    -3192    -3225    -3276    -3326    -3372    -3407 
   -3412    -3388    -3331    -3226    -3107    -2984    -2849    -2732 
   -2625    -2516    -2425    -2353    -2282    -2230    -2211    -2196 
   -2170    -2153    -2161    -2181    -2223    -2315    -2450    -2590 
   -2727    -2863    -2999    -3127    -3240    -3338    -3445    -3574 
   -3697    -3796    -3877    -3923    -3927    -3901    -3852    -3805 
   -3781    -3774    -3780    -3804    -3825    -3823    -3797    -3748 
   -3670    -3574    -3485    -3411    -3354    -3323    -3308    -3294 
   -3271    -3245    -3217    -3191    -3172    -3148    -3113    -3084 
   -3063    -3044    -3042    -3055    -3068    -3105    -3171    -3254 
   -3360    -3483    -3592    -3681    -3770    -3871    -3979    -4101 
   -4240    -4368    -4448    -4475    -4457    -4399    -4317    -4218 
   -4106    -4003    -3910    -3816    -3717    -3604    -3472    -3312 
   -3134    -2961    -2797    -2650    -2542    -2477    -2450    -2459 
   -2506    -2586    -2671    -2749    -2828    -2902    -2976    -3065 
   -3172    -3311    -3504    -3738    -3983    -4203    -4380    -4502 
   -4552    -4540    -4495    -4441    -4387    -4333    -4279    -4228 
   -4174    -4104    -4016    -3904    -3769    -3631    -3485    -3325 
   -3164    -3017    -2882    -2764    -2669    -2590    -2520    -2465 
   -2432    -2412    -2413    -2452    -2502    -2546    -2596    -2631 
   -2629    -2627    -2643    -2658    -2682    -2729    -2790    -2855 
   -2938    -3038    -3117    -3169    -3219    -3231    -3194    -3169 
   -3168    -3165    -3167    -3194    -3244    -3303    -3375    -3462 
   -3558    -3655    -3753    -3834    -3885    -3925    -3950    -3956 
   -3971    -4001    -4040    -4091    -4148    -4205    -4260    -4280 
   -4263    -4230    -4199    -4164    -4117    -4055    -3989    -3912 
   -3835    -3757    -3676    -3597    -3522    -3443    -3357    -3260 
   -3173    -3100    -3021    -2930    -2840    -2749    -2656    -2581 
   -2524    -2501    -2532    -2604    -2691    -2792    -2899    -3002 
   -3090    -3173    -3272    -3369    -3474    -3595    -3726    -3846 
   -3935    -4000    -4031    -4020    -3990    -3954    -3902    -3848 
   -3793    -3721    -3634    -3551    -3480    -3393    -3296    -3194 
   -3080    -2956    -2821    -2695    -2602    -2543    -2506    -2493 
   -2508    -2520    -2497    -2475    -2475    -2478    -2500    -2558 
   -2639    -2731    -2821    -2898    -2971    -3051    -3136    -3215 
   -3284    -3365    -3445    -3501    -3542    -3576    -3577    -3539 
   -3472    -3380    -3277    -3175    -3079    -3013    -2972    -2948 
   -2947    -2959    -2982    -3028    -3086    -3148    -3217    -3273 
   -3304    -3308    -3296    -3272    -3229    -3169    -3105    -3030 
   -2947    -2847    -2725    -2590    -2469    -2357    -2234    -2133 
   -2070    -2022    -1991    -1996    -2031    -2097    -2189    -2299 
   -2427    -2554    -2673    -2809    -2963    -3115    -3281    -3464 
   -3639    -3788    -3909    -4016    -4117    -4199    -4252    -4268 
   -4266    -4253    -4212    -4166    -4135    -4099    -4063    -4032 
   -3989    -3932    -3865    -3786    -3700    -3607    -3539    -3508 
   -3504    -3537    -3593    -3662    -3744    -3834    -3921    -4012 
   -4109    -4199    -4280    -4374    -4471    -4560    -4660    -4768 
   -4876    -4993    -5103    -5186    -5250    -5285    -5290    -5265 
   -5198    -5103    -4994    -4870    -4720    -4554    -4364    -4137 
   -3870    -3588    -3316    -3063    -2844    -2678    -2554    -2459 
   -2380    -2312    -2265    -2238    -2222    -2239    -2308    -2435 
   -2609    -2829    -3095    -3377    -3642    -3874    -4064    -4230 
   -4383    -4522    -4660    -4816    -4976    -5125    -5289    -5436 
   -5518    -5552    -5530    -5452    -5328    -5147    -4932    -4693 
   -4425    -4137    -3821    -3489    -3194    -2926    -2646    -2382 
   -2174    -1996    -1831    -1699    -1614    -1561    -1516    -1499 
   -1535    -1594    -1676    -1802    -1925    -2041    -2161    -2277 
   -2390    -2490    -2579    -2663    -2720    -2752    -2776    -2783 
   -2795    -2836    -2870    -2893    -2930    -2979    -3028    -3079 
   -3149    -3231    -3304    -3366    -3422    -3458    -3470    -3472 
   -3474    -3481    -3491    -3496    -3518    -3558    -3603    -3651 
   -3667    -3645    -3604    -3547    -3472    -3397    -3352    -3336 
   -3346    -3380    -3442    -3524    -3618    -3717    -3805    -3866 
   -3905    -3924    -3917    -3927    -3967    -4024    -4110    -4205 
   -4275    -4315    -4325    -4289    -4197    -4058    -3897    -3728 
   -3555    -3381    -3208    -3040    -2849    -2623    -2359    -2061 
   -1755    -1464    -1202    -1005     -864     -750     -669     -625 
    -604     -599     -608     -658     -764     -889    -1038    -1240 
   -1466    -1705    -1982    -2261    -2520    -2768    -2988    -3180 
   -3348    -3492    -3639    -3782    -3904    -4005    -4072    -4082 
   -4025    -3910    -3754    -3565    -3342    -3106    -2887    -2695 
   -2536    -2421    -2338    -2274    -2226    -2176    -2128    -2095 
   -2070    -2074    -2124    -2218    -2371    -2593    -2855    -3136 
   -3420    -3711    -4001    -4260    -4487    -4692    -4862    -4989 
   -5050    -5036    -4977    -4881    -4725    -4523    -4302    -4043 
   -3769    -3520    -3253    -2964    -2698    -2430    -2177    -1977 
   -1809    -1692    -1645    -1632    -1667    -1759    -1903    -2104 
   -2365    -2688    -3068    -3474    -3879    -4268    -4621    -4923 
   -5185    -5398    -5582    -5757    -5906    -6022    -6120    -6189 
   -6223    -6218    -6157    -6041    -5873    -5651    -5401    -5144 
   -4892    -4658    -4445    -4243    -4036    -3838    -3636    -3410 
   -3198    -3044    -2933    -2848    -2808    -2813    -2843    -2880 
   -2907    -2924    -2934    -2920    -2868    -2792    -2710    -2636 
   -2597    -2592    -2619    -2669    -2740    -2816    -2891    -2972 
   -3046    -3119    -3217    -3345    -3503    -3684    -3882    -4112 
   -4375    -4645    -4891    -5119    -5329    -5471    -5532    -5549 
   -5537    -5485    -5395    -5287    -5154    -4976    -4764    -4553 
   -4341    -4118    -3913    -3721    -3511    -3304    -3115    -2943 
   -2790    -2668    -2571    -2501    -2471    -2466    -2471    -2500 
   -2559    -2631    -2681    -2694    -2694    -2688    -2669    -2647 
   -2633    -2647    -2678    -2714    -2778    -2871    -2983    -3121 
   -3280    -3453    -3638    -3811    -3962    -4118    -4286    -4450 
   -4612    -4773    -4926    -5066    -5186    -5300    -5397    -5432 
   -5408    -5344    -5239    -5090    -4897    -4677    -4464    -4268 
   -4071    -3901    -3780    -3662    -3543    -3462    -3411    -3366 
   -3317    -3269    -3268    -3329    -3415    -3519    -3643    -3766 
   -3888    -3993    -4067    -4125    -4170    -4178    -4140    -4079 
   -4017    -3942    -3828    -3690    -3539    -3396    -3258    -3087 
   -2905    -2731    -2535    -2317    -2083    -1833    -1602    -1389 
   -1193    -1065    -1000     -962     -982    -1065    -1200    -1374 
   -1561    -1767    -1991    -2218    -2455    -2706    -2971    -3262 
   -3561    -3858    -4144    -4372    -4571    -4754    -4852    -4870 
   -4841    -4735    -4575    -4387    -4158    -3904    -3632    -3334 
   -2986    -2598    -2192    -1779    -1367     -973     -622     -330 
     -83      112      232      282      249      118      -95     -383 
    -749    -1170    -1609    -2060    -2527    -2991    -3459    -3940 
   -4401    -4842    -5270    -5670    -6029    -6330    -6555    -6710 
   -6818    -6864    -6839    -6751    -6573    -6303    -5977    -5601 
   -5200    -4793    -4356    -3886    -3411    -2928    -2431    -1956 
   -1520    -1109     -711     -338      -14      266      529      739 
     854      884      872      803      639      407      125     -225 
    -616    -1039    -1525    -2019    -2498    -2992    -3477    -3921 
   -4326    -4727    -5107    -5406    -5645    -5841    -5957    -5994 
   -5988    -5953    -5867    -5715    -5529    -5300    -5016    -4716 
   -4405    -4078    -3773    -3508    -3276    -3067    -2895    -2774 
   -2690    -2659    -2679    -2740    -2830    -2953    -3119    -3287 
   -3461    -3696    -3946    -4178    -4429    -4696    -4970    -5224 
   -5421    -5548    -5598    -5593    -5541    -5440    -5297    -5120 
   -4935    -4738    -4499    -4261    -4035    -3780    -3539    -3362 
   -3204    -3030    -2863    -2727    -2633    -2586    -2565    -2575 
   -2640    -2737    -2853    -3018    -3218    -3407    -3600    -3801 
   -3965    -4090    -4182    -4220    -4212    -4178    -4137    -4087 
   -4012    -3913    -3785    -3618    -3431    -3215    -2980    -2756 
   -2516    -2295    -2138    -1996    -1878    -1821    -1804    -1838 
   -1903    -1984    -2079    -2173    -2277    -2361    -2415    -2459 
   -2484    -2512    -2575    -2625    -2667    -2740    -2813    -2879 
   -2948    -2995    -3017    -3001    -2951    -2902    -2866    -2821 
   -2771    -2768    -2810    -2824    -2816    -2809    -2791    -2781 
   -2762    -2748    -2779    -2810    -2848    -2941    -3060    -3191 
   -3353    -3500    -3608    -3705    -3778    -3835    -3898    -3943 
   -3963    -3973    -3971    -3958    -3932    -3915    -3906    -3897 
   -3909    -3927    -3917    -3913    -3925    -3923    -3915    -3904 
   -3861    -3800    -3740    -3685    -3611    -3526    -3456    -3384 
   -3314    -3276    -3240    -3187    -3159    -3157    -3172    -3241 
   -3364    -3515    -3694    -3919    -4166    -4399    -4615    -4826 
   -5036    -5250    -5468    -5640    -5729    -5806    -5898    -5944 
   -5919    -5875    -5805    -5663    -5505    -5339    -5098    -4818 
   -4535    -4220    -3889    -3584    -3277    -2948    -2658    -2423 
   -2196    -1991    -1826    -1687    -1594    -1556    -1568    -1642 
   -1748    -1890    -2098    -2313    -2498    -2695    -2928    -3176 
   -3440    -3712    -3959    -4186    -4388    -4534    -4644    -4714 
   -4693    -4646    -4606    -4495    -4336    -4205    -4064    -3896 
   -3780    -3707    -3628    -3578    -3566    -3558    -3568    -3604 
   -3645    -3676    -3716    -3770    -3820    -3866    -3917    -3956 
   -3982    -4002    -4028    -4067    -4064    -4031    -4028    -4002 
   -3942    -3889    -3813    -3719    -3639    -3538    -3392    -3249 
   -3109    -2972    -2862    -2786    -2755    -2743    -2772    -2841 
   -2875    -2926    -3007    -3056    -3146    -3262    -3345    -3427 
   -3495    -3527    -3534    -3538    -3554    -3554    -3553    -3572 
   -3558    -3511    -3462    -3400    -3350    -3311    -3287    -3296 
   -3325    -3396    -3491    -3558    -3636    -3736    -3828    -3916 
   -4017    -4124    -4212    -4311    -4414    -4484    -4546    -4595 
   -4638    -4676    -4691    -4703    -4689    -4646    -4621    -4571 
   -4480    -4382    -4245    -4040    -3769    -3461    -3144    -2810 
   -2509    -2269    -2069    -1922    -1810    -1694    -1594    -1522 
   -1440    -1337    -1290    -1291    -1305    -1387    -1547    -1709 
   -1854    -2015    -2166    -2311    -2479    -2635    -2758    -2863 
   -2953    -3028    -3100    -3184    -3269    -3343    -3407    -3466 
   -3527    -3582    -3623    -3677    -3747    -3807    -3898    -4036 
   -4152    -4284    -4459    -4602    -4733    -4877    -5017    -5166 
   -5313    -5448    -5570    -5668    -5711    -5692    -5661    -5609 
   -5491    -5332    -5147    -4923    -4672    -4386    -4064    -3735 
   -3419    -3140    -2890    -2663    -2482    -2342    -2239    -2163 
   -2110    -2083    -2058    -2066    -2123    -2177    -2222    -2267 
   -2317    -2374    -2461    -2581    -2698    -2820    -2934    -3003 
   -3030    -3021    -2960    -2866    -2766    -2659    -2528    -2388 
   -2270    -2165    -2053    -1946    -1833    -1714    -1614    -1549 
   -1506    -1476    -1468    -1491    -1541    -1606    -1705    -1844 
   -2016    -2219    -2442    -2679    -2918    -3159    -3415    -3680 
   -3936    -4180    -4398    -4592    -4796    -5004    -5190    -5375 
   -5541    -5667    -5765    -5791    -5727    -5620    -5440    -5163 
   -4831    -4472    -4072    -3639    -3198    -2749    -2295    -1868 
   -1476    -1085     -712     -392     -108      125      279      379 
     417      361      237       64     -190     -523     -912    -1360 
   -1848    -2371    -2929    -3485    -4028    -4548    -5011    -5401 
   -5718    -5938    -6076    -6156    -6156    -6088    -5975    -5793 
   -5570    -5327    -5043    -4726    -4417    -4110    -3804    -3541 
   -3322    -3109    -2920    -2789    -2714    -2700    -2745    -2840 
   -2972    -3137    -3336    -3547    -3746    -3964    -4189    -4379 
   -4564    -4747    -4897    -5015    -5090    -5116    -5096    -5009 
   -4882    -4737    -4558    -4360    -4166    -3962    -3730    -3477 
   -3210    -2929    -2652    -2394    -2153    -1944    -1787    -1671 
   -1563    -1485    -1482    -1530    -1597    -1710    -1881    -2079 
   -2317    -2605    -2887    -3150    -3407    -3638    -3824    -3967 
   -4081    -4191    -4305    -4396    -4446    -4442    -4410    -4357 
   -4256    -4121    -3969    -3767    -3500    -3202    -2917    -2628 
   -2327    -2058    -1833    -1632    -1456    -1281    -1115     -993 
    -893     -803     -741     -702     -702     -778     -915    -1098 
   -1318    -1570    -1852    -2135    -2393    -2620    -2799    -2967 
   -3152    -3323    -3465    -3596    -3704    -3789    -3883    -3955 
   -4006    -4060    -4083    -4074    -4079    -4091    -4105    -4139 
