Origin Time       2016/04/16 01:25:00
Lat.              32.753
Long.             130.762
Depth. (km)       12
Mag.              7.3
Station Code      TKS005
Station Lat.      33.8788
Station Long.     134.3889
Station Height(m) 280
Record Time       2016/04/16 01:26:54
Sampling Freq(Hz) 100Hz
Duration Time(s)  78
Dir.              E-W
Scale Factor      7845(gal)/8223790
Max. Acc. (gal)   2.532
Last Correction   2016/04/16 01:26:55
Memo.             
[...]
    1210     1256     1310     1367     1425     1482     1526     1557 
    1584     1606     1624     1637     1657     1687     1723     1768 
    1826     1898     1969     2042     2107     2154     2195     2222 
    2234     2249     2265     2274     2284     2292     2301     2312 
    2324     2340     2361     2376     2380     2386     2400     2423 
    2451     2481     2506     2524     2539     2552     2565     2592 
    2627     2659     2695     2733     2764     2791     2818     2843 
    2860     2863     2853     2840     2830     2828     2835     2840 
    2836     2824     2799     2764     2727     2690     2647     2597 
    2540     2469     2378     2284     2195     2111     2042     1993 
    1962     1941     1930     1934     1942     1937     1925     1904 
    1865     1815     1760     1695     1625     1557     1497     1452 
    1425     1420     1433     1457     1483     1502     1503     1487 
    1462     1440     1426     1422     1436     1463     1483     1491 
    1489     1480     1467     1449     1426     1390     1343     1293 
    1242     1201     1178     1173     1179     1194     1219     1255 
    1302     1356     1410     1456     1491     1522     1551     1572 
    1598     1634     1669     1698     1729     1761     1791     1831 
    1887     1948     2011     2077     2141     2196     2249     2305 
    2361     2404     2439     2463     2479     2497     2513     2527 
    2538     2544     2551     2558     2573     2600     2636     2682 
    2725     2772     2824     2866     2906     2944     2963     2965 
    2960     2945     2921     2895     2870     2844     2817     2798 
    2787     2786     2790     2787     2778     2758     2733     2714 
    2700     2686     2677     2669     2664     2656     2640     2614 
    2577     2524     2465     2408     2346     2285     2231     2180 
    2126     2079     2037     2003     1971     1939     1908     1883 
    1858     1840     1823     1806     1788     1769     1753     1744 
    1745     1755     1768     1783     1804     1823     1836     1845 
    1848     1840     1826     1807     1788     1763     1732     1701 
    1668     1632     1601     1567     1526     1486     1451     1414 
    1382     1360     1341     1317     1293     1269     1247     1229 
    1221     1219     1219     1227     1239     1255     1277     1300 
    1320     1343     1372     1405     1436     1467     1505     1540 
    1578     1614     1637     1656     1668     1661     1649     1638 
    1617     1584     1554     1526     1498     1468     1444     1422 
    1398     1377     1363     1354     1354     1370     1385     1389 
    1387     1381     1366     1358     1366     1379     1391     1401 
    1409     1417     1417     1412     1412     1418     1431     1456 
    1486     1526     1580     1641     1698     1752     1802     1845 
    1887     1915     1930     1938     1929     1895     1852     1819 
    1791     1767     1760     1764     1767     1771     1780     1791 
    1804     1817     1831     1852     1873     1892     1918     1946 
    1975     2015     2065     2128     2204     2288     2374     2457 
    2532     2597     2652     2697     2729     2758     2783     2798 
    2806     2803     2785     2755     2716     2667     2610     2550 
    2485     2423     2370     2319     2269     2218     2173     2137 
    2106     2085     2074     2070     2068     2072     2077     2077 
    2072     2070     2072     2074     2083     2096     2107     2124 
    2144     2160     2178     2205     2227     2247     2276     2304 
    2330     2357     2392     2425     2455     2497     2556     2610 
    2662     2714     2754     2779     2792     2795     2792     2790 
    2785     2781     2778     2775     2774     2778     2797     2830 
    2868     2910     2959     3006     3045     3084     3115     3136 
    3148     3146     3137     3130     3121     3103     3080     3049 
    3011     2967     2911     2848     2782     2710     2636     2575 
    2519     2461     2412     2365     2315     2269     2222     2162 
    2101     2041     1980     1922     1864     1815     1776     1742 
    1713     1692     1679     1675     1679     1691     1702     1707 
    1706     1690     1664     1645     1628     1606     1601     1606 
    1620     1644     1683     1717     1750     1792     1826     1850 
    1883     1919     1953     1992     2030     2066     2101     2130 
    2161     2184     2191     2188     2189     2192     2203     2223 
    2245     2261     2269     2267     2258     2250     2246     2239 
    2232     2228     2222     2204     2173     2134     2089     2034 
    1987     1949     1912     1885     1877     1877     1878     1880 
    1871     1852     1840     1833     1836     1841     1848     1852 
    1846     1825     1794     1755     1711     1669     1637     1613 
    1594     1578     1561     1545     1530     1514     1503     1505 
    1509     1514     1522     1528     1518     1493     1460     1431 
    1408     1383     1372     1363     1348     1337     1323     1305 
    1289     1278     1274     1270     1267     1275     1285     1293 
    1310     1334     1352     1362     1359     1344     1329     1312 
    1290     1277     1259     1242     1243     1246     1243     1256 
    1273     1277     1275     1275     1275     1278     1290     1304 
    1306     1312     1308     1287     1266     1254     1243     1230 
    1216     1206     1198     1189     1190     1209     1240     1278 
    1323     1370     1417     1464     1505     1532     1539     1528 
    1512     1493     1476     1467     1453     1436     1425     1416 
    1405     1405     1412     1416     1422     1429     1425     1409 
    1390     1364     1334     1308     1282     1255     1221     1188 
    1156     1115     1077     1065     1071     1089     1121     1161 
    1198     1239     1275     1297     1316     1340     1356     1364 
    1375     1389     1401     1409     1418     1426     1416     1390 
    1368     1356     1351     1359     1378     1395     1409     1418 
    1431     1440     1440     1431     1414     1386     1351     1314 
    1281     1254     1233     1221     1225     1236     1254     1281 
    1308     1324     1337     1347     1347     1344     1347     1350 
    1345     1339     1323     1300     1274     1252     1237     1227 
    1219     1213     1198     1183     1185     1198     1215     1235 
    1256     1282     1321     1360     1398     1440     1479     1516 
    1548     1575     1598     1618     1638     1657     1672     1687 
    1706     1723     1740     1753     1765     1780     1800     1826 
    1854     1878     1900     1917     1923     1926     1927     1930 
    1930     1929     1933     1941     1949     1966     1989     2015 
    2047     2087     2133     2187     2241     2286     2323     2353 
    2378     2393     2405     2421     2439     2455     2471     2484 
    2492     2496     2497     2500     2501     2502     2504     2512 
    2532     2552     2560     2567     2565     2550     2532     2509 
    2469     2420     2370     2313     2261     2224     2196     2169 
    2153     2147     2146     2147     2154     2165     2184     2207 
    2230     2249     2270     2292     2311     2332     2359     2382 
    2408     2444     2481     2515     2554     2590     2614     2632 
    2647     2660     2668     2675     2683     2685     2678     2669 
    2663     2648     2633     2621     2605     2590     2579     2567 
    2552     2535     2519     2501     2475     2446     2421     2405 
    2385     2359     2334     2309     2286     2266     2249     2236 
    2228     2219     2207     2196     2182     2170     2158     2153 
    2155     2154     2155     2168     2173     2174     2184     2195 
    2196     2195     2195     2188     2177     2169     2158     2137 
    2114     2092     2064     2037     2018     1999     1985     1980 
    1973     1966     1975     1991     2000     2008     2016     2023 
    2030     2041     2060     2087     2110     2121     2135     2149 
    2149     2146     2143     2137     2126     2110     2088     2062 
    2037     2010     1984     1965     1956     1956     1952     1939 
    1925     1903     1869     1830     1792     1753     1717     1695 
    1675     1652     1634     1618     1595     1574     1551     1520 
    1487     1466     1453     1444     1441     1440     1439     1439 
    1437     1431     1420     1412     1395     1374     1352     1320 
    1294     1279     1256     1236     1227     1219     1206     1205 
    1210     1208     1209     1219     1224     1223     1219     1215 
    1213     1212     1205     1200     1200     1208     1216     1228 
    1243     1256     1266     1286     1317     1347     1381     1421 
    1455     1483     1505     1517     1520     1513     1495     1470 
    1439     1401     1363     1327     1282     1236     1193     1155 
    1120     1084     1047     1020      997      981      981      989 
     993      997     1003     1004      996      984      977      967 
     951      938      928      913      896      881      868      858 
     845      834      832      827      818      814      804      793 
     791      792      793      801      814      823      827      834 
     849      870      893      912      934      962      985     1000 
    1008     1013     1015     1008      996      986      981      976 
     966      953      932      912      892      873      854      831 
     797      758      724      692      654      621      602      585 
     573      561      540      522      503      472      437      411 
     388      370      357      342      328      311      286      256 
     220      178      147      121       98       82       72       65 
      60       62       65       65       74       85       85       86 
      95      102      108      116      116      116      117      120 
     125      129      129      129      133      129      120      118 
     118      120      126      135      147      162      175      193 
     217      240      257      276      299      322      337      353 
     372      390      406      422      441      459      476      493 
     506      510      518      533      556      573      589      612 
     635      657      672      684      699      712      726      741 
     750      757      767      777      783      785      780      766 
     741      712      681      650      615      579      549      518 
     486      453      419      383      355      337      332      333 
     341      361      392      423      454      488      526      562 
     596      634      675      719      767      818      861      897 
     932      966      999     1026     1053     1077     1094     1111 
    1124     1133     1147     1162     1169     1173     1177     1182 
    1192     1194     1188     1182     1175     1161     1140     1120 
    1100     1080     1059     1039     1016      992      972      949 
     923      899      869      838      811      784      760      741 
     726      712      706      707      707      707      718      728 
     741      757      772      788      801      801      807      822 
     819      797      780      774      757      723      711      706 
     684      669      666      653      639      639      643      650 
     661      675      688      711      737      757      777      807 
     835      853      873      900      924      945      972     1011 
    1044     1070     1098     1129     1162     1200     1239     1277 
    1312     1340     1359     1377     1399     1429     1464     1497 
    1526     1553     1578     1606     1638     1668     1698     1733 
    1771     1809     1850     1891     1922     1949     1981     2018 
    2053     2089     2126     2161     2192     2227     2258     2282 
    2322     2371     2413     2454     2500     2538     2565     2593 
    2614     2636     2663     2681     2693     2713     2744     2770 
    2782     2794     2811     2820     2824     2839     2852     2856 
    2862     2867     2871     2884     2906     2921     2936     2959 
    2986     3011     3040     3071     3109     3146     3179     3217 
    3258     3296     3330     3362     3392     3418     3439     3459 
    3476     3485     3495     3507     3526     3549     3569     3580 
    3585     3596     3612     3623     3630     3642     3646     3643 
    3642     3638     3624     3611     3595     3574     3557     3546 
    3541     3543     3544     3542     3547     3558     3562     3568 
    3576     3585     3595     3608     3619     3630     3646     3663 
    3669     3673     3685     3696     3708     3726     3743     3761 
    3780     3798     3816     3831     3835     3836     3838     3827 
    3805     3794     3789     3776     3765     3761     3762     3763 
    3766     3770     3775     3781     3786     3793     3804     3812 
    3823     3846     3874     3901     3927     3956     3987     4010 
    4021     4032     4048     4055     4058     4069     4082     4090 
    4104     4120     4133     4149     4166     4183     4199     4214 
    4236     4261     4286     4313     4337     4353     4367     4380 
    4390     4390     4387     4382     4375     4371     4371     4372 
    4378     4383     4388     4391     4395     4399     4396     4392 
    4393     4395     4393     4387     4376     4365     4351     4333 
    4317     4299     4279     4260     4243     4218     4186     4152 
    4124     4098     4071     4050     4036     4021     4010     4000 
    3983     3959     3937     3921     3901     3883     3871     3855 
    3835     3819     3797     3766     3731     3700     3670     3634 
    3596     3561     3527     3492     3459     3427     3396     3366 
    3342     3322     3298     3275     3257     3240     3219     3199 
    3180     3168     3152     3138     3136     3126     3106     3087 
    3069     3042     3014     2991     2967     2941     2914     2884 
    2853     2822     2795     2768     2740     2708     2679     2658 
    2641     2627     2612     2593     2569     2540     2509     2474 
    2442     2412     2376     2338     2297     2255     2220     2184 
    2137     2092     2062     2031     1995     1964     1941     1915 
    1887     1861     1840     1821     1806     1791     1781     1776 
    1769     1757     1749     1738     1717     1701     1694     1686 
    1679     1675     1668     1656     1653     1647     1632     1628 
    1618     1597     1579     1568     1553     1534     1521     1507 
    1485     1470     1460     1447     1429     1405     1378     1343 
    1308     1274     1233     1183     1131     1080     1028      974 
     919      861      800      741      684      633      584      531 
     477      425      379      326      279      248      225      198 
     170      143      112       81       52       22       -5      -32 
     -60      -87     -112     -131     -152     -174     -190     -202 
    -218     -236     -245     -252     -255     -253     -259     -265 
    -266     -266     -268     -261     -252     -248     -243     -236 
    -240     -244     -237     -234     -234     -225     -211     -198 
    -184     -172     -159     -148     -144     -140     -133     -125 
    -116     -103      -93      -86      -78      -67      -56      -47 
     -41      -35      -23      -20      -22      -28      -31      -35 
     -39      -37      -32      -37      -45      -49      -58      -72 
     -83      -85      -85      -90      -94      -95      -98     -102 
    -105     -110     -114     -118     -122     -126     -122     -116 
    -109      -98      -86      -81      -74      -63      -56      -45 
     -29      -16       -4       10       27       43       59       79 
     102      118      131      144      155      164      172      178 
     186      195      206      214      225      234      243      249 
     252      259      268      275      286      303      321      340 
     363      383      405      422      432      437      445      454 
     461      468      472      473      473      472      467      464 
     467      464      464      473      484      493      506      518 
     533      553      571      583      589      596      599      602 
     612      623      630      643      661      680      697      718 
     738      751      764      773      777      781      785      787 
     793      801      810      820      830      843      859      874 
     886      901      916      922      929      945      955      967 
     985     1000     1015     1036     1059     1071     1084     1107 
    1127     1139     1156     1175     1182     1189     1204     1215 
    1221     1236     1247     1254     1267     1282     1294     1308 
    1324     1334     1340     1350     1359     1370     1387     1405 
    1418     1433     1452     1467     1478     1493     1506     1516 
    1526     1537     1547     1563     1580     1595     1620     1641 
    1655     1674     1692     1709     1729     1749     1764     1781 
    1800     1817     1840     1861     1876     1896     1925     1941 
    1954     1979     1996     2007     2034     2068     2087     2111 
    2146     2169     2182     2207     2228     2235     2245     2258 
    2263     2263     2270     2276     2274     2278     2284     2289 
    2296     2303     2308     2317     2326     2334     2344     2355 
    2367     2381     2392     2412     2442     2467     2488     2512 
    2529     2538     2548     2556     2558     2565     2574     2584 
    2600     2613     2627     2643     2660     2678     2693     2706 
    2720     2732     2743     2756     2774     2785     2797     2818 
    2840     2853     2867     2884     2898     2907     2926     2944 
    2951     2963     2978     2986     2994     3010     3025     3040 
    3057     3079     3092     3103     3117     3127     3129     3130 
    3136     3138     3140     3145     3148     3148     3146     3141 
    3138     3144     3154     3167     3184     3202     3217     3230 
    3245     3256     3258     3262     3279     3288     3291     3298 
    3306     3310     3315     3322     3322     3317     3322     3325 
    3317     3310     3300     3291     3280     3275     3272     3264 
    3253     3248     3242     3234     3225     3215     3208     3206 
    3204     3207     3207     3210     3213     3215     3213     3208 
    3206     3208     3203     3194     3192     3194     3190     3184 
    3180     3180     3175     3173     3169     3159     3145     3129 
    3111     3090     3068     3045     3021     2997     2978     2963 
    2949     2937     2926     2915     2905     2889     2871     2851 
    2829     2806     2782     2763     2748     2728     2710     2700 
    2681     2658     2639     2619     2593     2570     2550     2523 
    2492     2459     2427     2390     2349     2309     2273     2235 
    2196     2168     2141     2111     2085     2064     2037     2010 
    1982     1958     1939     1922     1903     1885     1867     1849 
