Origin Time       2016/04/16 01:25:00
Lat.              32.753
Long.             130.762
Depth. (km)       12
Mag.              7.3
Station Code      TKS010
Station Lat.      34.0380
Station Long.     134.0614
Station Height(m) 54
Record Time       2016/04/16 01:26:07
Sampling Freq(Hz) 100Hz
Duration Time(s)  109
Dir.              E-W
Scale Factor      7845(gal)/8223790
Max. Acc. (gal)   2.717
Last Correction   2016/04/16 01:26:08
Memo.             
[...]
   -1308    -1258    -1198    -1135    -1081    -1044    -1036    -1074 
   -1147    -1232    -1329    -1431    -1528    -1613    -1664    -1669 
   -1634    -1564    -1456    -1308    -1131     -946     -769     -614 
    -491     -415     -395     -436     -542     -710     -913    -1132 
   -1345    -1524    -1664    -1768    -1818    -1815    -1767    -1674 
   -1552    -1408    -1250    -1105     -985     -886     -815     -777 
    -778     -824     -916    -1044    -1193    -1347    -1505    -1658 
   -1791    -1898    -1980    -2022    -2030    -2011    -1962    -1891 
   -1795    -1676    -1553    -1444    -1359    -1310    -1290    -1287 
   -1301    -1332    -1368    -1399    -1420    -1425    -1420    -1401 
   -1364    -1306    -1217    -1104     -986     -880     -797     -750 
    -741     -784     -880    -1015    -1170    -1318    -1439    -1517 
   -1552    -1549    -1521    -1478    -1424    -1375    -1350    -1341 
   -1340    -1334    -1310    -1274    -1235    -1194    -1150    -1112 
   -1090    -1088    -1107    -1147    -1198    -1259    -1327    -1398 
   -1474    -1556    -1653    -1769    -1900    -2034    -2166    -2285 
   -2369    -2394    -2370    -2299    -2184    -2034    -1868    -1702 
   -1554    -1433    -1324    -1230    -1154    -1092    -1053    -1036 
   -1039    -1065    -1105    -1143    -1174    -1194    -1198    -1179 
   -1138    -1074     -997     -912     -823     -727     -635     -558 
    -498     -460     -448     -469     -525     -602     -693     -801 
    -923    -1060    -1220    -1398    -1583    -1765    -1937    -2081 
   -2192    -2262    -2284    -2262    -2205    -2106    -1958    -1775 
   -1572    -1366    -1170     -990     -841     -735     -681     -677 
    -707     -756     -818     -870     -919     -973    -1008    -1019 
   -1015     -997     -967     -927     -869     -807     -741     -679 
    -637     -614     -595     -585     -591     -614     -658     -719 
    -785     -857     -950    -1057    -1155    -1240    -1290    -1300 
   -1289    -1256    -1208    -1173    -1158    -1161    -1193    -1248 
   -1316    -1387    -1462    -1528    -1571    -1583    -1578    -1548 
   -1495    -1444    -1391    -1333    -1278    -1223    -1166    -1111 
   -1051     -987     -927     -866     -810     -756     -689     -622 
    -568     -535     -542     -579     -616     -661     -711     -750 
    -789     -834     -866     -899     -940     -980    -1015    -1048 
   -1074    -1093    -1121    -1156    -1194    -1240    -1282    -1321 
   -1368    -1413    -1457    -1498    -1521    -1530    -1530    -1517 
   -1494    -1464    -1429    -1394    -1368    -1360    -1370    -1394 
   -1425    -1466    -1506    -1547    -1579    -1579    -1541    -1471 
   -1367    -1229    -1077     -916     -756     -612     -500     -414 
    -356     -332     -344     -395     -471     -560     -642     -704 
    -741     -751     -733     -691     -629     -560     -502     -464 
    -449     -461     -503     -576     -681     -811     -949    -1080 
   -1201    -1325    -1449    -1564    -1667    -1748    -1800    -1826 
   -1815    -1763    -1683    -1570    -1436    -1313    -1202    -1104 
   -1026     -954     -877     -800     -710     -596     -467     -329 
    -209     -128     -101     -129     -209     -330     -490     -672 
    -862    -1047    -1210    -1352    -1464    -1525    -1535    -1505 
   -1453    -1390    -1323    -1266    -1216    -1175    -1156    -1152 
   -1156    -1174    -1197    -1217    -1243    -1278    -1314    -1344 
   -1367    -1386    -1408    -1428    -1439    -1447    -1455    -1463 
   -1468    -1467    -1452    -1428    -1404    -1372    -1336    -1301 
   -1269    -1236    -1206    -1183    -1162    -1143    -1124    -1117 
   -1123    -1120    -1111    -1086    -1028     -940     -828     -693 
    -550     -415     -307     -243     -218     -230     -286     -379 
    -495     -634     -792     -957    -1120    -1267    -1385    -1476 
   -1543    -1574    -1572    -1549    -1514    -1475    -1448    -1431 
   -1422    -1424    -1429    -1439    -1456    -1471    -1475    -1459 
   -1424    -1372    -1312    -1244    -1166    -1084    -1011     -959 
    -936     -929     -945     -985    -1044    -1121    -1212    -1306 
   -1394    -1463    -1505    -1522    -1524    -1495    -1435    -1356 
   -1270    -1196    -1146    -1102    -1063    -1017     -953     -870 
    -770     -652     -531     -427     -359     -333     -340     -379 
    -444     -523     -614     -712     -815     -911    -1003    -1090 
   -1159    -1206    -1227    -1220    -1196    -1161    -1124    -1093 
   -1073    -1055    -1039    -1021    -1008    -1015    -1062    -1140 
   -1240    -1360    -1482    -1587    -1664    -1688    -1649    -1554 
   -1417    -1259    -1092     -928     -800     -720     -687     -692 
    -727     -788     -870     -969    -1084    -1194    -1282    -1350 
   -1374    -1348    -1282    -1190    -1078     -967     -866     -792 
    -757     -766     -815     -888     -970    -1046    -1107    -1159 
   -1190    -1185    -1151    -1085     -990     -880     -764     -654 
    -575     -535     -535     -588     -688     -818     -974    -1152 
   -1320    -1455    -1548    -1595    -1605    -1579    -1528    -1456 
   -1368    -1282    -1215    -1173    -1161    -1174    -1217    -1291 
   -1391    -1503    -1613    -1706    -1764    -1771    -1717    -1601 
   -1441    -1256    -1058     -864     -689     -530     -398     -303 
    -249     -251     -295     -367     -468     -599     -741     -896 
   -1051    -1190    -1313    -1410    -1483    -1539    -1560    -1541 
   -1498    -1448    -1410    -1398    -1416    -1453    -1507    -1580 
   -1657    -1713    -1725    -1691    -1617    -1514    -1391    -1260 
   -1132    -1013     -903     -795     -689     -596     -533     -518 
    -546     -612     -706     -808     -907     -994    -1063    -1101 
   -1104    -1075    -1017     -940     -857     -784     -733     -707 
    -704     -723     -757     -801     -855     -915     -981    -1055 
   -1133    -1210    -1278    -1332    -1362    -1354    -1310    -1244 
   -1171    -1117    -1093    -1097    -1128    -1185    -1262    -1341 
   -1404    -1444    -1471    -1493    -1514    -1551    -1605    -1668 
   -1729    -1783    -1833    -1872    -1875    -1852    -1817    -1771 
   -1734    -1711    -1694    -1674    -1644    -1598    -1528    -1426 
   -1291    -1123     -935     -753     -588     -451     -355     -294 
    -272     -280     -303     -341     -386     -425     -461     -498 
    -540     -587     -634     -685     -738     -784     -820     -853 
    -896     -962    -1053    -1159    -1266    -1371    -1476    -1576 
   -1669    -1749    -1799    -1813    -1795    -1744    -1672    -1595 
   -1522    -1468    -1424    -1389    -1371    -1358    -1339    -1328 
   -1316    -1298    -1274    -1237    -1192    -1144    -1093    -1043 
    -996     -947     -903     -870     -841     -822     -820     -841 
    -884     -942    -1000    -1053    -1102    -1144    -1179    -1209 
   -1232    -1250    -1264    -1277    -1279    -1267    -1243    -1208 
   -1173    -1147    -1132    -1117    -1096    -1067    -1035    -1003 
    -976     -955     -951     -962     -985    -1013    -1039    -1062 
   -1081    -1107    -1135    -1161    -1185    -1212    -1228    -1232 
   -1233    -1240    -1252    -1271    -1289    -1290    -1275    -1251 
   -1221    -1196    -1183    -1181    -1200    -1240    -1285    -1323 
   -1334    -1310    -1255    -1185    -1113    -1044     -985     -938 
    -890     -832     -750     -652     -545     -441     -360     -330 
    -364     -461     -612     -812    -1039    -1270    -1483    -1669 
   -1811    -1898    -1921    -1877    -1776    -1628    -1445    -1252 
   -1065     -905     -792     -728     -711     -733     -791     -877 
    -973    -1069    -1167    -1247    -1304    -1336    -1323    -1251 
   -1129     -976     -815     -684     -607     -603     -673     -810 
   -1005    -1242    -1505    -1779    -2033    -2247    -2408    -2501 
   -2520    -2465    -2327    -2115    -1846    -1534    -1205     -889 
    -612     -400     -261     -189     -176     -210     -280     -376 
    -493     -615     -726     -819     -892     -940     -965     -967 
    -947     -908     -874     -854     -841     -842     -868     -915 
    -974    -1043    -1120    -1202    -1287    -1364    -1420    -1444 
   -1443    -1418    -1381    -1336    -1282    -1230    -1197    -1205 
   -1256    -1343    -1447    -1554    -1655    -1733    -1781    -1799 
   -1791    -1764    -1729    -1687    -1625    -1551    -1468    -1371 
   -1260    -1147    -1042     -959     -913     -900     -918     -962 
   -1016    -1073    -1123    -1152    -1165    -1156    -1123    -1069 
    -996     -895     -770     -641     -515     -391     -279     -191 
    -118      -60      -32      -36      -72     -155     -280     -444 
    -642     -864    -1097    -1327    -1540    -1717    -1859    -1979 
   -2072    -2124    -2128    -2087    -1995    -1852    -1668    -1460 
   -1247    -1051     -885     -749     -648     -584     -558     -565 
    -598     -643     -693     -746     -793     -831     -859     -868 
    -858     -845     -832     -831     -850     -881     -913     -938 
    -943     -926     -889     -837     -773     -708     -658     -634 
    -648     -692     -760     -842     -924     -999    -1074    -1156 
   -1239    -1327    -1422    -1532    -1652    -1767    -1859    -1929 
   -1968    -1968    -1934    -1865    -1760    -1644    -1528    -1420 
   -1323    -1240    -1175    -1140    -1135    -1159    -1217    -1301 
   -1399    -1503    -1609    -1714    -1810    -1887    -1952    -2001 
   -2034    -2056    -2058    -2034    -1984    -1914    -1821    -1703 
   -1572    -1431    -1285    -1139     -994     -858     -737     -638 
    -579     -579     -635     -750     -919    -1125    -1351    -1584 
   -1807    -1996    -2149    -2258    -2309    -2305    -2255    -2170 
   -2057    -1926    -1788    -1661    -1547    -1447    -1371    -1323 
   -1282    -1237    -1183    -1120    -1047     -966     -886     -818 
    -762     -715     -679     -646     -614     -584     -561     -540 
    -530     -540     -569     -623     -704     -803     -916    -1039 
   -1177    -1340    -1533    -1740    -1948    -2155    -2350    -2519 
   -2662    -2774    -2855    -2914    -2949    -2960    -2948    -2903 
   -2825    -2706    -2551    -2359    -2130    -1887    -1647    -1410 
   -1205    -1057     -955     -884     -834     -805     -793     -780 
    -766     -754     -749     -751     -762     -784     -805     -811 
    -793     -761     -711     -641     -566     -506     -451     -411 
    -390     -378     -369     -380     -407     -451     -519     -584 
    -638     -692     -735     -781     -834     -862     -864     -851 
    -819     -767     -687     -596     -510     -433     -379     -352 
    -348     -373     -429     -506     -600     -708     -822     -932 
   -1031    -1111    -1179    -1232    -1256    -1248    -1220    -1178 
   -1109    -1015     -911     -805     -707     -615     -533     -477 
    -451     -454     -468     -479     -496     -526     -553     -579 
    -594     -598     -603     -615     -619     -615     -606     -583 
    -553     -531     -515     -506     -514     -537     -557     -560 
    -540     -502     -457     -419     -388     -361     -346     -357 
    -403     -473     -565     -666     -770     -873     -959    -1019 
   -1039    -1017     -951     -846     -704     -538     -370     -224 
    -109      -23       27       45       41       17      -20      -63 
    -112     -174     -241     -311     -388     -464     -535     -598 
    -653     -702     -756     -831     -934    -1065    -1236    -1437 
   -1664    -1908    -2155    -2385    -2581    -2739    -2848    -2894 
   -2868    -2770    -2605    -2393    -2150    -1884    -1613    -1364 
   -1152     -973     -820     -685     -571     -487     -430     -400 
    -405     -434     -480     -556     -664     -785     -922    -1080 
   -1246    -1420    -1598    -1779    -1956    -2128    -2289    -2428 
   -2527    -2582    -2601    -2594    -2577    -2560    -2550    -2535 
   -2511    -2484    -2463    -2451    -2454    -2474    -2505    -2546 
   -2608    -2693    -2792    -2895    -2986    -3059    -3102    -3111 
   -3082    -3006    -2890    -2748    -2592    -2427    -2261    -2097 
   -1944    -1799    -1663    -1535    -1422    -1323    -1247    -1200 
   -1162    -1128    -1093    -1055    -1015     -980     -951     -927 
    -912     -913     -928     -954     -994    -1031    -1059    -1080 
   -1089    -1080    -1043     -982     -899     -788     -649     -486 
    -305     -128       22      143      225      259      232      148 
      39      -81     -206     -319     -419     -519     -619     -724 
    -845     -970    -1094    -1223    -1343    -1449    -1540    -1595 
   -1611    -1594    -1545    -1467    -1356    -1205    -1013     -799 
    -572     -346     -125       95      315      530      741      934 
    1107     1251     1350     1387     1362     1273     1125      928 
     693      430      147     -139     -423     -695     -935    -1135 
   -1282    -1379    -1418    -1389    -1291    -1124     -882     -585 
    -257       86      429      750     1039     1297     1503     1642 
    1705     1668     1525     1274      922      487       -1     -510 
    -993    -1416    -1761    -2003    -2130    -2163    -2104    -1971 
   -1790    -1564    -1304    -1034     -756     -484     -238      -35 
     124      249      344      407      446      479      511      544 
     561      560      533      473      375      244       75     -110 
    -291     -456     -594     -688     -735     -734     -687     -607 
    -511     -413     -326     -270     -249     -259     -310     -398 
    -510     -653     -819    -1017    -1262    -1533    -1831    -2153 
   -2461    -2743    -2979    -3146    -3253    -3302    -3289    -3217 
   -3096    -2956    -2810    -2668    -2535    -2398    -2254    -2095 
   -1902    -1696    -1520    -1366    -1239    -1178    -1181    -1244 
   -1371    -1534    -1703    -1871    -2026    -2158    -2263    -2353 
   -2442    -2529    -2602    -2663    -2712    -2759    -2813    -2862 
   -2914    -2963    -2992    -3002    -2992    -2963    -2924    -2874 
   -2798    -2691    -2551    -2371    -2155    -1896    -1595    -1270 
    -935     -618     -351     -147      -14       36        4     -103 
    -274     -496     -758    -1031    -1302    -1571    -1823    -2053 
   -2254    -2412    -2529    -2604    -2631    -2605    -2539    -2451 
   -2349    -2235    -2130    -2053    -2003    -1969    -1938    -1902 
   -1833    -1714    -1548    -1347    -1112     -859     -611     -380 
    -164       43      246      449      638      795      907      959 
     939      847      679      438      164     -110     -353     -532 
    -638     -670     -631     -537     -413     -279     -162      -70 
       5       75      125      155      168      159      117       32 
     -86     -221     -349     -454     -530     -568     -566     -522 
    -425     -306     -182      -52       72      171      233      255 
     229      153       29     -143     -365     -622     -899    -1177 
   -1440    -1688    -1921    -2146    -2365    -2565    -2739    -2874 
   -2964    -3007    -2997    -2936    -2833    -2697    -2548    -2408 
   -2272    -2141    -2030    -1939    -1856    -1772    -1694    -1617 
   -1548    -1501    -1485    -1498    -1528    -1566    -1610    -1653 
   -1677    -1663    -1601    -1498    -1366    -1225    -1096     -989 
    -915     -881     -888     -926     -980    -1032    -1078    -1125 
   -1188    -1270    -1370    -1493    -1626    -1748    -1845    -1894 
   -1873    -1786    -1632    -1435    -1228    -1050     -947     -942 
   -1034    -1219    -1480    -1783    -2101    -2415    -2713    -2988 
   -3230    -3440    -3622    -3762    -3866    -3915    -3882    -3761 
   -3550    -3246    -2874    -2461    -2034    -1624    -1260     -962 
    -727     -576     -515     -526     -602     -741     -909    -1102 
   -1336    -1606    -1900    -2203    -2488    -2728    -2902    -3018 
   -3061    -3006    -2874    -2686    -2436    -2130    -1794    -1440 
   -1078     -715     -359      -23      283      564      801      999 
    1165     1282     1348     1371     1352     1300     1225     1142 
    1050      943      820      695      569      430      263       81 
    -117     -328     -531     -722     -903    -1074    -1236    -1385 
   -1506    -1603    -1669    -1695    -1676    -1610    -1486    -1316 
   -1119     -915     -714     -515     -328     -166      -27       94 
     186      225      222      187      125       45      -36     -118 
    -210     -317     -433     -561     -692     -805     -877     -905 
    -889     -830     -741     -666     -638     -675     -780     -939 
   -1133    -1345    -1545    -1723    -1885    -2022    -2130    -2215 
   -2293    -2370    -2442    -2501    -2542    -2555    -2540    -2493 
   -2413    -2312    -2191    -2058    -1933    -1823    -1738    -1687 
   -1672    -1713    -1803    -1912    -2023    -2120    -2188    -2226 
   -2246    -2262    -2285    -2322    -2373    -2425    -2465    -2486 
   -2494    -2490    -2473    -2436    -2382    -2319    -2254    -2212 
   -2193    -2177    -2158    -2141    -2126    -2114    -2095    -2060 
   -2016    -1968    -1914    -1867    -1838    -1836    -1854    -1894 
   -1953    -2030    -2119    -2215    -2324    -2458    -2604    -2748 
   -2903    -3057    -3183    -3269    -3312    -3300    -3232    -3121 
   -2972    -2789    -2579    -2343    -2070    -1757    -1417    -1075 
    -745     -437     -174       35      176      241      245      193 
      83      -62     -233     -429     -638     -851    -1062    -1260 
   -1444    -1606    -1726    -1800    -1841    -1861    -1864    -1849 
   -1813    -1745    -1641    -1502    -1336    -1154     -962     -773 
    -602     -450     -317     -206     -106        0      124      261 
     407      558      699      805      880      919      918      889 
     850      800      753      708      661      606      532      440 
     332      206       62      -91     -240     -370     -484     -569 
    -625     -657     -679     -697     -724     -785     -885    -1012 
   -1161    -1318    -1451    -1533    -1559    -1528    -1445    -1316 
   -1166    -1000     -831     -679     -540     -407     -295     -199 
    -120      -71      -64     -116     -230     -409     -650     -938 
   -1246    -1551    -1830    -2077    -2280    -2424    -2508    -2528 
   -2479    -2362    -2187    -1975    -1740    -1485    -1236    -1009 
    -799     -599     -418     -255      -90       62      178      252 
     266      210       86     -108     -363     -642     -920    -1200 
   -1471    -1722    -1942    -2126    -2276    -2390    -2466    -2509 
   -2527    -2517    -2486    -2436    -2370    -2295    -2201    -2084 
   -1945    -1799    -1656    -1514    -1393    -1314    -1282    -1294 
   -1347    -1431    -1526    -1629    -1741    -1864    -1984    -2102 
