Origin Time       2016/04/16 01:25:00
Lat.              32.753
Long.             130.762
Depth. (km)       12
Mag.              7.3
Station Code      TKS012
Station Lat.      34.0319
Station Long.     133.8090
Station Height(m) 130
Record Time       2016/04/16 01:26:04
Sampling Freq(Hz) 100Hz
Duration Time(s)  118
Dir.              E-W
Scale Factor      7845(gal)/8223790
Max. Acc. (gal)   5.311
Last Correction   2016/04/16 01:26:04
Memo.             
[...]
    -652     -623     -596     -625     -634     -650     -710     -751 
    -796     -890    -1012    -1093    -1150    -1206    -1224    -1240 
   -1259    -1258    -1282    -1327    -1356    -1344    -1313    -1296 
   -1269    -1269    -1300    -1318    -1362    -1391    -1355    -1282 
   -1193    -1098    -1013     -961     -916     -862     -816     -767 
    -715     -656     -592     -548     -515     -511     -506     -492 
    -513     -519     -504     -481     -432     -409     -432     -456 
    -469     -477     -486     -481     -486     -484     -486     -530 
    -584     -615     -625     -618     -592     -537     -484     -434 
    -394     -414     -472     -571     -675     -741     -810     -853 
    -881     -924     -961    -1008    -1057    -1105    -1129    -1105 
   -1093    -1070    -1012     -958     -905     -845     -820     -849 
    -855     -851     -884     -886     -872     -861     -803     -749 
    -727     -727     -734     -741     -765     -781     -788     -792 
    -781     -785     -819     -880     -946     -989    -1032    -1075 
   -1111    -1143    -1193    -1243    -1258    -1291    -1296    -1215 
   -1163    -1139    -1081    -1017     -955     -888     -804     -745 
    -702     -638     -619     -646     -658     -669     -688     -689 
    -676     -710     -751     -753     -787     -846     -884     -916 
    -961    -1000     -993     -984     -978     -918     -873     -870 
    -858     -846     -861     -859     -823     -834     -850     -789 
    -761     -770     -753     -745     -760     -788     -796     -818 
    -873     -873     -861     -909     -953     -965    -1003    -1058 
   -1090    -1136    -1197    -1209    -1206    -1219    -1202    -1140 
   -1071    -1015     -958     -936     -943     -915     -870     -828 
    -785     -745     -724     -741     -753     -761     -764     -718 
    -658     -622     -629     -657     -662     -673     -664     -621 
    -579     -517     -461     -432     -410     -394     -379     -400 
    -429     -448     -486     -506     -486     -457     -437     -394 
    -344     -355     -372     -382     -417     -429     -418     -410 
    -415     -414     -383     -376     -367     -346     -368     -395 
    -415     -449     -500     -546     -569     -625     -695     -751 
    -838     -922     -978    -1030    -1086    -1112    -1081    -1062 
   -1039     -967     -909     -874     -841     -832     -850     -869 
    -877     -889     -890     -873     -832     -764     -684     -595 
    -522     -468     -375     -299     -257     -203     -178     -176 
    -170     -183     -212     -246     -259     -272     -321     -387 
    -442     -488     -522     -525     -523     -530     -531     -571 
    -635     -684     -749     -816     -877     -954    -1057    -1189 
   -1316    -1418    -1499    -1547    -1543    -1509    -1493    -1457 
   -1408    -1358    -1251    -1123     -989     -838     -719     -606 
    -503     -430     -344     -259     -178      -86      -11       36 
      74      117      143      159      180      178      166      133 
      97       67        5      -49     -105     -199     -306     -432 
    -566     -702     -842     -963    -1088    -1189    -1293    -1417 
   -1495    -1545    -1590    -1598    -1582    -1584    -1605    -1597 
   -1594    -1638    -1660    -1657    -1668    -1652    -1588    -1530 
   -1494    -1445    -1408    -1393    -1354    -1278    -1178    -1069 
    -949     -855     -805     -735     -689     -702     -685     -661 
    -683     -707     -715     -741     -778     -766     -743     -741 
    -715     -688     -661     -625     -569     -495     -438     -361 
    -248     -153      -62       44      151      228      276      291 
     246      214      217      194      187      206      209      168 
     106       22     -102     -217     -324     -454     -575     -692 
    -803     -892     -978    -1070    -1175    -1264    -1323    -1371 
   -1422    -1462    -1466    -1475    -1476    -1424    -1393    -1348 
   -1240    -1169    -1119    -1059    -1016     -999    -1008    -1011 
   -1026    -1039    -1004     -997    -1053    -1093    -1120    -1212 
   -1331    -1410    -1528    -1676    -1794    -1908    -2018    -2095 
   -2115    -2102    -2095    -2053    -2026    -2031    -2011    -2007 
   -2034    -2042    -2031    -2027    -1995    -1960    -1971    -1975 
   -1980    -2037    -2107    -2178    -2220    -2228    -2258    -2293 
   -2313    -2332    -2330    -2305    -2276    -2245    -2200    -2173 
   -2165    -2141    -2147    -2169    -2138    -2083    -2022    -1923 
   -1779    -1629    -1486    -1318    -1166    -1023     -854     -691 
    -529     -383     -261     -160     -114      -81      -44        2 
      93      175      237      287      295      275      232      175 
     137      121      108       93       65       -2      -76     -148 
    -265     -399     -525     -649     -772     -880     -950    -1030 
   -1107    -1151    -1224    -1304    -1351    -1375    -1362    -1314 
   -1248    -1178    -1101    -1024     -977     -939     -895     -834 
    -747     -653     -550     -464     -387     -286     -205     -147 
     -90      -29       20       29       28       25       14       21 
      31       25       -4      -28      -39      -81     -102      -78 
     -41       20       93      147      166      203      270      303 
     355      427      451      453      446      419      357      294 
     265      224      167      105       32      -29      -97     -170 
    -238     -291     -319     -376     -434     -472     -518     -579 
    -672     -765     -851     -943     -987    -1017    -1071    -1119 
   -1175    -1250    -1331    -1399    -1476    -1567    -1632    -1709 
   -1798    -1849    -1898    -1958    -2004    -2034    -2088    -2126 
   -2114    -2134    -2192    -2245    -2305    -2366    -2430    -2502 
   -2592    -2693    -2776    -2868    -2965    -3017    -3029    -3028 
   -3018    -2970    -2905    -2857    -2768    -2636    -2517    -2396 
   -2258    -2161    -2091    -1989    -1907    -1811    -1613    -1401 
   -1215    -1017     -837     -684     -538     -375     -233     -126 
       5      118      178      234      289      329      342      355 
     346      309      313      330      322      353      440      515 
     581      695      795      830      884      928      909      870 
     828      773      696      625      530      396      287      172 
      14     -153     -310     -460     -641     -815     -967    -1142 
   -1306    -1436    -1571    -1726    -1854    -1949    -2074    -2174 
   -2219    -2282    -2335    -2353    -2381    -2401    -2359    -2278 
   -2212    -2124    -2023    -1949    -1846    -1696    -1544    -1368 
   -1151     -913     -697     -484     -265      -76      122      344 
     544      731      936     1169     1378     1554     1706     1795 
    1826     1806     1746     1664     1563     1479     1383     1248 
    1098      929      758      592      422      241       35     -175 
    -395     -627     -838    -1016    -1152    -1263    -1328    -1339 
   -1325    -1247    -1127    -1000     -857     -718     -592     -475 
    -375     -307     -270     -241     -272     -356     -472     -650 
    -820     -976    -1152    -1308    -1467    -1615    -1748    -1890 
   -2012    -2092    -2119    -2119    -2107    -2042    -1946    -1865 
   -1786    -1680    -1584    -1503    -1379    -1252    -1121     -942 
    -773     -595     -400     -241      -83       78      232      394 
     549      673      734      747      730      679      600      488 
     372      238       62     -125     -336     -562     -774     -985 
   -1170    -1312    -1416    -1503    -1579    -1636    -1687    -1722 
   -1736    -1737    -1723    -1703    -1640    -1553    -1490    -1390 
   -1271    -1182    -1062     -885     -715     -538     -287      -22 
     216      460      666      830      959     1043     1081     1048 
     990      895      707      495      253      -37     -337     -665 
   -1019    -1389    -1755    -2102    -2450    -2786    -3087    -3366 
   -3638    -3871    -4062    -4237    -4349    -4367    -4338    -4274 
   -4174    -4044    -3921    -3780    -3574    -3369    -3109    -2767 
   -2477    -2212    -1946    -1737    -1578    -1431    -1289    -1173 
   -1032     -854     -722     -626     -533     -464     -437     -423 
    -403     -427     -456     -463     -514     -579     -602     -602 
    -584     -522     -425     -334     -221      -83       44      168 
     265      360      448      503      579      673      795      963 
    1135     1300     1457     1620     1753     1841     1935     1999 
    2029     2079     2115     2104     2069     2025     1944     1795 
    1606     1370     1075      784      491      176     -129     -400 
    -664     -942    -1179    -1391    -1587    -1719    -1833    -1946 
   -2042    -2141    -2239    -2336    -2417    -2471    -2493    -2471 
   -2421    -2358    -2301    -2241    -2173    -2138    -2110    -2091 
   -2092    -2065    -2029    -2008    -2001    -1992    -1988    -2038 
   -2115    -2181    -2276    -2381    -2457    -2529    -2592    -2586 
   -2554    -2519    -2432    -2328    -2215    -2087    -1966    -1837 
   -1733    -1641    -1528    -1440    -1358    -1274    -1210    -1144 
   -1094    -1070    -1071    -1084    -1105    -1171    -1262    -1364 
   -1466    -1534    -1571    -1564    -1539    -1491    -1402    -1323 
   -1281    -1244    -1210    -1235    -1302    -1359    -1439    -1507 
   -1520    -1526    -1495    -1399    -1282    -1139     -969     -787 
    -627     -483     -298     -112       74      314      588      872 
    1144     1422     1671     1863     2053     2200     2295     2377 
    2436     2479     2473     2430     2373     2269     2147     2007 
    1794     1532     1266      981      662      375      126     -110 
    -311     -484     -648     -811     -955    -1057    -1136    -1174 
   -1174    -1179    -1165    -1147    -1155    -1170    -1175    -1154 
   -1131    -1121    -1120    -1142    -1169    -1185    -1182    -1156 
   -1086     -963     -837     -692     -508     -340     -189      -47 
      76      162      222      291      322      309      302      279 
     214      116        8     -121     -257     -334     -383     -436 
    -472     -506     -575     -680     -780     -893    -1020    -1081 
   -1107    -1124    -1086    -1034     -999     -966     -905     -854 
    -830     -762     -695     -664     -616     -581     -587     -622 
    -702     -838    -1003    -1135    -1267    -1421    -1539    -1636 
   -1749    -1863    -1972    -2115    -2289    -2428    -2535    -2623 
   -2693    -2767    -2837    -2943    -3059    -3133    -3211    -3246 
   -3207    -3168    -3107    -3010    -2911    -2805    -2662    -2504 
   -2357    -2189    -2025    -1914    -1837    -1786    -1787    -1848 
   -1926    -2003    -2083    -2119    -2116    -2115    -2116    -2120 
   -2135    -2188    -2247    -2270    -2288    -2262    -2162    -2034 
   -1903    -1755    -1605    -1497    -1408    -1318    -1281    -1246 
   -1177    -1119    -1073     -993     -864     -747     -622     -459 
    -321     -197      -65       32       87      120      159      164 
     133      112       78       25      -32      -81     -122     -151 
    -129     -139     -190     -207     -251     -309     -318     -303 
    -275     -228     -155     -101      -97      -97     -101     -121 
    -141     -159     -193     -236     -261     -279     -302     -338 
    -394     -438     -491     -549     -596     -641     -638     -610 
    -600     -579     -548     -525     -517     -511     -515     -544 
    -561     -585     -633     -669     -715     -770     -837     -929 
   -1032    -1144    -1244    -1310    -1371    -1410    -1414    -1387 
   -1341    -1282    -1228    -1181    -1097     -974     -814     -618 
    -398     -121      153      399      662      888     1058     1193 
    1244     1239     1228     1215     1182     1113     1009      835 
     598      324        8     -326     -660     -963    -1230    -1463 
   -1648    -1796    -1899    -1954    -1985    -1993    -2015    -2019 
   -1984    -1961    -1926    -1841    -1726    -1595    -1441    -1275 
   -1139     -999     -843     -741     -672     -616     -607     -630 
    -668     -756     -915    -1085    -1281    -1553    -1831    -2089 
   -2344    -2570    -2763    -2934    -3099    -3253    -3372    -3476 
   -3568    -3615    -3634    -3658    -3663    -3662    -3694    -3684 
   -3612    -3538    -3427    -3275    -3106    -2937    -2758    -2533 
   -2317    -2079    -1780    -1539    -1344    -1142     -946     -760 
    -571     -380     -237     -109       43      162      284      475 
     692      909     1131     1354     1525     1658     1800     1894 
    1927     1956     1972     1949     1919     1896     1826     1755 
    1717     1647     1564     1507     1470     1444     1449     1503 
    1553     1629     1765     1871     1954     2053     2138     2189 
    2193     2155     2058     1900     1733     1541     1302     1065 
     846      581      268      -36     -388     -808    -1225    -1653 
   -2093    -2506    -2882    -3231    -3581    -3910    -4245    -4594 
   -4893    -5167    -5458    -5718    -5896    -6054    -6208    -6273 
   -6327    -6404    -6408    -6411    -6444    -6432    -6373    -6273 
   -6142    -5987    -5798    -5593    -5382    -5186    -5019    -4877 
   -4742    -4606    -4500    -4401    -4286    -4195    -4124    -4040 
   -3956    -3908    -3854    -3767    -3697    -3622    -3503    -3358 
   -3184    -2959    -2690    -2421    -2135    -1819    -1561    -1333 
   -1101     -888     -656     -434     -233      -47       98      248 
     390      499      625      756      849      920      994     1034 
    1048     1085     1107     1101     1111     1131     1128     1080 
     992      846      675      529      379      233       91      -55 
    -175     -297     -414     -506     -583     -594     -572     -535 
    -457     -379     -315     -261     -221     -197     -166      -95 
     -44      -28      -27      -59      -97     -160     -266     -367 
    -461     -556     -611     -618     -600     -542     -425     -321 
    -236     -167     -151     -152     -156     -174     -195     -203 
    -198     -230     -282     -326     -394     -446     -484     -518 
    -548     -575     -585     -615     -675     -735     -819     -907 
    -985    -1092    -1217    -1305    -1351    -1412    -1463    -1495 
   -1540    -1548    -1537    -1509    -1431    -1341    -1233    -1142 
   -1121    -1138    -1183    -1255    -1328    -1395    -1497    -1636 
   -1769    -1965    -2246    -2543    -2852    -3150    -3410    -3626 
   -3801    -3951    -4043    -4094    -4166    -4207    -4199    -4171 
   -4125    -4059    -4003    -3964    -3905    -3840    -3807    -3766 
   -3674    -3563    -3456    -3292    -3115    -2965    -2771    -2571 
   -2419    -2253    -2079    -1919    -1753    -1576    -1448    -1410 
   -1390    -1409    -1503    -1582    -1632    -1686    -1738    -1775 
   -1787    -1784    -1707    -1561    -1401    -1201     -961     -712 
    -472     -229        1      194      405      618      796      980 
    1196     1425     1628     1826     2023     2142     2236     2361 
    2451     2543     2669     2801     2905     2967     2967     2875 
    2721     2536     2304     2065     1849     1641     1420     1223 
    1065      907      791      733      688      661      669      724 
     800      877      961      999      981      928      834      702 
     561      422      257       89      -45     -187     -321     -413 
    -504     -627     -773     -895     -987    -1065    -1101    -1117 
   -1131    -1140    -1171    -1248    -1333    -1360    -1366    -1367 
   -1318    -1258    -1200    -1136    -1078    -1046    -1042    -1012 
    -970     -963     -961     -962     -969     -962     -951     -943 
    -938     -908     -841     -754     -649     -561     -500     -463 
    -463     -498     -568     -634     -681     -730     -777     -826 
    -861     -880     -896     -903     -934     -949     -909     -854 
    -767     -656     -549     -457     -386     -338     -336     -344 
    -330     -329     -329     -306     -291     -328     -406     -490 
    -587     -661     -687     -696     -697     -707     -738     -789 
    -843     -882     -950    -1012    -1026    -1044    -1071    -1094 
   -1102    -1115    -1142    -1140    -1129    -1119    -1078    -1044 
   -1038    -1038    -1026    -1048    -1107    -1159    -1235    -1317 
   -1385    -1482    -1606    -1748    -1881    -1989    -2083    -2119 
   -2120    -2119    -2087    -2056    -2038    -2014    -1973    -1907 
   -1830    -1742    -1653    -1579    -1501    -1409    -1333    -1282 
   -1212    -1113    -1030     -938     -819     -691     -571     -464 
    -367     -315     -288     -243     -236     -232     -187     -147 
     -89        2       71       97      144      212      248      314 
     400      442      464      477      500      530      573      648 
     704      724      718      680      622      540      437      292 
     112      -55     -243     -425     -557     -679     -815     -958 
   -1116    -1294    -1449    -1553    -1658    -1807    -1965    -2106 
   -2272    -2448    -2592    -2762    -2953    -3115    -3299    -3484 
   -3622    -3719    -3782    -3798    -3759    -3697    -3615    -3465 
   -3291    -3152    -3022    -2902    -2806    -2718    -2596    -2446 
   -2286    -2089    -1887    -1733    -1606    -1472    -1352    -1247 
   -1102     -926     -735     -484     -228      -28      144      310 
     456      566      685      797      866      928      976      978 
     972      989     1021     1034     1062     1088     1057     1034 
    1024      966      893      849      799      714      626      552 
     491      464      467      475      438      407      410      370 
     361      433      513      637      785      899      972     1005 
    1023      990      924      869      785      702      638      552 
     468      410      395      382      344      310      253      180 
     118       49      -35     -121     -210     -336     -480     -634 
    -810     -962    -1086    -1178    -1242    -1286    -1287    -1297 
   -1317    -1318    -1308    -1282    -1267    -1247    -1246    -1289 
   -1302    -1294    -1313    -1324    -1320    -1313    -1328    -1339 
   -1327    -1324    -1300    -1235    -1167    -1096    -1016     -943 
    -888     -819     -738     -675     -583     -492     -459     -438 
    -390     -315     -243     -162      -70      -25       11       70 
     112      156      216      305      398      456      506      540 
     572      616      649      661      669      692      699      673 
     650      629      598      575      553      513      468      464 
     457      451      487      502      499      502      480      429 
     359      297      195       41     -125     -321     -503     -648 
    -783     -884     -950     -994    -1038    -1086    -1111    -1138 
