Origin Time       2016/04/16 01:25:00
Lat.              32.753
Long.             130.762
Depth. (km)       12
Mag.              7.3
Station Code      TKS011
Station Lat.      33.8746
Station Long.     133.9218
Station Height(m) 555
Record Time       2016/04/16 01:26:39
Sampling Freq(Hz) 100Hz
Duration Time(s)  65
Dir.              E-W
Scale Factor      7845(gal)/8223790
Max. Acc. (gal)   1.723
Last Correction   2016/04/16 01:26:41
Memo.             
[...]
    2586     2565     2540     2517     2492     2475     2470     2454 
    2428     2404     2384     2371     2366     2347     2309     2269 
    2234     2196     2154     2111     2076     2058     2052     2050 
    2046     2043     2042     2050     2065     2083     2098     2106 
    2114     2126     2147     2177     2208     2236     2267     2309 
    2361     2417     2459     2488     2509     2524     2529     2513 
    2473     2420     2354     2288     2243     2205     2169     2143 
    2128     2126     2143     2160     2166     2173     2181     2199 
    2234     2270     2289     2292     2285     2277     2277     2274 
    2266     2266     2266     2262     2255     2250     2253     2267 
    2288     2319     2359     2388     2401     2407     2400     2385 
    2371     2361     2343     2326     2315     2299     2282     2274 
    2267     2262     2263     2267     2281     2301     2311     2312 
    2305     2295     2301     2319     2332     2343     2346     2340 
    2332     2319     2315     2317     2313     2308     2301     2282 
    2258     2235     2215     2207     2196     2169     2141     2120 
    2104     2088     2070     2057     2046     2034     2039     2052 
    2064     2073     2076     2074     2079     2079     2069     2066 
    2072     2073     2077     2083     2079     2079     2083     2088 
    2095     2097     2100     2116     2146     2182     2222     2262 
    2304     2343     2380     2411     2432     2458     2485     2500 
    2506     2511     2502     2489     2471     2454     2440     2425 
    2411     2396     2381     2363     2351     2350     2354     2363 
    2380     2398     2416     2428     2439     2447     2450     2452 
    2455     2457     2448     2423     2386     2354     2328     2316 
    2315     2319     2326     2340     2357     2370     2381     2390 
    2400     2412     2411     2388     2361     2338     2324     2317 
    2303     2280     2258     2235     2212     2196     2182     2169 
    2165     2170     2173     2172     2177     2196     2211     2215 
    2224     2234     2239     2251     2272     2289     2299     2307 
    2316     2323     2327     2334     2347     2366     2380     2381 
    2377     2373     2371     2378     2392     2416     2451     2490 
    2528     2560     2582     2594     2598     2601     2604     2605 
    2596     2577     2554     2520     2479     2446     2423     2416 
    2425     2438     2448     2457     2469     2486     2502     2513 
    2524     2529     2535     2536     2527     2508     2475     2431 
    2386     2346     2307     2276     2262     2253     2246     2247 
    2258     2277     2299     2311     2313     2309     2300     2289 
    2272     2239     2188     2133     2084     2042     2015     1993 
    1962     1927     1895     1868     1859     1867     1876     1887 
    1890     1875     1852     1833     1825     1819     1811     1795 
    1773     1753     1744     1738     1732     1728     1734     1742 
    1750     1768     1790     1806     1819     1829     1838     1852 
    1865     1881     1908     1946     1991     2037     2081     2116 
    2133     2138     2149     2165     2177     2177     2154     2107 
    2053     2003     1958     1923     1898     1880     1872     1875 
    1881     1890     1895     1903     1915     1929     1954     1992 
    2027     2053     2076     2093     2110     2121     2130     2137 
    2147     2157     2166     2168     2155     2142     2128     2115 
    2111     2100     2073     2041     2015     1992     1979     1966 
    1949     1929     1910     1898     1894     1902     1922     1944 
    1964     1993     2027     2046     2064     2101     2149     2191 
    2230     2276     2334     2401     2473     2539     2596     2647 
    2694     2743     2792     2844     2893     2929     2955     2974 
    2984     2994     3005     3014     3024     3025     3015     3002 
    2984     2967     2955     2949     2948     2948     2945     2936 
    2918     2911     2926     2955     2986     3010     3022     3026 
    3025     3018     3001     2967     2934     2898     2855     2813 
    2774     2736     2697     2664     2641     2623     2601     2575 
    2550     2531     2513     2497     2478     2450     2419     2389 
    2357     2331     2316     2304     2299     2301     2305     2311 
    2323     2334     2342     2344     2343     2346     2349     2357 
    2366     2363     2351     2335     2324     2327     2346     2377 
    2404     2419     2427     2436     2451     2470     2482     2485 
    2474     2452     2421     2384     2336     2290     2242     2187 
    2135     2083     2018     1954     1896     1841     1803     1777 
    1753     1733     1714     1701     1690     1680     1676     1672 
    1668     1676     1696     1729     1777     1840     1912     1992 
    2070     2139     2196     2241     2274     2308     2343     2385 
    2425     2448     2465     2496     2546     2617     2702     2786 
    2863     2932     2995     3059     3121     3165     3194     3217 
    3229     3232     3235     3230     3204     3163     3130     3109 
    3083     3048     3018     2995     2980     2975     2976     2991 
    3015     3041     3065     3083     3098     3122     3153     3175 
    3186     3179     3157     3119     3060     2990     2921     2860 
    2809     2771     2745     2721     2687     2646     2602     2562 
    2533     2505     2463     2405     2315     2201     2088     1977 
    1872     1768     1660     1552     1453     1352     1251     1163 
    1085     1015      962      934      924      932      962     1011 
    1071     1139     1208     1281     1363     1460     1567     1667 
    1749     1817     1881     1954     2022     2073     2115     2149 
    2176     2204     2230     2249     2263     2276     2284     2281 
    2270     2257     2231     2201     2184     2166     2146     2135 
    2130     2123     2119     2114     2107     2097     2076     2053 
    2046     2045     2049     2062     2079     2107     2149     2196 
    2242     2277     2300     2315     2323     2317     2301     2281 
    2249     2203     2155     2107     2049     1988     1933     1885 
    1852     1833     1833     1849     1880     1929     1995     2070 
    2143     2211     2284     2366     2446     2523     2600     2674 
    2740     2809     2879     2952     3034     3114     3186     3257 
    3327     3383     3416     3433     3437     3438     3445     3453 
    3454     3443     3416     3380     3360     3357     3358     3365 
    3368     3350     3333     3316     3304     3306     3304     3287 
    3261     3230     3208     3198     3180     3165     3159     3142 
    3123     3118     3114     3111     3129     3165     3213     3260 
    3295     3314     3316     3308     3302     3291     3269     3245 
    3206     3142     3073     3010     2940     2868     2791     2705 
    2619     2531     2442     2363     2286     2209     2141     2083 
    2037     2007     1999     2011     2034     2070     2119     2180 
    2253     2338     2425     2509     2593     2668     2732     2786 
    2826     2862     2896     2924     2943     2944     2932     2910 
    2870     2813     2755     2697     2639     2583     2519     2438 
    2354     2272     2195     2134     2085     2039     2004     1982 
    1972     1973     1981     1998     2027     2061     2096     2133 
    2165     2188     2204     2220     2241     2267     2297     2322 
    2336     2328     2309     2282     2239     2180     2111     2045 
    1981     1922     1865     1811     1764     1736     1728     1728 
    1733     1745     1757     1767     1775     1773     1753     1719 
    1668     1587     1487     1383     1277     1173     1081     1000 
     938      899      877      880      890      909      942      977 
    1008     1047     1090     1139     1197     1252     1306     1356 
    1401     1453     1518     1583     1647     1706     1767     1831 
    1894     1949     1999     2026     2039     2049     2052     2050 
    2053     2053     2053     2061     2074     2087     2100     2119 
    2144     2173     2205     2241     2266     2274     2269     2254 
    2234     2211     2185     2157     2133     2118     2116     2138 
    2178     2224     2272     2313     2347     2381     2413     2435 
    2442     2435     2420     2411     2400     2392     2398     2411 
    2425     2457     2505     2569     2636     2705     2771     2830 
    2876     2914     2938     2952     2955     2955     2955     2951 
    2943     2934     2917     2895     2880     2874     2870     2862 
    2848     2837     2822     2805     2789     2767     2740     2718 
    2701     2685     2679     2675     2656     2636     2620     2601 
    2582     2567     2560     2562     2565     2573     2577     2567 
    2555     2554     2555     2563     2581     2586     2578     2570 
    2562     2551     2529     2488     2430     2358     2284     2218 
    2150     2079     2014     1949     1891     1848     1813     1776 
    1738     1702     1671     1641     1613     1591     1570     1549 
    1533     1522     1521     1532     1547     1557     1563     1567 
    1579     1603     1632     1658     1675     1682     1690     1709 
    1738     1769     1790     1796     1799     1800     1807     1821 
    1841     1858     1877     1894     1906     1918     1926     1933 
    1945     1956     1971     1984     1989     1993     2007     2027 
    2050     2085     2120     2149     2173     2184     2170     2144 
    2111     2079     2043     2012     1977     1938     1900     1877 
    1872     1872     1868     1869     1875     1888     1912     1944 
    1981     2019     2060     2114     2173     2231     2297     2377 
    2461     2548     2633     2705     2762     2808     2849     2884 
    2906     2915     2915     2909     2901     2893     2880     2863 
    2843     2814     2787     2755     2708     2656     2612     2577 
    2556     2546     2543     2542     2546     2558     2584     2616 
    2646     2682     2718     2756     2799     2843     2876     2906 
    2929     2949     2964     2971     2971     2972     2971     2976 
    2983     2976     2960     2948     2934     2917     2896     2875 
    2856     2835     2820     2816     2814     2808     2789     2759 
    2727     2686     2636     2590     2543     2492     2438     2382 
    2328     2273     2218     2173     2135     2092     2047     2004 
    1961     1921     1883     1850     1821     1786     1749     1709 
    1665     1622     1576     1521     1464     1409     1352     1297 
    1251     1219     1197     1185     1185     1201     1225     1255 
    1291     1331     1372     1417     1460     1499     1528     1533 
    1516     1485     1445     1412     1393     1381     1375     1381 
    1389     1405     1441     1483     1528     1582     1632     1683 
    1719     1737     1748     1759     1764     1767     1761     1741 
    1721     1706     1691     1686     1686     1675     1658     1645 
    1626     1621     1636     1648     1660     1679     1677     1658 
    1636     1606     1583     1566     1548     1541     1540     1537 
    1537     1541     1559     1598     1648     1707     1777     1842 
    1892     1944     1985     2016     2050     2072     2073     2072 
    2070     2077     2085     2091     2096     2101     2107     2119 
    2135     2161     2189     2199     2187     2173     2158     2141 
    2130     2124     2130     2151     2178     2205     2239     2280 
    2315     2338     2358     2382     2404     2409     2397     2378 
    2353     2313     2281     2258     2239     2227     2218     2205 
    2204     2204     2201     2207     2215     2218     2215     2199 
    2173     2135     2079     2019     1961     1910     1869     1829 
    1776     1709     1629     1552     1489     1437     1393     1351 
    1318     1308     1316     1336     1366     1404     1453     1512 
    1571     1625     1671     1707     1740     1763     1775     1781 
    1784     1790     1809     1838     1873     1914     1958     2008 
    2070     2142     2218     2297     2380     2463     2543     2624 
    2702     2776     2856     2940     3015     3078     3129     3167 
    3190     3194     3186     3167     3144     3118     3090     3057 
    3019     2978     2937     2918     2915     2917     2922     2926 
    2928     2934     2940     2948     2959     2964     2975     2995 
    3006     3003     2992     2972     2955     2945     2940     2943 
    2948     2948     2949     2956     2952     2947     2949     2951 
    2949     2951     2953     2961     2980     3003     3018     3025 
    3032     3033     3032     3034     3032     3017     2994     2967 
    2947     2926     2902     2872     2840     2809     2771     2732 
    2693     2648     2593     2523     2438     2346     2246     2142 
    2046     1964     1891     1830     1784     1760     1750     1742 
    1740     1741     1737     1729     1706     1660     1606     1552 
    1505     1471     1447     1420     1379     1329     1281     1237 
    1197     1156     1112     1067     1031      990      942      903 
     873      843      812      783      757      728      693      657 
     619      579      544      511      495      503      526      558 
     591      625      668      727      796      864      927      977 
    1007     1020     1023     1026     1028     1026     1020     1023 
    1030     1035     1039     1048     1060     1077     1097     1123 
    1156     1200     1244     1281     1308     1339     1378     1422 
    1467     1507     1539     1566     1598     1644     1701     1764 
    1826     1892     1965     2037     2101     2161     2215     2270 
    2326     2376     2419     2452     2481     2513     2551     2600 
    2651     2694     2737     2781     2818     2849     2876     2901 
    2928     2949     2972     3002     3038     3071     3102     3129 
    3152     3173     3204     3249     3295     3336     3383     3437 
    3492     3544     3595     3642     3689     3726     3755     3785 
    3804     3804     3792     3775     3747     3707     3663     3620 
    3578     3530     3476     3414     3343     3273     3204     3132 
    3060     2988     2917     2856     2802     2747     2697     2662 
    2632     2606     2612     2643     2662     2686     2720     2748 
    2789     2832     2853     2863     2868     2868     2862     2848 
    2828     2794     2758     2735     2731     2739     2739     2729 
    2714     2695     2681     2683     2686     2679     2669     2662 
    2656     2658     2663     2668     2686     2721     2766     2802 
    2835     2856     2863     2867     2875     2891     2906     2911 
    2907     2893     2866     2824     2774     2728     2677     2617 
    2562     2513     2473     2438     2405     2381     2371     2369 
    2376     2394     2425     2461     2490     2519     2546     2569 
    2584     2597     2616     2636     2658     2681     2698     2712 
    2732     2754     2776     2799     2814     2826     2832     2828 
    2828     2832     2826     2817     2806     2799     2797     2801 
    2806     2806     2810     2824     2847     2878     2906     2926 
    2947     2967     2986     2986     2965     2936     2886     2826 
    2776     2733     2697     2681     2677     2677     2679     2686 
    2704     2732     2759     2783     2813     2844     2857     2860 
    2859     2848     2835     2820     2799     2789     2794     2798 
    2799     2810     2833     2859     2891     2929     2965     2995 
    3017     3030     3038     3045     3049     3049     3044     3046 
    3053     3057     3064     3068     3063     3055     3040     3024 
    3014     2997     2967     2930     2882     2836     2797     2752 
    2712     2688     2678     2678     2694     2725     2758     2787 
    2822     2855     2880     2913     2934     2930     2926     2926 
    2926     2934     2943     2956     2967     2960     2948     2929 
    2887     2837     2783     2720     2656     2598     2544     2494 
    2440     2380     2319     2265     2214     2157     2096     2045 
    1995     1948     1908     1864     1806     1755     1726     1705 
    1680     1660     1640     1610     1575     1543     1513     1482 
    1463     1468     1489     1514     1543     1575     1622     1688 
    1757     1822     1884     1933     1972     2011     2053     2097 
    2146     2187     2215     2247     2296     2363     2428     2490 
    2567     2631     2674     2720     2759     2775     2778     2775 
    2771     2771     2759     2733     2706     2685     2674     2671 
    2666     2668     2694     2710     2718     2739     2751     2752 
    2759     2763     2759     2749     2732     2728     2721     2695 
    2674     2655     2623     2600     2606     2628     2659     2698 
    2721     2729     2745     2778     2811     2828     2832     2832 
    2828     2824     2824     2822     2813     2803     2806     2818 
    2833     2853     2879     2898     2922     2948     2945     2924 
    2901     2875     2840     2798     2762     2720     2664     2620 
    2581     2543     2516     2494     2470     2442     2415     2388 
    2367     2359     2365     2370     2371     2365     2355     2347 
    2338     2331     2331     2335     2340     2349     2363     2388 
    2416     2463     2529     2582     2619     2659     2697     2736 
    2772     2797     2803     2795     2782     2772     2767     2752 
    2721     2679     2633     2583     2539     2496     2442     2389 
    2346     2319     2312     2305     2308     2319     2327     2349 
    2390     2428     2466     2506     2536     2554     2567     2575 
    2570     2555     2531     2505     2488     2475     2461     2439 
    2411     2378     2353     2336     2315     2296     2288     2282 
    2281     2280     2272     2270     2277     2289     2312     2343 
    2371     2385     2385     2374     2353     2331     2304     2272 
    2243     2215     2182     2153     2135     2118     2101     2093 
    2085     2079     2084     2092     2093     2084     2066     2037 
    2003     1985     1975     1958     1939     1919     1896     1872 
    1852     1833     1814     1811     1819     1826     1846     1873 
    1903     1941     1980     2016     2058     2110     2161     2204 
    2236     2263     2293     2327     2361     2388     2409     2430 
    2454     2477     2493     2496     2481     2457     2435     2408 
    2367     2328     2293     2254     2222     2204     2201     2199 
    2196     2214     2245     2277     2309     2346     2377     2394 
    2401     2407     2403     2389     2367     2338     2311     2289 
    2270     2243     2212     2187     2170     2157     2147     2137 
    2128     2120     2115     2124     2133     2130     2141     2163 
    2184     2200     2224     2247     2265     2295     2338     2384 
    2431     2482     2523     2558     2590     2614     2629     2639 
