Origin Time       2016/04/16 01:25:00
Lat.              32.753
Long.             130.762
Depth. (km)       12
Mag.              7.3
Station Code      TKS009
Station Lat.      33.7719
Station Long.     134.1995
Station Height(m) 362
Record Time       2016/04/16 01:26:46
Sampling Freq(Hz) 100Hz
Duration Time(s)  88
Dir.              N-S
Scale Factor      7845(gal)/8223790
Max. Acc. (gal)   3.650
Last Correction   2016/04/16 01:26:47
Memo.             
[...]
    -526     -581     -649     -683     -699     -714     -704     -683 
    -676     -689     -706     -715     -733     -772     -831     -892 
    -943     -976     -992    -1009    -1036    -1065    -1094    -1123 
   -1121    -1081    -1046    -1019     -976     -965    -1000    -1026 
   -1036    -1070    -1107    -1096    -1047     -994     -950     -928 
    -920     -922     -965    -1013    -1013    -1017    -1028     -989 
    -934     -892     -849     -822     -814     -812     -820     -827 
    -834     -846     -843     -834     -843     -842     -819     -808 
    -793     -772     -773     -785     -797     -816     -826     -834 
    -851     -853     -847     -846     -850     -869     -877     -868 
    -834     -784     -747     -722     -702     -722     -760     -781 
    -799     -814     -803     -777     -750     -712     -653     -598 
    -572     -575     -610     -680     -760     -808     -826     -838 
    -847     -828     -781     -734     -683     -627     -596     -589 
    -598     -619     -629     -621     -622     -627     -616     -602 
    -599     -606     -614     -606     -595     -598     -591     -591 
    -615     -631     -618     -610     -621     -622     -616     -633 
    -661     -675     -687     -715     -734     -737     -747     -769 
    -783     -773     -743     -708     -675     -634     -585     -548 
    -521     -498     -491     -491     -487     -493     -498     -488 
    -483     -483     -476     -483     -495     -484     -495     -526 
    -533     -538     -557     -562     -565     -576     -583     -588 
    -603     -619     -634     -653     -668     -675     -684     -689 
    -676     -648     -611     -575     -558     -562     -569     -579 
    -604     -630     -627     -611     -589     -566     -556     -548 
    -561     -604     -645     -680     -715     -727     -707     -670 
    -637     -630     -658     -727     -805     -876     -955    -1016 
   -1051    -1081    -1071    -1024     -977     -905     -850     -853 
    -880     -927    -1000    -1074    -1129    -1156    -1144    -1105 
   -1053     -982     -912     -862     -812     -762     -735     -738 
    -766     -793     -783     -745     -691     -610     -525     -481 
    -463     -442     -459     -493     -491     -473     -456     -421 
    -382     -336     -291     -266     -243     -220     -230     -271 
    -302     -310     -307     -282     -237     -209     -216     -261 
    -314     -351     -395     -450     -487     -517     -589     -675 
    -718     -751     -777     -785     -814     -850     -876     -911 
    -935     -936     -940     -963     -972     -976    -1000    -1008 
   -1003    -1017    -1020    -1013    -1013    -1000     -986     -962 
    -928     -919     -911     -893     -897     -907     -892     -870 
    -849     -830     -803     -765     -739     -735     -741     -746 
    -761     -811     -854     -872     -897     -900     -870     -850 
    -846     -838     -842     -873     -903     -916     -932     -957 
    -955     -950     -957     -953     -939     -908     -857     -851 
    -895     -918     -926     -954     -984    -1004    -1030    -1046 
   -1034    -1004     -953     -877     -812     -767     -741     -747 
    -749     -737     -741     -733     -706     -714     -724     -720 
    -735     -731     -677     -626     -588     -538     -487     -471 
    -484     -492     -476     -471     -487     -488     -464     -434 
    -395     -342     -306     -313     -319     -306     -307     -314 
    -299     -280     -270     -263     -272     -298     -324     -348 
    -370     -386     -415     -454     -464     -468     -469     -436 
    -391     -373     -368     -383     -436     -493     -561     -654 
    -750     -830     -899     -936     -932     -913     -877     -810 
    -730     -657     -612     -606     -623     -660     -702     -747 
    -789     -810     -811     -778     -718     -683     -672     -665 
    -702     -776     -823     -838     -855     -851     -800     -730 
    -662     -619     -610     -618     -661     -727     -762     -773 
    -785     -761     -704     -649     -592     -537     -491     -464 
    -476     -486     -471     -477     -492     -487     -493     -513 
    -525     -535     -550     -568     -592     -611     -618     -606 
    -575     -544     -535     -550     -589     -650     -712     -764 
    -816     -854     -850     -816     -783     -739     -681     -652 
    -664     -704     -760     -808     -842     -864     -858     -816 
    -770     -723     -668     -650     -676     -697     -704     -723 
    -756     -780     -799     -815     -822     -812     -797     -788 
    -787     -784     -792     -834     -886     -922     -940     -942 
    -942     -947     -926     -899     -905     -923     -946     -989 
   -1008    -1003    -1020    -1035    -1026    -1009     -982     -958 
    -934     -903     -886     -885     -884     -889     -903     -922 
    -935     -924     -916     -936     -945     -946     -976     -990 
    -999    -1024    -1015     -993    -1005    -1008    -1004    -1026 
   -1053    -1100    -1167    -1200    -1193    -1174    -1139    -1094 
   -1032     -955     -889     -849     -842     -851     -868     -899 
    -927     -951     -981    -1000    -1013    -1023    -1019    -1009 
   -1013    -1028    -1039    -1047    -1044    -1016     -957     -870 
    -781     -699     -629     -591     -566     -542     -546     -552 
    -537     -522     -493     -454     -410     -353     -298     -253 
    -229     -240     -243     -224     -220     -217     -198     -187 
    -198     -214     -198     -157     -129      -86      -25        5 
      37       67       60       56       55        2      -44      -58 
     -93     -129     -137     -137     -129      -98      -60      -41 
     -35      -23      -31      -64      -91      -97      -93      -93 
     -91      -81      -85     -109     -117     -106     -114     -128 
    -118     -112     -141     -201     -278     -348     -406     -461 
    -490     -495     -515     -540     -545     -538     -526     -500 
    -476     -472     -479     -480     -468     -453     -442     -423 
    -396     -369     -328     -265     -199     -152     -116      -79 
     -44       -9       25       52       67       85      110      136 
     159      186      207      212      201      159       91       10 
     -83     -163     -209     -246     -280     -278     -289     -340 
    -379     -414     -457     -486     -519     -553     -577     -599 
    -600     -610     -634     -646     -688     -778     -866     -943 
   -1016    -1074    -1127    -1171    -1220    -1281    -1339    -1402 
   -1493    -1586    -1652    -1718    -1779    -1787    -1771    -1757 
   -1736    -1722    -1732    -1764    -1804    -1821    -1819    -1802 
   -1755    -1684    -1599    -1498    -1404    -1329    -1275    -1250 
   -1260    -1320    -1410    -1501    -1587    -1675    -1752    -1796 
   -1825    -1854    -1872    -1873    -1891    -1942    -2008    -2076 
   -2160    -2242    -2281    -2301    -2319    -2295    -2242    -2192 
   -2133    -2070    -2022    -2001    -2011    -2023    -2046    -2084 
   -2098    -2085    -2061    -2025    -1956    -1873    -1800    -1737 
   -1706    -1728    -1761    -1803    -1867    -1922    -1962    -2018 
   -2064    -2091    -2126    -2155    -2170    -2196    -2220    -2220 
   -2227    -2231    -2203    -2162    -2110    -2046    -1987    -1927 
   -1876    -1837    -1810    -1821    -1846    -1859    -1881    -1898 
   -1876    -1821    -1749    -1668    -1574    -1476    -1421    -1402 
   -1409    -1457    -1513    -1551    -1568    -1522    -1426    -1312 
   -1159    -1005     -885     -787     -712     -665     -635     -615 
    -584     -532     -456     -367     -274     -163      -67       -4 
      49       91      112      136      160      197      276      396 
     526      656      793      918      999     1053     1075     1057 
    1038     1023      996      987     1005     1017     1036     1081 
    1133     1174     1202     1217     1210     1185     1166     1177 
    1224     1290     1364     1455     1545     1620     1707     1794 
    1857     1912     1948     1949     1949     1949     1929     1910 
    1894     1850     1783     1702     1605     1507     1405     1302 
    1229     1181     1135     1101     1067     1017      961      896 
     812      708      592      475      369      283      212      137 
      40      -81     -214     -349     -502     -668     -819     -961 
   -1107    -1229    -1329    -1437    -1512    -1554    -1615    -1669 
   -1709    -1761    -1790    -1777    -1765    -1746    -1711    -1674 
   -1628    -1580    -1552    -1524    -1487    -1471    -1483    -1530 
   -1620    -1706    -1788    -1883    -1958    -2023    -2096    -2155 
   -2214    -2285    -2361    -2428    -2470    -2508    -2544    -2532 
   -2490    -2442    -2367    -2284    -2224    -2177    -2160    -2191 
   -2246    -2308    -2361    -2401    -2408    -2367    -2309    -2235 
   -2141    -2062    -2011    -1979    -1987    -2041    -2110    -2157 
   -2162    -2133    -2098    -2029    -1910    -1804    -1728    -1648 
   -1593    -1595    -1629    -1656    -1698    -1740    -1733    -1706 
   -1655    -1561    -1475    -1393    -1301    -1243    -1208    -1166 
   -1120    -1067    -1008     -950     -893     -845     -824     -815 
    -804     -807     -792     -760     -735     -691     -637     -595 
    -538     -471     -400     -310     -217     -143      -47       41 
      76       97       95       39      -27      -91     -176     -252 
    -299     -333     -353     -352     -330     -291     -261     -263 
    -265     -283     -334     -359     -353     -348     -306     -234 
    -174     -137     -112     -102     -125     -144     -114      -54 
      32      160      295      425      529      572      581      552 
     475      375      263      172      112       51        8      -35 
    -128     -256     -419     -631     -854    -1065    -1248    -1375 
   -1431    -1420    -1356    -1259    -1161    -1088    -1053    -1081 
   -1166    -1278    -1404    -1530    -1630    -1674    -1672    -1658 
   -1610    -1524    -1449    -1389    -1328    -1306    -1314    -1324 
   -1344    -1347    -1324    -1334    -1364    -1397    -1491    -1615 
   -1714    -1814    -1914    -1982    -2041    -2095    -2128    -2161 
   -2209    -2280    -2371    -2467    -2544    -2608    -2640    -2616 
   -2587    -2571    -2532    -2508    -2516    -2525    -2542    -2540 
   -2508    -2478    -2444    -2401    -2361    -2322    -2285    -2254 
   -2222    -2192    -2172    -2141    -2091    -2034    -1984    -1938 
   -1900    -1896    -1906    -1894    -1890    -1892    -1877    -1876 
   -1891    -1883    -1852    -1811    -1752    -1682    -1615    -1557 
   -1513    -1459    -1394    -1343    -1293    -1229    -1165    -1088 
    -997     -896     -773     -639     -500     -353     -218      -99 
      23      136      210      257      272      265      261      259 
     265      299      340      370      407      454      490      487 
     440      369      284      178       76       -5      -90     -170 
    -232     -289     -353     -413     -476     -568     -654     -723 
    -784     -811     -801     -774     -714     -652     -616     -579 
    -546     -526     -492     -461     -429     -368     -287     -197 
     -90       32      178      333      467      587      700      797 
     880      954     1035     1107     1155     1212     1291     1370 
    1441     1509     1554     1561     1548     1526     1499     1491 
    1498     1499     1505     1507     1486     1443     1402     1360 
    1293     1228     1177     1117     1078     1053     1034     1038 
    1047     1031      986      909      791      648      491      313 
     133      -32     -184     -299     -373     -451     -548     -642 
    -766     -942    -1117    -1304    -1509    -1653    -1752    -1852 
   -1900    -1900    -1929    -1954    -1956    -2003    -2079    -2157 
   -2285    -2439    -2571    -2679    -2749    -2772    -2774    -2775 
   -2774    -2781    -2810    -2859    -2921    -2990    -3042    -3078 
   -3113    -3119    -3064    -2979    -2905    -2833    -2768    -2725 
   -2705    -2718    -2755    -2785    -2820    -2848    -2833    -2776 
   -2688    -2577    -2470    -2382    -2301    -2235    -2177    -2115 
   -2045    -1954    -1845    -1715    -1560    -1401    -1248    -1098 
    -967     -859     -765     -702     -652     -583     -538     -518 
    -480     -446     -418     -373     -352     -352     -330     -318 
    -340     -363     -402     -488     -595     -704     -826     -923 
    -985    -1046    -1105    -1170    -1250    -1325    -1397    -1476 
   -1545    -1584    -1605    -1625    -1609    -1552    -1490    -1404 
   -1297    -1202    -1102     -994     -877     -741     -610     -486 
    -355     -234     -105       49      206      375      553      697 
     801      885      939      981     1030     1069     1100     1138 
    1177     1216     1267     1339     1436     1548     1658     1792 
    1938     2042     2130     2219     2263     2296     2328     2328 
    2328     2340     2357     2382     2401     2434     2488     2525 
    2558     2625     2714     2817     2929     3024     3095     3141 
    3146     3111     3044     2974     2896     2801     2714     2627 
    2513     2407     2313     2205     2083     1956     1813     1634 
    1456     1297     1148     1000      842      699      576      467 
     365      252      133        5     -141     -298     -456     -595 
    -708     -804     -872     -905     -905     -888     -877     -872 
    -884     -946    -1036    -1128    -1244    -1372    -1463    -1512 
   -1517    -1483    -1436    -1389    -1355    -1348    -1385    -1441 
   -1503    -1598    -1686    -1713    -1695    -1641    -1554    -1463 
   -1391    -1362    -1355    -1348    -1374    -1422    -1452    -1485 
   -1535    -1563    -1560    -1549    -1524    -1512    -1539    -1578 
   -1632    -1674    -1687    -1698    -1688    -1649    -1599    -1533 
   -1471    -1414    -1341    -1300    -1298    -1286    -1294    -1347 
   -1397    -1441    -1489    -1525    -1560    -1582    -1576    -1568 
   -1554    -1518    -1470    -1436    -1416    -1405    -1417    -1440 
   -1455    -1467    -1457    -1440    -1433    -1445    -1491    -1560 
   -1617    -1656    -1664    -1629    -1582    -1533    -1480    -1433 
   -1375    -1298    -1232    -1173    -1115    -1078    -1055    -1026 
   -1012    -1017     -996     -946     -913     -861     -764     -656 
    -535     -405     -257      -94       58      214      365      472 
     553      630      689      743      801      866      959     1065 
    1167     1271     1345     1363     1347     1301     1242     1167 
    1109     1092     1070     1053     1078     1109     1136     1136 
    1075      982      857      702      575      486      405      341 
     340      364      373      409      460      473      484      492 
     468      460      484      515      587      691      792      900 
     997     1065     1131     1181     1217     1259     1297     1328 
    1366     1409     1437     1453     1451     1426     1401     1367 
    1320     1291     1279     1267     1281     1317     1351     1387 
    1439     1476     1489     1491     1482     1460     1428     1377 
    1333     1308     1281     1270     1282     1314     1368     1409 
    1424     1441     1441     1428     1420     1398     1371     1350 
    1312     1267     1246     1229     1202     1179     1150     1094 
    1028      959      897      838      770      700      635      575 
     538      514      457      394      344      287      225      172 
     121       67        8      -64     -140     -212     -287     -361 
    -388     -359     -321     -265     -168      -95      -65      -36 
     -21      -47      -79      -94     -120     -141     -106      -45 
      18      110      198      257      305      341      368      386 
     409      445      480      519      579      654      718      765 
     788      764      706      645      569      490      440      414 
     402      415      448      476      498      503      487      444 
     380      313      232      152       97       47       18       16 
      13        9       14       10       -5      -18      -41     -101 
    -170     -232     -303     -357     -360     -349     -338     -305 
    -275     -270     -279     -311     -352     -382     -414     -427 
    -422     -432     -436     -433     -445     -446     -450     -486 
    -519     -538     -566     -577     -535     -481     -437     -364 
    -288     -243     -210     -202     -230     -270     -302     -315 
    -302     -286     -257     -209     -182     -184     -184     -209 
    -276     -346     -423     -532     -649     -751     -831     -881 
    -912     -940     -987    -1067    -1188    -1336    -1483    -1628 
   -1760    -1852    -1945    -2049    -2130    -2209    -2300    -2386 
   -2479    -2584    -2709    -2825    -2918    -2991    -3026    -3024 
   -3009    -2986    -2964    -2937    -2903    -2893    -2903    -2915 
   -2945    -2978    -3003    -3029    -3037    -3024    -3005    -2991 
   -2995    -3010    -3022    -3032    -3033    -3006    -2928    -2826 
   -2724    -2605    -2478    -2370    -2292    -2255    -2239    -2230 
   -2243    -2281    -2305    -2304    -2299    -2289    -2259    -2226 
   -2211    -2199    -2177    -2158    -2130    -2084    -2038    -1984 
   -1935    -1890    -1825    -1749    -1658    -1544    -1441    -1359 
   -1298    -1274    -1254    -1216    -1202    -1225    -1237    -1251 
   -1300    -1340    -1336    -1318    -1285    -1228    -1190    -1197 
   -1223    -1269    -1318    -1347    -1379    -1393    -1371    -1383 
   -1405    -1385    -1371    -1368    -1345    -1356    -1404    -1428 
   -1447    -1472    -1459    -1428    -1393    -1341    -1313    -1281 
   -1209    -1158    -1142    -1121    -1113    -1139    -1171    -1179 
   -1167    -1158    -1163    -1161    -1166    -1209    -1244    -1244 
   -1250    -1262    -1262    -1254    -1255    -1269    -1274    -1275 
   -1285    -1300    -1333    -1379    -1441    -1528    -1626    -1722 
   -1806    -1891    -1954    -1956    -1946    -1960    -1949    -1937 
   -1979    -2045    -2111    -2211    -2326    -2409    -2461    -2505 
   -2512    -2458    -2384    -2327    -2274    -2222    -2189    -2187 
   -2196    -2196    -2193    -2178    -2143    -2083    -2003    -1923 
   -1852    -1810    -1826    -1884    -1954    -2045    -2147    -2223 
   -2251    -2266    -2253    -2172    -2077    -2015    -1953    -1898 
   -1885    -1906    -1933    -1972    -2027    -2064    -2069    -2064 
   -2034    -1973    -1906    -1837    -1780    -1749    -1721    -1695 
   -1668    -1617    -1548    -1476    -1412    -1358    -1329    -1324 
   -1325    -1341    -1358    -1360    -1366    -1375    -1366    -1347 
   -1332    -1297    -1235    -1185    -1169    -1169    -1190    -1235 
   -1291    -1348    -1382    -1397    -1395    -1379    -1363    -1351 
