Origin Time       2016/04/16 01:25:00
Lat.              32.753
Long.             130.762
Depth. (km)       12
Mag.              7.3
Station Code      TKS009
Station Lat.      33.7719
Station Long.     134.1995
Station Height(m) 362
Record Time       2016/04/16 01:26:46
Sampling Freq(Hz) 100Hz
Duration Time(s)  88
Dir.              E-W
Scale Factor      7845(gal)/8223790
Max. Acc. (gal)   3.068
Last Correction   2016/04/16 01:26:47
Memo.             
[...]
     438      430      438      450      449      453      467      484 
     517      552      585      626      665      692      714      746 
     789      827      858      896      931      969     1021     1081 
    1140     1204     1264     1313     1356     1402     1422     1416 
    1420     1425     1428     1452     1489     1530     1578     1605 
    1626     1656     1668     1667     1664     1649     1638     1637 
    1642     1671     1714     1763     1804     1821     1836     1858 
    1850     1813     1780     1749     1718     1707     1710     1719 
    1736     1741     1750     1773     1779     1784     1814     1833 
    1833     1829     1807     1776     1748     1732     1714     1671 
    1626     1588     1533     1493     1470     1429     1394     1374 
    1332     1282     1254     1252     1285     1334     1405     1499 
    1582     1638     1691     1740     1780     1823     1871     1934 
    2000     2045     2089     2135     2160     2182     2215     2234 
    2254     2292     2336     2392     2448     2501     2554     2612 
    2671     2725     2759     2776     2794     2817     2833     2840 
    2847     2863     2878     2878     2868     2844     2794     2729 
    2648     2554     2473     2419     2381     2366     2380     2404 
    2428     2465     2505     2529     2543     2543     2535     2535 
    2542     2559     2593     2608     2592     2562     2497     2390 
    2286     2193     2077     1949     1826     1686     1539     1410 
    1296     1201     1127     1048      961      870      761      630 
     511      402      275      162       68      -36     -144     -241 
    -337     -425     -511     -595     -646     -648     -623     -583 
    -521     -449     -383     -328     -297     -303     -322     -355 
    -422     -502     -568     -619     -645     -645     -626     -592 
    -540     -481     -423     -373     -330     -301     -287     -276 
    -263     -251     -220     -162      -82        2       75      147 
     210      252      278      287      276      243      190      147 
     125      117      122      129      141      162      163      149 
     151      159      168      175      174      183      205      217 
     246      307      352      383      418      436      437      427 
     395      344      291      232      168      124      103      101 
     129      195      263      307      321      305      272      236 
     194      151      124      105       91      108      124      124 
     136      126       74       32        5      -32      -44      -20 
       9       62      133      195      261      337      394      438 
     487      537      594      662      754      858      965     1088 
    1213     1316     1414     1497     1557     1632     1699     1752 
    1822     1871     1891     1930     1988     2030     2079     2144 
    2211     2296     2415     2528     2617     2702     2762     2789 
    2799     2782     2739     2688     2623     2533     2452     2396 
    2376     2389     2412     2442     2490     2536     2563     2586 
    2608     2596     2546     2520     2525     2529     2579     2690 
    2808     2924     3024     3102     3192     3276     3341     3407 
    3462     3503     3568     3645     3726     3828     3943     4047 
    4145     4218     4263     4306     4334     4355     4372     4365 
    4356     4351     4330     4311     4286     4220     4124     4012 
    3865     3701     3551     3407     3265     3150     3056     2964 
    2875     2787     2682     2569     2455     2338     2223     2101 
    1992     1918     1844     1760     1674     1568     1445     1331 
    1233     1142     1065      999      912      819      751      687 
     626      587      553      522      506      495      499      537 
     591      639      683      714      731      722      702      684 
     668      669      687      700      711      708      687      661 
     642      625      610      621      681      778      908     1053 
    1189     1324     1436     1512     1575     1625     1657     1675 
    1690     1710     1717     1721     1748     1759     1755     1776 
    1773     1742     1714     1665     1617     1597     1557     1499 
    1462     1422     1377     1345     1325     1308     1285     1236 
    1165     1058      919      776      630      476      328      193 
      68      -39     -110     -143     -155     -164     -174     -178 
    -180     -198     -236     -265     -279     -275     -253     -218 
    -187     -149     -108      -89      -79      -54      -32        0 
      70      135      187      252      284      294      328      349 
     348      359      367      359      344      310      243      159 
      58      -58     -176     -311     -446     -565     -677     -778 
    -859     -903     -913     -903     -859     -793     -756     -728 
    -692     -688     -712     -726     -753     -788     -812     -837 
    -858     -847     -808     -747     -662     -546     -413     -291 
    -172      -36       98      218      334      432      508      572 
     627      689      765      851      955     1062     1151     1235 
    1301     1329     1336     1331     1316     1296     1267     1243 
    1229     1212     1194     1179     1148     1129     1119     1090 
    1067     1053     1034     1044     1073     1102     1152     1206 
    1246     1296     1350     1389     1424     1463     1507     1561 
    1618     1677     1746     1809     1859     1904     1923     1917 
    1918     1944     2000     2107     2255     2397     2515     2602 
    2635     2616     2583     2529     2466     2430     2398     2373 
    2386     2403     2408     2435     2458     2479     2529     2569 
    2573     2565     2540     2501     2485     2474     2454     2451 
    2457     2458     2467     2461     2442     2457     2506     2560 
    2624     2706     2781     2829     2866     2876     2844     2792 
    2752     2727     2721     2754     2820     2891     2961     3014 
    3042     3067     3079     3080     3095     3115     3134     3154 
    3150     3115     3095     3086     3063     3057     3068     3055 
    3036     3019     2995     2988     2988     2979     2971     2945 
    2895     2839     2771     2695     2629     2567     2517     2486 
    2459     2424     2381     2326     2251     2151     2034     1911 
    1784     1663     1551     1431     1318     1244     1183     1123 
    1075     1036      992      946      890      814      730      648 
     552      471      430      396      360      344      318      284 
     272      245      201      168      141      125      126      135 
     152      189      233      261      288      328      337      338 
     361      353      321      295      255      212      174      114 
      47      -29     -128     -214     -291     -359     -383     -391 
    -391     -360     -322     -294     -257     -217     -170      -90 
       8       95      167      240      328      429      530      642 
     769      876      976     1093     1205     1298     1381     1445 
    1487     1513     1518     1495     1443     1390     1347     1279 
    1185     1081      958      805      646      480      297      126 
     -10     -131     -234     -309     -380     -471     -552     -606 
    -675     -741     -757     -762     -776     -750     -697     -629 
    -499     -315     -120       81      261      409      542      646 
     715      770      826      885      957     1032     1092     1138 
    1167     1177     1185     1204     1219     1227     1216     1175 
    1128     1088     1067     1088     1143     1221     1323     1431 
    1544     1642     1705     1750     1804     1856     1907     1975 
    2050     2110     2163     2232     2304     2373     2446     2520 
    2587     2651     2712     2781     2851     2907     2971     3024 
    3036     3030     3009     2971     2924     2855     2778     2713 
    2651     2617     2636     2669     2688     2701     2695     2658 
    2602     2567     2556     2544     2523     2498     2447     2349 
    2235     2141     2066     2010     1977     1979     2007     2033 
    2053     2079     2084     2057     1998     1908     1821     1736 
    1632     1541     1474     1395     1304     1224     1154     1088 
    1050     1031      996      935      851      767      699      656 
     653      669      677      673      658      653      658      660 
     657      637      615      616      604      587      589      584 
     558      519      464      407      328      225      116      -29 
    -201     -344     -463     -573     -660     -726     -797     -886 
    -984    -1085    -1194    -1300    -1391    -1468    -1528    -1580 
   -1613    -1615    -1599    -1582    -1554    -1505    -1449    -1398 
   -1333    -1242    -1120     -978     -831     -687     -573     -488 
    -399     -318     -263     -206     -156     -141     -125     -103 
    -103      -95      -72      -72      -85      -78      -74      -83 
     -94      -97      -97      -93      -90      -97     -101      -98 
     -99     -105     -117     -144     -183     -218     -241     -240 
    -229     -205     -156     -101      -29       67      172      289 
     421      542      649      753      873     1013     1158     1294 
    1443     1602     1741     1868     2003     2130     2239     2326 
    2392     2446     2482     2512     2543     2571     2598     2619 
    2624     2632     2656     2674     2683     2708     2745     2786 
    2833     2882     2914     2924     2907     2856     2776     2694 
    2627     2583     2571     2570     2589     2643     2695     2743 
    2830     2915     2947     2971     3002     2986     2943     2929 
    2928     2913     2906     2917     2932     2952     2974     2997 
    3026     3053     3052     3034     3019     2970     2890     2824 
    2754     2683     2640     2598     2562     2560     2578     2593 
    2614     2644     2655     2646     2646     2647     2631     2604 
    2565     2502     2416     2317     2207     2085     1975     1877 
    1786     1701     1606     1509     1424     1331     1239     1158 
    1067      976      889      788      680      585      511      454 
     399      346      299      233      157       90        5      -90 
    -170     -225     -295     -360     -383     -390     -400     -378 
    -349     -338     -311     -278     -256     -218     -175     -159 
    -163     -178     -191     -190     -176     -139      -93      -58 
     -25       -4        0       -5      -11      -17      -32      -58 
     -86     -133     -182     -202     -216     -230     -224     -214 
    -224     -237     -246     -248     -229     -205     -168     -106 
     -45       16      105      178      225      266      288      299 
     307      324      370      459      595      770      950     1132 
    1308     1456     1590     1719     1833     1937     2033     2107 
    2173     2253     2326     2393     2478     2548     2587     2616 
    2629     2635     2636     2623     2604     2586     2578     2596 
    2629     2669     2712     2736     2754     2783     2814     2843 
    2863     2871     2874     2853     2795     2735     2682     2606 
    2517     2450     2390     2331     2288     2254     2230     2227 
    2205     2142     2081     2030     1961     1902     1885     1892 
    1887     1865     1833     1775     1707     1651     1595     1557 
    1535     1507     1482     1470     1443     1408     1391     1377 
    1367     1370     1374     1379     1382     1372     1367     1389 
    1412     1414     1426     1455     1467     1470     1486     1518 
    1567     1622     1667     1702     1696     1632     1556     1475 
    1377     1305     1269     1255     1279     1312     1331     1375 
    1424     1452     1486     1518     1553     1605     1632     1658 
    1719     1769     1794     1840     1883     1899     1915     1933 
    1946     1946     1923     1902     1890     1871     1867     1895 
    1921     1919     1903     1864     1794     1703     1598     1486 
    1372     1251     1128     1008      903      838      807      793 
     811      826      807      792      776      722      675      656 
     633      621      639      668      695      743      820      881 
     907      931      947      934      913      913      915      893 
     849      805      760      697      637      573      510      464 
     432      406      403      418      436      438      418      390 
     365      325      278      256      251      245      261      299 
     352      421      496      576      650      704      731      730 
     707      683      662      648      658      693      743      811 
     880      935      987     1023     1020     1003      973      912 
     841      776      702      631      576      523      498      506 
     529      562      607      641      654      670      711      762 
     834      938     1048     1159     1281     1395     1505     1621 
    1741     1863     1988     2119     2258     2394     2508     2589 
    2652     2717     2778     2836     2925     3029     3121     3230 
    3355     3466     3593     3744     3871     3981     4088     4168 
    4228     4268     4284     4320     4363     4392     4440     4484 
    4490     4477     4455     4414     4379     4355     4321     4278 
    4228     4159     4055     3937     3828     3724     3619     3546 
    3511     3487     3451     3404     3330     3231     3129     3013 
    2868     2740     2636     2524     2434     2373     2295     2196 
    2106     2006     1898     1791     1672     1549     1437     1339 
    1262     1210     1169     1133     1101     1053      987      903 
     800      707      625      568      546      542      542      549 
     553      564      579      595      621      645      654      650 
     630      604      587      572      577      607      629      648 
     696      741      767      805      838      851      861      861 
     858      864      876      886      886      890      903      885 
     847      804      747      707      689      675      677      692 
     693      692      692      680      639      579      526      469 
     425      440      499      571      665      769      855      923 
     972     1000     1024     1032     1026     1017     1024     1047 
    1058     1057     1053     1031      985      938      889      842 
     805      791      808      841      873      919      970      996 
    1000      997      973      931      889      837      777      731 
     700      689      715      772      831      895      958      999 
    1020     1039     1039     1026     1011      993      972      976 
    1016     1059     1104     1159     1189     1204     1208     1177 
    1147     1133     1101     1065     1053     1050     1046     1060 
    1104     1162     1233     1332     1437     1528     1629     1740 
    1838     1930     2027     2102     2143     2188     2247     2303 
    2369     2450     2528     2628     2731     2809     2895     2963 
    2992     3029     3045     3034     3052     3075     3090     3118 
    3144     3156     3140     3090     3025     2945     2855     2768 
    2694     2617     2525     2432     2349     2262     2166     2081 
    2014     1956     1912     1875     1833     1807     1796     1783 
    1768     1755     1734     1705     1676     1649     1626     1621 
    1624     1620     1618     1624     1610     1576     1560     1552 
    1520     1497     1509     1528     1552     1598     1640     1652 
    1651     1621     1560     1494     1414     1327     1252     1192 
    1133     1093     1078     1067     1065     1078     1086     1092 
    1101     1097     1101     1136     1177     1223     1278     1320 
    1347     1378     1417     1463     1507     1547     1586     1610 
    1609     1611     1618     1615     1630     1655     1667     1683 
    1695     1699     1710     1721     1733     1760     1787     1799 
    1799     1787     1757     1725     1703     1683     1663     1648 
    1637     1624     1610     1591     1567     1535     1498     1453 
    1401     1341     1287     1236     1183     1155     1151     1144 
    1150     1167     1177     1169     1131     1077     1024      959 
     903      859      819      801      792      791      797      789 
     778      766      731      706      715      726      728      756 
     780      793      819      838      843      845      830      793 
     767      762      761      758      773      799      805      808 
     834      845      835      849      876      881      897      945 
     984     1024     1090     1143     1175     1209     1224     1216 
    1210     1205     1197     1190     1185     1190     1208     1229 
    1259     1300     1339     1371     1402     1410     1391     1364 
    1333     1297     1267     1252     1248     1240     1225     1217 
    1209     1190     1171     1146     1100     1063     1039      994 
     943      900      847      795      758      726      697      680 
     665      650      638      615      585      550      504      467 
     448      444      456      464      481      526      579      629 
     695      773      835      877      913      949      972      986 
    1007     1048     1109     1174     1244     1308     1339     1355 
    1366     1360     1363     1375     1368     1370     1386     1387 
    1395     1433     1472     1509     1554     1586     1590     1593 
    1603     1615     1644     1679     1702     1709     1696     1667 
    1645     1632     1618     1606     1605     1594     1583     1586 
    1591     1582     1564     1553     1535     1498     1467     1448 
    1417     1381     1354     1329     1312     1300     1282     1255 
    1242     1240     1223     1206     1208     1192     1178     1185 
    1179     1173     1181     1183     1192     1208     1216     1216 
    1220     1224     1223     1224     1229     1206     1163     1133 
    1094     1048     1036     1031     1012     1011     1015     1000 
     981      957      903      831      757      691      637      602 
     581      564      545      526      495      456      425      394 
     351      317      288      252      224      207      194      193 
     202      218      236      243      240      233      220      217 
     221      222      232      238      238      245      236      203 
     167      112       41      -14      -47      -67      -67      -45 
     -13       22       64      110      159      211      265      305 
     324      340      353      348      352      372      379      387 
     414      437      461      486      504      537      573      603 
     648      696      741      784      810      823      831      824 
     808      788      757      727      704      670      638      619 
     604      600      606      604      596      581      564      544 
     518      498      490      479      472      461      440      429 
     417      386      355      325      298      284      284      284 
