Origin Time       2016/04/16 01:25:00
Lat.              32.753
Long.             130.762
Depth. (km)       12
Mag.              7.3
Station Code      TKS005
Station Lat.      33.8788
Station Long.     134.3889
Station Height(m) 280
Record Time       2016/04/16 01:26:54
Sampling Freq(Hz) 100Hz
Duration Time(s)  78
Dir.              N-S
Scale Factor      7845(gal)/8223790
Max. Acc. (gal)   2.230
Last Correction   2016/04/16 01:26:55
Memo.             
[...]
   -4131    -4144    -4136    -4120    -4101    -4077    -4062    -4059 
   -4051    -4036    -4014    -3979    -3940    -3919    -3916    -3919 
   -3925    -3924    -3904    -3871    -3832    -3790    -3759    -3734 
   -3709    -3682    -3655    -3632    -3612    -3601    -3593    -3589 
   -3596    -3619    -3647    -3673    -3696    -3723    -3755    -3794 
   -3842    -3894    -3937    -3970    -3990    -4000    -4003    -4012 
   -4025    -4039    -4050    -4058    -4064    -4071    -4074    -4077 
   -4072    -4069    -4069    -4071    -4074    -4074    -4071    -4067 
   -4060    -4054    -4050    -4040    -4017    -3990    -3964    -3946 
   -3939    -3942    -3937    -3929    -3915    -3882    -3838    -3794 
   -3766    -3757    -3763    -3782    -3804    -3824    -3842    -3859 
   -3874    -3892    -3908    -3915    -3913    -3905    -3883    -3855 
   -3828    -3805    -3780    -3757    -3734    -3721    -3721    -3735 
   -3762    -3794    -3819    -3827    -3824    -3817    -3812    -3812 
   -3825    -3851    -3882    -3915    -3947    -3975    -4002    -4033 
   -4062    -4085    -4102    -4112    -4117    -4120    -4116    -4104 
   -4088    -4066    -4043    -4031    -4025    -4024    -4024    -4024 
   -4014    -3996    -3979    -3973    -3974    -3986    -4005    -4017 
   -4025    -4033    -4036    -4039    -4054    -4086    -4124    -4163 
   -4199    -4232    -4255    -4270    -4276    -4279    -4275    -4261 
   -4248    -4236    -4210    -4174    -4131    -4079    -4033    -4008 
   -4002    -4017    -4048    -4072    -4088    -4107    -4131    -4156 
   -4185    -4215    -4243    -4256    -4256    -4245    -4228    -4214 
   -4205    -4197    -4191    -4183    -4163    -4139    -4125    -4114 
   -4098    -4085    -4072    -4052    -4027    -4005    -3979    -3951 
   -3929    -3906    -3885    -3873    -3861    -3848    -3842    -3835 
   -3824    -3805    -3773    -3742    -3727    -3730    -3755    -3802 
   -3850    -3880    -3889    -3875    -3850    -3817    -3785    -3771 
   -3774    -3782    -3797    -3804    -3793    -3778    -3771    -3771 
   -3786    -3817    -3859    -3896    -3917    -3929    -3924    -3904 
   -3879    -3867    -3861    -3859    -3865    -3875    -3877    -3870 
   -3871    -3877    -3888    -3906    -3932    -3956    -3971    -3979 
   -3981    -3981    -3989    -4002    -4024    -4055    -4078    -4090 
   -4093    -4074    -4035    -4002    -3979    -3965    -3969    -3987 
   -4005    -4020    -4023    -4010    -3993    -3977    -3965    -3969 
   -3973    -3967    -3959    -3942    -3913    -3874    -3831    -3798 
   -3773    -3757    -3753    -3757    -3765    -3775    -3789    -3800 
   -3798    -3797    -3798    -3797    -3800    -3805    -3797    -3769 
   -3727    -3676    -3624    -3586    -3561    -3544    -3528    -3507 
   -3487    -3480    -3478    -3483    -3491    -3501    -3511    -3524 
   -3549    -3585    -3636    -3696    -3751    -3790    -3812    -3823 
   -3823    -3819    -3815    -3807    -3801    -3811    -3835    -3874 
   -3916    -3955    -3979    -3982    -3977    -3965    -3943    -3919 
   -3893    -3863    -3839    -3825    -3812    -3797    -3782    -3767 
   -3751    -3742    -3746    -3761    -3785    -3815    -3842    -3858 
   -3865    -3867    -3869    -3874    -3897    -3940    -3987    -4028 
   -4052    -4059    -4048    -4039    -4040    -4047    -4058    -4079 
   -4098    -4112    -4120    -4117    -4110    -4097    -4077    -4055 
   -4040    -4029    -4020    -4013    -4001    -3989    -3979    -3964 
   -3954    -3963    -3989    -4024    -4068    -4106    -4126    -4139 
   -4152    -4174    -4194    -4202    -4197    -4185    -4168    -4156 
   -4143    -4131    -4116    -4088    -4058    -4035    -4024    -4027 
   -4050    -4077    -4101    -4126    -4145    -4158    -4170    -4178 
   -4186    -4199    -4205    -4195    -4178    -4162    -4144    -4128 
   -4120    -4118    -4124    -4136    -4147    -4152    -4152    -4145 
   -4140    -4145    -4148    -4149    -4149    -4144    -4133    -4121 
   -4109    -4101    -4104    -4121    -4156    -4209    -4266    -4311 
   -4332    -4334    -4321    -4295    -4271    -4261    -4263    -4271 
   -4275    -4266    -4241    -4202    -4167    -4145    -4132    -4131 
   -4139    -4143    -4148    -4156    -4166    -4192    -4238    -4289 
   -4332    -4359    -4372    -4379    -4384    -4384    -4386    -4393 
   -4393    -4382    -4371    -4356    -4334    -4321    -4320    -4320 
   -4321    -4321    -4320    -4314    -4307    -4299    -4288    -4270 
   -4247    -4222    -4202    -4183    -4159    -4135    -4105    -4071 
   -4041    -4020    -4001    -3981    -3964    -3954    -3951    -3959 
   -3965    -3974    -3981    -3984    -3996    -4021    -4058    -4099 
   -4145    -4191    -4225    -4252    -4271    -4282    -4279    -4275 
   -4268    -4261    -4263    -4279    -4303    -4329    -4349    -4357 
   -4351    -4324    -4276    -4220    -4159    -4117    -4090    -4064 
   -4035    -4006    -3977    -3951    -3943    -3943    -3936    -3929 
   -3927    -3927    -3932    -3946    -3959    -3987    -4013    -4027 
   -4036    -4048    -4060    -4079    -4102    -4118    -4132    -4139 
   -4132    -4114    -4090    -4063    -4036    -4017    -4013    -4014 
   -4025    -4040    -4045    -4036    -4014    -3979    -3944    -3919 
   -3910    -3915    -3925    -3939    -3943    -3932    -3913    -3889 
   -3869    -3842    -3831    -3840    -3851    -3855    -3858    -3856 
   -3851    -3855    -3863    -3880    -3921    -3978    -4041    -4099 
   -4149    -4178    -4176    -4162    -4148    -4137    -4140    -4155 
   -4170    -4186    -4192    -4185    -4170    -4145    -4116    -4094 
   -4081    -4077    -4083    -4095    -4095    -4081    -4062    -4040 
   -4023    -4012    -3998    -3974    -3946    -3915    -3883    -3859 
   -3842    -3842    -3861    -3889    -3920    -3955    -3986    -4012 
   -4036    -4055    -4072    -4087    -4097    -4104    -4112    -4107 
   -4087    -4063    -4031    -3994    -3962    -3935    -3912    -3899 
   -3898    -3906    -3923    -3947    -3963    -3962    -3956    -3939 
   -3915    -3899    -3886    -3865    -3842    -3819    -3794    -3774 
   -3757    -3744    -3736    -3732    -3728    -3726    -3728    -3735 
   -3738    -3744    -3763    -3786    -3804    -3823    -3846    -3858 
   -3851    -3832    -3798    -3750    -3696    -3646    -3605    -3578 
   -3558    -3549    -3544    -3542    -3538    -3537    -3547    -3568 
   -3593    -3626    -3655    -3682    -3709    -3732    -3743    -3748 
   -3754    -3757    -3763    -3781    -3802    -3815    -3820    -3820 
   -3821    -3825    -3836    -3852    -3870    -3880    -3888    -3897 
   -3904    -3896    -3877    -3859    -3844    -3836    -3842    -3861 
   -3888    -3919    -3951    -3983    -4006    -4017    -4014    -3998 
   -3977    -3955    -3935    -3921    -3915    -3909    -3910    -3917 
   -3925    -3929    -3935    -3943    -3944    -3950    -3958    -3965 
   -3978    -3987    -3993    -4001    -4003    -3996    -3982    -3967 
   -3955    -3940    -3916    -3883    -3852    -3823    -3801    -3798 
   -3808    -3819    -3827    -3835    -3831    -3823    -3821    -3827 
   -3836    -3858    -3879    -3897    -3923    -3954    -3979    -4009 
   -4032    -4045    -4063    -4085    -4098    -4105    -4107    -4101 
   -4094    -4090    -4081    -4064    -4047    -4035    -4021    -3998 
   -3971    -3940    -3905    -3883    -3875    -3874    -3880    -3888 
   -3878    -3869    -3867    -3865    -3870    -3890    -3908    -3913 
   -3912    -3898    -3869    -3839    -3812    -3778    -3740    -3704 
   -3665    -3626    -3592    -3574    -3574    -3584    -3599    -3615 
   -3636    -3657    -3677    -3699    -3738    -3790    -3842    -3893 
   -3936    -3964    -3986    -4005    -4014    -4035    -4074    -4113 
   -4148    -4183    -4210    -4232    -4251    -4271    -4291    -4303 
   -4310    -4310    -4309    -4309    -4309    -4310    -4311    -4307 
   -4302    -4301    -4309    -4330    -4360    -4387    -4401    -4405 
   -4398    -4393    -4396    -4407    -4418    -4418    -4409    -4395 
   -4376    -4357    -4340    -4322    -4305    -4284    -4266    -4251 
   -4238    -4228    -4220    -4209    -4199    -4190    -4178    -4168 
   -4159    -4140    -4117    -4099    -4094    -4090    -4093    -4097 
   -4098    -4099    -4099    -4099    -4104    -4109    -4116    -4126 
   -4143    -4155    -4155    -4155    -4152    -4147    -4144    -4139 
   -4132    -4137    -4140    -4136    -4132    -4125    -4112    -4091 
   -4074    -4067    -4062    -4071    -4093    -4114    -4140    -4162 
   -4174    -4178    -4186    -4192    -4202    -4210    -4212    -4199 
   -4175    -4143    -4104    -4063    -4029    -4009    -3991    -3967 
   -3937    -3904    -3863    -3821    -3784    -3753    -3727    -3709 
   -3703    -3692    -3676    -3662    -3653    -3643    -3640    -3655 
   -3688    -3732    -3782    -3834    -3873    -3896    -3908    -3916 
   -3928    -3948    -3975    -4005    -4027    -4033    -4021    -3991 
   -3950    -3910    -3888    -3883    -3890    -3902    -3912    -3917 
   -3913    -3909    -3919    -3929    -3939    -3946    -3947    -3942 
   -3935    -3932    -3939    -3944    -3943    -3943    -3946    -3950 
   -3954    -3956    -3955    -3950    -3937    -3919    -3904    -3898 
   -3896    -3897    -3902    -3893    -3871    -3851    -3827    -3800 
   -3773    -3743    -3713    -3688    -3665    -3643    -3615    -3589 
   -3565    -3541    -3515    -3499    -3491    -3485    -3477    -3469 
   -3469    -3472    -3472    -3474    -3473    -3464    -3453    -3434 
   -3412    -3399    -3395    -3399    -3407    -3416    -3424    -3433 
   -3438    -3442    -3449    -3446    -3438    -3427    -3411    -3396 
   -3385    -3369    -3348    -3327    -3299    -3258    -3215    -3168 
   -3119    -3092    -3088    -3098    -3118    -3137    -3145    -3150 
   -3154    -3157    -3168    -3187    -3217    -3252    -3275    -3281 
   -3272    -3254    -3232    -3213    -3199    -3192    -3191    -3198 
   -3215    -3235    -3264    -3306    -3360    -3420    -3489    -3569 
   -3649    -3728    -3808    -3877    -3939    -4003    -4063    -4121 
   -4178    -4228    -4271    -4317    -4368    -4422    -4467    -4504 
   -4529    -4534    -4529    -4525    -4530    -4541    -4557    -4577 
   -4602    -4626    -4657    -4687    -4714    -4737    -4748    -4750 
   -4748    -4750    -4769    -4810    -4858    -4914    -4969    -5020 
   -5065    -5101    -5134    -5167    -5201    -5231    -5252    -5263 
   -5259    -5244    -5221    -5193    -5163    -5144    -5140    -5144 
   -5136    -5108    -5065    -5009    -4946    -4892    -4854    -4826 
   -4816    -4823    -4834    -4846    -4861    -4878    -4905    -4943 
   -4992    -5043    -5089    -5128    -5161    -5185    -5201    -5206 
   -5202    -5194    -5190    -5188    -5189    -5202    -5221    -5235 
   -5243    -5252    -5265    -5285    -5305    -5317    -5321    -5310 
   -5283    -5247    -5213    -5179    -5143    -5108    -5082    -5059 
   -5036    -5011    -4984    -4958    -4941    -4931    -4931    -4939 
   -4949    -4954    -4943    -4918    -4884    -4842    -4800    -4764 
   -4731    -4696    -4660    -4618    -4567    -4507    -4441    -4367 
   -4294    -4233    -4197    -4175    -4166    -4158    -4140    -4112 
   -4067    -4003    -3932    -3865    -3798    -3743    -3703    -3673 
   -3653    -3640    -3623    -3600    -3582    -3576    -3578    -3597 
   -3631    -3673    -3723    -3767    -3801    -3823    -3835    -3844 
   -3856    -3882    -3927    -3984    -4044    -4093    -4126    -4140 
   -4137    -4122    -4105    -4087    -4077    -4063    -4041    -4006 
   -3951    -3882    -3801    -3708    -3605    -3504    -3416    -3335 
   -3261    -3199    -3164    -3157    -3167    -3194    -3252    -3322 
   -3395    -3483    -3576    -3659    -3731    -3789    -3828    -3856 
   -3873    -3879    -3877    -3863    -3832    -3781    -3709    -3628 
   -3541    -3454    -3377    -3314    -3258    -3206    -3168    -3148 
   -3137    -3130    -3123    -3114    -3102    -3087    -3068    -3052 
   -3044    -3040    -3044    -3063    -3094    -3132    -3179    -3241 
   -3304    -3360    -3403    -3427    -3430    -3419    -3402    -3387 
   -3385    -3395    -3410    -3419    -3422    -3416    -3407    -3414 
   -3431    -3449    -3472    -3501    -3518    -3526    -3535    -3538 
   -3524    -3503    -3470    -3438    -3412    -3387    -3364    -3346 
   -3331    -3310    -3277    -3242    -3207    -3169    -3140    -3127 
   -3129    -3144    -3171    -3200    -3221    -3235    -3249    -3257 
   -3264    -3279    -3292    -3300    -3307    -3308    -3311    -3329 
   -3361    -3400    -3449    -3496    -3532    -3558    -3577    -3584 
   -3582    -3570    -3549    -3527    -3507    -3491    -3487    -3484 
   -3476    -3469    -3464    -3453    -3447    -3459    -3484    -3522 
   -3577    -3642    -3703    -3757    -3811    -3863    -3915    -3962 
   -4005    -4047    -4082    -4120    -4158    -4178    -4190    -4197 
   -4197    -4191    -4192    -4192    -4189    -4191    -4197    -4200 
   -4207    -4212    -4214    -4215    -4212    -4209    -4209    -4215 
   -4223    -4228    -4236    -4255    -4286    -4340    -4434    -4565 
   -4716    -4872    -5024    -5173    -5306    -5418    -5532    -5653 
   -5780    -5911    -6043    -6164    -6254    -6304    -6315    -6289 
   -6247    -6204    -6164    -6126    -6093    -6056    -6006    -5957 
   -5911    -5872    -5850    -5848    -5860    -5880    -5906    -5926 
   -5935    -5930    -5914    -5898    -5883    -5869    -5861    -5856 
   -5850    -5848    -5844    -5838    -5834    -5826    -5821    -5821 
   -5821    -5830    -5852    -5863    -5869    -5873    -5857    -5825 
   -5782    -5717    -5638    -5557    -5472    -5385    -5304    -5219 
   -5121    -5024    -4934    -4847    -4768    -4699    -4634    -4565 
   -4495    -4431    -4382    -4348    -4327    -4317    -4305    -4284 
   -4263    -4248    -4241    -4243    -4248    -4253    -4251    -4245 
   -4243    -4241    -4233    -4228    -4225    -4217    -4210    -4205 
   -4200    -4187    -4170    -4149    -4124    -4094    -4058    -4013 
   -3958    -3890    -3823    -3762    -3707    -3659    -3630    -3620 
   -3624    -3639    -3662    -3681    -3692    -3692    -3684    -3663 
   -3636    -3605    -3566    -3522    -3469    -3407    -3343    -3279 
   -3203    -3118    -3036    -2956    -2890    -2840    -2802    -2775 
   -2756    -2737    -2718    -2710    -2720    -2743    -2771    -2806 
   -2837    -2859    -2871    -2874    -2872    -2872    -2871    -2870 
   -2868    -2867    -2868    -2876    -2890    -2906    -2921    -2936 
   -2949    -2959    -2961    -2960    -2953    -2952    -2964    -2994 
   -3034    -3084    -3142    -3206    -3267    -3330    -3407    -3489 
   -3578    -3685    -3798    -3912    -4029    -4152    -4276    -4405 
   -4537    -4664    -4780    -4880    -4965    -5032    -5077    -5101 
   -5109    -5101    -5082    -5062    -5040    -5011    -4978    -4941 
   -4893    -4834    -4762    -4683    -4600    -4515    -4434    -4363 
   -4303    -4256    -4225    -4200    -4183    -4164    -4144    -4113 
   -4066    -4014    -3969    -3931    -3908    -3908    -3919    -3920 
   -3920    -3924    -3920    -3908    -3889    -3861    -3823    -3778 
   -3738    -3705    -3678    -3666    -3661    -3667    -3684    -3704 
   -3723    -3742    -3761    -3774    -3785    -3794    -3790    -3774 
   -3742    -3699    -3655    -3613    -3588    -3586    -3601    -3626 
   -3661    -3700    -3740    -3790    -3858    -3935    -4032    -4149 
   -4278    -4418    -4567    -4710    -4851    -4989    -5113    -5217 
   -5309    -5389    -5456    -5513    -5566    -5610    -5647    -5675 
   -5698    -5726    -5751    -5759    -5759    -5756    -5755    -5764 
   -5778    -5791    -5792    -5775    -5745    -5713    -5686    -5671 
   -5664    -5659    -5648    -5628    -5594    -5555    -5519    -5481 
   -5440    -5409    -5383    -5366    -5358    -5356    -5356    -5352 
   -5336    -5312    -5289    -5270    -5258    -5266    -5292    -5323 
   -5359    -5391    -5405    -5402    -5382    -5341    -5283    -5208 
   -5116    -5020    -4923    -4824    -4715    -4588    -4449    -4302 
   -4148    -3991    -3842    -3701    -3561    -3427    -3300    -3173 
   -3045    -2920    -2792    -2659    -2521    -2396    -2282    -2187 
   -2102    -2027    -1953    -1876    -1802    -1738    -1692    -1667 
   -1660    -1665    -1677    -1690    -1707    -1719    -1726    -1748 
   -1786    -1836    -1898    -1971    -2043    -2107    -2160    -2199 
   -2218    -2224    -2227    -2228    -2238    -2261    -2292    -2331 
   -2384    -2444    -2497    -2540    -2575    -2598    -2621    -2650 
   -2678    -2709    -2732    -2735    -2717    -2674    -2606    -2524 
   -2438    -2353    -2272    -2192    -2119    -2047    -1979    -1919 
   -1868    -1825    -1798    -1791    -1803    -1837    -1885    -1941 
   -2006    -2073    -2134    -2188    -2235    -2278    -2317    -2353 
   -2382    -2403    -2416    -2423    -2424    -2415    -2394    -2363 
   -2327    -2292    -2253    -2211    -2185    -2170    -2155    -2150 
   -2143    -2130    -2126    -2144    -2177    -2227    -2301    -2392 
   -2493    -2609    -2737    -2879    -3033    -3190    -3336    -3483 
   -3618    -3723    -3817    -3915    -3996    -4062    -4122    -4168 
   -4192    -4203    -4205    -4200    -4197    -4205    -4228    -4253 
   -4275    -4284    -4280    -4268    -4255    -4248    -4255    -4271 
   -4297    -4325    -4347    -4363    -4371    -4367    -4353    -4333 
   -4318    -4311    -4318    -4334    -4353    -4368    -4379    -4380 
   -4378    -4376    -4382    -4395    -4414    -4434    -4453    -4467 
   -4464    -4450    -4426    -4399    -4369    -4342    -4318    -4288 
   -4248    -4202    -4145    -4072    -3979    -3878    -3781    -3690 
   -3607    -3528    -3456    -3388    -3326    -3283    -3265    -3265 
   -3289    -3335    -3393    -3462    -3534    -3601    -3670    -3742 
   -3816    -3899    -3984    -4074    -4174    -4274    -4369    -4455 
   -4531    -4603    -4673    -4743    -4810    -4872    -4935    -4997 
   -5053    -5104    -5155    -5204    -5248    -5294    -5331    -5355 
   -5367    -5368    -5355    -5331    -5306    -5281    -5256    -5235 
   -5215    -5189    -5169    -5148    -5120    -5080    -5031    -4977 
   -4923    -4869    -4814    -4757    -4695    -4633    -4568    -4509 
   -4448    -4379    -4306    -4228    -4144    -4058    -3973    -3896 
   -3827    -3762    -3703    -3643    -3584    -3515    -3445    -3375 
   -3302    -3230    -3169    -3117    -3068    -3021    -2976    -2926 
   -2874    -2828    -2785    -2740    -2706    -2683    -2666    -2659 
   -2659    -2654    -2631    -2602    -2575    -2546    -2520    -2498 
   -2473    -2454    -2440    -2427    -2423    -2428    -2440    -2465 
   -2498    -2535    -2575    -2614    -2658    -2698    -2732    -2759 
   -2787    -2808    -2818    -2821    -2810    -2787    -2759    -2725 
   -2686    -2646    -2605    -2558    -2508    -2461    -2409    -2354 
