Origin Time       2016/04/16 01:25:00
Lat.              32.753
Long.             130.762
Depth. (km)       12
Mag.              7.3
Station Code      TKS012
Station Lat.      34.0319
Station Long.     133.8090
Station Height(m) 130
Record Time       2016/04/16 01:26:04
Sampling Freq(Hz) 100Hz
Duration Time(s)  118
Dir.              N-S
Scale Factor      7845(gal)/8223790
Max. Acc. (gal)   5.410
Last Correction   2016/04/16 01:26:04
Memo.             
[...]
    2700     2771     2837     2906     2965     3026     3090     3122 
    3140     3153     3133     3099     3071     3046     3032     3044 
    3080     3115     3148     3180     3199     3210     3221     3221 
    3246     3296     3326     3349     3364     3343     3302     3245 
    3169     3084     3005     2940     2874     2808     2739     2679 
    2658     2636     2613     2604     2579     2582     2600     2567 
    2532     2505     2473     2457     2454     2474     2506     2536 
    2560     2562     2527     2465     2403     2359     2315     2269 
    2254     2262     2280     2309     2315     2296     2282     2241 
    2203     2222     2253     2290     2357     2417     2474     2554 
    2660     2751     2816     2874     2926     2990     3049     3073 
    3090     3102     3109     3113     3090     3069     3048     3028 
    3038     3032     2986     2945     2895     2824     2754     2679 
    2633     2636     2636     2658     2688     2701     2747     2785 
    2776     2785     2781     2758     2756     2744     2725     2718 
    2729     2740     2721     2724     2735     2739     2778     2790 
    2767     2776     2791     2805     2803     2763     2721     2677 
    2639     2627     2590     2570     2608     2633     2655     2686 
    2682     2687     2698     2671     2640     2608     2583     2573 
    2538     2519     2527     2511     2485     2450     2390     2319 
    2254     2215     2168     2095     2041     2000     1977     1998 
    2019     2053     2138     2218     2286     2376     2471     2565 
    2656     2747     2825     2890     2971     3037     3073     3096 
    3084     3055     3019     2980     2952     2913     2862     2810 
    2743     2697     2693     2695     2713     2749     2762     2745 
    2743     2747     2725     2701     2708     2724     2732     2740 
    2718     2663     2612     2555     2482     2421     2382     2362 
    2361     2390     2415     2424     2467     2513     2516     2513 
    2502     2496     2501     2498     2519     2570     2624     2686 
    2752     2821     2886     2943     2999     3038     3041     3053 
    3102     3154     3198     3234     3271     3316     3339     3331 
    3311     3284     3264     3242     3204     3142     3065     2991 
    2910     2809     2695     2571     2455     2353     2238     2134 
    2072     2045     2038     2037     2037     2046     2083     2146 
    2196     2232     2273     2305     2330     2340     2327     2309 
    2311     2327     2346     2351     2353     2369     2371     2365 
    2370     2373     2390     2423     2432     2448     2465     2490 
    2544     2571     2582     2608     2644     2714     2791     2848 
    2921     3015     3113     3198     3252     3292     3331     3346 
    3352     3338     3284     3225     3165     3088     3011     2932 
    2868     2843     2830     2813     2771     2721     2691     2650 
    2589     2543     2516     2492     2457     2427     2394     2367 
    2389     2423     2428     2421     2425     2419     2380     2331 
    2280     2227     2222     2253     2263     2303     2397     2461 
    2509     2589     2667     2759     2876     2967     3033     3103 
    3172     3232     3289     3342     3377     3403     3433     3433 
    3412     3406     3407     3422     3429     3418     3422     3433 
    3440     3443     3399     3323     3257     3187     3113     3036 
    2933     2841     2764     2679     2605     2536     2500     2502 
    2496     2481     2457     2431     2434     2442     2461     2485 
    2511     2578     2663     2752     2856     2949     3041     3126 
    3180     3219     3258     3315     3355     3349     3338     3325 
    3302     3296     3275     3235     3234     3252     3250     3234 
    3211     3194     3184     3177     3180     3176     3188     3237 
    3265     3262     3234     3194     3176     3168     3161     3130 
    3078     3064     3026     2910     2797     2683     2563     2469 
    2381     2295     2231     2208     2236     2286     2344     2423 
    2502     2592     2691     2762     2833     2929     3001     3053 
    3094     3129     3167     3192     3215     3218     3198     3198 
    3199     3188     3160     3122     3107     3086     3034     2982 
    2928     2895     2870     2826     2802     2774     2747     2736 
    2708     2679     2683     2700     2733     2762     2768     2806 
    2890     2983     3073     3132     3157     3180     3186     3159 
    3096     3040     3032     3036     3057     3113     3167     3229 
    3306     3364     3406     3445     3485     3527     3566     3595 
    3593     3562     3518     3464     3404     3369     3373     3377 
    3366     3361     3346     3300     3265     3249     3194     3121 
    3067     3036     3037     3041     3053     3096     3115     3095 
    3040     2947     2871     2785     2664     2556     2451     2371 
    2334     2290     2250     2234     2214     2185     2160     2126 
    2102     2098     2111     2134     2146     2155     2185     2215 
    2231     2239     2254     2284     2295     2282     2274     2267 
    2276     2308     2338     2373     2427     2496     2552     2600 
    2650     2677     2705     2756     2798     2844     2898     2956 
    3032     3088     3130     3180     3223     3261     3300     3322 
    3338     3346     3348     3330     3277     3226     3194     3169 
    3152     3126     3114     3146     3163     3149     3130     3079 
    3009     2941     2874     2799     2709     2643     2600     2546 
    2508     2489     2479     2486     2485     2474     2461     2435 
    2386     2334     2290     2254     2239     2273     2317     2335 
    2351     2357     2342     2315     2259     2218     2203     2182 
    2176     2180     2187     2214     2219     2227     2282     2335 
    2386     2466     2558     2648     2728     2836     2948     2995 
    3038     3083     3094     3113     3106     3063     3021     2948 
    2857     2775     2675     2571     2458     2335     2231     2124 
    2007     1915     1841     1757     1692     1668     1679     1718 
    1775     1815     1836     1872     1912     1919     1926     1958 
    1999     2034     2062     2095     2130     2154     2208     2273 
    2309     2342     2363     2349     2323     2296     2246     2196 
    2174     2157     2133     2144     2181     2196     2211     2215 
    2196     2189     2184     2188     2219     2242     2289     2344 
    2349     2343     2330     2301     2312     2307     2267     2243 
    2223     2195     2153     2097     2057     2046     2079     2124 
    2130     2146     2193     2226     2259     2322     2428     2601 
    2803     3002     3187     3341     3478     3609     3732     3867 
    3963     4032     4125     4190     4220     4247     4248     4251 
    4263     4240     4203     4185     4162     4099     4025     3971 
    3916     3854     3824     3817     3815     3838     3877     3913 
    3936     3932     3939     3946     3923     3894     3882     3877 
    3851     3811     3761     3662     3538     3443     3345     3229 
    3121     3017     2926     2829     2695     2550     2401     2269 
    2149     2025     1923     1837     1759     1707     1665     1621 
    1587     1580     1603     1610     1599     1618     1628     1610 
    1593     1574     1571     1575     1567     1571     1571     1571 
    1561     1524     1501     1475     1422     1422     1457     1487 
    1560     1676     1802     1914     2006     2107     2209     2299 
    2393     2455     2494     2559     2640     2731     2832     2932 
    3018     3061     3069     3037     2945     2847     2743     2612 
    2502     2417     2326     2245     2168     2079     1975     1881 
    1807     1713     1617     1537     1457     1401     1363     1313 
    1259     1223     1206     1182     1136     1090     1053     1036 
    1036     1023     1008     1000      986      950      895      832 
     778      734      702      679      649      654      696      715 
     727      773      847      955     1085     1229     1397     1572 
    1753     1922     2061     2195     2326     2451     2604     2764 
    2898     3038     3202     3345     3466     3605     3773     3937 
    4098     4276     4464     4665     4889     5103     5296     5476 
    5614     5710     5783     5814     5790     5755     5729     5661 
    5562     5466     5371     5277     5150     4996     4854     4703 
    4564     4464     4363     4271     4228     4232     4280     4355 
    4430     4514     4614     4712     4768     4791     4830     4872 
    4892     4888     4850     4784     4723     4658     4567     4464 
    4352     4225     4102     3967     3811     3634     3429     3213 
    2975     2700     2434     2196     1966     1763     1598     1459 
    1348     1264     1201     1156     1143     1179     1252     1347 
    1459     1579     1722     1896     2072     2236     2420     2612 
    2771     2894     2980     3042     3095     3136     3192     3276 
    3345     3407     3474     3500     3499     3466     3395     3327 
    3245     3129     3045     3003     2972     2972     3018     3090 
    3175     3281     3387     3454     3492     3504     3480     3433 
    3336     3207     3075     2905     2708     2509     2319     2184 
    2074     1953     1849     1757     1644     1534     1428     1310 
    1185     1065      946      826      712      611      540      511 
     521      566      649      773      932     1097     1258     1429 
    1605     1760     1890     2012     2126     2223     2304     2366 
    2392     2398     2416     2423     2413     2416     2415     2424 
    2461     2494     2540     2617     2688     2736     2743     2681 
    2565     2401     2200     1981     1736     1509     1336     1188 
    1063      985      928      884      864      855      819      803 
     854      886      882      893      859      788      735      684 
     618      572      575      608      639      692      762      828 
     908      992     1093     1246     1417     1605     1826     2064 
    2303     2540     2775     3029     3276     3530     3838     4156 
    4452     4734     4999     5225     5390     5509     5575     5568 
    5535     5483     5406     5343     5281     5220     5171     5116 
    5051     4973     4908     4877     4828     4773     4746     4702 
    4638     4571     4448     4275     4112     3929     3708     3472 
    3217     2970     2739     2485     2236     2001     1749     1524 
    1313     1073      864      697      521      373      259      144 
      63        2      -55      -89     -106     -110      -98      -90 
     -64      -21       32      131      237      342      493      654 
     815     1005     1196     1364     1537     1722     1885     2020 
    2168     2324     2444     2559     2662     2708     2752     2797 
    2792     2770     2732     2695     2693     2671     2633     2583 
    2502     2421     2309     2142     1979     1817     1652     1506 
    1370     1269     1224     1223     1260     1324     1414     1545 
    1695     1823     1908     1946     1925     1836     1703     1535 
    1359     1244     1170     1109     1101     1113     1129     1183 
    1236     1271     1302     1337     1382     1398     1382     1370 
    1362     1375     1439     1574     1804     2142     2584     3109 
    3674     4258     4833     5385     5910     6370     6772     7146 
    7476     7722     7867     7912     7870     7735     7526     7272 
    6945     6582     6255     5929     5606     5333     5070     4820 
    4576     4293     4001     3709     3406     3109     2805     2509 
    2255     2031     1849     1722     1626     1579     1595     1653 
    1734     1841     1971     2089     2191     2269     2299     2311 
    2323     2309     2272     2234     2187     2120     2043     1965 
    1888     1850     1868     1894     1930     1984     2046     2119 
    2162     2163     2153     2126     2104     2085     2038     1999 
    1991     1977     1966     1965     1971     1988     2019     2061 
    2096     2111     2130     2150     2155     2135     2079     2027 
    1980     1895     1807     1714     1599     1493     1366     1239 
    1170     1120     1094     1131     1196     1263     1358     1485 
    1598     1676     1753     1819     1845     1852     1852     1833 
    1819     1817     1803     1799     1826     1868     1937     2052 
    2184     2300     2424     2578     2721     2832     2928     3032 
    3127     3194     3238     3272     3307     3369     3440     3504 
    3585     3673     3742     3812     3877     3888     3863     3832 
    3757     3645     3539     3439     3334     3232     3130     3021 
    2913     2811     2721     2624     2523     2444     2355     2246 
    2126     1942     1714     1487     1217      907      595      256 
     -94     -430     -749    -1026    -1239    -1371    -1422    -1418 
   -1354    -1244    -1111     -939     -743     -525     -265       23 
     336      649      942     1232     1518     1796     2098     2404 
    2720     3060     3385     3709     4020     4302     4608     4920 
    5225     5551     5864     6200     6579     6921     7231     7543 
    7827     8073     8245     8351     8418     8418     8351     8240 
    8081     7881     7649     7380     7076     6728     6316     5877 
    5435     4965     4468     3978     3508     3032     2546     2084 
    1660     1258      903      623      411      266      190      166 
     167      187      225      274      353      468      592      728 
     903     1104     1310     1528     1764     2012     2289     2581 
    2872     3183     3504     3835     4167     4461     4714     4935 
    5096     5202     5254     5251     5238     5200     5127     5047 
    4949     4837     4700     4504     4298     4093     3854     3622 
    3393     3127     2844     2546     2223     1872     1493     1138 
     824      546      317      124      -10      -75     -128     -176 
    -209     -241     -244     -210     -166     -112      -56       -9 
       9       -2       -5       13       76      210      392      623 
     907     1212     1532     1868     2211     2555     2891     3221 
    3546     3842     4110     4398     4712     5015     5312     5611 
    5906     6189     6439     6627     6763     6855     6859     6747 
    6542     6264     5921     5540     5154     4770     4393     4055 
    3757     3466     3173     2906     2651     2408     2195     1989 
    1804     1705     1671     1641     1622     1609     1561     1487 
    1401     1294     1181     1107     1075     1042     1013     1004 
     992      962      900      808      708      610      529      456 
     405      414      467      546      677      822      945     1089 
    1243     1366     1483     1584     1647     1714     1779     1813 
    1857     1919     1988     2052     2098     2137     2170     2205 
    2255     2289     2309     2336     2371     2407     2423     2454 
    2540     2639     2735     2841     2934     3037     3161     3261 
    3360     3484     3574     3642     3726     3784     3808     3844 
    3909     3978     4036     4094     4147     4175     4178     4139 
    4066     3994     3913     3844     3802     3757     3731     3730 
    3723     3717     3684     3609     3537     3454     3358     3276 
    3208     3137     3037     2914     2774     2636     2542     2475 
    2428     2434     2461     2488     2533     2577     2605     2631 
    2650     2652     2636     2627     2673     2774     2914     3087 
    3284     3473     3619     3738     3832     3885     3927     3963 
    3978     3986     3971     3939     3920     3894     3852     3834 
    3861     3940     4045     4166     4309     4440     4557     4680 
    4779     4870     4989     5134     5308     5502     5701     5907 
    6104     6290     6469     6627     6782     6928     7037     7088 
    7082     7048     6976     6836     6642     6396     6123     5857 
    5607     5389     5178     4962     4783     4614     4428     4248 
    4091     3964     3851     3740     3670     3620     3576     3558 
    3544     3544     3582     3630     3677     3717     3753     3800 
    3839     3878     3927     3964     4009     4064     4102     4102 
    4043     3950     3832     3686     3546     3391     3217     3065 
    2903     2729     2579     2444     2335     2251     2173     2126 
    2104     2102     2116     2107     2104     2130     2176     2246 
    2319     2388     2479     2570     2644     2714     2770     2832 
    2909     3005     3122     3238     3383     3561     3716     3861 
    3986     4078     4197     4329     4456     4617     4779     4905 
    5020     5121     5167     5177     5197     5169     5085     4999 
    4882     4741     4592     4382     4132     3883     3611     3327 
    3045     2745     2442     2144     1865     1603     1339     1107 
     912      726      569      445      355      306      271      233 
     189      143      144      178      217      307      429      561 
     723      874     1008     1156     1317     1495     1675     1848 
    2047     2230     2376     2509     2602     2691     2828     2953 
    3064     3194     3329     3476     3622     3740     3832     3890 
    3937     3993     4014     4000     3987     3981     3946     3897 
    3877     3882     3921     3981     4023     4045     4058     4051 
    4017     3963     3925     3886     3842     3834     3802     3719 
    3653     3589     3514     3446     3369     3329     3330     3303 
    3258     3199     3111     3022     2914     2809     2736     2650 
    2579     2565     2575     2619     2712     2825     2930     3006 
    3076     3159     3231     3299     3365     3423     3492     3555 
    3603     3665     3709     3724     3762     3834     3892     3912 
    3924     3940     3927     3877     3786     3676     3592     3511 
    3442     3395     3346     3323     3310     3257     3184     3098 
    2999     2909     2820     2729     2646     2592     2569     2536 
    2517     2535     2533     2521     2519     2486     2446     2432 
    2425     2454     2501     2520     2551     2598     2619     2628 
    2643     2674     2721     2747     2747     2740     2728     2694 
    2646     2593     2513     2412     2316     2224     2135     2058 
    2007     2007     2034     2045     2046     2069     2101     2120 
    2118     2110     2114     2104     2069     2016     1958     1917 
    1902     1922     1956     1985     2047     2130     2188     2219 
    2215     2180     2126     2016     1868     1729     1624     1574 
    1567     1582     1614     1641     1691     1765     1811     1856 
    1938     2029     2119     2200     2250     2277     2297     2324 
    2340     2362     2427     2520     2627     2739     2824     2915 
    3042     3169     3264     3339     3419     3462     3459     3446 
    3416     3384     3361     3321     3289     3275     3248     3232 
