Origin Time       2016/04/16 01:25:00
Lat.              32.753
Long.             130.762
Depth. (km)       12
Mag.              7.3
Station Code      TKS008
Station Lat.      33.9344
Station Long.     134.2120
Station Height(m) 332
Record Time       2016/04/16 01:26:48
Sampling Freq(Hz) 100Hz
Duration Time(s)  81
Dir.              E-W
Scale Factor      7845(gal)/8223790
Max. Acc. (gal)   2.407
Last Correction   2016/04/16 01:26:48
Memo.             
[...]
    4541     4456     4477     4545     4614     4725     4869     4953 
    4932     4874     4818     4702     4535     4425     4382     4337 
    4315     4398     4533     4611     4650     4720     4783     4777 
    4757     4781     4787     4727     4681     4693     4700     4676 
    4684     4743     4779     4777     4814     4873     4861     4801 
    4777     4781     4762     4733     4747     4768     4719     4660 
    4668     4692     4679     4679     4733     4784     4797     4841 
    4932     4963     4905     4861     4851     4793     4695     4656 
    4671     4660     4644     4693     4768     4784     4779     4814 
    4843     4833     4841     4900     4945     4934     4930     4969 
    4992     4976     4993     5055     5084     5076     5104     5163 
    5166     5101     5063     5047     4973     4903     4926     4996 
    5040     5085     5158     5181     5081     4934     4822     4712 
    4600     4571     4629     4680     4676     4671     4676     4630 
    4567     4572     4612     4625     4641     4702     4760     4745 
    4689     4676     4672     4606     4549     4556     4553     4510 
    4521     4611     4698     4741     4793     4857     4849     4777 
    4735     4716     4664     4615     4618     4625     4585     4549 
    4588     4666     4720     4797     4927     4996     4943     4850 
    4785     4712     4634     4631     4684     4666     4575     4495 
    4431     4348     4288     4327     4422     4477     4514     4588 
    4650     4654     4653     4700     4742     4735     4730     4761 
    4756     4683     4637     4665     4683     4666     4698     4760 
    4737     4642     4568     4496     4363     4228     4186     4194 
    4191     4225     4322     4392     4379     4360     4382     4384 
    4352     4357     4401     4405     4372     4379     4429     4455 
    4446     4464     4511     4515     4502     4541     4584     4567 
    4538     4550     4541     4448     4338     4288     4247     4182 
    4171     4233     4283     4305     4390     4540     4642     4673 
    4695     4681     4576     4440     4364     4353     4357     4403 
    4538     4703     4811     4880     4939     4923     4811     4681 
    4599     4515     4419     4391     4456     4545     4617     4716 
    4824     4831     4758     4708     4675     4611     4556     4573 
    4629     4652     4664     4698     4672     4538     4401     4336 
    4295     4274     4348     4521     4693     4828     4970     5090 
    5096     5001     4904     4807     4673     4572     4598     4689 
    4756     4827     4932     4989     4959     4905     4869     4800 
    4683     4590     4557     4527     4480     4498     4606     4707 
    4770     4851     4912     4869     4764     4703     4683     4629 
    4585     4599     4595     4519     4433     4391     4349     4271 
    4247     4303     4347     4356     4410     4509     4568     4591 
    4642     4706     4692     4608     4531     4444     4306     4205 
    4222     4315     4395     4463     4557     4608     4556     4482 
    4445     4384     4282     4248     4314     4378     4419     4502 
    4606     4642     4617     4619     4631     4568     4483     4471 
    4502     4518     4558     4662     4738     4707     4634     4585 
    4510     4390     4315     4329     4355     4357     4398     4471 
    4476     4428     4421     4437     4410     4375     4396     4450 
    4475     4498     4579     4650     4645     4619     4612     4583 
    4514     4476     4510     4538     4519     4529     4576     4567 
    4496     4444     4414     4347     4258     4237     4260     4236 
    4199     4228     4279     4276     4263     4289     4307     4286 
    4286     4326     4349     4325     4309     4329     4324     4298 
    4333     4409     4437     4410     4392     4387     4325     4255 
    4283     4378     4459     4545     4652     4702     4630     4502 
    4402     4307     4214     4220     4344     4472     4553     4639 
    4716     4710     4644     4606     4606     4591     4595     4671 
    4772     4820     4851     4915     4986     5027     5062     5115 
    5124     5026     4896     4804     4710     4622     4629     4735 
    4845     4909     4994     5086     5084     5011     4982     4976 
    4931     4908     4956     5008     4996     4969     4984     4988 
    4932     4889     4907     4922     4909     4938     5011     5038 
    4989     4939     4877     4734     4548     4414     4344     4282 
    4258     4352     4502     4629     4774     4972     5130     5188 
    5198     5211     5185     5100     5024     4982     4904     4793 
    4752     4796     4839     4878     4992     5116     5150     5124 
    5086     5019     4885     4734     4649     4575     4448     4349 
    4327     4324     4298     4305     4367     4402     4395     4422 
    4477     4500     4499     4515     4538     4504     4419     4360 
    4336     4309     4329     4455     4619     4737     4828     4926 
    4963     4885     4773     4689     4549     4345     4197     4125 
    4047     3979     4017     4133     4240     4349     4515     4683 
    4743     4723     4702     4646     4531     4431     4396     4386 
    4363     4376     4456     4533     4567     4617     4695     4742 
    4758     4803     4878     4899     4862     4861     4865     4792 
    4696     4661     4656     4626     4634     4735     4852     4900 
    4928     4965     4922     4797     4703     4666     4642     4638 
    4707     4818     4868     4835     4777     4699     4561     4406 
    4327     4315     4307     4318     4390     4477     4515     4544 
    4611     4654     4644     4652     4704     4741     4743     4776 
    4842     4854     4816     4834     4892     4899     4873     4877 
    4880     4823     4754     4752     4774     4748     4719     4733 
    4720     4641     4572     4571     4575     4552     4563     4588 
    4542     4431     4348     4320     4295     4286     4353     4452 
    4488     4484     4513     4552     4563     4585     4656     4714 
    4707     4696     4737     4770     4753     4748     4792     4804 
    4769     4780     4845     4860     4814     4780     4738     4611 
    4444     4336     4263     4186     4156     4225     4332     4407 
    4499     4644     4750     4760     4743     4729     4664     4575 
    4549     4592     4642     4683     4773     4916     5019     5066 
    5117     5144     5100     5040     5042     5074     5076     5085 
    5151     5197     5152     5100     5090     5054     4985     4978 
    5043     5093     5105     5134     5150     5069     4915     4776 
    4644     4475     4340     4325     4396     4499     4673     4939 
    5192     5339     5418     5462     5421     5290     5161     5090 
    5032     4997     5077     5265     5441     5576     5714     5818 
    5818     5749     5702     5675     5603     5540     5543     5545 
    5487     5431     5424     5409     5347     5309     5321     5302 
    5233     5197     5206     5196     5162     5173     5211     5190 
    5123     5086     5077     5036     4999     5034     5101     5142 
    5190     5259     5277     5204     5085     4966     4831     4677 
    4584     4579     4599     4638     4743     4891     4982     4996 
    4981     4909     4726     4496     4313     4151     3981     3863 
    3851     3890     3936     4033     4197     4332     4405     4471 
    4534     4534     4468     4411     4379     4321     4260     4261 
    4307     4334     4352     4403     4457     4456     4428     4430 
    4422     4348     4253     4178     4062     3877     3711     3615 
    3543     3487     3515     3630     3743     3835     3975     4121 
    4182     4191     4205     4185     4105     4016     4000     4025 
    4025     4041     4107     4147     4132     4114     4117     4074 
    3946     3808     3700     3559     3402     3322     3317     3323 
    3330     3387     3470     3492     3476     3504     3546     3557 
    3591     3685     3765     3780     3786     3828     3859     3856 
    3883     3960     4017     4041     4101     4172     4175     4125 
    4082     4044     3974     3909     3924     4000     4072     4176 
    4351     4522     4637     4731     4837     4891     4858     4811 
    4803     4789     4773     4823     4939     5046     5125     5221 
    5320     5347     5313     5300     5294     5240     5178     5166 
    5163     5115     5074     5096     5128     5142     5200     5335 
    5466     5547     5621     5672     5625     5495     5370     5275 
    5201     5174     5250     5397     5535     5675     5871     6102 
    6316     6516     6700     6793     6728     6556     6346     6081 
    5779     5549     5455     5439     5459     5570     5755     5902 
    5985     6080     6160     6151     6085     6029     5952     5810 
    5656     5559     5478     5371     5287     5266     5265     5267 
    5323     5435     5535     5585     5610     5595     5489     5266 
    5001     4735     4430     4140     3974     3917     3919     3996 
    4172     4386     4537     4633     4696     4673     4549     4401 
    4291     4199     4114     4106     4187     4270     4341     4437 
    4519     4527     4475     4430     4388     4295     4202     4176 
    4172     4131     4088     4098     4109     4074     4058     4101 
    4139     4156     4218     4333     4431     4502     4606     4725 
    4783     4803     4852     4918     4945     4968     5077     5238 
    5370     5499     5663     5787     5809     5759     5682     5544 
    5332     5140     5027     4935     4850     4828     4849     4826 
    4757     4703     4645     4534     4419     4355     4306     4230 
    4153     4113     4078     4008     3940     3916     3878     3785 
    3697     3655     3620     3599     3672     3846     4040     4230 
    4446     4656     4758     4765     4760     4730     4631     4546 
    4564     4641     4729     4870     5062     5204     5251     5271 
    5300     5279     5223     5200     5201     5162     5081     5024 
    4989     4922     4850     4852     4904     4935     4958     5013 
    5065     5030     4953     4904     4803     4599     4379     4172 
    3917     3615     3369     3240     3160     3130     3238     3464 
    3697     3909     4126     4288     4305     4228     4162     4083 
    3974     3913     3954     4031     4093     4187     4320     4396 
    4382     4333     4268     4133     3950     3802     3699     3584 
    3483     3464     3497     3522     3559     3665     3793     3875 
    3951     4071     4189     4271     4371     4494     4565     4523 
    4423     4317     4174     4036     4029     4166     4363     4572 
    4803     4986     5022     4930     4793     4608     4360     4124 
    3973     3885     3832     3870     4024     4213     4378     4548 
    4696     4730     4639     4502     4351     4167     3993     3894 
    3870     3863     3875     3951     4069     4166     4256     4380 
    4488     4545     4596     4671     4723     4722     4716     4738 
    4720     4661     4662     4729     4785     4837     4936     5051 
    5097     5081     5051     4965     4781     4561     4371     4209 
    4060     3983     4012     4074     4131     4228     4367     4460 
    4467     4434     4357     4174     3915     3690     3551     3469 
    3462     3599     3828     4045     4240     4440     4592     4658 
    4687     4719     4714     4641     4556     4498     4409     4278 
    4194     4175     4153     4140     4213     4342     4456     4565 
    4695     4777     4742     4619     4484     4329     4137     4003 
    4005     4093     4233     4455     4730     4936     4997     4954 
    4828     4594     4298     4064     3946     3910     3978     4197 
    4511     4783     5007     5229     5390     5443     5471     5551 
    5633     5668     5703     5756     5740     5644     5560     5514 
    5455     5394     5387     5409     5402     5395     5448     5508 
    5499     5452     5418     5356     5228     5098     5023     4965 
    4915     4923     5019     5125     5182     5220     5246     5188 
    5060     4962     4916     4861     4811     4839     4915     4941 
    4938     4978     5007     4973     4941     4947     4936     4874 
    4831     4862     4914     4959     5070     5227     5337     5382 
    5416     5435     5379     5273     5198     5157     5100     5051 
    5077     5159     5235     5335     5513     5703     5834     5944 
    6058     6108     6060     5994     5944     5848     5707     5597 
    5508     5382     5242     5158     5135     5113     5116     5202 
    5319     5381     5412     5433     5383     5224     5027     4852 
    4666     4477     4383     4399     4453     4537     4703     4927 
    5112     5235     5348     5408     5346     5201     5051     4892 
    4703     4549     4500     4507     4519     4577     4680     4735 
    4704     4652     4610     4529     4407     4345     4344     4302 
    4217     4164     4121     4020     3925     3931     3989     4039 
    4121     4238     4298     4252     4156     4045     3871     3622 
    3372     3169     2988     2844     2797     2844     2898     2943 
    3022     3092     3064     2936     2774     2592     2365     2172 
    2107     2130     2188     2319     2523     2716     2849     2965 
    3090     3154     3136     3099     3049     2926     2748     2598 
    2498     2404     2346     2390     2497     2605     2728     2891 
    3049     3145     3192     3235     3252     3210     3150     3111 
    3060     2991     2976     3060     3179     3303     3472     3643 
    3738     3759     3770     3782     3750     3696     3697     3734 
    3762     3824     3948     4082     4176     4261     4369     4459 
    4513     4590     4708     4804     4861     4932     5017     5044 
    5013     4992     4977     4936     4918     4985     5092     5171 
    5242     5347     5424     5416     5366     5310     5233     5127 
    5060     5084     5130     5179     5290     5436     5540     5589 
    5620     5636     5574     5462     5408     5406     5416     5483 
    5633     5788     5881     5949     6039     6095     6081     6068 
    6068     6018     5930     5884     5898     5911     5923     5984 
    6057     6073     6046     6022     5996     5923     5852     5848 
    5863     5846     5838     5861     5869     5830     5793     5805 
    5798     5763     5782     5869     5945     5999     6075     6133 
    6084     5940     5779     5583     5313     5053     4877     4753 
    4649     4615     4665     4707     4673     4600     4509     4359 
    4170     4036     3982     3932     3875     3855     3846     3789 
    3727     3727     3753     3743     3726     3732     3713     3634 
    3554     3518     3489     3447     3439     3472     3461     3380 
    3304     3252     3177     3109     3121     3196     3261     3325 
    3433     3554     3619     3650     3705     3757     3748     3723 
    3724     3694     3608     3530     3500     3469     3429     3423 
    3450     3431     3357     3311     3317     3333     3373     3477 
    3612     3705     3747     3792     3832     3828     3831     3909 
    4041     4159     4283     4442     4554     4576     4584     4621 
    4635     4619     4634     4689     4725     4738     4795     4882 
    4936     4970     5015     5046     5017     4955     4916     4885 
    4828     4788     4801     4841     4860     4887     4945     4976 
    4945     4905     4888     4845     4772     4742     4769     4788 
    4795     4842     4903     4882     4796     4715     4615     4467 
    4344     4311     4314     4309     4355     4452     4509     4500 
    4491     4492     4459     4386     4347     4321     4230     4099 
    3990     3886     3757     3646     3611     3611     3577     3544 
    3559     3580     3566     3576     3647     3705     3701     3697 
    3699     3640     3538     3468     3443     3420     3422     3523 
    3692     3847     3987     4121     4202     4183     4104     4048 
    4017     3994     4039     4178     4342     4482     4623     4780 
    4885     4922     4970     5040     5071     5078     5119     5173 
    5190     5198     5250     5302     5298     5287     5304     5300 
    5254     5216     5217     5209     5162     5140     5167     5169 
    5131     5116     5111     5038     4914     4820     4760     4689 
    4642     4672     4738     4765     4776     4814     4818     4754 
    4715     4757     4828     4914     5055     5248     5406     5491 
    5551     5587     5551     5467     5409     5379     5341     5310 
    5339     5409     5445     5478     5559     5634     5641     5628 
    5623     5560     5420     5304     5268     5265     5289     5401 
    5562     5663     5692     5707     5703     5628     5517     5445 
    5377     5256     5131     5053     4965     4841     4743     4714 
    4710     4691     4689     4727     4729     4660     4591     4553 
    4488     4402     4355     4342     4311     4266     4261     4275 
    4252     4225     4251     4288     4295     4295     4307     4274 
    4153     4021     3921     3813     3712     3685     3728     3767 
    3785     3820     3854     3816     3728     3658     3593     3487 
    3379     3323     3281     3218     3187     3232     3307     3372 
    3477     3639     3776     3859     3950     4040     4066     4029 
    3993     3978     3950     3919     3963     4085     4189     4261 
    4351     4415     4398     4352     4356     4380     4382     4425 
    4553     4671     4723     4774     4837     4850     4835     4881 
    5000     5107     5189     5289     5362     5339     5271     5254 
    5283     5314     5391     5562     5753     5888     6008     6153 
    6264     6304     6343     6407     6427     6385     6349     6358 
    6353     6339     6396     6505     6582     6623     6687     6750 
    6735     6685     6681     6679     6632     6601     6625     6635 
    6604     6586     6605     6604     6556     6513     6490     6436 
    6359     6322     6319     6299     6251     6219     6196     6115 
    6011     5948     5910     5856     5818     5827     5840     5800 
    5751     5719     5644     5493     5319     5150     4956     4761 
    4648     4631     4646     4695     4819     4970     5066     5097 
    5101     5057     4918     4754     4637     4533     4413     4329 
    4293     4248     4182     4133     4110     4068     4017     4014 
    4045     4060     4063     4091     4120     4085     4008     3954 
    3893     3793     3719     3724     3769     3798     3856     3965 
    4036     4033     4027     4035     4006     3955     3956     4012 
    4051     4102     4220     4367     4469     4550     4650     4700 
    4649     4568     4517     4471     4423     4434     4526     4630 
    4708     4808     4931     5004     5034     5098     5196     5251 
    5268     5306     5343     5317     5273     5287     5320     5317 
    5313     5358     5405     5398     5408     5493     5589     5656 
