Origin Time       2016/04/16 01:25:00
Lat.              32.753
Long.             130.762
Depth. (km)       12
Mag.              7.3
Station Code      TKS010
Station Lat.      34.0380
Station Long.     134.0614
Station Height(m) 54
Record Time       2016/04/16 01:26:07
Sampling Freq(Hz) 100Hz
Duration Time(s)  109
Dir.              N-S
Scale Factor      7845(gal)/8223790
Max. Acc. (gal)   5.161
Last Correction   2016/04/16 01:26:08
Memo.             
[...]
   -6386    -6334    -6295    -6278    -6292    -6336    -6408    -6488 
   -6558    -6600    -6604    -6569    -6498    -6399    -6281    -6162 
   -6053    -5960    -5883    -5831    -5803    -5792    -5798    -5813 
   -5822    -5821    -5813    -5796    -5773    -5745    -5710    -5676 
   -5648    -5626    -5611    -5594    -5580    -5582    -5594    -5616 
   -5634    -5634    -5616    -5578    -5529    -5481    -5439    -5413 
   -5418    -5468    -5563    -5684    -5821    -5965    -6100    -6214 
   -6296    -6331    -6319    -6270    -6201    -6139    -6087    -6043 
   -6018    -6004    -6002    -6023    -6064    -6115    -6184    -6255 
   -6323    -6389    -6440    -6478    -6509    -6517    -6502    -6475 
   -6424    -6356    -6272    -6160    -6029    -5887    -5746    -5618 
   -5503    -5412    -5355    -5337    -5350    -5385    -5429    -5471 
   -5518    -5575    -5634    -5706    -5791    -5873    -5962    -6062 
   -6148    -6234    -6318    -6384    -6446    -6512    -6551    -6556 
   -6529    -6462    -6363    -6242    -6100    -5957    -5821    -5694 
   -5590    -5505    -5439    -5401    -5386    -5395    -5441    -5513 
   -5598    -5706    -5823    -5937    -6042    -6129    -6184    -6207 
   -6193    -6145    -6068    -5964    -5844    -5724    -5618    -5537 
   -5487    -5472    -5490    -5536    -5607    -5689    -5760    -5813 
   -5852    -5888    -5918    -5942    -5971    -5998    -6018    -6039 
   -6060    -6079    -6100    -6115    -6129    -6139    -6143    -6145 
   -6147    -6146    -6137    -6106    -6042    -5953    -5840    -5709 
   -5567    -5421    -5273    -5134    -5024    -4959    -4946    -4980 
   -5054    -5157    -5282    -5428    -5589    -5760    -5935    -6106 
   -6262    -6392    -6482    -6538    -6555    -6528    -6465    -6361 
   -6226    -6075    -5922    -5783    -5670    -5590    -5555    -5566 
   -5621    -5721    -5861    -6025    -6193    -6359    -6502    -6605 
   -6664    -6689    -6681    -6648    -6593    -6519    -6435    -6339 
   -6237    -6142    -6056    -5968    -5881    -5787    -5672    -5536 
   -5397    -5267    -5152    -5059    -5008    -4997    -5012    -5055 
   -5121    -5193    -5268    -5366    -5474    -5589    -5711    -5841 
   -5967    -6087    -6193    -6276    -6322    -6322    -6270    -6178 
   -6070    -5958    -5853    -5783    -5755    -5767    -5818    -5906 
   -6014    -6135    -6262    -6386    -6492    -6571    -6619    -6640 
   -6640    -6623    -6593    -6558    -6516    -6465    -6397    -6311 
   -6219    -6137    -6068    -6008    -5956    -5917    -5900    -5904 
   -5915    -5933    -5961    -5995    -6023    -6053    -6081    -6095 
   -6093    -6085    -6069    -6048    -6029    -6008    -5995    -5999 
   -6011    -6026    -6054    -6100    -6161    -6223    -6288    -6359 
   -6427    -6486    -6535    -6554    -6543    -6498    -6417    -6315 
   -6201    -6092    -6002    -5938    -5900    -5879    -5871    -5864 
   -5854    -5848    -5841    -5822    -5798    -5778    -5742    -5701 
   -5661    -5618    -5576    -5539    -5506    -5476    -5443    -5408 
   -5382    -5363    -5346    -5329    -5317    -5316    -5333    -5367 
   -5412    -5462    -5510    -5551    -5585    -5625    -5672    -5736 
   -5811    -5883    -5946    -6003    -6044    -6072    -6087    -6080 
   -6044    -5987    -5914    -5830    -5748    -5667    -5587    -5517 
   -5464    -5436    -5435    -5467    -5536    -5636    -5745    -5853 
   -5952    -6038    -6108    -6161    -6201    -6228    -6243    -6250 
   -6242    -6224    -6204    -6180    -6156    -6138    -6126    -6124 
   -6141    -6168    -6193    -6208    -6212    -6207    -6205    -6219 
   -6235    -6250    -6264    -6273    -6282    -6311    -6353    -6399 
   -6448    -6496    -6536    -6569    -6590    -6594    -6579    -6544 
   -6492    -6417    -6319    -6207    -6093    -5994    -5926    -5890 
   -5877    -5883    -5896    -5908    -5917    -5915    -5895    -5852 
   -5787    -5706    -5606    -5495    -5393    -5312    -5268    -5273 
   -5320    -5395    -5493    -5594    -5687    -5765    -5823    -5868 
   -5911    -5949    -5987    -6025    -6054    -6070    -6076    -6064 
   -6033    -5989    -5935    -5871    -5798    -5715    -5633    -5560 
   -5495    -5445    -5416    -5400    -5401    -5418    -5432    -5436 
   -5435    -5429    -5429    -5436    -5454    -5490    -5535    -5576 
   -5618    -5664    -5719    -5783    -5850    -5929    -6012    -6083 
   -6143    -6189    -6204    -6196    -6164    -6102    -6022    -5933 
   -5848    -5784    -5745    -5726    -5733    -5763    -5796    -5836 
   -5880    -5923    -5976    -6050    -6142    -6249    -6358    -6459 
   -6544    -6602    -6615    -6581    -6517    -6440    -6373    -6331 
   -6319    -6335    -6365    -6389    -6400    -6389    -6359    -6315 
   -6265    -6224    -6192    -6161    -6141    -6130    -6126    -6131 
   -6147    -6170    -6195    -6216    -6241    -6265    -6290    -6320 
   -6351    -6372    -6367    -6336    -6280    -6197    -6102    -6006 
   -5927    -5876    -5857    -5869    -5902    -5949    -5996    -6038 
   -6075    -6099    -6114    -6124    -6135    -6158    -6200    -6257 
   -6319    -6374    -6417    -6444    -6454    -6457    -6463    -6467 
   -6473    -6478    -6475    -6460    -6427    -6369    -6284    -6173 
   -6043    -5900    -5755    -5610    -5470    -5341    -5235    -5159 
   -5117    -5120    -5157    -5216    -5290    -5375    -5466    -5563 
   -5667    -5775    -5881    -5971    -6039    -6075    -6075    -6052 
   -6012    -5976    -5956    -5954    -5977    -6025    -6089    -6174 
   -6269    -6359    -6451    -6536    -6605    -6658    -6697    -6729 
   -6762    -6789    -6806    -6799    -6759    -6690    -6606    -6521 
   -6454    -6413    -6403    -6415    -6430    -6435    -6416    -6359 
   -6274    -6177    -6069    -5946    -5817    -5697    -5594    -5524 
   -5494    -5506    -5563    -5665    -5795    -5933    -6072    -6208 
   -6327    -6420    -6475    -6482    -6447    -6381    -6293    -6211 
   -6143    -6087    -6048    -6033    -6039    -6072    -6126    -6196 
   -6276    -6350    -6409    -6459    -6488    -6488    -6458    -6401 
   -6318    -6214    -6096    -5971    -5837    -5710    -5610    -5543 
   -5506    -5502    -5528    -5582    -5665    -5776    -5899    -6021 
   -6134    -6234    -6313    -6369    -6394    -6388    -6363    -6332 
   -6300    -6274    -6247    -6223    -6203    -6183    -6161    -6135 
   -6097    -6056    -6022    -6002    -5994    -5992    -6000    -6014 
   -6031    -6050    -6073    -6093    -6110    -6120    -6119    -6108 
   -6089    -6058    -6016    -5968    -5910    -5841    -5772    -5713 
   -5670    -5647    -5630    -5614    -5594    -5575    -5560    -5562 
   -5584    -5625    -5671    -5718    -5760    -5792    -5818    -5845 
   -5884    -5940    -6002    -6066    -6129    -6185    -6242    -6288 
   -6316    -6327    -6319    -6299    -6274    -6251    -6238    -6242 
   -6254    -6265    -6270    -6277    -6281    -6274    -6252    -6214 
   -6157    -6077    -5973    -5849    -5714    -5576    -5441    -5320 
   -5212    -5108    -5016    -4941    -4885    -4861    -4880    -4943 
   -5051    -5197    -5363    -5532    -5683    -5798    -5871    -5899 
   -5879    -5825    -5753    -5664    -5567    -5476    -5395    -5323 
   -5259    -5208    -5178    -5167    -5171    -5188    -5208    -5227 
   -5248    -5271    -5285    -5289    -5283    -5277    -5292    -5339 
   -5409    -5501    -5609    -5725    -5846    -5968    -6085    -6186 
   -6278    -6361    -6432    -6477    -6498    -6497    -6471    -6432 
   -6376    -6308    -6242    -6172    -6100    -6037    -5985    -5960 
   -5967    -6000    -6052    -6114    -6177    -6237    -6289    -6338 
   -6380    -6416    -6447    -6473    -6497    -6507    -6504    -6501 
   -6505    -6521    -6547    -6585    -6643    -6713    -6791    -6886 
   -6993    -7105    -7219    -7329    -7420    -7485    -7528    -7541 
   -7512    -7450    -7354    -7231    -7094    -6951    -6806    -6669 
   -6552    -6458    -6385    -6342    -6331    -6347    -6389    -6454 
   -6525    -6594    -6647    -6678    -6685    -6664    -6619    -6550 
   -6465    -6369    -6255    -6141    -6041    -5965    -5910    -5871 
   -5846    -5840    -5846    -5877    -5935    -6012    -6103    -6201 
   -6300    -6392    -6469    -6520    -6552    -6563    -6546    -6500 
   -6434    -6349    -6252    -6154    -6064    -5987    -5927    -5894 
   -5892    -5926    -5994    -6088    -6207    -6342    -6478    -6612 
   -6750    -6886    -7011    -7111    -7180    -7206    -7186    -7127 
   -7028    -6899    -6758    -6609    -6458    -6313    -6178    -6057 
   -5950    -5860    -5791    -5744    -5713    -5702    -5719    -5760 
   -5826    -5918    -6026    -6131    -6235    -6339    -6435    -6508 
   -6561    -6588    -6578    -6529    -6442    -6319    -6176    -6025 
   -5875    -5742    -5629    -5521    -5417    -5323    -5227    -5125 
   -5031    -4935    -4833    -4716    -4580    -4415    -4220    -4006 
   -3793    -3595    -3420    -3277    -3164    -3073    -3007    -2967 
   -2945    -2943    -2952    -2971    -3005    -3057    -3123    -3204 
   -3308    -3433    -3565    -3700    -3842    -3982    -4099    -4194 
   -4271    -4327    -4367    -4405    -4449    -4502    -4564    -4638 
   -4712    -4776    -4846    -4935    -5027    -5125    -5251    -5405 
   -5572    -5738    -5890    -6018    -6110    -6166    -6181    -6145 
   -6068    -5958    -5825    -5684    -5555    -5445    -5358    -5283 
   -5232    -5211    -5202    -5209    -5247    -5317    -5429    -5590 
   -5786    -6006    -6234    -6458    -6664    -6843    -6993    -7123 
   -7238    -7338    -7427    -7496    -7543    -7560    -7539    -7495 
   -7439    -7393    -7376    -7392    -7431    -7487    -7546    -7596 
   -7632    -7650    -7645    -7614    -7557    -7482    -7392    -7288 
   -7184    -7092    -7015    -6964    -6941    -6956    -6997    -7055 
   -7137    -7240    -7354    -7488    -7642    -7809    -7994    -8205 
   -8428    -8645    -8845    -9005    -9119    -9184    -9194    -9159 
   -9092    -8996    -8877    -8738    -8579    -8401    -8210    -8010 
   -7812    -7624    -7446    -7283    -7142    -7036    -6971    -6943 
   -6937    -6944    -6956    -6960    -6945    -6909    -6853    -6777 
   -6691    -6601    -6508    -6408    -6293    -6166    -6029    -5873 
   -5697    -5512    -5329    -5163    -5023    -4916    -4847    -4819 
   -4824    -4860    -4918    -4989    -5071    -5161    -5251    -5337 
   -5424    -5517    -5613    -5702    -5783    -5860    -5930    -5995 
   -6064    -6137    -6210    -6280    -6359    -6454    -6561    -6666 
   -6768    -6868    -6964    -7047    -7111    -7153    -7165    -7145 
   -7096    -7034    -6971    -6914    -6883    -6890    -6929    -6995 
   -7080    -7177    -7276    -7357    -7410    -7430    -7410    -7344 
   -7241    -7106    -6949    -6781    -6609    -6443    -6284    -6137 
   -6006    -5886    -5760    -5623    -5472    -5314    -5171    -5050 
   -4962    -4915    -4905    -4926    -4966    -5024    -5093    -5169 
   -5255    -5351    -5448    -5543    -5638    -5736    -5827    -5914 
   -5998    -6069    -6129    -6188    -6250    -6313    -6376    -6431 
   -6477    -6505    -6512    -6494    -6455    -6386    -6299    -6199 
   -6089    -5968    -5849    -5752    -5678    -5617    -5566    -5505 
   -5425    -5319    -5169    -4986    -4781    -4576    -4390    -4228 
   -4104    -4021    -3982    -3983    -4020    -4074    -4131    -4180 
   -4236    -4303    -4384    -4482    -4588    -4693    -4785    -4861 
   -4918    -4954    -4982    -5008    -5032    -5058    -5092    -5127 
   -5162    -5197    -5239    -5285    -5325    -5364    -5404    -5431 
   -5432    -5406    -5347    -5255    -5148    -5036    -4930    -4843 
   -4776    -4735    -4722    -4730    -4762    -4826    -4916    -5022 
   -5131    -5238    -5339    -5429    -5505    -5572    -5632    -5682 
   -5724    -5760    -5798    -5842    -5902    -5987    -6088    -6200 
   -6323    -6459    -6608    -6771    -6952    -7156    -7381    -7619 
   -7871    -8120    -8345    -8546    -8716    -8843    -8918    -8935 
   -8892    -8795    -8649    -8476    -8294    -8114    -7944    -7801 
   -7692    -7614    -7581    -7601    -7669    -7780    -7931    -8111 
   -8306    -8510    -8726    -8949    -9170    -9388    -9598    -9790 
   -9960   -10099   -10199   -10261   -10285   -10263   -10201   -10108 
   -9988    -9847    -9699    -9544    -9374    -9188    -8999    -8804 
   -8603    -8403    -8217    -8040    -7859    -7669    -7479    -7271 
   -7034    -6790    -6528    -6245    -5957    -5668    -5391    -5136 
   -4908    -4714    -4563    -4449    -4374    -4341    -4352    -4409 
   -4510    -4656    -4845    -5066    -5319    -5585    -5841    -6076 
   -6281    -6436    -6563    -6644    -6644    -6586    -6463    -6262 
   -6006    -5702    -5354    -4978    -4580    -4191    -3832    -3516 
   -3257    -3048    -2902    -2820    -2790    -2817    -2889    -3010 
   -3196    -3442    -3734    -4055    -4402    -4758    -5109    -5443 
   -5751    -6008    -6197    -6309    -6335    -6269    -6123    -5914 
   -5651    -5346    -5012    -4664    -4322    -3997    -3686    -3395 
   -3114    -2835    -2550    -2257    -1954    -1647    -1344    -1073 
    -855     -697     -602     -573     -604     -689     -838    -1047 
   -1313    -1637    -2001    -2388    -2782    -3171    -3543    -3896 
   -4225    -4523    -4783    -5005    -5196    -5359    -5493    -5606 
   -5707    -5800    -5888    -5967    -6033    -6085    -6130    -6168 
   -6189    -6192    -6183    -6166    -6164    -6181    -6227    -6315 
   -6448    -6616    -6802    -6990    -7169    -7325    -7444    -7523 
   -7562    -7576    -7581    -7596    -7619    -7659    -7730    -7835 
   -7974    -8144    -8340    -8548    -8768    -8996    -9219    -9418 
   -9585    -9720    -9819    -9886    -9923    -9926    -9895    -9842 
   -9763    -9653    -9517    -9371    -9224    -9073    -8916    -8754 
   -8587    -8411    -8232    -8043    -7836    -7624    -7416    -7227 
   -7076    -6963    -6879    -6835    -6826    -6831    -6841    -6860 
   -6871    -6866    -6851    -6821    -6777    -6750    -6751    -6777 
   -6828    -6905    -7010    -7156    -7352    -7586    -7843    -8129 
   -8431    -8723    -8997    -9244    -9460    -9644    -9790    -9896 
   -9967    -9989    -9964    -9895    -9778    -9589    -9325    -8997 
   -8604    -8154    -7673    -7179    -6689    -6231    -5837    -5532 
   -5320    -5189    -5134    -5154    -5246    -5395    -5580    -5769 
   -5931    -6050    -6104    -6084    -5995    -5849    -5668    -5467 
   -5259    -5063    -4904    -4789    -4719    -4687    -4680    -4692 
   -4718    -4754    -4806    -4868    -4936    -5019    -5108    -5190 
   -5268    -5331    -5351    -5325    -5246    -5107    -4928    -4738 
   -4560    -4418    -4326    -4298    -4332    -4410    -4522    -4660 
   -4804    -4936    -5039    -5103    -5130    -5119    -5066    -4972 
   -4837    -4664    -4471    -4271    -4079    -3915    -3786    -3705 
   -3672    -3688    -3762    -3901    -4099    -4338    -4595    -4861 
   -5119    -5347    -5539    -5684    -5784    -5871    -5953    -6022 
   -6103    -6208    -6326    -6453    -6569    -6667    -6754    -6836 
   -6901    -6945    -6978    -6990    -6978    -6940    -6853    -6714 
   -6544    -6353    -6150    -5940    -5729    -5530    -5355    -5224 
   -5147    -5109    -5107    -5144    -5200    -5259    -5319    -5358 
   -5367    -5354    -5312    -5247    -5184    -5144    -5154    -5205 
   -5281    -5368    -5455    -5536    -5603    -5648    -5667    -5661 
   -5644    -5629    -5613    -5584    -5529    -5452    -5367    -5259 
   -5138    -5016    -4888    -4750    -4617    -4486    -4359    -4253 
   -4175    -4122    -4090    -4074    -4088    -4135    -4207    -4298 
   -4393    -4475    -4540    -4603    -4665    -4726    -4781    -4816 
   -4816    -4768    -4672    -4544    -4401    -4266    -4147    -4031 
   -3912    -3798    -3682    -3555    -3430    -3321    -3238    -3187 
   -3176    -3217    -3314    -3456    -3634    -3839    -4051    -4266 
   -4484    -4695    -4895    -5069    -5202    -5289    -5320    -5287 
   -5200    -5067    -4909    -4737    -4540    -4303    -4036    -3763 
   -3503    -3264    -3045    -2853    -2704    -2605    -2554    -2536 
   -2546    -2577    -2621    -2678    -2762    -2887    -3051    -3238 
   -3443    -3663    -3890    -4114    -4345    -4581    -4812    -5036 
   -5265    -5498    -5715    -5917    -6100    -6242    -6330    -6378 
   -6415    -6465    -6542    -6647    -6798    -6999    -7233    -7493 
   -7789    -8108    -8418    -8715    -8986    -9208    -9373    -9479 
   -9520    -9502    -9433    -9317    -9171    -9008    -8834    -8667 
   -8513    -8380    -8266    -8162    -8071    -7994    -7917    -7842 
   -7774    -7719    -7672    -7645    -7645    -7669    -7708    -7753 
   -7797    -7831    -7839    -7821    -7788    -7750    -7720    -7711 
   -7728    -7771    -7834    -7906    -7974    -8024    -8035    -8001 
   -7921    -7799    -7646    -7480    -7311    -7145    -6987    -6836 
   -6690    -6540    -6369    -6183    -5998    -5817    -5647    -5501 
   -5389    -5312    -5273    -5270    -5289    -5324    -5364    -5394 
   -5409    -5400    -5347    -5260    -5158    -5039    -4920    -4816 
   -4733    -4665    -4606    -4553    -4494    -4431    -4384    -4360 
   -4365    -4423    -4531    -4666    -4824    -5000    -5179    -5354 
   -5506    -5626    -5714    -5783    -5842    -5892    -5938    -5973 
   -5973    -5930    -5845    -5719    -5564    -5401    -5243    -5108 
   -5009    -4943    -4899    -4895    -4926    -4973    -5036    -5117 
   -5213    -5317    -5410    -5490    -5559    -5607    -5644    -5687 
   -5746    -5817    -5896    -5973    -6026    -6042    -6015    -5946 
   -5846    -5736    -5622    -5514    -5427    -5356    -5297    -5255 
   -5235    -5243    -5283    -5363    -5481    -5634    -5800    -5960 
   -6088    -6169    -6197    -6173    -6104    -5998    -5861    -5710 
   -5548    -5368    -5179    -4994    -4819    -4658    -4525    -4419 
   -4342    -4307    -4320    -4378    -4468    -4575    -4699    -4841 
   -4989    -5152    -5329    -5499    -5648    -5759    -5821    -5834 
   -5802    -5732    -5644    -5549    -5445    -5336    -5231    -5131 
   -5047    -4986    -4935    -4892    -4855    -4816    -4769    -4722 
   -4675    -4619    -4564    -4523    -4498    -4483    -4477    -4475 
   -4460    -4430    -4380    -4309    -4220    -4118    -4001    -3869 
   -3719    -3541    -3338    -3133    -2925    -2721    -2546    -2412 
   -2328    -2301    -2343    -2458    -2628    -2836    -3071    -3322 
   -3574    -3832    -4088    -4332    -4567    -4797    -5004    -5182 
   -5333    -5451    -5552    -5656    -5763    -5856    -5929    -5977 
   -6002    -6002    -5971    -5922    -5864    -5806    -5734    -5656 
   -5578    -5505    -5456    -5439    -5440    -5454    -5495    -5568 
   -5665    -5790    -5935    -6081    -6216    -6330    -6408    -6448 
