Origin Time       2016/04/16 01:25:00
Lat.              32.753
Long.             130.762
Depth. (km)       12
Mag.              7.3
Station Code      TKS006
Station Lat.      33.6692
Station Long.     134.4192
Station Height(m) 2
Record Time       2016/04/16 01:26:10
Sampling Freq(Hz) 100Hz
Duration Time(s)  126
Dir.              N-S
Scale Factor      7845(gal)/8223790
Max. Acc. (gal)   4.504
Last Correction   2016/04/16 01:26:11
Memo.             
[...]
   -5362    -5448    -5530    -5601    -5651    -5664    -5632    -5563 
   -5472    -5370    -5262    -5154    -5062    -4978    -4882    -4765 
   -4610    -4428    -4236    -4041    -3874    -3747    -3666    -3631 
   -3636    -3685    -3784    -3920    -4067    -4197    -4318    -4429 
   -4525    -4617    -4706    -4803    -4909    -5009    -5109    -5209 
   -5282    -5327    -5355    -5360    -5347    -5314    -5277    -5255 
   -5233    -5196    -5161    -5119    -5051    -4974    -4900    -4824 
   -4750    -4679    -4617    -4567    -4533    -4527    -4553    -4587 
   -4631    -4695    -4743    -4761    -4776    -4785    -4776    -4762 
   -4761    -4754    -4746    -4762    -4793    -4830    -4874    -4918 
   -4949    -4953    -4931    -4888    -4835    -4779    -4723    -4677 
   -4627    -4568    -4525    -4484    -4445    -4426    -4409    -4382 
   -4344    -4283    -4200    -4116    -4044    -4009    -4012    -4050 
   -4112    -4170    -4228    -4289    -4348    -4406    -4464    -4529 
   -4612    -4703    -4783    -4843    -4885    -4923    -4962    -4986 
   -4994    -4989    -4961    -4905    -4824    -4718    -4614    -4515 
   -4429    -4355    -4275    -4195    -4118    -4031    -3950    -3897 
   -3855    -3820    -3812    -3838    -3879    -3925    -3989    -4074 
   -4170    -4271    -4383    -4513    -4652    -4772    -4869    -4954 
   -5026    -5071    -5097    -5124    -5142    -5128    -5085    -5039 
   -4996    -4930    -4842    -4754    -4662    -4568    -4473    -4384 
   -4303    -4241    -4171    -4067    -3959    -3873    -3808    -3778 
   -3794    -3842    -3920    -4035    -4148    -4243    -4342    -4442 
   -4511    -4561    -4608    -4653    -4698    -4737    -4780    -4847 
   -4923    -4989    -5053    -5105    -5147    -5175    -5190    -5213 
   -5243    -5259    -5277    -5298    -5290    -5248    -5196    -5143 
   -5090    -5036    -4989    -4959    -4938    -4912    -4891    -4850 
   -4766    -4664    -4561    -4473    -4414    -4392    -4417    -4480 
   -4552    -4627    -4723    -4830    -4926    -5009    -5090    -5166 
   -5223    -5258    -5298    -5354    -5408    -5463    -5535    -5593 
   -5611    -5602    -5570    -5516    -5448    -5381    -5323    -5279 
   -5254    -5235    -5198    -5121    -5013    -4872    -4703    -4515 
   -4329    -4175    -4062    -3971    -3902    -3848    -3776    -3669 
   -3538    -3410    -3299    -3211    -3159    -3152    -3180    -3225 
   -3303    -3412    -3535    -3670    -3802    -3929    -4060    -4194 
   -4329    -4468    -4635    -4843    -5070    -5304    -5541    -5767 
   -5956    -6091    -6188    -6269    -6338    -6396    -6446    -6492 
   -6534    -6564    -6579    -6574    -6536    -6470    -6385    -6281 
   -6156    -6021    -5867    -5691    -5513    -5336    -5163    -5013 
   -4887    -4779    -4680    -4587    -4492    -4393    -4294    -4197 
   -4097    -4014    -3977    -3973    -3987    -4023    -4063    -4093 
   -4128    -4178    -4220    -4243    -4263    -4261    -4228    -4195 
   -4185    -4191    -4202    -4220    -4245    -4274    -4305    -4337 
   -4355    -4352    -4338    -4307    -4261    -4225    -4205    -4189 
   -4180    -4186    -4200    -4220    -4233    -4251    -4271    -4294 
   -4303    -4303    -4291    -4256    -4214    -4190    -4182    -4176 
   -4171    -4170    -4172    -4167    -4162    -4183    -4223    -4276 
   -4365    -4476    -4595    -4716    -4834    -4949    -5055    -5151 
   -5235    -5302    -5344    -5362    -5354    -5327    -5292    -5258 
   -5209    -5144    -5085    -5030    -4941    -4806    -4661    -4525 
   -4371    -4207    -4043    -3863    -3685    -3511    -3331    -3165 
   -3026    -2896    -2768    -2664    -2602    -2558    -2517    -2485 
   -2467    -2463    -2450    -2442    -2471    -2538    -2624    -2729 
   -2870    -3033    -3165    -3261    -3342    -3407    -3470    -3541 
   -3634    -3766    -3919    -4086    -4266    -4429    -4568    -4699 
   -4826    -4958    -5092    -5220    -5337    -5437    -5524    -5605 
   -5679    -5741    -5784    -5792    -5776    -5757    -5753    -5763 
   -5783    -5817    -5871    -5946    -6026    -6096    -6164    -6226 
   -6262    -6273    -6276    -6285    -6313    -6370    -6434    -6513 
   -6615    -6702    -6767    -6824    -6867    -6894    -6889    -6844 
   -6787    -6717    -6619    -6505    -6376    -6224    -6066    -5904 
   -5745    -5589    -5432    -5277    -5123    -4962    -4793    -4631 
   -4499    -4393    -4295    -4212    -4158    -4121    -4088    -4066 
   -4063    -4090    -4135    -4190    -4263    -4359    -4471    -4592 
   -4727    -4878    -5035    -5193    -5354    -5512    -5670    -5823 
   -5977    -6134    -6278    -6409    -6531    -6639    -6714    -6751 
   -6751    -6705    -6619    -6497    -6323    -6112    -5891    -5667 
   -5474    -5313    -5171    -5054    -4939    -4819    -4707    -4590 
   -4476    -4383    -4301    -4237    -4205    -4202    -4225    -4261 
   -4307    -4375    -4455    -4557    -4688    -4822    -4969    -5131 
   -5286    -5431    -5560    -5671    -5767    -5837    -5879    -5921 
   -5964    -6012    -6085    -6166    -6234    -6272    -6254    -6181 
   -6073    -5929    -5756    -5589    -5433    -5283    -5163    -5080 
   -5017    -4958    -4880    -4810    -4752    -4676    -4595    -4519 
   -4452    -4395    -4340    -4322    -4359    -4375    -4359    -4336 
   -4274    -4185    -4068    -3919    -3785    -3672    -3557    -3465 
   -3418    -3392    -3376    -3366    -3360    -3353    -3335    -3319 
   -3322    -3343    -3404    -3504    -3618    -3738    -3842    -3913 
   -3965    -4002    -4023    -4050    -4093    -4163    -4266    -4401 
   -4558    -4707    -4830    -4931    -4986    -4978    -4926    -4833 
   -4708    -4584    -4464    -4334    -4194    -4035    -3874    -3719 
   -3543    -3361    -3198    -3041    -2901    -2783    -2691    -2636 
   -2605    -2583    -2592    -2633    -2704    -2795    -2894    -2990 
   -3103    -3232    -3354    -3487    -3632    -3774    -3915    -4066 
   -4223    -4364    -4483    -4594    -4676    -4730    -4789    -4852 
   -4909    -4981    -5089    -5216    -5336    -5460    -5587    -5697 
   -5786    -5863    -5938    -6003    -6027    -6002    -5938    -5864 
   -5790    -5701    -5584    -5445    -5294    -5131    -4949    -4757 
   -4541    -4313    -4113    -3925    -3755    -3634    -3553    -3491 
   -3442    -3422    -3454    -3523    -3632    -3792    -3977    -4189 
   -4423    -4684    -4970    -5259    -5547    -5823    -6093    -6385 
   -6702    -7045    -7402    -7755    -8091    -8372    -8583    -8746 
   -8853    -8903    -8914    -8870    -8779    -8652    -8474    -8248 
   -7974    -7650    -7271    -6825    -6322    -5798    -5266    -4731 
   -4223    -3753    -3339    -2998    -2693    -2431    -2234    -2068 
   -1938    -1868    -1833    -1841    -1903    -1984    -2102    -2270 
   -2435    -2589    -2754    -2896    -2983    -3038    -3088    -3117 
   -3113    -3106    -3111    -3129    -3136    -3125    -3105    -3071 
   -3013    -2934    -2847    -2754    -2662    -2570    -2485    -2413 
   -2354    -2304    -2273    -2262    -2262    -2267    -2276    -2284 
   -2307    -2363    -2442    -2529    -2654    -2821    -2988    -3138 
   -3306    -3483    -3645    -3780    -3902    -4024    -4148    -4268 
   -4388    -4504    -4583    -4622    -4635    -4621    -4596    -4591 
   -4604    -4633    -4685    -4768    -4882    -5027    -5186    -5352 
   -5519    -5671    -5786    -5859    -5895    -5917    -5957    -6022 
   -6119    -6257    -6416    -6583    -6768    -6948    -7072    -7159 
   -7229    -7261    -7268    -7272    -7258    -7236    -7211    -7172 
   -7125    -7045    -6924    -6768    -6578    -6381    -6180    -5962 
   -5757    -5571    -5375    -5184    -5005    -4818    -4626    -4448 
   -4280    -4121    -3973    -3828    -3703    -3600    -3514    -3451 
   -3407    -3388    -3388    -3404    -3464    -3573    -3724    -3912 
   -4109    -4332    -4602    -4887    -5166    -5468    -5792    -6110 
   -6442    -6791    -7136    -7461    -7750    -7987    -8175    -8311 
   -8417    -8487    -8509    -8530    -8576    -8607    -8648    -8704 
   -8734    -8729    -8692    -8619    -8522    -8401    -8259    -8093 
   -7905    -7730    -7560    -7361    -7138    -6917    -6714    -6525 
   -6316    -6070    -5798    -5494    -5169    -4849    -4540    -4261 
   -4012    -3788    -3623    -3514    -3446    -3437    -3492    -3628 
   -3869    -4178    -4530    -4926    -5375    -5869    -6356    -6817 
   -7269    -7688    -8044    -8370    -8675    -8931    -9140    -9282 
   -9340    -9329    -9235    -9042    -8761    -8401    -7994    -7570 
   -7119    -6635    -6127    -5605    -5093    -4581    -4058    -3542 
   -3025    -2502    -2006    -1544    -1132     -787     -506     -317 
    -222     -178     -193     -261     -356     -472     -599     -738 
    -900    -1077    -1279    -1517    -1792    -2114    -2469    -2837 
   -3211    -3570    -3898    -4205    -4484    -4699    -4854    -4986 
   -5108    -5185    -5194    -5173    -5116    -5024    -4918    -4788 
   -4637    -4502    -4398    -4324    -4276    -4247    -4243    -4271 
   -4329    -4406    -4511    -4648    -4780    -4897    -5023    -5142 
   -5251    -5364    -5456    -5533    -5626    -5705    -5751    -5800 
   -5868    -5899    -5860    -5798    -5741    -5632    -5441    -5212 
   -4966    -4688    -4359    -3987    -3612    -3261    -2961    -2685 
   -2373    -2107    -1948    -1833    -1771    -1792    -1858    -1960 
   -2111    -2299    -2508    -2767    -3078    -3406    -3753    -4107 
   -4430    -4743    -5047    -5319    -5571    -5773    -5902    -5994 
   -6057    -6073    -6037    -5971    -5886    -5779    -5655    -5509 
   -5351    -5171    -4930    -4638    -4338    -4035    -3728    -3414 
   -3107    -2852    -2646    -2469    -2332    -2243    -2184    -2147 
   -2154    -2200    -2274    -2392    -2565    -2786    -3040    -3326 
   -3628    -3936    -4263    -4584    -4873    -5131    -5351    -5533 
   -5680    -5806    -5945    -6072    -6156    -6223    -6265    -6257 
   -6201    -6087    -5915    -5726    -5540    -5339    -5124    -4930 
   -4776    -4637    -4502    -4392    -4283    -4113    -3910    -3719 
   -3526    -3375    -3299    -3265    -3280    -3373    -3535    -3746 
   -4003    -4325    -4675    -5005    -5341    -5683    -5987    -6266 
   -6566    -6886    -7198    -7499    -7801    -8085    -8310    -8457 
   -8527    -8540    -8473    -8333    -8148    -7906    -7618    -7300 
   -6922    -6489    -6037    -5559    -5058    -4571    -4125    -3712 
   -3330    -2980    -2629    -2296    -2043    -1838    -1657    -1540 
   -1479    -1457    -1466    -1476    -1518    -1638    -1787    -1919 
   -2043    -2168    -2301    -2413    -2477    -2558    -2682    -2806 
   -2929    -3063    -3194    -3315    -3434    -3553    -3662    -3763 
   -3874    -3977    -4077    -4191    -4270    -4329    -4438    -4553 
   -4638    -4737    -4830    -4896    -4972    -5054    -5117    -5159 
   -5194    -5247    -5309    -5385    -5503    -5614    -5667    -5702 
   -5733    -5740    -5764    -5793    -5798    -5815    -5861    -5904 
   -5929    -5972    -6026    -6029    -6021    -6031    -5994    -5899 
   -5796    -5656    -5462    -5266    -5073    -4852    -4660    -4502 
   -4344    -4222    -4128    -4005    -3897    -3819    -3724    -3618 
   -3518    -3437    -3388    -3361    -3349    -3345    -3349    -3353 
   -3343    -3329    -3306    -3273    -3262    -3275    -3303    -3357 
   -3438    -3547    -3685    -3827    -3946    -4069    -4212    -4322 
   -4423    -4573    -4748    -4916    -5098    -5286    -5425    -5514 
   -5590    -5637    -5638    -5632    -5622    -5603    -5590    -5584 
   -5566    -5508    -5416    -5332    -5228    -5098    -5000    -4904 
   -4756    -4603    -4479    -4336    -4175    -4024    -3863    -3696 
   -3549    -3396    -3240    -3113    -2994    -2870    -2781    -2702 
   -2616    -2548    -2463    -2366    -2319    -2293    -2254    -2201 
   -2153    -2128    -2111    -2115    -2150    -2185    -2236    -2319 
   -2392    -2465    -2544    -2628    -2731    -2847    -2974    -3121 
   -3295    -3470    -3613    -3744    -3880    -4010    -4159    -4326 
   -4484    -4625    -4757    -4884    -4978    -5038    -5063    -5055 
   -5062    -5088    -5108    -5151    -5212    -5270    -5325    -5359 
   -5383    -5420    -5452    -5456    -5458    -5474    -5478    -5448 
   -5402    -5339    -5273    -5215    -5161    -5120    -5101    -5103 
   -5109    -5098    -5065    -5016    -4941    -4830    -4722    -4644 
   -4576    -4511    -4455    -4414    -4388    -4376    -4386    -4384 
   -4359    -4352    -4371    -4399    -4448    -4519    -4585    -4652 
   -4747    -4849    -4923    -4974    -5011    -5038    -5040    -5000 
   -4947    -4895    -4812    -4738    -4683    -4594    -4509    -4429 
   -4303    -4174    -4054    -3905    -3755    -3645    -3568    -3526 
   -3522    -3557    -3628    -3731    -3846    -3959    -4085    -4218 
   -4357    -4537    -4753    -4981    -5224    -5478    -5727    -5942 
   -6129    -6296    -6417    -6505    -6577    -6604    -6585    -6536 
   -6431    -6255    -6052    -5817    -5526    -5193    -4814    -4388 
   -3929    -3456    -2970    -2485    -2034    -1611    -1196     -838 
    -564     -332     -144      -21       39       32      -58     -216 
    -421     -693    -1026    -1395    -1813    -2259    -2695    -3136 
   -3585    -4020    -4440    -4845    -5201    -5502    -5746    -5907 
   -6002    -6048    -6019    -5938    -5848    -5721    -5555    -5374 
   -5177    -4981    -4787    -4583    -4401    -4237    -4066    -3913 
   -3797    -3701    -3634    -3601    -3591    -3630    -3693    -3738 
   -3809    -3913    -4005    -4077    -4144    -4230    -4324    -4406 
   -4483    -4568    -4654    -4712    -4718    -4681    -4627    -4535 
   -4414    -4298    -4172    -4055    -3964    -3846    -3704    -3576 
   -3437    -3277    -3132    -2990    -2844    -2732    -2636    -2531 
   -2458    -2420    -2385    -2376    -2385    -2388    -2408    -2442 
   -2458    -2478    -2535    -2620    -2728    -2840    -2953    -3092 
   -3223    -3319    -3403    -3470    -3507    -3530    -3553    -3565 
   -3584    -3604    -3624    -3662    -3689    -3705    -3759    -3821 
   -3861    -3932    -4029    -4116    -4215    -4329    -4440    -4575 
   -4725    -4862    -5015    -5202    -5383    -5539    -5705    -5875 
   -6012    -6120    -6226    -6309    -6323    -6303    -6297    -6278 
   -6212    -6123    -6025    -5902    -5737    -5552    -5352    -5093 
   -4818    -4584    -4363    -4140    -3946    -3789    -3682    -3605 
   -3551    -3539    -3534    -3519    -3522    -3547    -3600    -3663 
   -3742    -3867    -4012    -4163    -4306    -4409    -4500    -4568 
   -4550    -4492    -4421    -4266    -4069    -3890    -3693    -3469 
   -3252    -3053    -2882    -2740    -2629    -2567    -2539    -2535 
   -2583    -2690    -2820    -2980    -3196    -3469    -3808    -4192 
   -4588    -4977    -5337    -5671    -5980    -6257    -6504    -6744 
   -6993    -7238    -7452    -7630    -7761    -7831    -7854    -7823 
   -7723    -7603    -7469    -7300    -7150    -7044    -6939    -6815 
   -6689    -6567    -6432    -6285    -6124    -5929    -5738    -5543 
   -5302    -5058    -4804    -4522    -4251    -3975    -3700    -3449 
   -3203    -2961    -2748    -2565    -2411    -2274    -2160    -2088 
   -2083    -2130    -2199    -2311    -2482    -2683    -2921    -3175 
   -3412    -3677    -3998    -4330    -4635    -4915    -5169    -5375 
   -5541    -5672    -5752    -5796    -5813    -5807    -5802    -5786 
   -5722    -5602    -5448    -5263    -5031    -4807    -4610    -4396 
   -4162    -3923    -3709    -3534    -3362    -3207    -3109    -3068 
   -3057    -3086    -3160    -3257    -3365    -3489    -3623    -3775 
   -3937    -4078    -4232    -4411    -4594    -4787    -4986    -5202 
   -5441    -5665    -5887    -6143    -6419    -6685    -6941    -7188 
   -7408    -7593    -7773    -7935    -8066    -8185    -8268    -8310 
   -8326    -8297    -8232    -8154    -8050    -7928    -7809    -7693 
   -7562    -7418    -7277    -7126    -6961    -6798    -6632    -6465 
   -6299    -6158    -6056    -5971    -5884    -5821    -5798    -5768 
   -5705    -5670    -5661    -5618    -5545    -5460    -5348    -5211 
   -5051    -4882    -4712    -4526    -4341    -4187    -4033    -3885 
   -3778    -3677    -3561    -3483    -3456    -3473    -3544    -3657 
   -3785    -3944    -4158    -4403    -4635    -4876    -5150    -5404 
   -5609    -5818    -5995    -6100    -6186    -6251    -6277    -6292 
   -6282    -6250    -6196    -6097    -5985    -5863    -5689    -5502 
   -5323    -5130    -4949    -4803    -4671    -4537    -4415    -4330 
   -4263    -4220    -4228    -4253    -4275    -4347    -4460    -4561 
   -4649    -4743    -4835    -4908    -4973    -5053    -5116    -5131 
   -5135    -5131    -5089    -5024    -4956    -4887    -4797    -4696 
   -4625    -4568    -4492    -4455    -4455    -4433    -4417    -4429 
   -4444    -4460    -4460    -4460    -4479    -4499    -4541    -4622 
   -4716    -4823    -4953    -5088    -5201    -5298    -5373    -5412 
   -5481    -5582    -5676    -5806    -5950    -6079    -6216    -6359 
   -6486    -6602    -6701    -6771    -6813    -6848    -6890    -6918 
   -6944    -6975    -6990    -6987    -6966    -6914    -6856    -6813 
   -6759    -6700    -6664    -6619    -6566    -6548    -6531    -6498 
   -6480    -6465    -6454    -6459    -6498    -6561    -6625    -6701 
   -6806    -6934    -7065    -7209    -7384    -7560    -7723    -7894 
   -8077    -8253    -8390    -8484    -8584    -8680    -8760    -8827 
   -8887    -8945    -8995    -9038    -9069    -9053    -9001    -8916 
   -8770    -8583    -8390    -8182    -7948    -7701    -7438    -7177 
   -6944    -6690    -6421    -6165    -5910    -5680    -5479    -5286 
   -5128    -5011    -4931    -4887    -4881    -4909    -4951    -4996 
   -5050    -5121    -5201    -5297    -5422    -5543    -5652    -5790 
   -5934    -6068    -6210    -6322    -6382    -6423    -6443    -6423 
   -6386    -6350    -6280    -6186    -6103    -5992    -5852    -5694 
   -5512    -5335    -5150    -4931    -4704    -4464    -4220    -3978 
   -3738    -3505    -3260    -3009    -2786    -2567    -2361    -2195 
   -2060    -1972    -1949    -1980    -2045    -2138    -2247    -2363 
   -2515    -2677    -2814    -2956    -3114    -3279    -3470    -3680 
   -3894    -4136    -4388    -4633    -4858    -5057    -5228    -5347 
   -5406    -5429    -5420    -5367    -5296    -5231    -5147    -5040 
   -4962    -4909    -4841    -4743    -4626    -4491    -4348    -4210 
   -4066    -3892    -3717    -3572    -3426    -3279    -3154    -3044 
   -2926    -2803    -2694    -2592    -2486    -2404    -2346    -2307 
   -2308    -2342    -2378    -2447    -2574    -2698    -2828    -2986 
   -3129    -3289    -3485    -3661    -3820    -4001    -4223    -4446 
   -4649    -4866    -5070    -5258    -5458    -5629    -5760    -5856 
