Origin Time       2016/04/16 01:25:00
Lat.              32.753
Long.             130.762
Depth. (km)       12
Mag.              7.3
Station Code      TKS011
Station Lat.      33.8746
Station Long.     133.9218
Station Height(m) 555
Record Time       2016/04/16 01:26:39
Sampling Freq(Hz) 100Hz
Duration Time(s)  65
Dir.              N-S
Scale Factor      7845(gal)/8223790
Max. Acc. (gal)   2.915
Last Correction   2016/04/16 01:26:41
Memo.             
[...]
    2794     2816     2818     2820     2833     2853     2876     2898 
    2921     2938     2943     2934     2929     2932     2930     2924 
    2914     2899     2893     2899     2906     2903     2893     2878 
    2872     2880     2882     2862     2814     2758     2724     2720 
    2731     2737     2740     2759     2795     2851     2918     2976 
    3006     3007     2994     2983     2971     2947     2914     2887 
    2868     2837     2794     2768     2772     2794     2801     2786 
    2776     2781     2775     2759     2764     2792     2822     2841 
    2848     2852     2867     2887     2893     2884     2872     2867 
    2872     2884     2898     2913     2921     2914     2902     2895 
    2894     2886     2860     2824     2791     2775     2779     2790 
    2786     2767     2747     2736     2739     2747     2751     2749 
    2740     2725     2713     2717     2731     2747     2764     2779 
    2792     2816     2839     2847     2847     2853     2867     2887 
    2909     2922     2921     2899     2876     2874     2890     2915 
    2937     2957     2979     2994     2999     3009     3022     3036 
    3038     3019     2998     2994     3007     3017     3013     3002 
    2995     2984     2970     2964     2967     2974     2986     3011 
    3029     3030     3030     3044     3067     3090     3107     3115 
    3118     3118     3111     3111     3126     3144     3160     3180 
    3203     3218     3210     3179     3148     3130     3119     3103 
    3082     3067     3052     3026     2988     2949     2921     2911 
    2907     2896     2880     2867     2863     2863     2859     2844 
    2839     2852     2880     2907     2926     2941     2953     2961 
    2972     3001     3033     3049     3056     3071     3094     3126 
    3154     3171     3175     3161     3133     3115     3114     3111 
    3103     3099     3098     3098     3090     3078     3073     3087 
    3109     3141     3173     3198     3217     3225     3213     3199 
    3190     3188     3187     3179     3161     3136     3109     3088 
    3080     3083     3099     3119     3134     3152     3176     3200 
    3219     3227     3235     3256     3283     3299     3304     3304 
    3312     3317     3306     3277     3246     3219     3191     3157 
    3126     3107     3096     3099     3117     3145     3175     3194 
    3202     3198     3184     3167     3156     3154     3159     3163 
    3154     3136     3122     3122     3126     3126     3118     3105 
    3080     3057     3051     3060     3078     3095     3119     3150 
    3180     3210     3227     3229     3219     3215     3219     3217 
    3194     3159     3118     3078     3028     2970     2914     2874 
    2847     2830     2821     2813     2803     2792     2781     2767 
    2751     2733     2717     2709     2705     2705     2714     2731 
    2740     2743     2744     2743     2743     2736     2724     2721 
    2731     2736     2748     2766     2771     2764     2754     2754 
    2770     2794     2817     2836     2844     2843     2836     2836 
    2837     2839     2841     2844     2849     2853     2860     2863 
    2872     2891     2909     2925     2936     2926     2910     2895 
    2871     2835     2801     2774     2752     2727     2698     2678 
    2677     2686     2700     2716     2740     2776     2821     2868 
    2911     2949     2980     2998     3007     3009     3007     3021 
    3042     3056     3063     3068     3069     3063     3059     3064 
    3071     3076     3075     3068     3061     3056     3041     3007 
    2951     2890     2828     2766     2712     2673     2648     2640 
    2641     2640     2636     2625     2614     2613     2619     2628 
    2641     2660     2682     2702     2720     2733     2745     2758 
    2764     2764     2762     2762     2772     2798     2829     2860 
    2891     2909     2911     2906     2894     2879     2859     2818 
    2759     2706     2667     2646     2640     2655     2682     2698 
    2706     2724     2740     2743     2731     2704     2669     2643 
    2614     2578     2538     2500     2475     2470     2477     2494 
    2531     2582     2633     2687     2735     2770     2801     2825 
    2844     2851     2843     2830     2820     2809     2795     2774 
    2744     2720     2701     2686     2674     2662     2643     2629 
    2629     2644     2673     2713     2758     2802     2844     2882 
    2920     2956     2988     3014     3024     3014     2991     2967 
    2943     2918     2901     2891     2891     2894     2889     2878 
    2870     2862     2860     2872     2890     2907     2925     2944 
    2959     2957     2945     2930     2905     2875     2853     2839 
    2824     2794     2754     2721     2701     2681     2658     2641 
    2644     2673     2721     2781     2847     2921     2994     3053 
    3087     3102     3117     3133     3142     3144     3146     3156 
    3165     3164     3160     3160     3160     3167     3177     3176 
    3163     3141     3122     3115     3113     3109     3118     3146 
    3176     3203     3222     3231     3234     3234     3237     3244 
    3244     3232     3217     3198     3173     3150     3138     3129 
    3111     3080     3044     3014     2990     2967     2948     2938 
    2938     2937     2922     2895     2863     2824     2778     2739 
    2704     2666     2636     2619     2616     2624     2632     2644 
    2675     2727     2783     2837     2886     2932     2974     3007 
    3033     3056     3073     3082     3076     3060     3040     3026 
    3026     3037     3052     3076     3107     3134     3154     3176 
    3202     3229     3253     3271     3277     3272     3258     3237 
    3210     3184     3160     3129     3088     3044     2995     2944 
    2893     2853     2830     2810     2787     2772     2764     2749 
    2732     2714     2702     2706     2720     2732     2748     2762 
    2759     2748     2735     2725     2725     2724     2720     2708 
    2686     2664     2646     2643     2664     2694     2718     2740 
    2762     2792     2843     2899     2951     2990     3014     3029 
    3042     3056     3063     3057     3042     3021     3005     2997 
    2988     2976     2959     2936     2910     2890     2882     2882 
    2890     2902     2910     2907     2905     2907     2920     2929 
    2925     2913     2899     2884     2863     2836     2802     2779 
    2776     2790     2816     2849     2882     2905     2913     2924 
    2944     2967     2992     3011     3019     3026     3029     3029 
    3032     3036     3034     3025     3011     3002     2997     2991 
    2978     2963     2952     2945     2941     2941     2945     2956 
    2972     2986     2984     2967     2938     2903     2871     2840 
    2810     2781     2754     2735     2724     2716     2713     2721 
    2751     2787     2822     2851     2872     2886     2893     2890 
    2876     2863     2862     2866     2874     2876     2870     2862 
    2855     2851     2855     2874     2910     2951     2986     3014 
    3036     3051     3065     3071     3064     3049     3024     2994 
    2970     2948     2933     2928     2933     2945     2959     2976 
    3002     3030     3060     3087     3111     3146     3194     3242 
    3281     3310     3329     3336     3336     3336     3331     3323 
    3316     3307     3298     3299     3317     3343     3369     3388 
    3407     3416     3410     3387     3355     3319     3281     3252 
    3226     3198     3171     3145     3115     3076     3033     2988 
    2947     2902     2860     2828     2802     2781     2756     2731 
    2717     2718     2725     2735     2745     2758     2776     2805 
    2839     2875     2910     2943     2967     2982     2986     2991 
    2995     2992     2984     2980     2986     2997     3006     3018 
    3032     3049     3065     3071     3071     3076     3086     3095 
    3096     3092     3087     3083     3088     3094     3086     3060 
    3032     3006     2979     2959     2952     2964     2984     2997 
    2994     2986     2990     3009     3036     3064     3098     3133 
    3171     3213     3254     3289     3316     3331     3335     3336 
    3336     3330     3321     3306     3284     3258     3238     3221 
    3208     3202     3194     3180     3152     3103     3046     2994 
    2951     2907     2859     2806     2751     2695     2647     2610 
    2579     2550     2528     2519     2516     2515     2519     2527 
    2535     2546     2555     2567     2581     2584     2579     2575 
    2578     2582     2589     2598     2610     2632     2654     2669 
    2688     2713     2747     2783     2811     2840     2866     2874 
    2866     2853     2844     2843     2852     2860     2859     2851 
    2840     2821     2794     2763     2737     2728     2736     2747 
    2748     2739     2721     2700     2679     2662     2643     2629 
    2620     2614     2621     2633     2641     2652     2669     2690 
    2708     2714     2714     2712     2714     2713     2698     2673 
    2648     2631     2624     2624     2633     2651     2668     2675 
    2679     2685     2694     2706     2716     2718     2712     2694 
    2668     2646     2632     2628     2636     2652     2674     2693 
    2705     2713     2713     2708     2694     2662     2619     2574 
    2527     2471     2408     2349     2315     2311     2332     2367 
    2398     2419     2434     2442     2448     2458     2474     2493 
    2508     2511     2508     2504     2498     2492     2481     2469 
    2474     2501     2527     2540     2546     2556     2570     2581 
    2590     2601     2616     2629     2632     2616     2586     2555 
    2529     2511     2490     2463     2440     2419     2396     2376 
    2367     2374     2393     2415     2444     2488     2538     2589 
    2633     2671     2709     2748     2783     2816     2841     2856 
    2871     2896     2932     2971     2999     3019     3044     3071 
    3100     3136     3176     3204     3213     3208     3213     3226 
    3227     3211     3183     3154     3132     3117     3106     3102 
    3102     3098     3092     3096     3109     3118     3125     3127 
    3136     3153     3176     3202     3223     3241     3264     3289 
    3314     3331     3338     3336     3336     3338     3338     3339 
    3339     3336     3334     3330     3331     3339     3341     3335 
    3334     3335     3333     3329     3326     3322     3316     3306 
    3280     3241     3196     3152     3109     3069     3033     3003 
    2978     2953     2929     2905     2890     2882     2875     2871 
    2870     2867     2863     2844     2813     2778     2748     2727 
    2712     2695     2674     2648     2621     2605     2606     2625 
    2663     2709     2747     2768     2781     2789     2792     2795 
    2798     2801     2805     2808     2803     2795     2789     2778 
    2768     2763     2759     2752     2748     2747     2744     2740 
    2736     2740     2751     2762     2774     2790     2799     2806 
    2811     2809     2801     2791     2789     2790     2790     2787 
    2789     2790     2789     2790     2795     2805     2814     2820 
    2820     2810     2794     2771     2745     2728     2721     2720 
    2720     2727     2743     2764     2787     2810     2828     2841 
    2851     2859     2856     2844     2821     2791     2759     2737 
    2717     2702     2697     2690     2682     2679     2681     2686 
    2704     2727     2748     2772     2798     2824     2852     2872 
    2884     2887     2882     2875     2868     2860     2852     2841 
    2835     2835     2832     2820     2808     2801     2798     2799 
    2806     2817     2828     2836     2835     2826     2820     2816 
    2820     2822     2814     2802     2798     2786     2759     2725 
    2681     2636     2596     2560     2531     2506     2485     2459 
    2420     2377     2342     2315     2299     2289     2274     2253 
    2232     2215     2204     2201     2201     2200     2195     2184 
    2166     2150     2150     2173     2208     2245     2276     2309 
    2353     2394     2428     2452     2473     2496     2527     2570 
    2627     2690     2763     2837     2905     2955     2994     3026 
    3065     3109     3157     3204     3249     3292     3341     3397 
    3456     3508     3554     3597     3632     3666     3707     3751 
    3792     3832     3873     3917     3975     4050     4129     4200 
    4256     4298     4324     4338     4351     4369     4392     4411 
    4418     4422     4425     4413     4391     4376     4369     4367 
    4369     4375     4378     4372     4364     4360     4355     4341 
    4326     4315     4302     4280     4248     4207     4152     4090 
    4024     3956     3897     3854     3824     3797     3766     3727 
    3684     3643     3599     3553     3519     3492     3474     3461 
    3446     3433     3416     3395     3375     3357     3345     3336 
    3325     3299     3256     3194     3119     3028     2925     2825 
    2728     2629     2536     2450     2363     2272     2170     2060 
    1945     1833     1719     1595     1457     1308     1154     1005 
     859      718      588      472      372      286      205      128 
      55       -8      -65     -116     -148     -159     -147     -118 
     -90      -65      -44      -21        4       36       82      141 
     206      271      337      409      491      571      639      704 
     754      787      810      819      818      816      819      827 
     846      880      927      987     1051     1115     1188     1277 
    1381     1505     1645     1799     1965     2143     2332     2528 
    2717     2894     3056     3194     3323     3445     3565     3686 
    3797     3877     3927     3950     3937     3901     3861     3813 
    3765     3719     3676     3640     3618     3601     3593     3601 
    3618     3634     3653     3665     3674     3682     3689     3692 
    3674     3639     3596     3544     3489     3435     3387     3345 
    3302     3257     3222     3203     3200     3218     3244     3273 
    3304     3330     3348     3365     3377     3379     3369     3341 
    3298     3246     3191     3132     3065     2997     2937     2891 
    2855     2830     2820     2821     2830     2841     2847     2851 
    2848     2830     2798     2754     2686     2596     2497     2400 
    2309     2227     2153     2091     2041     2008     1993     1989 
    1993     2006     2027     2053     2088     2123     2160     2196 
    2230     2259     2284     2300     2313     2319     2312     2293 
    2259     2222     2196     2187     2187     2188     2193     2203 
    2211     2218     2218     2200     2161     2106     2038     1969 
    1914     1876     1852     1849     1873     1915     1965     2029 
    2110     2200     2290     2386     2492     2604     2713     2809 
    2891     2956     3002     3037     3069     3100     3133     3157 
    3176     3198     3221     3245     3268     3280     3283     3276 
    3262     3245     3223     3183     3111     3010     2890     2762 
    2639     2527     2427     2340     2274     2235     2235     2273 
    2338     2424     2524     2628     2727     2825     2930     3046 
    3157     3257     3353     3431     3488     3532     3563     3584 
    3596     3593     3573     3543     3511     3476     3431     3376 
    3307     3223     3140     3056     2967     2874     2771     2658 
    2542     2432     2328     2231     2147     2073     2012     1954 
    1891     1821     1745     1672     1605     1544     1498     1466 
    1453     1478     1532     1593     1663     1742     1817     1894 
    1979     2072     2168     2263     2350     2425     2486     2527 
    2539     2528     2505     2475     2450     2420     2374     2316 
    2247     2170     2100     2038     1975     1918     1873     1849 
    1845     1858     1884     1915     1946     1985     2034     2095 
    2150     2199     2245     2278     2295     2297     2286     2262 
    2230     2201     2189     2185     2182     2177     2158     2137 
    2116     2100     2095     2098     2111     2135     2160     2181 
    2199     2209     2215     2227     2250     2286     2338     2412 
    2504     2608     2717     2832     2948     3064     3172     3257 
    3314     3338     3338     3331     3329     3334     3348     3362 
    3379     3396     3415     3445     3489     3544     3613     3696 
    3781     3866     3944     4023     4109     4210     4330     4463 
    4595     4722     4834     4932     5013     5074     5120     5161 
    5198     5221     5231     5238     5238     5231     5225     5231 
    5252     5287     5327     5363     5397     5432     5463     5483 
    5495     5502     5499     5491     5481     5463     5432     5390 
    5347     5301     5262     5228     5190     5147     5104     5050 
    4982     4900     4797     4680     4546     4401     4252     4104 
    3951     3802     3667     3549     3449     3360     3271     3179 
    3086     2990     2890     2791     2691     2590     2481     2370 
    2266     2169     2081     2007     1944     1880     1822     1780 
    1744     1710     1680     1653     1632     1620     1609     1586 
    1544     1471     1375     1267     1156     1062     1000      969 
     963      978     1011     1057     1105     1152     1197     1242 
    1293     1350     1416     1487     1561     1638     1709     1772 
    1836     1900     1958     2000     2029     2041     2031     1999 
    1941     1867     1786     1709     1640     1576     1517     1478 
    1457     1436     1414     1386     1345     1298     1251     1205 
    1161     1121     1084     1039      994      946      896      847 
     803      765      733      708      691      668      634      599 
     566      542      532      537      553      572      581      579 
     572      579      616      684      770      864      961     1053 
    1143     1236     1331     1421     1507     1591     1665     1732 
    1794     1848     1896     1939     1977     2018     2072     2133 
    2195     2255     2304     2334     2346     2340     2331     2335 
    2359     2398     2446     2497     2546     2604     2671     2754 
    2841     2920     2980     3029     3071     3109     3145     3176 
    3196     3208     3211     3208     3208     3221     3242     3273 
    3304     3331     3364     3400     3438     3478     3515     3547 
    3581     3620     3667     3726     3786     3848     3916     3984 
    4044     4090     4118     4136     4159     4187     4214     4238 
    4248     4236     4209     4185     4167     4153     4143     4129 
    4114     4102     4093     4085     4079     4078     4087     4118 
    4164     4220     4286     4359     4438     4523     4614     4692 
    4754     4800     4828     4846     4855     4862     4868     4870 
    4876     4891     4914     4949     5001     5067     5151     5250 
    5356     5460     5551     5632     5709     5779     5834     5864 
