Origin Time       2016/04/16 01:25:00
Lat.              32.753
Long.             130.762
Depth. (km)       12
Mag.              7.3
Station Code      TKY016
Station Lat.      35.6485
Station Long.     139.7990
Station Height(m) -9999
Record Time       2016/04/16 01:29:41
Sampling Freq(Hz) 100Hz
Duration Time(s)  60
Dir.              N-S
Scale Factor      7845(gal)/8223790
Max. Acc. (gal)   1.460
Last Correction   2016/04/16 01:29:42
Memo.             
[...]
   -1088    -1084    -1075    -1069    -1062    -1053    -1039    -1035 
   -1038    -1035    -1026    -1026    -1028    -1026    -1021    -1016 
   -1008    -1000     -996     -992     -989     -985     -981     -977 
    -969     -959     -947     -934     -927     -923     -918     -918 
    -919     -915     -909     -907     -905     -903     -901     -900 
    -901     -903     -903     -907     -911     -911     -905     -900 
    -901     -905     -905     -905     -909     -912     -912     -913 
    -915     -915     -916     -923     -929     -938     -951     -963 
    -970     -977     -982     -989     -994     -999    -1007    -1013 
   -1019    -1026    -1031    -1039    -1050    -1053    -1060    -1071 
   -1080    -1085    -1094    -1105    -1113    -1117    -1128    -1136 
   -1140    -1148    -1156    -1162    -1170    -1179    -1190    -1196 
   -1200    -1209    -1217    -1219    -1223    -1227    -1229    -1236 
   -1250    -1255    -1254    -1252    -1250    -1244    -1240    -1243 
   -1250    -1254    -1255    -1256    -1254    -1247    -1243    -1243 
   -1242    -1237    -1233    -1228    -1221    -1216    -1208    -1197 
   -1183    -1169    -1155    -1140    -1129    -1119    -1107    -1096 
   -1085    -1073    -1059    -1047    -1038    -1026    -1012     -996 
    -978     -963     -950     -935     -920     -905     -890     -874 
    -854     -834     -812     -791     -774     -754     -731     -715 
    -702     -679     -658     -643     -623     -600     -583     -568 
    -552     -537     -521     -500     -475     -454     -437     -419 
    -407     -398     -383     -365     -344     -326     -309     -289 
    -274     -263     -252     -237     -224     -216     -206     -197 
    -191     -184     -180     -176     -174     -172     -167     -156 
    -151     -147     -141     -144     -148     -147     -144     -144 
    -144     -147     -152     -156     -162     -168     -174     -182 
    -187     -189     -193     -199     -209     -220     -230     -236 
    -240     -248     -256     -263     -276     -289     -298     -306 
    -315     -325     -338     -357     -375     -392     -411     -425 
    -432     -438     -449     -460     -469     -483     -496     -510 
    -523     -531     -533     -538     -545     -553     -561     -572 
    -584     -594     -599     -600     -603     -604     -604     -610 
    -618     -622     -626     -630     -633     -633     -631     -634 
    -641     -642     -638     -635     -631     -630     -629     -627 
    -627     -625     -621     -614     -604     -602     -603     -598 
    -591     -588     -587     -581     -572     -562     -557     -549 
    -542     -535     -521     -504     -492     -481     -473     -463 
    -449     -432     -414     -405     -395     -386     -378     -369 
    -357     -346     -337     -325     -313     -302     -287     -275 
    -265     -255     -241     -228     -214     -199     -187     -172 
    -153     -135     -120     -103      -87      -72      -58      -40 
     -22       -4       14       31       47       67       83       95 
     105      117      129      143      159      175      189      202 
     216      229      244      253      263      280      295      305 
     318      332      342      348      356      367      383      395 
     405      414      423      434      448      461      476      488 
     493      506      519      523      530      540      545      552 
     561      562      566      573      577      583      589      594 
     599      607      612      614      618      621      619      622 
     627      631      637      643      648      649      650      649 
     649      650      649      643      641      639      638      634 
     631      630      629      625      615      603      595      589 
     581      573      569      565      560      557      546      530 
     521      514      511      508      499      491      484      479 
     475      469      464      461      460      454      444      434 
     432      427      417      409      403      394      387      383 
     378      375      373      376      379      376      368      363 
     365      368      365      364      364      363      361      363 
     364      365      364      361      357      361      368      368 
     369      373      378      375      369      369      364      353 
     355      360      356      353      357      359      357      360 
     364      365      368      367      361      359      359      357 
     363      368      364      361      360      356      356      356 
     349      344      348      342      337      338      338      336 
     333      332      326      321      317      314      315      317 
     315      314      315      313      309      305      298      298 
     303      307      306      305      309      309      307      303 
     298      298      305      305      295      291      295      294 
     295      306      311      307      302      298      291      289 
     297      298      298      301      295      291      298      305 
     302      299      305      306      307      313      319      326 
     333      337      341      344      346      348      346      349 
     357      363      364      367      368      369      370      368 
     369      376      382      388      392      395      400      407 
     413      421      434      441      442      449      456      461 
     469      476      481      487      495      502      506      513 
     518      521      526      529      529      531      535      537 
     540      542      542      542      540      533      533      535 
     535      535      535      535      532      530      530      529 
     526      526      526      526      526      525      518      517 
     513      508      506      503      499      493      488      483 
     481      477      471      467      464      460      451      445 
     444      441      437      434      429      423      422      421 
     417      410      400      394      392      391      388      383 
     380      378      372      364      357      353      344      338 
     334      329      324      313      302      297      291      288 
     282      270      257      248      245      238      229      220 
     206      193      186      175      159      151      143      129 
     117      106       93       78       63       49       32        9 
     -11      -32      -51      -70      -87     -103     -120     -140 
    -162     -178     -197     -218     -238     -259     -286     -311 
    -334     -357     -376     -398     -418     -438     -461     -488 
    -515     -535     -552     -572     -594     -612     -633     -657 
    -681     -702     -724     -746     -770     -792     -811     -834 
    -857     -874     -892     -907     -922     -936     -949     -961 
    -974     -989    -1000    -1017    -1031    -1044    -1059    -1070 
   -1080    -1092    -1105    -1116    -1125    -1133    -1140    -1147 
   -1155    -1163    -1171    -1177    -1179    -1175    -1173    -1170 
   -1167    -1165    -1161    -1156    -1155    -1154    -1150    -1143 
   -1131    -1119    -1112    -1107    -1096    -1086    -1078    -1063 
   -1050    -1039    -1028    -1015    -1003     -990     -977     -963 
    -951     -939     -931     -919     -897     -874     -854     -834 
    -816     -801     -785     -767     -756     -741     -724     -708 
    -693     -679     -666     -657     -642     -625     -612     -598 
    -581     -572     -562     -553     -546     -535     -526     -515 
    -503     -487     -475     -469     -464     -456     -450     -445 
    -437     -430     -425     -422     -421     -419     -417     -419 
    -425     -429     -432     -434     -437     -440     -441     -448 
    -454     -453     -460     -473     -481     -487     -498     -510 
    -518     -525     -537     -546     -561     -581     -598     -610 
    -625     -642     -658     -677     -700     -718     -733     -749 
    -767     -788     -804     -820     -838     -861     -880     -896 
    -916     -938     -955     -976     -994    -1019    -1044    -1063 
   -1084    -1107    -1128    -1152    -1178    -1200    -1216    -1230 
   -1251    -1274    -1296    -1314    -1331    -1344    -1359    -1374 
   -1389    -1402    -1416    -1433    -1451    -1463    -1475    -1490 
   -1505    -1520    -1535    -1552    -1568    -1580    -1595    -1610 
   -1617    -1626    -1640    -1648    -1653    -1660    -1664    -1672 
   -1680    -1684    -1687    -1687    -1682    -1680    -1679    -1679 
   -1680    -1676    -1672    -1669    -1665    -1660    -1655    -1647 
   -1638    -1632    -1628    -1622    -1617    -1609    -1602    -1595 
   -1580    -1564    -1554    -1541    -1521    -1501    -1485    -1470 
   -1456    -1440    -1421    -1405    -1387    -1368    -1354    -1340 
   -1321    -1304    -1287    -1269    -1250    -1233    -1220    -1206 
   -1190    -1167    -1138    -1109    -1084    -1062    -1047    -1032 
   -1008     -982     -958     -935     -909     -884     -862     -845 
    -830     -818     -803     -787     -770     -757     -741     -727 
    -715     -706     -693     -680     -665     -652     -637     -622 
    -610     -598     -583     -566     -552     -540     -533     -525 
    -515     -508     -502     -495     -492     -490     -491     -492 
    -491     -492     -496     -499     -506     -517     -526     -538 
    -550     -562     -571     -576     -583     -591     -603     -618 
    -635     -654     -668     -677     -685     -699     -715     -733 
    -753     -772     -789     -805     -819     -837     -857     -874 
    -895     -913     -932     -953     -973     -989    -1005    -1020 
   -1034    -1053    -1074    -1097    -1120    -1138    -1152    -1174 
   -1193    -1205    -1223    -1246    -1267    -1282    -1297    -1313 
   -1329    -1341    -1355    -1367    -1375    -1383    -1393    -1408 
   -1420    -1431    -1441    -1443    -1440    -1440    -1441    -1444 
   -1448    -1445    -1445    -1445    -1443    -1445    -1443    -1436 
   -1439    -1439    -1433    -1431    -1429    -1425    -1418    -1410 
   -1405    -1402    -1393    -1383    -1379    -1375    -1371    -1363 
   -1351    -1344    -1337    -1324    -1314    -1304    -1287    -1271 
   -1258    -1247    -1235    -1220    -1205    -1192    -1177    -1156 
   -1138    -1121    -1107    -1092    -1074    -1059    -1048    -1035 
   -1016     -999     -984     -967     -950     -932     -913     -899 
    -880     -859     -843     -826     -805     -788     -770     -753 
    -737     -715     -692     -672     -650     -629     -607     -584 
    -562     -544     -521     -498     -477     -456     -429     -399 
    -370     -351     -337     -319     -306     -292     -268     -244 
    -225     -202     -183     -171     -162     -156     -149     -133 
    -110      -87      -60      -35      -11        4       10       11 
      14       22       37       56       76       95      108      108 
     105      106      110      112      116      118      120      126 
     129      129      129      128      122      124      124      124 
     125      125      118      109       98       85       79       76 
      71       70       68       56       40       22        1      -18 
     -35      -47      -58      -68      -85     -103     -122     -144 
    -163     -178     -191     -203     -211     -221     -234     -252 
    -271     -291     -310     -325     -338     -353     -367     -383 
    -400     -418     -437     -453     -467     -483     -503     -519 
    -526     -530     -540     -553     -571     -595     -610     -612 
    -621     -630     -634     -641     -650     -658     -668     -677 
    -684     -691     -696     -699     -702     -707     -715     -723 
    -726     -731     -738     -741     -741     -735     -727     -730 
    -733     -730     -726     -719     -707     -702     -699     -691 
    -687     -679     -666     -656     -645     -635     -627     -618 
    -610     -600     -588     -576     -566     -553     -538     -526 
    -515     -502     -486     -469     -456     -442     -427     -411 
    -396     -380     -365     -349     -334     -317     -298     -280 
    -261     -244     -232     -222     -206     -191     -180     -166 
    -144     -122     -103      -89      -78      -67      -55      -36 
     -18       -5       10       32       52       68       85       97 
     106      117      129      149      164      178      193      206 
     224      240      248      256      270      284      301      317 
     333      349      364      376      391      406      419      434 
     450      464      475      487      499      514      526      533 
     544      556      569      584      598      611      630      649 
     658      668      680      689      699      710      720      735 
     754      764      772      784      796      808      819      830 
     843      858      870      884      897      903      905      918 
     929      932      939      953      962      973      985      994 
    1003     1013     1026     1034     1039     1047     1053     1058 
    1063     1071     1081     1089     1098     1109     1117     1121 
    1124     1127     1129     1135     1144     1150     1152     1158 
    1163     1165     1162     1165     1169     1170     1171     1173 
    1170     1170     1169     1163     1163     1165     1158     1148 
    1143     1138     1131     1127     1123     1117     1113     1105 
    1097     1089     1078     1065     1051     1039     1030     1020 
    1009     1000      986      970      958      946      926      905 
     888      869      853      841      826      807      789      769 
     747      726      702      680      657      635      612      589 
     565      540      515      487      460      438      415      386 
     357      334      311      283      259      234      205      176 
     151      129      108       87       67       41       17       -5 
     -29      -59      -89     -110     -133     -155     -175     -194 
    -217     -240     -259     -283     -305     -325     -341     -359 
    -375     -387     -395     -407     -422     -432     -445     -463 
    -469     -471     -479     -491     -502     -506     -515     -525 
    -529     -530     -530     -533     -538     -538     -535     -537 
    -537     -531     -525     -523     -517     -504     -493     -483 
    -469     -457     -445     -430     -415     -402     -383     -365 
    -349     -329     -310     -292     -275     -259     -238     -217 
    -197     -175     -153     -140     -126     -106      -83      -63 
     -40      -14        5       29       54       75       99      124 
     147      171      193      217      243      270      297      326 
     349      369      391      411      430      448      467      491 
     513      530      546      561      572      579      592      611 
     625      633      641      649      660      672      680      687 
     695      700      704      704      707      710      708      704 
     706      706      702      697      695      689      680      672 
     665      652      634      622      611      596      581      564 
     544      525      504      480      457      433      407      383 
     361      334      307      282      256      229      201      178 
     155      128       98       65       31       -4      -35      -62 
     -89     -122     -157     -189     -222     -259     -292     -325 
    -359     -391     -422     -450     -480     -510     -538     -566 
    -595     -627     -658     -685     -712     -734     -754     -774 
    -795     -816     -842     -864     -889     -911     -928     -946 
    -961     -977     -990    -1007    -1024    -1038    -1044    -1053 
   -1065    -1073    -1073    -1075    -1077    -1075    -1078    -1084 
   -1084    -1084    -1086    -1086    -1084    -1078    -1071    -1070 
   -1065    -1058    -1053    -1047    -1036    -1024    -1016    -1008 
    -996     -984     -978     -973     -962     -947     -932     -919 
    -903     -889     -881     -868     -849     -834     -816     -795 
    -783     -774     -761     -745     -728     -714     -699     -685 
    -670     -658     -645     -630     -618     -604     -589     -576 
    -568     -553     -535     -526     -521     -511     -503     -492 
    -481     -472     -461     -453     -448     -438     -433     -434 
    -432     -425     -421     -419     -414     -407     -405     -398 
    -391     -392     -394     -390     -392     -395     -394     -391 
    -391     -391     -394     -400     -405     -406     -415     -427 
    -432     -436     -442     -448     -451     -459     -464     -472 
    -486     -495     -500     -511     -521     -526     -535     -544 
    -552     -562     -579     -592     -602     -615     -627     -641 
    -653     -665     -679     -687     -689     -704     -722     -734 
    -751     -766     -776     -789     -803     -814     -827     -842 
    -855     -868     -876     -888     -903     -912     -929     -950 
    -959     -967     -984    -1000    -1016    -1030    -1042    -1057 
   -1073    -1084    -1090    -1101    -1113    -1121    -1135    -1154 
   -1169    -1175    -1185    -1193    -1197    -1205    -1215    -1225 
   -1239    -1244    -1247    -1258    -1267    -1270    -1273    -1279 
   -1287    -1294    -1300    -1302    -1308    -1317    -1321    -1325 
   -1329    -1332    -1337    -1344    -1347    -1347    -1351    -1359 
   -1366    -1367    -1368    -1372    -1371    -1372    -1377    -1377 
   -1377    -1382    -1382    -1385    -1394    -1398    -1398    -1404 
   -1409    -1409    -1409    -1410    -1413    -1417    -1421    -1424 
   -1422    -1421    -1422    -1425    -1428    -1436    -1443    -1448 
   -1455    -1456    -1456    -1457    -1462    -1463    -1464    -1466 
   -1468    -1474    -1476    -1478    -1486    -1494    -1494    -1498 
   -1502    -1495    -1494    -1501    -1498    -1493    -1491    -1487 
   -1485    -1487    -1487    -1487    -1489    -1487    -1483    -1479 
   -1474    -1468    -1464    -1459    -1451    -1445    -1439    -1436 
   -1436    -1428    -1420    -1416    -1404    -1387    -1378    -1370 
   -1358    -1350    -1343    -1328    -1312    -1298    -1282    -1267 
   -1255    -1242    -1221    -1198    -1179    -1162    -1143    -1124 
   -1105    -1089    -1071    -1050    -1031    -1013     -992     -977 
    -963     -943     -926     -909     -885     -862     -842     -820 
    -800     -780     -760     -739     -718     -697     -680     -657 
    -634     -619     -603     -583     -564     -549     -532     -510 
    -487     -475     -463     -448     -437     -423     -409     -395 
    -379     -360     -341     -328     -318     -306     -294     -284 
    -275     -266     -257     -249     -243     -236     -230     -222 
    -216     -211     -203     -198     -198     -197     -194     -194 
    -193     -189     -189     -190     -184     -182     -184     -186 
    -189     -191     -193     -195     -201     -206     -209     -210 
