Origin Time       2016/04/16 01:25:00
Lat.              32.753
Long.             130.762
Depth. (km)       12
Mag.              7.3
Station Code      TKY017
Station Lat.      35.6474
Station Long.     139.8093
Station Height(m) -9999
Record Time       2016/04/16 01:29:41
Sampling Freq(Hz) 100Hz
Duration Time(s)  60
Dir.              N-S
Scale Factor      7845(gal)/8223790
Max. Acc. (gal)   1.209
Last Correction   2016/04/16 01:29:42
Memo.             
[...]
    2200     2226     2259     2273     2281     2300     2316     2332 
    2355     2376     2392     2409     2423     2436     2452     2459 
    2467     2489     2502     2506     2521     2538     2555     2583 
    2604     2620     2632     2641     2655     2671     2694     2721 
    2745     2771     2776     2772     2776     2776     2786     2798 
    2813     2820     2811     2809     2798     2781     2786     2781 
    2775     2792     2791     2783     2766     2736     2725     2710 
    2708     2721     2702     2701     2718     2710     2712     2714 
    2706     2709     2695     2686     2693     2671     2651     2650 
    2635     2602     2565     2543     2528     2509     2498     2479 
    2454     2442     2417     2392     2374     2349     2330     2315 
    2286     2257     2241     2231     2209     2182     2166     2154 
    2135     2110     2081     2060     2034     2010     2001     1975 
    1939     1912     1878     1854     1829     1792     1777     1760 
    1725     1709     1688     1657     1632     1605     1598     1584 
    1548     1539     1530     1506     1501     1476     1440     1431 
    1416     1378     1364     1364     1343     1331     1334     1316 
    1301     1305     1291     1282     1282     1263     1250     1240 
    1217     1208     1198     1188     1181     1156     1143     1147 
    1131     1121     1131     1125     1125     1133     1135     1140 
    1147     1150     1167     1182     1167     1154     1154     1154 
    1158     1166     1173     1173     1163     1167     1167     1150 
    1161     1171     1147     1136     1139     1132     1140     1163 
    1179     1167     1150     1159     1148     1138     1166     1181 
    1192     1206     1206     1209     1206     1200     1221     1239 
    1243     1262     1275     1278     1282     1290     1308     1321 
    1331     1345     1334     1329     1347     1351     1350     1358 
    1362     1362     1360     1362     1367     1379     1402     1412 
    1417     1435     1437     1429     1437     1456     1478     1489 
    1497     1517     1520     1509     1525     1553     1570     1586 
    1603     1605     1602     1603     1602     1615     1630     1641 
    1664     1672     1677     1687     1682     1694     1709     1722 
    1765     1795     1819     1844     1836     1846     1871     1878 
    1904     1927     1935     1956     1975     1988     1981     1966 
    1977     1981     1975     1999     2015     2022     2037     2031 
    2027     2037     2037     2049     2069     2076     2089     2093 
    2093     2119     2137     2135     2166     2182     2168     2189 
    2211     2196     2207     2211     2196     2207     2208     2196 
    2212     2223     2212     2209     2215     2222     2218     2209 
    2207     2196     2193     2201     2196     2192     2196     2196 
    2196     2215     2224     2211     2211     2223     2220     2241 
    2261     2242     2235     2231     2204     2195     2193     2188 
    2188     2191     2195     2185     2173     2169     2162     2166 
    2178     2184     2184     2180     2169     2157     2146     2141 
    2153     2151     2142     2162     2170     2143     2143     2144 
    2121     2130     2130     2116     2130     2107     2087     2097 
    2069     2056     2058     2043     2045     2042     2026     2025 
    2014     2001     1996     1992     1991     1979     1968     1966 
    1956     1949     1952     1937     1922     1906     1880     1871 
    1864     1852     1840     1833     1819     1796     1795     1791 
    1765     1746     1736     1728     1726     1711     1709     1699 
    1661     1652     1636     1594     1591     1579     1559     1570 
    1556     1539     1528     1509     1518     1505     1466     1482 
    1483     1455     1468     1459     1431     1428     1414     1425 
    1439     1420     1418     1412     1397     1395     1385     1387 
    1405     1393     1372     1374     1370     1352     1351     1354 
    1345     1348     1362     1363     1360     1371     1371     1359 
    1348     1351     1364     1359     1356     1378     1381     1375 
    1385     1381     1383     1404     1405     1412     1429     1425 
    1429     1439     1437     1439     1439     1439     1456     1472 
    1468     1480     1499     1495     1494     1506     1528     1549 
    1561     1575     1587     1602     1628     1648     1669     1690 
    1702     1723     1742     1760     1779     1786     1800     1813 
    1813     1837     1856     1863     1887     1898     1911     1930 
    1929     1938     1958     1966     1982     2012     2031     2038 
    2049     2049     2053     2079     2083     2081     2114     2126 
    2123     2150     2161     2151     2161     2163     2151     2162 
    2163     2144     2154     2163     2142     2147     2155     2137 
    2143     2149     2133     2139     2130     2120     2126     2107 
    2101     2098     2084     2100     2095     2068     2069     2053 
    2026     2023     2018     1996     1992     1993     1965     1952 
    1953     1934     1922     1915     1906     1896     1875     1863 
    1841     1823     1833     1825     1818     1833     1826     1802 
    1795     1795     1787     1777     1776     1775     1765     1752 
    1748     1742     1733     1737     1738     1734     1729     1718 
    1713     1714     1718     1734     1745     1745     1757     1761 
    1748     1757     1771     1761     1760     1775     1776     1775 
    1786     1779     1781     1810     1825     1830     1838     1842 
    1854     1865     1867     1881     1899     1899     1910     1929 
    1923     1934     1954     1956     1980     1998     1998     2027 
    2053     2056     2085     2107     2111     2135     2139     2137 
    2169     2170     2158     2177     2189     2204     2219     2220 
    2230     2239     2247     2262     2267     2277     2290     2301 
    2311     2315     2319     2328     2340     2354     2366     2361 
    2357     2370     2369     2374     2404     2408     2408     2431 
    2430     2434     2467     2463     2463     2493     2497     2501 
    2511     2506     2520     2524     2524     2550     2556     2565 
    2589     2594     2613     2620     2610     2635     2646     2644 
    2667     2667     2674     2710     2724     2743     2766     2759 
    2768     2787     2787     2794     2814     2837     2848     2863 
    2880     2882     2905     2922     2929     2960     2964     2960 
    2976     2978     2997     3010     3006     3042     3051     3042 
    3073     3063     3057     3079     3064     3075     3084     3071 
    3088     3084     3079     3086     3069     3076     3076     3051 
    3063     3065     3051     3063     3059     3046     3032     3002 
    2988     2971     2953     2948     2926     2909     2890     2860 
    2851     2835     2810     2806     2795     2774     2762     2745 
    2714     2685     2663     2640     2613     2586     2556     2533 
    2520     2490     2461     2442     2412     2392     2373     2334 
    2311     2290     2255     2246     2226     2196     2199     2188 
    2172     2166     2143     2123     2104     2084     2076     2058 
    2043     2037     2029     2022     2008     2000     1985     1958 
    1956     1966     1960     1975     1984     1962     1960     1960 
    1953     1952     1942     1946     1956     1964     1979     1975 
    1982     1998     1996     2000     2008     2010     2010     2012 
    2027     2034     2037     2066     2083     2084     2110     2128 
    2134     2139     2138     2154     2168     2169     2191     2201 
    2208     2227     2215     2211     2238     2247     2251     2265 
    2266     2270     2293     2305     2309     2319     2324     2330 
    2330     2347     2382     2397     2398     2409     2431     2451 
    2459     2482     2509     2517     2543     2569     2574     2594 
    2608     2605     2608     2601     2610     2643     2682     2714 
    2718     2735     2752     2751     2778     2790     2811     2863 
    2868     2902     2953     2943     2970     3011     3007     3036 
    3059     3063     3092     3102     3119     3145     3146     3167 
    3188     3191     3208     3232     3260     3275     3279     3296 
    3291     3280     3302     3308     3329     3366     3365     3376 
    3400     3404     3402     3392     3397     3414     3411     3419 
    3431     3419     3411     3407     3396     3397     3403     3404 
    3403     3385     3377     3393     3387     3369     3368     3355 
    3336     3326     3316     3314     3315     3303     3284     3267 
    3240     3231     3238     3223     3215     3208     3175     3156 
    3141     3118     3109     3111     3103     3080     3073     3078 
    3044     3024     3030     3005     2983     2982     2965     2951 
    2934     2913     2899     2876     2874     2876     2844     2826 
    2817     2785     2768     2762     2749     2737     2721     2720 
    2718     2708     2697     2677     2652     2646     2652     2648 
    2633     2631     2623     2612     2619     2608     2579     2575 
    2579     2582     2598     2596     2575     2573     2565     2565 
    2570     2560     2556     2543     2533     2548     2551     2548 
    2550     2535     2517     2519     2521     2516     2515     2525 
    2525     2520     2531     2533     2521     2521     2523     2527 
    2533     2531     2539     2538     2532     2552     2563     2552 
    2555     2563     2548     2546     2569     2565     2567     2590 
    2592     2590     2608     2612     2608     2609     2598     2601 
    2609     2619     2641     2639     2628     2644     2635     2616 
    2631     2631     2619     2643     2656     2654     2667     2659 
    2655     2660     2654     2679     2698     2691     2712     2712 
    2683     2688     2700     2687     2697     2712     2705     2712 
    2725     2727     2728     2721     2709     2713     2733     2749 
    2754     2755     2751     2739     2740     2766     2779     2791 
    2802     2795     2791     2791     2797     2808     2810     2816 
    2814     2818     2839     2835     2825     2841     2837     2828 
    2839     2835     2844     2863     2862     2879     2894     2887 
    2880     2871     2866     2868     2884     2914     2932     2938 
    2938     2924     2913     2917     2930     2941     2944     2951 
    2948     2933     2929     2929     2933     2943     2940     2941 
    2945     2934     2930     2922     2902     2889     2871     2863 
    2876     2884     2882     2878     2866     2840     2829     2828 
    2820     2810     2797     2803     2817     2813     2809     2786 
    2763     2749     2714     2701     2698     2685     2669     2636 
    2621     2614     2579     2562     2558     2521     2500     2493 
    2465     2452     2455     2432     2420     2413     2378     2351 
    2338     2319     2303     2284     2262     2239     2215     2204 
    2189     2177     2160     2141     2128     2114     2102     2092 
    2083     2064     2030     2023     2007     1975     1971     1954 
    1942     1926     1895     1885     1856     1826     1826     1822 
    1800     1788     1779     1748     1736     1733     1713     1723 
    1729     1702     1705     1703     1688     1686     1675     1667 
    1667     1657     1638     1630     1621     1613     1615     1609 
    1602     1591     1578     1568     1548     1549     1576     1576 
    1564     1557     1548     1543     1547     1554     1559     1563 
    1563     1561     1574     1579     1584     1593     1572     1560 
    1566     1563     1575     1587     1584     1587     1587     1590 
    1602     1603     1611     1641     1640     1637     1655     1645 
    1641     1652     1652     1672     1688     1684     1684     1686 
    1691     1694     1701     1714     1729     1757     1759     1755 
    1771     1773     1779     1792     1809     1825     1838     1852 
    1856     1858     1873     1881     1888     1890     1885     1895 
    1896     1888     1902     1908     1908     1926     1939     1952 
    1966     1958     1968     1995     2006     2023     2033     2025 
    2033     2034     2039     2061     2074     2084     2077     2072 
    2081     2088     2104     2116     2110     2107     2111     2121 
    2134     2137     2141     2143     2133     2128     2128     2118 
    2111     2100     2098     2110     2101     2101     2106     2095 
    2091     2083     2076     2079     2083     2081     2068     2062 
    2060     2037     2030     2031     2015     1998     1972     1945 
    1935     1906     1873     1867     1846     1822     1813     1796 
    1786     1765     1742     1741     1713     1682     1683     1665 
    1641     1645     1632     1613     1609     1586     1563     1553 
    1522     1516     1512     1476     1470     1463     1431     1412 
    1397     1387     1367     1334     1320     1298     1275     1270 
    1259     1251     1246     1229     1210     1185     1177     1188 
    1174     1161     1152     1148     1152     1144     1150     1148 
    1109     1102     1100     1065     1057     1053     1044     1047 
    1036     1016     1000      977      965      962      965      973 
     963      947      942      927      926      929      936      959 
     950      935      945      924      927      945      935      962 
     967      945      965      954      945      984      980      981 
    1004      997     1007     1000      981     1009     1026     1028 
    1055     1062     1070     1093     1094     1101     1124     1133 
    1139     1167     1193     1212     1247     1264     1271     1298 
    1310     1317     1351     1381     1393     1401     1418     1439 
    1459     1487     1509     1528     1553     1563     1566     1575 
    1597     1625     1637     1656     1694     1714     1732     1755 
    1771     1780     1783     1802     1836     1857     1888     1902 
    1899     1927     1930     1923     1956     1968     1969     1995 
    2008     2019     2026     2014     2025     2047     2053     2064 
    2073     2077     2079     2073     2077     2088     2089     2081 
    2079     2087     2081     2077     2073     2070     2089     2087 
    2060     2053     2038     2015     2015     2007     2004     2008 
    1993     1985     1964     1923     1915     1903     1887     1895 
    1883     1859     1852     1826     1813     1804     1777     1772 
    1760     1732     1742     1738     1696     1688     1687     1655 
    1641     1630     1606     1597     1580     1556     1549     1530 
    1509     1494     1472     1460     1445     1424     1422     1416 
    1394     1386     1375     1350     1334     1337     1337     1328 
    1327     1333     1323     1320     1318     1301     1297     1286 
    1275     1277     1262     1252     1247     1239     1235     1223 
    1220     1219     1210     1219     1224     1221     1216     1210 
    1212     1212     1206     1215     1232     1242     1247     1246 
    1242     1242     1244     1258     1269     1277     1289     1290 
    1291     1287     1274     1281     1289     1294     1312     1320 
    1316     1312     1318     1324     1324     1351     1377     1389 
    1413     1426     1424     1435     1451     1467     1479     1490 
    1517     1534     1543     1560     1571     1584     1609     1628 
    1649     1672     1682     1680     1687     1714     1738     1752 
    1784     1804     1818     1838     1840     1863     1892     1898 
    1927     1948     1960     1989     1995     2003     2016     2022 
    2053     2073     2083     2120     2141     2158     2182     2188 
    2199     2205     2215     2241     2251     2266     2281     2284 
    2296     2305     2305     2309     2304     2300     2312     2326 
    2330     2323     2319     2324     2327     2346     2363     2366 
    2376     2382     2390     2393     2389     2405     2409     2409 
    2424     2415     2403     2405     2396     2390     2396     2389 
    2382     2384     2378     2374     2374     2370     2363     2358 
    2346     2344     2366     2370     2363     2376     2385     2390 
    2396     2390     2392     2404     2405     2405     2407     2407 
    2415     2417     2412     2412     2416     2415     2409     2415 
    2413     2411     2415     2417     2427     2435     2432     2436 
    2446     2454     2454     2458     2463     2458     2454     2451 
    2448     2455     2452     2447     2461     2467     2458     2461 
    2465     2461     2463     2461     2463     2457     2439     2439 
    2439     2428     2434     2442     2428     2434     2440     2424 
    2436     2450     2435     2438     2442     2432     2448     2455 
    2447     2455     2452     2459     2481     2485     2493     2501 
    2496     2496     2504     2517     2520     2520     2528     2516 
    2509     2520     2516     2527     2552     2567     2584     2590 
    2593     2606     2597     2597     2619     2617     2620     2635 
    2644     2656     2669     2691     2710     2717     2748     2781 
    2787     2799     2816     2825     2835     2848     2868     2876 
    2879     2893     2896     2901     2915     2925     2947     2972 
    2994     3017     3037     3052     3064     3071     3090     3109 
    3121     3146     3175     3191     3213     3232     3242     3257 
    3257     3254     3268     3275     3283     3298     3304     3306 
    3302     3302     3316     3322     3322     3325     3325     3327 
    3329     3326     3327     3329     3330     3331     3336     3352 
    3350     3343     3346     3335     3329     3322     3307     3310 
    3302     3288     3288     3268     3250     3241     3219     3207 
    3184     3165     3154     3127     3114     3105     3090     3090 
    3075     3055     3049     3029     3005     2982     2959     2953 
    2938     2917     2906     2878     2851     2833     2809     2798 
    2790     2768     2747     2727     2709     2681     2658     2652 
    2629     2616     2613     2586     2575     2574     2551     2540 
    2533     2525     2527     2513     2493     2477     2457     2439 
    2434     2428     2419     2412     2409     2403     2396     2398 
    2398     2397     2400     2397     2404     2412     2401     2398 
    2407     2408     2412     2424     2440     2451     2461     2461 
    2454     2467     2484     2477     2494     2527     2538     2552 
    2562     2565     2593     2598     2597     2628     2641     2656 
    2694     2710     2725     2745     2744     2759     2779     2785 
    2805     2824     2839     2860     2868     2887     2907     2906 
    2917     2930     2940     2965     2979     2986     3013     3030 
    3045     3061     3079     3098     3100     3109     3123     3118 
    3129     3144     3142     3157     3163     3159     3169     3172 
    3175     3180     3176     3184     3188     3186     3191     3188 
    3194     3194     3183     3179     3165     3160     3154     3137 
