Origin Time       2016/04/16 01:25:00
Lat.              32.753
Long.             130.762
Depth. (km)       12
Mag.              7.3
Station Code      TKY025
Station Lat.      35.7138
Station Long.     139.8971
Station Height(m) -9999
Record Time       2016/04/16 01:30:29
Sampling Freq(Hz) 100Hz
Duration Time(s)  67
Dir.              N-S
Scale Factor      7845(gal)/8223790
Max. Acc. (gal)   3.017
Last Correction   2016/04/16 01:30:31
Memo.             
[...]
   16258    16225    16195    16177    16159    16135    16112    16083 
   16051    16023    15998    15969    15939    15917    15896    15865 
   15836    15811    15780    15751    15727    15701    15678    15654 
   15627    15601    15573    15543    15516    15485    15453    15429 
   15400    15369    15344    15317    15282    15252    15228    15201 
   15168    15140    15110    15079    15049    15018    14990    14972 
   14949    14917    14885    14858    14833    14806    14780    14754 
   14729    14706    14679    14651    14632    14607    14577    14553 
   14527    14499    14473    14451    14430    14411    14388    14364 
   14341    14316    14296    14273    14254    14243    14226    14207 
   14193    14172    14152    14141    14125    14107    14098    14080 
   14065    14057    14038    14030    14033    14014    14000    14002 
   13990    13977    13979    13973    13960    13960    13965    13965 
   13969    13968    13965    13971    13973    13973    13987    13999 
   13992    13990    14004    14010    14014    14031    14040    14044 
   14062    14075    14080    14095    14107    14116    14137    14156 
   14166    14188    14207    14215    14234    14254    14261    14276 
   14300    14318    14335    14353    14366    14382    14397    14415 
   14439    14454    14461    14482    14504    14511    14524    14547 
   14565    14581    14594    14607    14619    14629    14643    14665 
   14675    14683    14700    14713    14728    14746    14764    14779 
   14785    14785    14790    14797    14808    14820    14825    14828 
   14837    14840    14840    14846    14852    14855    14858    14855 
   14846    14841    14835    14845    14856    14836    14829    14843 
   14832    14823    14829    14817    14806    14813    14816    14808 
   14793    14775    14774    14773    14751    14735    14735    14725 
   14714    14701    14674    14659    14651    14631    14615    14608 
   14588    14565    14548    14535    14517    14503    14489    14466 
   14443    14430    14412    14386    14364    14338    14316    14308 
   14288    14257    14239    14229    14210    14191    14161    14131 
   14121    14104    14072    14050    14034    14006    13981    13965 
   13937    13910    13896    13876    13859    13842    13819    13803 
   13786    13755    13734    13724    13697    13671    13662    13641 
   13617    13602    13582    13562    13548    13529    13512    13504 
   13486    13463    13446    13432    13421    13413    13396    13377 
   13363    13347    13331    13323    13321    13308    13289    13284 
   13271    13252    13240    13234    13232    13230    13216    13208 
   13201    13189    13178    13177    13178    13174    13166    13159 
   13161    13158    13154    13158    13151    13142    13143    13146 
   13154    13165    13163    13158    13166    13171    13163    13172 
   13188    13182    13182    13198    13203    13207    13220    13221 
   13228    13242    13243    13255    13270    13273    13289    13314 
   13321    13329    13347    13354    13374    13398    13400    13412 
   13437    13454    13478    13501    13513    13533    13548    13563 
   13591    13609    13624    13659    13687    13701    13722    13743 
   13761    13791    13813    13834    13868    13892    13918    13946 
   13963    13984    14014    14040    14061    14095    14127    14153 
   14187    14218    14237    14265    14297    14316    14349    14389 
   14416    14447    14481    14499    14524    14557    14581    14611 
   14647    14674    14704    14740    14763    14790    14818    14840 
   14870    14897    14922    14953    14983    15009    15034    15061 
   15082    15106    15140    15167    15184    15213    15238    15257 
   15286    15314    15336    15363    15383    15392    15412    15438 
   15457    15480    15502    15513    15537    15561    15579    15597 
   15616    15631    15649    15665    15681    15696    15708    15720 
   15734    15747    15761    15778    15792    15800    15813    15822 
   15824    15840    15855    15862    15876    15886    15892    15896 
   15906    15921    15929    15934    15939    15946    15951    15955 
   15965    15972    15975    15982    15989    15993    16000    16005 
   16004    16005    16009    16009    16017    16021    16019    16028 
   16035    16025    16028    16033    16025    16025    16038    16043 
   16046    16048    16051    16052    16054    16055    16047    16040 
   16044    16052    16054    16051    16054    16058    16055    16055 
   16052    16051    16054    16056    16059    16059    16052    16050 
   16055    16058    16058    16062    16065    16067    16074    16075 
   16073    16083    16086    16077    16081    16090    16089    16092 
   16102    16108    16109    16112    16117    16124    16124    16127 
   16140    16152    16156    16168    16179    16177    16182    16194 
   16202    16220    16235    16239    16246    16263    16275    16278 
   16283    16297    16306    16316    16336    16357    16374    16390 
   16402    16413    16430    16443    16454    16479    16494    16507 
   16540    16557    16555    16575    16605    16621    16642    16672 
   16692    16705    16715    16735    16762    16780    16800    16826 
   16849    16869    16899    16923    16945    16969    16992    17018 
   17043    17069    17092    17109    17128    17146    17170    17202 
   17228    17248    17267    17290    17315    17332    17355    17388 
   17409    17429    17458    17475    17490    17517    17540    17559 
   17586    17612    17631    17656    17676    17694    17720    17737 
   17756    17779    17795    17813    17830    17844    17863    17879 
   17891    17907    17923    17944    17963    17980    17995    18006 
   18009    18018    18041    18058    18071    18080    18081    18092 
   18107    18114    18129    18145    18153    18157    18165    18171 
   18176    18186    18193    18200    18212    18218    18220    18229 
   18234    18233    18235    18239    18243    18252    18252    18256 
   18262    18260    18250    18252    18257    18252    18250    18258 
   18254    18241    18241    18241    18234    18233    18231    18230 
   18226    18220    18220    18218    18204    18189    18185    18181 
   18171    18169    18160    18143    18142    18135    18115    18106 
   18100    18081    18071    18065    18049    18042    18034    18010 
   17998    17988    17964    17956    17956    17934    17914    17907 
   17895    17886    17865    17840    17836    17829    17802    17787 
   17770    17743    17729    17721    17707    17694    17670    17647 
   17636    17613    17593    17587    17570    17541    17529    17524 
   17504    17483    17467    17439    17428    17431    17410    17388 
   17382    17359    17329    17317    17297    17278    17270    17247 
   17230    17217    17189    17170    17166    17145    17119    17109 
   17101    17084    17061    17043    17021    17000    16980    16960 
   16946    16938    16918    16897    16883    16868    16854    16848 
   16834    16816    16800    16783    16771    16758    16737    16717 
   16703    16690    16669    16657    16649    16629    16606    16588 
   16568    16545    16526    16510    16494    16482    16470    16454 
   16436    16418    16409    16397    16374    16357    16339    16317 
   16306    16298    16283    16267    16251    16236    16216    16193 
   16174    16157    16137    16123    16112    16098    16083    16066 
   16047    16027    16005    15985    15969    15958    15943    15920 
   15905    15890    15870    15853    15834    15812    15792    15769 
   15751    15742    15723    15693    15678    15669    15649    15627 
   15607    15584    15558    15537    15525    15510    15489    15468 
   15444    15421    15399    15376    15352    15331    15307    15284 
   15268    15249    15222    15192    15165    15153    15133    15099 
   15079    15057    15026    15006    14982    14958    14932    14904 
   14877    14854    14831    14804    14779    14764    14742    14709 
   14681    14655    14627    14607    14586    14561    14539    14513 
   14481    14454    14424    14396    14374    14354    14334    14312 
   14288    14264    14238    14212    14185    14160    14137    14116 
   14094    14073    14052    14021    13995    13983    13965    13941 
   13919    13900    13882    13864    13848    13825    13798    13787 
   13780    13757    13740    13734    13711    13693    13691    13679 
   13663    13653    13639    13621    13613    13603    13590    13582 
   13575    13560    13552    13547    13539    13532    13529    13524 
   13517    13516    13516    13513    13510    13508    13512    13517 
   13514    13516    13524    13528    13531    13537    13539    13540 
   13544    13547    13549    13555    13559    13559    13568    13575 
   13582    13603    13616    13608    13618    13635    13635    13651 
   13670    13671    13684    13706    13717    13729    13744    13761 
   13780    13792    13799    13809    13824    13838    13853    13872 
   13886    13895    13909    13919    13930    13945    13954    13967 
   13987    13996    14007    14022    14033    14045    14060    14073 
   14087    14104    14119    14125    14134    14148    14156    14160 
   14169    14183    14192    14204    14214    14215    14219    14226 
   14230    14241    14247    14251    14258    14255    14250    14260 
   14265    14269    14272    14268    14262    14262    14262    14262 
   14261    14264    14265    14262    14260    14257    14250    14247 
   14247    14241    14234    14233    14231    14224    14215    14208 
   14197    14184    14170    14158    14150    14143    14138    14131 
   14119    14107    14098    14079    14061    14058    14052    14034 
   14022    14017    14007    13988    13977    13975    13957    13936 
   13926    13918    13903    13888    13878    13863    13845    13833 
   13821    13806    13794    13779    13770    13763    13745    13725 
   13713    13701    13686    13672    13660    13647    13630    13617 
   13609    13603    13587    13568    13563    13554    13541    13535 
   13524    13516    13510    13502    13498    13489    13474    13466 
   13459    13446    13441    13439    13428    13423    13421    13409 
   13408    13412    13402    13396    13404    13408    13401    13396 
   13400    13402    13405    13412    13410    13408    13410    13406 
   13404    13413    13425    13427    13433    13435    13433    13444 
   13454    13458    13470    13481    13481    13487    13502    13509 
   13518    13529    13533    13555    13574    13574    13587    13608 
   13616    13633    13654    13656    13668    13694    13703    13714 
   13737    13752    13767    13790    13809    13824    13841    13856 
   13869    13891    13918    13941    13965    13984    13999    14014 
   14037    14061    14087    14106    14125    14156    14183    14197 
   14226    14245    14258    14292    14320    14337    14366    14395 
   14411    14434    14461    14482    14509    14538    14559    14586 
   14617    14640    14661    14689    14710    14728    14760    14790 
   14808    14832    14860    14881    14904    14929    14952    14972 
   14993    15016    15039    15061    15093    15120    15132    15149 
   15172    15188    15210    15244    15267    15282    15310    15333 
   15341    15363    15395    15407    15418    15442    15457    15475 
   15498    15510    15522    15546    15556    15562    15584    15596 
   15607    15626    15637    15645    15661    15673    15682    15696 
   15712    15723    15734    15746    15754    15766    15780    15781 
   15792    15809    15809    15813    15824    15835    15844    15850 
   15854    15859    15862    15863    15871    15873    15877    15885 
   15888    15886    15888    15893    15901    15900    15900    15909 
   15915    15916    15920    15927    15927    15931    15938    15934 
   15934    15936    15935    15938    15946    15946    15938    15939 
   15944    15942    15943    15951    15948    15938    15944    15952 
   15954    15961    15961    15955    15962    15970    15975    15988 
   15992    15986    15990    16000    16000    16005    16021    16029 
   16035    16046    16060    16066    16065    16070    16081    16089 
   16100    16112    16128    16139    16146    16159    16168    16174 
   16190    16212    16220    16233    16259    16274    16289    16306 
   16317    16343    16365    16379    16406    16430    16436    16461 
   16499    16519    16542    16575    16592    16611    16645    16671 
   16690    16719    16742    16762    16794    16825    16852    16889 
   16914    16929    16958    16988    17015    17050    17081    17104 
   17135    17173    17201    17231    17268    17304    17332    17361 
   17396    17427    17458    17490    17518    17551    17590    17618 
   17648    17683    17709    17737    17772    17795    17822    17855 
   17880    17907    17938    17968    17994    18018    18049    18071 
   18094    18133    18162    18183    18209    18235    18258    18281 
   18304    18323    18343    18368    18388    18404    18426    18445 
   18461    18480    18501    18520    18536    18558    18569    18577 
   18592    18601    18609    18621    18628    18640    18662    18674 
   18674    18682    18694    18694    18696    18708    18709    18711 
   18719    18721    18724    18729    18729    18728    18725    18724 
   18725    18725    18721    18727    18731    18723    18715    18708 
   18700    18697    18693    18685    18678    18675    18671    18658 
   18655    18655    18644    18638    18628    18607    18593    18590 
   18578    18566    18555    18536    18528    18524    18504    18490 
   18485    18463    18445    18436    18427    18415    18395    18376 
   18361    18346    18331    18318    18307    18295    18273    18254 
   18238    18220    18208    18196    18177    18161    18146    18127 
   18106    18091    18080    18060    18038    18030    18007    17976 
   17967    17957    17930    17909    17890    17864    17844    17829 
   17805    17786    17767    17736    17713    17694    17664    17645 
   17633    17605    17575    17559    17543    17524    17505    17479 
   17451    17431    17405    17375    17358    17343    17317    17292 
   17267    17239    17212    17180    17155    17132    17101    17078 
   17058    17026    17003    16983    16946    16915    16892    16860 
   16829    16809    16783    16752    16725    16698    16669    16639 
   16605    16576    16548    16503    16470    16447    16414    16383 
   16357    16326    16294    16263    16229    16198    16174    16143 
   16109    16081    16044    16008    15985    15957    15931    15904 
   15867    15840    15813    15778    15746    15716    15688    15655 
   15622    15596    15562    15525    15503    15476    15438    15410 
   15381    15350    15329    15296    15263    15244    15218    15190 
   15168    15142    15111    15086    15061    15033    15009    14990 
   14967    14941    14916    14887    14859    14837    14816    14789 
   14766    14747    14727    14709    14689    14666    14646    14624 
   14601    14585    14571    14548    14528    14519    14503    14485 
   14472    14459    14446    14426    14403    14391    14380    14358 
   14339    14331    14314    14288    14283    14278    14257    14245 
   14237    14218    14211    14204    14188    14179    14176    14165 
   14156    14150    14137    14127    14121    14108    14103    14104 
   14092    14080    14077    14075    14072    14072    14057    14040 
   14041    14038    14027    14025    14022    14018    14022    14023 
   14017    14013    14008    13999    13994    14000    14006    13999 
   13992    13995    13992    13983    13987    13992    13981    13977 
   13984    13980    13973    13973    13971    13973    13976    13965 
   13964    13973    13965    13960    13969    13969    13965    13964 
   13959    13963    13967    13959    13957    13956    13956    13965 
   13961    13954    13963    13960    13952    13961    13961    13948 
   13956    13965    13957    13959    13965    13960    13961    13971 
   13963    13961    13981    13979    13968    13981    13977    13963 
   13976    13981    13971    13983    13990    13986    13994    14003 
   14002    14004    14014    14022    14029    14038    14050    14058 
   14060    14068    14080    14089    14099    14115    14131    14133 
   14135    14145    14153    14166    14175    14184    14203    14214 
   14218    14231    14247    14262    14274    14284    14301    14321 
   14330    14347    14369    14380    14396    14416    14435    14454 
   14472    14490    14506    14517    14535    14551    14566    14589 
   14602    14615    14636    14650    14662    14679    14697    14713 
   14728    14746    14764    14775    14790    14805    14818    14832 
   14841    14852    14871    14879    14885    14908    14926    14935 
   14948    14962    14964    14976    14990    14991    14995    15005 
   15009    15017    15029    15036    15037    15039    15044    15045 
   15048    15056    15057    15049    15052    15052    15041    15040 
   15041    15036    15030    15031    15029    15020    15021    15021 
   15012    15005    14998    14987    14979    14980    14978    14972 
   14960    14945    14944    14945    14929    14917    14912    14893 
   14872    14864    14860    14850    14835    14821    14810    14801 
   14786    14779    14775    14755    14735    14729    14720    14710 
   14704    14688    14681    14679    14658    14638    14640    14634 
   14617    14611    14604    14588    14578    14565    14551    14543 
   14529    14516    14513    14505    14494    14492    14486    14473 
   14462    14455    14450    14442    14434    14426    14422    14418 
   14411    14407    14404    14399    14396    14397    14396    14389 
   14384    14388    14385    14372    14364    14364    14364    14366 
   14364    14362    14362    14361    14364    14364    14364    14368 
   14361    14351    14362    14364    14353    14364    14373    14368 
   14368    14369    14377    14388    14384    14380    14385    14384 
   14386    14397    14399    14391    14389    14397    14399    14401 
   14407    14415    14418    14415    14416    14420    14428    14435 
   14438    14440    14442    14443    14446    14447    14454    14465 
   14470    14473    14480    14481    14482    14486    14492    14499 
   14504    14509    14516    14524    14529    14532    14538    14544 
   14551    14559    14562    14567    14575    14582    14593    14602 
   14608    14615    14624    14625    14628    14642    14652    14659 
   14670    14678    14690    14702    14704    14720    14737    14742 
   14752    14770    14782    14790    14800    14816    14836    14848 
   14864    14875    14874    14886    14905    14921    14941    14953 
   14962    14975    14987    15001    15021    15041    15052    15064 
   15083    15093    15102    15126    15137    15140    15160    15179 
   15191    15206    15218    15229    15253    15272    15282    15298 
   15318    15333    15356    15375    15388    15408    15426    15444 
