Origin Time       2016/04/16 01:25:00
Lat.              32.753
Long.             130.762
Depth. (km)       12
Mag.              7.3
Station Code      TKY020
Station Lat.      35.6657
Station Long.     139.8087
Station Height(m) -9999
Record Time       2016/04/16 01:30:17
Sampling Freq(Hz) 100Hz
Duration Time(s)  60
Dir.              E-W
Scale Factor      7845(gal)/8223790
Max. Acc. (gal)   1.710
Last Correction   2016/04/16 01:30:19
Memo.             
[...]
    5200     5208     5243     5238     5217     5254     5282     5286 
    5312     5321     5325     5352     5350     5351     5404     5433 
    5431     5429     5421     5448     5483     5471     5483     5533 
    5544     5547     5570     5555     5541     5590     5638     5647 
    5653     5661     5676     5684     5684     5705     5736     5776 
    5810     5793     5783     5802     5798     5813     5857     5871 
    5880     5881     5854     5863     5890     5896     5918     5938 
    5931     5933     5931     5935     5954     5960     5977     5991 
    5975     5977     5998     5985     5968     5979     5991     6002 
    6000     5968     5950     5960     5962     5965     5958     5925 
    5923     5942     5926     5900     5875     5860     5876     5871 
    5841     5829     5805     5793     5811     5805     5790     5773 
    5730     5698     5691     5694     5694     5674     5644     5629 
    5602     5570     5566     5562     5537     5510     5485     5474 
    5486     5462     5413     5405     5400     5379     5381     5374 
    5351     5333     5314     5304     5298     5282     5273     5268 
    5247     5228     5217     5201     5184     5188     5189     5169 
    5157     5140     5120     5115     5113     5120     5115     5093 
    5085     5071     5053     5058     5065     5066     5071     5057 
    5042     5044     5031     5031     5055     5049     5044     5057 
    5044     5049     5065     5044     5050     5080     5060     5050 
    5065     5047     5047     5065     5060     5073     5077     5063 
    5078     5076     5069     5103     5096     5070     5115     5147 
    5108     5085     5124     5150     5127     5123     5158     5166 
    5152     5154     5167     5188     5194     5185     5189     5197 
    5198     5215     5225     5224     5224     5221     5240     5267 
    5247     5240     5279     5287     5283     5304     5300     5302 
    5327     5323     5323     5344     5348     5339     5327     5317 
    5328     5329     5310     5323     5346     5341     5341     5351 
    5343     5341     5350     5359     5377     5383     5379     5379 
    5359     5347     5379     5398     5374     5360     5364     5371 
    5385     5375     5358     5368     5364     5354     5366     5358 
    5358     5371     5339     5337     5363     5350     5355     5351 
    5314     5337     5359     5336     5335     5317     5304     5333 
    5321     5301     5335     5343     5316     5312     5324     5339 
    5336     5306     5296     5309     5316     5310     5305     5294 
    5277     5273     5287     5296     5298     5292     5263     5255 
    5290     5302     5271     5251     5251     5270     5297     5283 
    5251     5258     5281     5278     5278     5271     5250     5267 
    5289     5256     5248     5273     5251     5250     5289     5281 
    5259     5263     5258     5275     5302     5270     5251     5281 
    5277     5263     5287     5290     5278     5285     5277     5263 
    5275     5282     5277     5278     5277     5289     5309     5294 
    5268     5273     5287     5296     5297     5283     5275     5285 
    5278     5265     5265     5255     5256     5270     5265     5266 
    5267     5244     5242     5255     5252     5251     5240     5228 
    5247     5247     5221     5212     5197     5194     5209     5209 
    5221     5228     5175     5140     5159     5155     5131     5135 
    5130     5121     5130     5116     5098     5113     5104     5077 
    5085     5093     5088     5082     5063     5060     5062     5031 
    5024     5053     5063     5059     5040     5020     5034     5040 
    5023     5026     5012     4985     4999     5016     5008     4994 
    4970     4956     4962     4969     4986     4989     4959     4945 
    4956     4973     4968     4928     4918     4953     4950     4930 
    4932     4931     4951     4966     4932     4928     4935     4908 
    4922     4955     4947     4941     4930     4888     4889     4923 
    4916     4912     4901     4861     4865     4896     4891     4870 
    4861     4864     4864     4868     4885     4882     4855     4846 
    4847     4842     4845     4841     4814     4807     4810     4793 
    4803     4814     4789     4779     4769     4747     4758     4781 
    4788     4788     4754     4707     4681     4672     4693     4725 
    4707     4673     4653     4627     4621     4633     4631     4615 
    4590     4571     4573     4571     4568     4580     4546     4506 
    4517     4515     4521     4556     4538     4496     4495     4483 
    4472     4490     4483     4461     4438     4418     4431     4430 
    4398     4386     4388     4388     4396     4388     4360     4357 
    4367     4365     4391     4405     4360     4338     4349     4330 
    4336     4360     4324     4310     4330     4303     4315     4349 
    4310     4297     4327     4314     4321     4353     4321     4287 
    4311     4322     4332     4356     4336     4303     4320     4329 
    4320     4327     4318     4289     4295     4311     4322     4332 
    4325     4321     4332     4347     4360     4340     4311     4317 
    4327     4352     4384     4357     4311     4309     4317     4332 
    4365     4352     4314     4315     4314     4325     4367     4360 
    4332     4337     4336     4340     4344     4327     4337     4352 
    4332     4329     4324     4305     4326     4327     4307     4321 
    4315     4295     4302     4299     4298     4314     4310     4301 
    4302     4295     4294     4301     4297     4288     4280     4275 
    4274     4271     4279     4278     4271     4271     4263     4263 
    4276     4282     4280     4287     4286     4276     4271     4274 
    4283     4293     4291     4288     4286     4276     4275     4276 
    4263     4261     4263     4255     4271     4283     4256     4251 
    4271     4266     4255     4263     4260     4241     4245     4243 
    4222     4220     4225     4225     4223     4225     4228     4215 
    4197     4210     4223     4213     4213     4215     4205     4205 
    4199     4187     4180     4171     4166     4156     4148     4152 
    4145     4140     4149     4155     4153     4149     4144     4148 
    4156     4159     4152     4126     4133     4159     4144     4122 
    4139     4149     4148     4140     4114     4122     4152     4133 
    4120     4151     4158     4143     4149     4159     4170     4178 
    4166     4144     4152     4175     4174     4166     4162     4158 
    4172     4187     4182     4176     4183     4187     4197     4209 
    4203     4205     4236     4248     4243     4232     4218     4238 
    4268     4270     4286     4306     4303     4284     4228     4215 
    4303     4333     4288     4302     4299     4258     4287     4330 
    4324     4317     4321     4330     4342     4334     4333     4332 
    4307     4314     4341     4345     4353     4365     4338     4317 
    4327     4327     4347     4372     4360     4372     4384     4348 
    4347     4379     4372     4363     4351     4344     4398     4423 
    4357     4315     4348     4392     4401     4383     4393     4406 
    4384     4403     4446     4433     4422     4448     4429     4413 
    4469     4484     4453     4476     4483     4469     4506     4525 
    4517     4534     4534     4537     4568     4571     4561     4576 
    4584     4606     4634     4627     4625     4649     4645     4654 
    4693     4712     4737     4745     4719     4729     4761     4766 
    4773     4792     4808     4835     4846     4810     4792     4823 
    4850     4873     4899     4905     4889     4868     4877     4915 
    4932     4926     4934     4945     4927     4923     4947     4954 
    4961     4965     4950     4974     5011     4996     4978     4978 
    4974     4989     5012     5012     5016     5032     5031     5022 
    5027     5024     5007     5012     5038     5054     5054     5047 
    5038     5017     5013     5027     5050     5081     5100     5096 
    5074     5040     5044     5076     5077     5085     5101     5103 
    5123     5119     5081     5074     5066     5071     5131     5184 
    5213     5220     5171     5123     5124     5147     5166     5188 
    5223     5243     5229     5220     5198     5164     5177     5201 
    5227     5297     5335     5312     5294     5277     5270     5300 
    5333     5350     5375     5401     5401     5393     5393     5393 
    5400     5413     5435     5475     5508     5506     5499     5498 
    5491     5514     5563     5593     5611     5621     5622     5655 
    5665     5636     5665     5717     5715     5736     5748     5724 
    5757     5768     5724     5772     5841     5837     5864     5888 
    5879     5927     5940     5891     5918     5948     5938     5994 
    6030     6004     6019     6048     6052     6057     6058     6057 
    6084     6119     6130     6135     6143     6142     6147     6165 
    6192     6212     6205     6203     6226     6252     6261     6241 
    6228     6252     6274     6273     6280     6297     6304     6292 
    6292     6301     6295     6312     6361     6358     6316     6339 
    6374     6355     6359     6388     6367     6358     6389     6377 
    6355     6381     6393     6389     6403     6394     6385     6401 
    6389     6373     6380     6363     6347     6358     6369     6393 
    6412     6389     6354     6335     6340     6349     6342     6354 
    6373     6355     6327     6316     6309     6300     6297     6301 
    6297     6284     6266     6246     6230     6230     6237     6232 
    6210     6186     6185     6186     6176     6168     6160     6139 
    6122     6123     6120     6122     6115     6073     6058     6079 
    6053     6023     6038     6022     5983     5983     5964     5937 
    5948     5933     5907     5917     5899     5873     5877     5856 
    5830     5845     5853     5829     5802     5782     5765     5765 
    5759     5736     5721     5705     5678     5679     5676     5661 
    5682     5682     5636     5616     5614     5601     5594     5589 
    5570     5557     5566     5562     5543     5537     5533     5519 
    5510     5506     5506     5495     5483     5470     5451     5452 
    5459     5443     5443     5440     5408     5400     5418     5412 
    5404     5410     5383     5362     5379     5373     5355     5360 
    5339     5316     5327     5319     5313     5324     5302     5289 
    5305     5293     5273     5273     5262     5259     5275     5265 
    5252     5267     5252     5233     5247     5233     5215     5225 
    5217     5193     5193     5194     5186     5185     5182     5178 
    5179     5169     5155     5157     5158     5152     5152     5151 
    5143     5142     5152     5146     5135     5140     5134     5127 
    5140     5134     5120     5121     5109     5090     5100     5119 
    5123     5117     5108     5098     5096     5101     5097     5092 
    5097     5097     5092     5093     5088     5085     5093     5093 
    5081     5071     5071     5067     5062     5059     5055     5050 
    5040     5030     5035     5046     5043     5036     5026     5012 
    5017     5022     5026     5044     5032     5001     5007     5007 
    4988     4997     5009     5004     4993     4974     4965     4969 
    4968     4973     4982     4970     4953     4947     4938     4930 
    4923     4922     4938     4932     4901     4904     4904     4866 
    4872     4896     4874     4861     4866     4847     4833     4835 
    4838     4843     4838     4822     4812     4810     4812     4823 
    4818     4795     4780     4783     4791     4795     4787     4781 
    4787     4777     4772     4780     4770     4754     4762     4781 
    4777     4762     4766     4776     4769     4777     4796     4783 
    4762     4770     4776     4783     4804     4808     4804     4807 
    4801     4796     4811     4824     4826     4834     4850     4857 
    4861     4858     4861     4878     4893     4900     4903     4899 
    4911     4936     4938     4930     4943     4953     4955     4968 
    4966     4965     4976     4976     4981     4992     4986     4996 
    5020     5022     5009     5001     5001     5008     5008     5017 
    5031     5023     5009     5008     5008     5013     5017     5009 
    5007     5008     4993     4989     4996     4976     4966     4985 
    4974     4954     4950     4936     4930     4923     4889     4876 
    4888     4874     4857     4847     4826     4807     4787     4766 
    4760     4738     4714     4710     4698     4680     4675     4646 
    4608     4594     4584     4567     4552     4535     4509     4483 
    4456     4430     4418     4401     4368     4345     4327     4303 
    4278     4260     4238     4214     4203     4186     4149     4126 
    4116     4088     4063     4041     4010     3986     3973     3951 
    3937     3923     3897     3873     3842     3816     3809     3797 
    3763     3730     3712     3708     3688     3659     3646     3628 
    3593     3574     3566     3553     3539     3515     3491     3478 
    3462     3445     3437     3424     3403     3392     3379     3364 
    3361     3348     3325     3317     3311     3298     3291     3280 
    3273     3280     3276     3265     3261     3246     3232     3238 
    3234     3229     3234     3227     3229     3242     3211     3180 
    3213     3241     3229     3221     3213     3206     3217     3230 
    3231     3237     3250     3254     3254     3260     3257     3262 
    3273     3279     3288     3288     3289     3306     3314     3329 
    3349     3339     3343     3360     3354     3372     3406     3402 
    3403     3426     3430     3438     3449     3438     3449     3473 
    3480     3504     3523     3511     3520     3541     3549     3565 
    3582     3585     3596     3615     3628     3643     3653     3655 
    3666     3677     3699     3726     3735     3744     3767     3773 
    3784     3815     3827     3832     3858     3869     3871     3893 
    3906     3931     3967     3979     3997     4020     4017     4041 
    4074     4082     4098     4128     4143     4149     4170     4191 
    4203     4225     4253     4266     4278     4289     4303     4332 
    4357     4367     4392     4421     4422     4431     4463     4475 
    4488     4527     4546     4558     4587     4599     4617     4653 
    4666     4683     4714     4722     4731     4765     4788     4800 
    4810     4816     4843     4868     4878     4903     4908     4907 
    4938     4951     4950     4974     4985     4988     5016     5024 
    5024     5054     5063     5065     5100     5113     5108     5131 
    5138     5134     5162     5174     5177     5192     5186     5189 
    5216     5223     5221     5231     5233     5233     5239     5239 
    5240     5243     5235     5242     5255     5265     5268     5259 
    5256     5265     5265     5273     5279     5267     5268     5278 
    5273     5277     5273     5259     5267     5271     5255     5258 
    5258     5243     5244     5248     5243     5244     5235     5224 
    5224     5211     5208     5211     5205     5215     5212     5201 
    5212     5197     5185     5204     5198     5193     5200     5179 
    5169     5175     5162     5164     5175     5164     5157     5150 
    5151     5154     5146     5150     5155     5142     5139     5136 
    5124     5136     5146     5147     5159     5150     5136     5144 
    5135     5140     5159     5138     5138     5154     5136     5142 
    5154     5142     5152     5159     5152     5159     5152     5148 
    5166     5177     5184     5188     5174     5169     5179     5182 
    5186     5201     5200     5201     5223     5228     5220     5221 
    5227     5238     5250     5252     5262     5266     5263     5267 
    5278     5296     5309     5308     5306     5321     5339     5348 
    5359     5370     5373     5371     5379     5394     5405     5414 
    5428     5436     5443     5456     5459     5466     5481     5486 
    5499     5518     5525     5535     5536     5532     5557     5572 
    5564     5585     5602     5597     5611     5629     5630     5637 
    5651     5664     5670     5667     5679     5686     5683     5699 
    5710     5715     5733     5730     5725     5736     5730     5733 
    5759     5763     5756     5764     5765     5772     5787     5778 
    5773     5798     5810     5802     5809     5811     5809     5823 
    5823     5821     5840     5846     5846     5853     5852     5849 
    5850     5852     5853     5861     5859     5844     5853     5869 
    5864     5873     5881     5879     5886     5881     5880     5890 
    5876     5880     5898     5894     5902     5917     5913     5919 
    5921     5913     5918     5922     5921     5926     5938     5944 
    5946     5945     5940     5942     5953     5952     5946     5965 
    5972     5953     5960     5972     5962     5965     5980     5975 
    5977     5994     5985     5994     6021     6006     5996     6022 
    6022     6015     6037     6041     6030     6044     6053     6048 
    6060     6077     6084     6091     6099     6104     6107     6118 
    6129     6127     6137     6148     6147     6176     6201     6181 
    6189     6219     6212     6219     6243     6245     6261     6278 
    6282     6300     6308     6309     6330     6349     6361     6366 
    6366     6386     6403     6409     6424     6431     6443     6465 
    6459     6450     6475     6492     6494     6519     6529     6527 
    6547     6552     6551     6569     6562     6558     6582     6592 
    6594     6601     6605     6615     6610     6608     6628     6627 
    6620     6637     6635     6625     6632     6620     6612     6621 
    6615     6601     6601     6593     6592     6597     6585     6578 
    6574     6555     6550     6538     6508     6507     6502     6489 
    6496     6477     6448     6447     6427     6404     6399     6378 
    6359     6349     6327     6304     6290     6278     6249     6227 
    6227     6199     6164     6158     6142     6108     6092     6081 
    6053     6027     6008     5979     5957     5934     5896     5880 
    5869     5840     5814     5798     5779     5752     5714     5691 
    5676     5640     5621     5609     5572     5557     5536     5497 
    5489     5471     5431     5418     5398     5360     5352     5329 
    5289     5275     5246     5208     5205     5186     5157     5143 
    5112     5085     5088     5065     5035     5031     5001     4966 
    4965     4951     4918     4914     4899     4868     4862     4842 
    4814     4810     4791     4769     4777     4761     4729     4723 
    4710     4689     4689     4673     4650     4660     4646     4617 
    4623     4621     4600     4610     4608     4585     4579     4568 
    4557     4553     4546     4542     4542     4534     4519     4519 
    4525     4513     4509     4515     4509     4502     4502     4498 
    4504     4502     4491     4500     4500     4487     4492     4491 
    4492     4496     4484     4491     4500     4486     4490     4498 
