Origin Time       2016/04/16 01:25:00
Lat.              32.753
Long.             130.762
Depth. (km)       12
Mag.              7.3
Station Code      TKY025
Station Lat.      35.7138
Station Long.     139.8971
Station Height(m) -9999
Record Time       2016/04/16 01:30:29
Sampling Freq(Hz) 100Hz
Duration Time(s)  67
Dir.              E-W
Scale Factor      7845(gal)/8223790
Max. Acc. (gal)   1.311
Last Correction   2016/04/16 01:30:31
Memo.             
[...]
   -1216    -1230    -1244    -1260    -1275    -1282    -1297    -1317 
   -1334    -1350    -1374    -1391    -1401    -1414    -1426    -1436 
   -1451    -1470    -1490    -1512    -1528    -1534    -1547    -1563 
   -1574    -1588    -1606    -1628    -1648    -1660    -1672    -1694 
   -1713    -1722    -1729    -1738    -1755    -1768    -1776    -1799 
   -1825    -1833    -1841    -1854    -1858    -1868    -1884    -1891 
   -1899    -1911    -1918    -1926    -1935    -1935    -1944    -1962 
   -1968    -1966    -1973    -1981    -1988    -1992    -1996    -2006 
   -2011    -2012    -2019    -2026    -2033    -2034    -2031    -2030 
   -2034    -2031    -2034    -2042    -2037    -2023    -2020    -2020 
   -2020    -2023    -2015    -2008    -2001    -1991    -1985    -1989 
   -1987    -1972    -1956    -1956    -1949    -1938    -1939    -1939 
   -1930    -1921    -1911    -1902    -1898    -1892    -1883    -1871 
   -1861    -1850    -1836    -1830    -1826    -1818    -1811    -1809 
   -1798    -1784    -1772    -1755    -1744    -1734    -1725    -1715 
   -1706    -1699    -1680    -1674    -1674    -1656    -1647    -1640 
   -1622    -1615    -1611    -1599    -1594    -1586    -1574    -1566 
   -1557    -1551    -1539    -1526    -1524    -1517    -1506    -1507 
   -1507    -1502    -1499    -1490    -1478    -1467    -1456    -1457 
   -1467    -1464    -1463    -1464    -1455    -1445    -1441    -1436 
   -1433    -1435    -1431    -1428    -1431    -1435    -1435    -1431 
   -1429    -1429    -1422    -1431    -1445    -1439    -1431    -1437 
   -1440    -1444    -1444    -1451    -1463    -1463    -1466    -1474 
   -1480    -1491    -1493    -1494    -1503    -1506    -1512    -1520 
   -1521    -1528    -1534    -1539    -1545    -1547    -1552    -1563 
   -1578    -1588    -1587    -1590    -1595    -1590    -1590    -1601 
   -1610    -1620    -1628    -1640    -1653    -1656    -1656    -1656 
   -1653    -1656    -1655    -1657    -1668    -1674    -1676    -1680 
   -1682    -1680    -1680    -1683    -1683    -1683    -1687    -1691 
   -1687    -1686    -1691    -1692    -1692    -1692    -1682    -1671 
   -1661    -1657    -1663    -1665    -1658    -1655    -1644    -1632 
   -1628    -1622    -1618    -1606    -1598    -1595    -1588    -1584 
   -1582    -1572    -1564    -1552    -1543    -1537    -1528    -1524 
   -1514    -1501    -1494    -1483    -1479    -1479    -1470    -1455 
   -1443    -1429    -1414    -1404    -1395    -1386    -1372    -1362 
   -1352    -1343    -1336    -1327    -1312    -1308    -1294    -1273 
   -1260    -1248    -1242    -1239    -1228    -1215    -1205    -1192 
   -1179    -1169    -1155    -1147    -1140    -1124    -1109    -1097 
   -1085    -1077    -1065    -1055    -1039    -1026    -1012     -994 
    -985     -980     -969     -957     -940     -926     -909     -897 
    -895     -882     -868     -854     -835     -822     -811     -803 
    -795     -783     -769     -754     -738     -727     -715     -695 
    -680     -675     -662     -653     -643     -623     -607     -602 
    -587     -568     -558     -550     -540     -526     -508     -493 
    -486     -475     -459     -454     -445     -423     -411     -399 
    -380     -373     -365     -355     -346     -332     -317     -306 
    -298     -291     -276     -266     -261     -251     -240     -234 
    -236     -229     -214     -209     -201     -189     -184     -178 
    -175     -175     -164     -156     -147     -131     -131     -136 
    -131     -125     -121     -121     -121     -114     -108     -106 
    -105      -99      -97     -101      -99      -98      -97      -94 
     -97      -97      -94     -102     -106     -106     -109     -108 
    -105      -98      -98     -110     -117     -109     -109     -121 
    -126     -129     -140     -143     -139     -140     -135     -137 
    -152     -159     -162     -157     -159     -167     -172     -183 
    -191     -184     -182     -186     -191     -198     -205     -211 
    -211     -210     -216     -224     -229     -232     -233     -233 
    -230     -240     -253     -255     -257     -259     -252     -246 
    -249     -251     -252     -253     -256     -255     -249     -253 
    -256     -259     -255     -251     -252     -248     -243     -245 
    -246     -245     -244     -238     -230     -221     -216     -218 
    -216     -203     -194     -189     -182     -180     -180     -171 
    -162     -157     -147     -133     -122     -117     -117     -106 
     -86      -76      -75      -64      -51      -44      -37      -22 
      -4        4        8       14       20       35       55       64 
      71       85       93       93      101      117      128      131 
     141      151      159      168      178      183      189      193 
     198      211      225      230      233      244      251      249 
     259      279      289      294      292      292      301      303 
     307      311      319      324      319      322      329      319 
     314      318      317      311      310      314      315      311 
     315      311      301      299      294      287      291      294 
     286      275      274      268      259      263      259      244 
     237      229      217      211      203      201      202      194 
     186      175      166      162      144      128      122      117 
     105       93       85       81       70       59       51       32 
      11        2       -1      -10      -20      -29      -36      -43 
     -59      -76      -85      -93     -109     -120     -122     -131 
    -151     -171     -182     -191     -203     -211     -225     -240 
    -249     -261     -271     -280     -297     -315     -329     -341 
    -353     -364     -372     -383     -394     -403     -418     -433 
    -444     -459     -471     -481     -495     -503     -513     -530 
    -548     -562     -572     -577     -591     -607     -621     -635 
    -648     -661     -668     -675     -692     -706     -715     -727 
    -735     -749     -757     -765     -785     -801     -807     -819 
    -835     -847     -858     -874     -886     -893     -903     -916 
    -934     -950     -958     -965     -976     -990    -1004    -1017 
   -1039    -1053    -1053    -1063    -1077    -1089    -1105    -1113 
   -1125    -1143    -1151    -1162    -1178    -1185    -1192    -1206 
   -1224    -1240    -1255    -1262    -1266    -1278    -1289    -1298 
   -1318    -1332    -1333    -1344    -1360    -1377    -1393    -1401 
   -1408    -1416    -1428    -1448    -1459    -1463    -1472    -1475 
   -1476    -1489    -1502    -1512    -1525    -1535    -1541    -1551 
   -1557    -1561    -1572    -1583    -1590    -1602    -1615    -1624 
   -1632    -1645    -1658    -1665    -1671    -1680    -1686    -1692 
   -1706    -1714    -1721    -1725    -1726    -1738    -1750    -1753 
   -1759    -1773    -1777    -1780    -1792    -1800    -1799    -1806 
   -1818    -1825    -1830    -1836    -1838    -1846    -1852    -1861 
   -1869    -1875    -1883    -1887    -1895    -1907    -1908    -1911 
   -1921    -1927    -1941    -1945    -1948    -1960    -1956    -1956 
   -1973    -1979    -1981    -1989    -1996    -2000    -2000    -2003 
   -2014    -2023    -2030    -2037    -2041    -2046    -2052    -2056 
   -2056    -2057    -2064    -2070    -2076    -2085    -2092    -2095 
   -2100    -2104    -2104    -2100    -2106    -2118    -2115    -2115 
   -2121    -2116    -2107    -2111    -2120    -2123    -2114    -2106 
   -2100    -2097    -2097    -2096    -2107    -2111    -2096    -2092 
   -2091    -2089    -2097    -2097    -2089    -2084    -2074    -2070 
   -2073    -2069    -2061    -2058    -2060    -2047    -2031    -2023 
   -2011    -2003    -1998    -1991    -1982    -1972    -1961    -1952 
   -1942    -1930    -1918    -1904    -1890    -1884    -1877    -1865 
   -1863    -1858    -1842    -1825    -1807    -1796    -1787    -1776 
   -1767    -1753    -1736    -1721    -1710    -1703    -1690    -1672 
   -1656    -1640    -1622    -1614    -1606    -1594    -1582    -1566 
   -1548    -1535    -1518    -1502    -1489    -1467    -1449    -1437 
   -1421    -1404    -1391    -1381    -1368    -1360    -1351    -1337 
   -1318    -1300    -1281    -1262    -1251    -1242    -1230    -1221 
   -1213    -1202    -1188    -1166    -1146    -1128    -1111    -1096 
   -1092    -1077    -1053    -1047    -1042    -1019    -1003     -993 
    -980     -966     -954     -943     -943     -932     -905     -885 
    -864     -849     -853     -849     -841     -830     -805     -791 
    -784     -774     -765     -757     -747     -733     -723     -714 
    -697     -695     -691     -680     -675     -666     -657     -646 
    -638     -634     -626     -619     -611     -607     -599     -589 
    -592     -594     -587     -579     -573     -569     -562     -558 
    -553     -549     -546     -540     -540     -546     -540     -540 
    -546     -545     -538     -532     -535     -538     -537     -548 
    -549     -540     -540     -537     -537     -542     -540     -546 
    -553     -553     -562     -565     -562     -562     -565     -568 
    -566     -576     -592     -596     -596     -598     -599     -604 
    -614     -619     -622     -621     -619     -623     -627     -630 
    -641     -653     -656     -660     -664     -666     -672     -672 
    -670     -675     -679     -681     -683     -691     -710     -714 
    -712     -718     -719     -714     -714     -723     -730     -730 
    -738     -749     -746     -741     -745     -750     -757     -762 
    -764     -772     -777     -778     -792     -796     -784     -785 
    -795     -796     -807     -822     -826     -828     -831     -828 
    -822     -826     -835     -838     -841     -838     -838     -843 
    -842     -838     -841     -846     -850     -847     -850     -858 
    -859     -861     -866     -866     -866     -872     -872     -874 
    -884     -882     -876     -877     -882     -888     -885     -877 
    -877     -876     -870     -874     -877     -877     -874     -876 
    -874     -870     -870     -868     -862     -850     -835     -842 
    -851     -846     -835     -823     -819     -823     -819     -820 
    -820     -811     -804     -796     -785     -780     -770     -756 
    -750     -751     -749     -745     -741     -728     -714     -699 
    -689     -685     -677     -666     -656     -634     -619     -615 
    -608     -602     -598     -585     -571     -553     -535     -523 
    -519     -506     -491     -490     -481     -459     -438     -427 
    -418     -405     -387     -372     -360     -351     -336     -317 
    -301     -282     -263     -253     -244     -238     -225     -203 
    -182     -164     -144     -129     -120     -108      -85      -68 
     -62      -47      -35      -20       -1       10       23       40 
      44       54       78       90       94      114      125      128 
     140      151      168      190      199      205      217      236 
     255      265      276      282      289      301      313      328 
     334      338      352      363      370      375      375      379 
     383      388      395      400      410      415      414      418 
     417      406      411      429      433      432      433      427 
     422      425      430      425      432      432      422      430 
     432      422      422      415      405      403      398      395 
     396      390      378      376      376      356      349      351 
     329      315      315      310      303      287      268      253 
     240      232      228      221      210      198      190      176 
     162      152      135      116      102       94       89       78 
      64       52       31        9       10        2      -21      -32 
     -45      -65      -74      -90     -116     -129     -144     -162 
    -178     -191     -203     -217     -234     -246     -256     -272 
    -286     -301     -317     -326     -340     -360     -376     -387 
    -400     -410     -417     -436     -450     -460     -490     -508 
    -506     -514     -529     -540     -558     -581     -598     -604 
    -610     -618     -633     -649     -666     -685     -693     -700 
    -723     -745     -754     -762     -769     -778     -799     -819 
    -828     -838     -849     -858     -872     -880     -893     -919 
    -936     -950     -966     -974     -980     -992    -1009    -1021 
   -1038    -1058    -1073    -1088    -1100    -1112    -1131    -1148 
   -1158    -1170    -1189    -1205    -1220    -1237    -1255    -1271 
   -1289    -1308    -1324    -1336    -1352    -1372    -1391    -1408 
   -1421    -1437    -1456    -1472    -1486    -1498    -1512    -1530 
   -1551    -1567    -1584    -1605    -1614    -1625    -1640    -1652 
   -1672    -1694    -1710    -1726    -1741    -1750    -1765    -1783 
   -1798    -1815    -1837    -1854    -1865    -1880    -1903    -1914 
   -1923    -1941    -1949    -1960    -1977    -1987    -1996    -2011 
   -2022    -2029    -2041    -2061    -2073    -2074    -2076    -2079 
   -2092    -2114    -2123    -2133    -2143    -2146    -2150    -2155 
   -2158    -2165    -2172    -2181    -2187    -2185    -2196    -2205 
   -2207    -2205    -2205    -2205    -2208    -2214    -2215    -2215 
   -2224    -2228    -2223    -2215    -2214    -2207    -2207    -2214 
   -2209    -2204    -2204    -2196    -2191    -2192    -2189    -2180 
   -2172    -2163    -2157    -2157    -2151    -2141    -2137    -2126 
   -2111    -2106    -2092    -2084    -2085    -2070    -2057    -2043 
   -2022    -2012    -2004    -1992    -1987    -1977    -1964    -1956 
   -1946    -1927    -1907    -1895    -1885    -1876    -1858    -1836 
   -1823    -1809    -1790    -1777    -1759    -1738    -1729    -1705 
   -1684    -1683    -1664    -1640    -1629    -1611    -1586    -1568 
   -1552    -1537    -1528    -1513    -1495    -1482    -1463    -1448 
   -1441    -1424    -1401    -1381    -1362    -1344    -1331    -1314 
   -1298    -1282    -1262    -1244    -1232    -1221    -1213    -1194 
   -1175    -1167    -1150    -1133    -1127    -1107    -1086    -1075 
   -1063    -1053    -1039    -1024    -1013     -999     -985     -967 
    -953     -945     -935     -931     -924     -909     -900     -895 
    -880     -866     -859     -850     -838     -837     -830     -819 
    -819     -816     -799     -787     -780     -772     -769     -764 
    -754     -756     -761     -745     -733     -735     -720     -711 
    -711     -702     -704     -708     -704     -707     -707     -702 
    -700     -700     -697     -696     -700     -707     -707     -699 
    -692     -692     -692     -688     -691     -699     -702     -708 
    -708     -702     -702     -696     -689     -702     -711     -706 
    -718     -727     -722     -723     -722     -718     -727     -728 
    -728     -737     -738     -738     -738     -734     -739     -745 
    -749     -758     -765     -766     -767     -767     -774     -783 
    -781     -783     -796     -800     -796     -805     -814     -808 
    -810     -816     -822     -822     -818     -822     -832     -834 
    -831     -837     -838     -841     -843     -843     -850     -855 
    -859     -870     -881     -882     -889     -896     -892     -892 
    -896     -907     -920     -927     -931     -934     -931     -928 
    -928     -932     -938     -945     -945     -936     -938     -936 
    -934     -942     -943     -947     -958     -959     -965     -976 
    -969     -965     -967     -967     -969     -970     -978     -985 
    -981     -984     -987     -985     -987     -989     -989     -987 
    -981     -982     -986     -982     -982     -985     -985     -981 
    -977     -981     -977     -970     -973     -976     -970     -965 
    -967     -966     -962     -961     -955     -958     -958     -949 
    -951     -951     -946     -950     -946     -940     -947     -940 
    -938     -946     -940     -936     -936     -929     -927     -927 
    -922     -920     -920     -915     -916     -920     -915     -903 
    -893     -884     -884     -890     -882     -869     -864     -855 
    -851     -854     -853     -854     -859     -851     -838     -832 
    -824     -823     -831     -834     -831     -822     -812     -807 
    -799     -796     -799     -797     -791     -784     -772     -761 
    -758     -753     -747     -737     -722     -724     -719     -704 
    -707     -706     -696     -692     -685     -677     -679     -670 
    -654     -650     -645     -626     -621     -625     -621     -612 
    -599     -585     -581     -573     -565     -564     -558     -544 
    -535     -535     -529     -517     -513     -506     -502     -495 
    -483     -476     -472     -457     -442     -438     -437     -429 
    -423     -425     -421     -406     -399     -399     -388     -380 
    -378     -372     -365     -359     -356     -353     -342     -334 
    -332     -324     -321     -318     -314     -319     -324     -310 
    -291     -287     -282     -272     -275     -278     -274     -268 
    -259     -257     -257     -251     -246     -243     -237     -229 
    -225     -225     -222     -216     -207     -198     -198     -202 
    -202     -195     -190     -190     -178     -170     -178     -178 
    -176     -174     -167     -162     -156     -155     -152     -152 
    -156     -160     -163     -159     -147     -144     -144     -140 
    -144     -144     -144     -144     -140     -143     -140     -136 
    -137     -136     -141     -144     -144     -153     -155     -163 
    -164     -157     -174     -186     -183     -190     -195     -201 
    -211     -212     -220     -225     -225     -232     -241     -244 
    -248     -259     -266     -282     -292     -289     -297     -307 
    -306     -315     -329     -337     -348     -360     -373     -390 
    -399     -403     -414     -433     -444     -457     -473     -475 
    -477     -490     -499     -506     -522     -537     -545     -560 
    -564     -564     -577     -594     -606     -626     -637     -635 
    -642     -660     -670     -676     -688     -700     -712     -727 
    -735     -741     -758     -762     -766     -783     -788     -800 
    -822     -830     -837     -850     -857     -859     -864     -864 
    -868     -884     -895     -901     -916     -916     -913     -922 
    -923     -932     -953     -958     -958     -961     -963     -967 
    -977     -990    -1005    -1012    -1011    -1011    -1019    -1024 
   -1026    -1030    -1038    -1046    -1051    -1051    -1053    -1051 
   -1046    -1053    -1065    -1069    -1070    -1067    -1062    -1062 
   -1067    -1081    -1088    -1080    -1074    -1077    -1081    -1089 
   -1097    -1094    -1093    -1094    -1088    -1088    -1101    -1107 
   -1104    -1097    -1092    -1096    -1104    -1101    -1104    -1109 
   -1104    -1104    -1104    -1104    -1107    -1102    -1102    -1105 
   -1094    -1096    -1107    -1104    -1096    -1101    -1105    -1107 
   -1105    -1105    -1111    -1113    -1109    -1107    -1107    -1102 
