Origin Time       2016/04/16 01:25:00
Lat.              32.753
Long.             130.762
Depth. (km)       12
Mag.              7.3
Station Code      TKY013
Station Lat.      35.6596
Station Long.     139.8343
Station Height(m) -9999
Record Time       2016/04/16 01:30:22
Sampling Freq(Hz) 100Hz
Duration Time(s)  60
Dir.              E-W
Scale Factor      7845(gal)/8223790
Max. Acc. (gal)   1.643
Last Correction   2016/04/16 01:30:24
Memo.             
[...]
   -3700    -3761    -3763    -3743    -3726    -3744    -3786    -3774 
   -3743    -3734    -3742    -3790    -3817    -3805    -3809    -3817 
   -3825    -3819    -3811    -3839    -3828    -3807    -3852    -3861 
   -3811    -3813    -3861    -3883    -3861    -3880    -3982    -4028 
   -3998    -3959    -3928    -3910    -3912    -3956    -4002    -4014 
   -4012    -3983    -3993    -4029    -3990    -3948    -3955    -4001 
   -4071    -4067    -4032    -4036    -3996    -3965    -4031    -4094 
   -4135    -4166    -4149    -4116    -4099    -4113    -4122    -4113 
   -4131    -4172    -4205    -4202    -4158    -4131    -4132    -4126 
   -4133    -4151    -4175    -4192    -4162    -4128    -4126    -4140 
   -4202    -4261    -4253    -4233    -4232    -4214    -4209    -4230 
   -4252    -4263    -4261    -4255    -4260    -4261    -4251    -4230 
   -4220    -4218    -4205    -4203    -4212    -4209    -4203    -4217 
   -4243    -4248    -4236    -4205    -4192    -4225    -4237    -4253 
   -4284    -4284    -4307    -4344    -4342    -4320    -4298    -4310 
   -4327    -4327    -4342    -4336    -4306    -4318    -4318    -4302 
   -4338    -4353    -4315    -4298    -4310    -4332    -4338    -4325 
   -4329    -4337    -4356    -4410    -4450    -4469    -4484    -4500 
   -4545    -4563    -4546    -4561    -4558    -4544    -4572    -4595 
   -4598    -4617    -4618    -4606    -4592    -4549    -4541    -4571 
   -4588    -4592    -4611    -4652    -4662    -4665    -4695    -4716 
   -4745    -4783    -4812    -4842    -4860    -4858    -4858    -4872 
   -4889    -4901    -4904    -4905    -4914    -4918    -4932    -4923 
   -4878    -4850    -4838    -4842    -4842    -4834    -4864    -4892 
   -4923    -4959    -4950    -4959    -5001    -5039    -5073    -5076 
   -5066    -5082    -5105    -5119    -5104    -5084    -5101    -5090 
   -5030    -5001    -5005    -4997    -4966    -4923    -4896    -4893 
   -4903    -4912    -4922    -4918    -4922    -4943    -4980    -5004 
   -4996    -5012    -5047    -5054    -5076    -5120    -5131    -5107 
   -5113    -5147    -5125    -5034    -4988    -4999    -4988    -4972 
   -4927    -4870    -4858    -4842    -4855    -4860    -4814    -4827 
   -4845    -4837    -4860    -4855    -4847    -4882    -4914    -4941 
   -4999    -5024    -4989    -4980    -4988    -4970    -4962    -4969 
   -4961    -4941    -4915    -4887    -4872    -4845    -4789    -4766 
   -4797    -4823    -4808    -4781    -4752    -4730    -4756    -4764 
   -4712    -4703    -4741    -4766    -4792    -4792    -4747    -4733 
   -4734    -4712    -4733    -4785    -4792    -4762    -4738    -4706 
   -4688    -4693    -4639    -4602    -4665    -4708    -4673    -4617 
   -4529    -4471    -4506    -4511    -4460    -4492    -4572    -4590 
   -4561    -4502    -4452    -4479    -4500    -4480    -4523    -4584 
   -4581    -4533    -4449    -4393    -4382    -4393    -4437    -4488 
   -4534    -4515    -4446    -4410    -4383    -4336    -4294    -4334 
   -4441    -4491    -4477    -4460    -4426    -4338    -4266    -4309 
   -4382    -4414    -4437    -4433    -4438    -4446    -4380    -4315 
   -4322    -4382    -4471    -4533    -4549    -4560    -4538    -4449 
   -4369    -4386    -4436    -4460    -4504    -4540    -4526    -4502 
   -4472    -4442    -4433    -4444    -4472    -4488    -4510    -4558 
   -4557    -4498    -4449    -4464    -4540    -4577    -4588    -4627 
   -4627    -4580    -4550    -4542    -4542    -4556    -4604    -4657 
   -4648    -4603    -4563    -4521    -4511    -4526    -4526    -4554 
   -4585    -4585    -4579    -4511    -4461    -4510    -4523    -4510 
   -4530    -4554    -4577    -4568    -4544    -4514    -4464    -4461 
   -4487    -4487    -4496    -4529    -4533    -4496    -4459    -4433 
   -4417    -4405    -4379    -4345    -4351    -4395    -4399    -4337 
   -4297    -4295    -4271    -4248    -4271    -4305    -4283    -4233 
   -4237    -4230    -4187    -4190    -4220    -4237    -4255    -4261 
   -4247    -4220    -4183    -4166    -4152    -4143    -4156    -4156 
   -4135    -4095    -4090    -4113    -4082    -4074    -4095    -4069 
   -4047    -4031    -4036    -4068    -4081    -4074    -4055    -4028 
   -4017    -4033    -4050    -4044    -4063    -4102    -4091    -4059 
   -4074    -4088    -4047    -4023    -4036    -4021    -4043    -4099 
   -4067    -4014    -4005    -3989    -3989    -4017    -4048    -4067 
   -4095    -4113    -4086    -4071    -4068    -4083    -4107    -4072 
   -4033    -4067    -4101    -4112    -4148    -4144    -4117    -4148 
   -4136    -4093    -4097    -4097    -4107    -4120    -4125    -4172 
   -4190    -4151    -4155    -4178    -4167    -4152    -4124    -4133 
   -4171    -4158    -4162    -4192    -4189    -4199    -4215    -4170 
   -4116    -4118    -4117    -4145    -4223    -4207    -4176    -4245 
   -4256    -4207    -4197    -4171    -4144    -4158    -4152    -4148 
   -4151    -4135    -4131    -4148    -4164    -4151    -4121    -4101 
   -4079    -4055    -4067    -4090    -4087    -4078    -4031    -3982 
   -4010    -4013    -3974    -3951    -3913    -3889    -3873    -3852 
   -3880    -3896    -3870    -3850    -3827    -3813    -3789    -3759 
   -3746    -3709    -3696    -3723    -3703    -3676    -3686    -3682 
   -3667    -3638    -3584    -3547    -3555    -3565    -3528    -3511 
   -3518    -3488    -3477    -3496    -3470    -3439    -3426    -3383 
   -3368    -3377    -3343    -3307    -3308    -3315    -3302    -3300 
   -3307    -3279    -3258    -3244    -3176    -3161    -3190    -3146 
   -3133    -3141    -3111    -3133    -3138    -3098    -3105    -3123 
   -3115    -3087    -3055    -3032    -3029    -3057    -3063    -3018 
   -2991    -3007    -3013    -2983    -2974    -2974    -2947    -2934 
   -2934    -2926    -2899    -2851    -2860    -2898    -2896    -2889 
   -2856    -2820    -2841    -2860    -2852    -2843    -2843    -2841 
   -2816    -2822    -2830    -2782    -2778    -2797    -2776    -2774 
   -2774    -2756    -2727    -2697    -2728    -2764    -2725    -2687 
   -2700    -2705    -2697    -2697    -2663    -2654    -2706    -2702 
   -2658    -2650    -2650    -2664    -2664    -2640    -2650    -2654 
   -2646    -2643    -2612    -2586    -2604    -2628    -2646    -2640 
   -2606    -2616    -2648    -2621    -2592    -2594    -2609    -2636 
   -2628    -2605    -2633    -2664    -2647    -2617    -2620    -2648 
   -2671    -2683    -2701    -2716    -2716    -2704    -2716    -2740 
   -2721    -2712    -2745    -2781    -2792    -2783    -2776    -2797 
   -2817    -2799    -2771    -2795    -2843    -2866    -2891    -2918 
   -2918    -2934    -2980    -3001    -3001    -3003    -3022    -3061 
   -3102    -3111    -3098    -3107    -3145    -3156    -3157    -3207 
   -3250    -3257    -3276    -3292    -3321    -3349    -3346    -3368 
   -3383    -3396    -3438    -3446    -3456    -3477    -3488    -3522 
   -3527    -3553    -3608    -3578    -3566    -3631    -3657    -3662 
   -3678    -3690    -3721    -3748    -3748    -3762    -3789    -3807 
   -3808    -3805    -3817    -3821    -3824    -3844    -3866    -3902 
   -3929    -3908    -3910    -3970    -3975    -3940    -3965    -4000 
   -4013    -4035    -4013    -3989    -4036    -4074    -4050    -4040 
   -4066    -4083    -4083    -4077    -4093    -4125    -4124    -4106 
   -4098    -4083    -4097    -4117    -4104    -4106    -4113    -4124 
   -4139    -4129    -4132    -4126    -4118    -4149    -4159    -4149 
   -4158    -4164    -4159    -4152    -4149    -4151    -4164    -4170 
   -4148    -4128    -4135    -4145    -4136    -4135    -4121    -4099 
   -4132    -4152    -4149    -4174    -4164    -4140    -4140    -4159 
   -4180    -4170    -4151    -4159    -4163    -4148    -4135    -4147 
   -4159    -4137    -4140    -4149    -4136    -4167    -4162    -4109 
   -4101    -4116    -4126    -4113    -4110    -4137    -4113    -4093 
   -4110    -4098    -4107    -4121    -4083    -4074    -4093    -4102 
   -4113    -4105    -4098    -4095    -4087    -4094    -4109    -4118 
   -4102    -4064    -4059    -4087    -4112    -4101    -4063    -4045 
   -4051    -4052    -4050    -4066    -4079    -4055    -4047    -4055 
   -4063    -4078    -4078    -4072    -4078    -4079    -4088    -4090 
   -4081    -4102    -4118    -4110    -4125    -4131    -4136    -4171 
   -4168    -4136    -4148    -4180    -4190    -4185    -4189    -4205 
   -4225    -4256    -4263    -4266    -4307    -4314    -4322    -4359 
   -4368    -4414    -4442    -4405    -4410    -4440    -4456    -4490 
   -4530    -4546    -4549    -4568    -4577    -4581    -4633    -4662 
   -4646    -4650    -4664    -4679    -4708    -4734    -4753    -4753 
   -4769    -4814    -4814    -4822    -4849    -4843    -4864    -4892 
   -4899    -4907    -4907    -4928    -4974    -4999    -4986    -4972 
   -4999    -5017    -4992    -4969    -4956    -4973    -4993    -4973 
   -4980    -5000    -4988    -4999    -4997    -4980    -4989    -4989 
   -4981    -4989    -4985    -4976    -4980    -4956    -4932    -4935 
   -4932    -4928    -4922    -4900    -4882    -4857    -4834    -4849 
   -4842    -4779    -4758    -4789    -4780    -4757    -4733    -4696 
   -4710    -4727    -4683    -4664    -4664    -4638    -4644    -4641 
   -4600    -4594    -4590    -4550    -4531    -4519    -4504    -4514 
   -4507    -4483    -4477    -4464    -4456    -4450    -4421    -4428 
   -4448    -4425    -4425    -4436    -4421    -4429    -4415    -4375 
   -4390    -4421    -4402    -4379    -4383    -4383    -4390    -4409 
   -4406    -4407    -4426    -4422    -4413    -4426    -4457    -4476 
   -4473    -4473    -4463    -4469    -4513    -4511    -4494    -4515 
   -4548    -4564    -4558    -4575    -4614    -4614    -4603    -4629 
   -4671    -4706    -4719    -4712    -4726    -4761    -4781    -4776 
   -4797    -4841    -4839    -4834    -4872    -4912    -4920    -4914 
   -4943    -4966    -4965    -4985    -4989    -4999    -5036    -5042 
   -5043    -5054    -5080    -5138    -5139    -5103    -5131    -5169 
   -5169    -5182    -5200    -5196    -5205    -5231    -5246    -5250 
   -5250    -5252    -5263    -5267    -5283    -5309    -5305    -5282 
   -5283    -5302    -5314    -5321    -5323    -5296    -5273    -5297 
   -5323    -5335    -5317    -5289    -5313    -5356    -5356    -5341 
   -5332    -5344    -5374    -5366    -5336    -5332    -5347    -5355 
   -5321    -5282    -5312    -5346    -5336    -5313    -5302    -5323 
   -5304    -5256    -5281    -5313    -5305    -5290    -5273    -5271 
   -5285    -5300    -5287    -5279    -5312    -5296    -5256    -5285 
   -5293    -5266    -5258    -5247    -5251    -5243    -5211    -5233 
   -5252    -5212    -5193    -5206    -5212    -5205    -5198    -5212 
   -5215    -5205    -5201    -5164    -5151    -5177    -5139    -5108 
   -5155    -5166    -5139    -5139    -5134    -5130    -5147    -5144 
   -5128    -5111    -5093    -5092    -5071    -5060    -5070    -5055 
   -5038    -5022    -5026    -5034    -4989    -4958    -4953    -4938 
   -4946    -4946    -4920    -4912    -4908    -4899    -4899    -4908 
   -4903    -4857    -4831    -4847    -4823    -4777    -4761    -4758 
   -4769    -4758    -4727    -4712    -4688    -4666    -4650    -4629 
   -4619    -4602    -4588    -4583    -4546    -4518    -4518    -4502 
   -4487    -4482    -4477    -4464    -4438    -4425    -4407    -4383 
   -4374    -4351    -4325    -4333    -4327    -4287    -4253    -4256 
   -4263    -4220    -4185    -4197    -4200    -4175    -4143    -4135 
   -4158    -4129    -4068    -4066    -4086    -4074    -4044    -4031 
   -4020    -3997    -3993    -4003    -3986    -3950    -3947    -3955 
   -3939    -3944    -3939    -3905    -3920    -3951    -3924    -3882 
   -3878    -3873    -3865    -3867    -3855    -3842    -3856    -3842 
   -3808    -3825    -3828    -3786    -3789    -3807    -3796    -3782 
   -3776    -3800    -3815    -3796    -3789    -3793    -3784    -3761 
   -3738    -3746    -3757    -3743    -3730    -3719    -3697    -3697 
   -3740    -3731    -3665    -3657    -3663    -3670    -3684    -3645 
   -3622    -3640    -3636    -3634    -3632    -3619    -3623    -3613 
   -3591    -3607    -3615    -3582    -3563    -3572    -3577    -3563 
   -3530    -3504    -3515    -3539    -3535    -3503    -3484    -3489 
   -3477    -3451    -3456    -3451    -3424    -3437    -3443    -3416 
   -3407    -3400    -3384    -3380    -3380    -3383    -3375    -3338 
   -3321    -3336    -3319    -3295    -3308    -3300    -3279    -3289 
   -3279    -3223    -3210    -3229    -3211    -3194    -3207    -3187 
   -3148    -3142    -3133    -3125    -3117    -3095    -3095    -3073 
   -3042    -3053    -3057    -3055    -3052    -3025    -3001    -2986 
   -2965    -2944    -2921    -2911    -2926    -2914    -2870    -2843 
   -2851    -2857    -2809    -2764    -2774    -2779    -2768    -2740 
   -2717    -2731    -2736    -2725    -2712    -2694    -2683    -2666 
   -2646    -2635    -2632    -2627    -2601    -2577    -2567    -2556 
   -2562    -2563    -2529    -2502    -2505    -2505    -2479    -2458 
   -2461    -2461    -2452    -2442    -2442    -2465    -2454    -2416 
   -2408    -2425    -2431    -2394    -2359    -2386    -2403    -2367 
   -2355    -2365    -2381    -2404    -2384    -2362    -2376    -2386 
   -2400    -2392    -2378    -2389    -2388    -2393    -2396    -2392 
   -2398    -2407    -2432    -2435    -2408    -2430    -2448    -2419 
   -2423    -2455    -2473    -2471    -2461    -2511    -2555    -2511 
   -2494    -2528    -2560    -2578    -2565    -2571    -2582    -2560 
   -2578    -2636    -2644    -2636    -2663    -2671    -2673    -2700 
   -2694    -2668    -2706    -2740    -2725    -2748    -2763    -2759 
   -2802    -2814    -2791    -2802    -2814    -2830    -2868    -2871 
   -2837    -2843    -2905    -2937    -2905    -2893    -2930    -2967 
   -2994    -2982    -2952    -2967    -2998    -3022    -3040    -3048 
   -3076    -3084    -3068    -3086    -3109    -3111    -3122    -3137 
   -3145    -3159    -3173    -3188    -3202    -3207    -3210    -3218 
   -3253    -3289    -3277    -3254    -3283    -3310    -3314    -3348 
   -3365    -3360    -3385    -3383    -3361    -3399    -3447    -3435 
   -3423    -3438    -3435    -3430    -3440    -3453    -3450    -3447 
   -3470    -3474    -3449    -3468    -3522    -3546    -3520    -3488 
   -3492    -3514    -3534    -3566    -3555    -3516    -3535    -3553 
   -3532    -3523    -3534    -3570    -3574    -3515    -3485    -3526 
   -3558    -3534    -3510    -3528    -3553    -3546    -3527    -3532 
   -3539    -3544    -3544    -3522    -3535    -3580    -3591    -3568 
   -3539    -3546    -3565    -3559    -3554    -3561    -3577    -3568 
   -3549    -3577    -3581    -3562    -3591    -3607    -3603    -3596 
   -3573    -3589    -3613    -3622    -3639    -3649    -3650    -3636 
   -3615    -3640    -3682    -3713    -3715    -3685    -3688    -3742 
   -3778    -3766    -3746    -3769    -3793    -3755    -3744    -3778 
   -3785    -3780    -3781    -3796    -3824    -3839    -3851    -3869 
   -3880    -3917    -3939    -3904    -3897    -3932    -3951    -3960 
   -3955    -3950    -3960    -3984    -4002    -3977    -3993    -4050 
   -4025    -4003    -4036    -4060    -4048    -4027    -4027    -4048 
   -4069    -4071    -4074    -4104    -4120    -4104    -4104    -4112 
   -4112    -4126    -4152    -4159    -4164    -4182    -4192    -4220 
   -4253    -4251    -4245    -4255    -4258    -4278    -4298    -4291 
   -4275    -4271    -4288    -4307    -4302    -4302    -4332    -4330 
   -4315    -4345    -4380    -4384    -4409    -4442    -4438    -4449 
   -4482    -4486    -4491    -4507    -4527    -4537    -4522    -4518 
   -4531    -4557    -4584    -4591    -4598    -4591    -4568    -4583 
   -4623    -4634    -4626    -4641    -4668    -4684    -4689    -4700 
   -4743    -4788    -4785    -4757    -4758    -4787    -4785    -4773 
   -4799    -4814    -4810    -4814    -4820    -4810    -4812    -4841 
   -4850    -4830    -4857    -4889    -4866    -4891    -4934    -4922 
   -4932    -4953    -4949    -4972    -4997    -4974    -4961    -5001 
   -5007    -4982    -4977    -4956    -4959    -4994    -4977    -4941 
   -4981    -5023    -4989    -4951    -4968    -5031    -5066    -5027 
   -4989    -5020    -5054    -5031    -5024    -5065    -5082    -5053 
   -5035    -5066    -5082    -5062    -5062    -5082    -5081    -5055 
   -5055    -5060    -5046    -5044    -5044    -5047    -5049    -5047 
   -5066    -5043    -5009    -5035    -5055    -5067    -5073    -5070 
   -5097    -5112    -5109    -5128    -5125    -5090    -5104    -5146 
   -5147    -5136    -5130    -5135    -5140    -5120    -5096    -5080 
   -5076    -5090    -5103    -5093    -5084    -5092    -5093    -5085 
   -5093    -5111    -5108    -5104    -5130    -5147    -5146    -5154 
   -5146    -5136    -5179    -5221    -5205    -5189    -5193    -5174 
   -5171    -5178    -5182    -5198    -5166    -5152    -5192    -5162 
   -5135    -5158    -5161    -5173    -5169    -5148    -5150    -5154 
   -5169    -5192    -5197    -5188    -5166    -5169    -5209    -5228 
   -5213    -5198    -5206    -5213    -5220    -5231    -5194    -5175 
   -5209    -5201    -5171    -5157    -5158    -5179    -5166    -5158 
   -5190    -5192    -5186    -5193    -5178    -5164    -5175    -5173 
   -5163    -5163    -5163    -5157    -5154    -5166    -5152    -5120 
   -5139    -5164    -5151    -5139    -5139    -5148    -5147    -5127 
   -5100    -5111    -5135    -5127    -5131    -5130    -5119    -5139 
   -5123    -5092    -5109    -5100    -5066    -5092    -5107    -5096 
   -5112    -5093    -5088    -5119    -5121    -5113    -5080    -5074 
   -5119    -5101    -5081    -5093    -5057    -5036    -5057    -5053 
   -5076    -5078    -5007    -5000    -5070    -5086    -5071    -5054 
   -5035    -5069    -5085    -5057    -5039    -5044    -5071    -5046 
   -4989    -5001    -5022    -5009    -5016    -5015    -4994    -4977 
   -4951    -4946    -4976    -4992    -4972    -4939    -4938    -4970 
   -4988    -4985    -4961    -4916    -4905    -4922    -4900    -4880 
   -4897    -4889    -4869    -4855    -4823    -4814    -4834    -4837 
   -4830    -4810    -4791    -4800    -4803    -4780    -4764    -4773 
   -4793    -4806    -4780    -4743    -4741    -4739    -4706    -4676 
   -4684    -4702    -4673    -4657    -4676    -4644    -4577    -4561 
   -4606    -4661    -4623    -4534    -4519    -4549    -4542    -4518 
   -4531    -4537    -4499    -4492    -4491    -4476    -4507    -4506 
   -4463    -4467    -4480    -4463    -4414    -4360    -4372    -4431 
   -4441    -4380    -4342    -4371    -4383    -4345    -4289    -4268 
   -4307    -4344    -4313    -4268    -4271    -4297    -4315    -4310 
   -4271    -4251    -4263    -4271    -4253    -4240    -4251    -4261 
   -4258    -4243    -4214    -4212    -4236    -4213    -4178    -4191 
   -4194    -4190    -4176    -4129    -4114    -4121    -4117    -4112 
