Origin Time       2016/04/16 01:25:00
Lat.              32.753
Long.             130.762
Depth. (km)       12
Mag.              7.3
Station Code      TKY016
Station Lat.      35.6485
Station Long.     139.7990
Station Height(m) -9999
Record Time       2016/04/16 01:29:41
Sampling Freq(Hz) 100Hz
Duration Time(s)  60
Dir.              E-W
Scale Factor      7845(gal)/8223790
Max. Acc. (gal)   1.378
Last Correction   2016/04/16 01:29:42
Memo.             
[...]
   -4588    -4595    -4600    -4606    -4610    -4618    -4635    -4649 
   -4660    -4671    -4676    -4685    -4699    -4710    -4719    -4731 
   -4741    -4746    -4750    -4753    -4757    -4762    -4766    -4770 
   -4776    -4779    -4777    -4779    -4780    -4780    -4780    -4783 
   -4787    -4793    -4804    -4808    -4814    -4826    -4835    -4841 
   -4846    -4847    -4847    -4846    -4845    -4849    -4850    -4850 
   -4855    -4857    -4852    -4852    -4854    -4854    -4852    -4846 
   -4833    -4819    -4816    -4822    -4822    -4826    -4833    -4830 
   -4819    -4808    -4808    -4810    -4799    -4792    -4788    -4779 
   -4770    -4769    -4764    -4754    -4747    -4746    -4742    -4733 
   -4723    -4714    -4692    -4672    -4666    -4661    -4652    -4644 
   -4631    -4619    -4606    -4598    -4591    -4588    -4587    -4581 
   -4567    -4556    -4546    -4525    -4506    -4491    -4476    -4469 
   -4467    -4464    -4461    -4450    -4441    -4426    -4409    -4395 
   -4376    -4360    -4356    -4347    -4338    -4334    -4325    -4313 
   -4301    -4287    -4276    -4268    -4263    -4258    -4248    -4248 
   -4252    -4248    -4248    -4238    -4215    -4202    -4197    -4195 
   -4205    -4207    -4200    -4200    -4197    -4187    -4183    -4180 
   -4182    -4187    -4187    -4190    -4195    -4197    -4194    -4191 
   -4191    -4190    -4189    -4194    -4199    -4205    -4210    -4220 
   -4232    -4233    -4225    -4222    -4214    -4203    -4207    -4220 
   -4228    -4228    -4230    -4236    -4240    -4238    -4243    -4248 
   -4252    -4258    -4266    -4268    -4271    -4271    -4271    -4274 
   -4274    -4274    -4274    -4279    -4291    -4299    -4305    -4313 
   -4314    -4315    -4318    -4322    -4334    -4348    -4353    -4360 
   -4372    -4376    -4384    -4393    -4402    -4413    -4415    -4413 
   -4415    -4414    -4414    -4419    -4425    -4429    -4433    -4428 
   -4430    -4441    -4448    -4457    -4469    -4479    -4482    -4483 
   -4488    -4492    -4495    -4506    -4518    -4529    -4541    -4544 
   -4541    -4544    -4548    -4548    -4550    -4554    -4556    -4548 
   -4540    -4533    -4525    -4521    -4519    -4514    -4510    -4506 
   -4502    -4498    -4488    -4488    -4492    -4491    -4496    -4502 
   -4500    -4500    -4498    -4492    -4490    -4487    -4483    -4477 
   -4471    -4460    -4448    -4438    -4429    -4419    -4413    -4405 
   -4392    -4379    -4363    -4348    -4338    -4332    -4326    -4322 
   -4311    -4297    -4286    -4282    -4278    -4275    -4271    -4266 
   -4263    -4263    -4263    -4256    -4251    -4243    -4241    -4236 
   -4225    -4218    -4207    -4190    -4174    -4164    -4156    -4148 
   -4137    -4126    -4118    -4109    -4099    -4098    -4098    -4098 
   -4099    -4099    -4097    -4097    -4097    -4095    -4098    -4099 
   -4097    -4101    -4107    -4112    -4112    -4113    -4117    -4114 
   -4105    -4105    -4109    -4107    -4107    -4117    -4122    -4124 
   -4126    -4131    -4136    -4144    -4156    -4166    -4170    -4176 
   -4187    -4197    -4212    -4223    -4237    -4248    -4258    -4268 
   -4276    -4283    -4289    -4294    -4302    -4318    -4330    -4336 
   -4341    -4344    -4347    -4351    -4353    -4364    -4375    -4379 
   -4387    -4402    -4418    -4429    -4437    -4445    -4459    -4475 
   -4491    -4506    -4521    -4535    -4549    -4552    -4556    -4571 
   -4584    -4590    -4598    -4610    -4612    -4612    -4611    -4610 
   -4617    -4622    -4627    -4639    -4650    -4656    -4657    -4658 
   -4662    -4672    -4680    -4685    -4692    -4699    -4702    -4707 
   -4716    -4727    -4733    -4738    -4747    -4753    -4758    -4764 
   -4766    -4769    -4765    -4762    -4769    -4776    -4776    -4776 
   -4779    -4780    -4781    -4784    -4789    -4799    -4807    -4814 
   -4824    -4828    -4827    -4826    -4828    -4839    -4851    -4862 
   -4876    -4885    -4885    -4889    -4896    -4897    -4896    -4903 
   -4915    -4916    -4911    -4911    -4908    -4911    -4922    -4930 
   -4939    -4949    -4956    -4961    -4961    -4965    -4969    -4978 
   -4994    -5008    -5020    -5034    -5040    -5044    -5053    -5060 
   -5066    -5073    -5078    -5074    -5067    -5065    -5067    -5073 
   -5070    -5065    -5060    -5057    -5059    -5060    -5063    -5069 
   -5071    -5067    -5065    -5071    -5085    -5090    -5093    -5101 
   -5104    -5100    -5093    -5096    -5103    -5109    -5112    -5113 
   -5111    -5100    -5082    -5071    -5070    -5069    -5066    -5066 
   -5070    -5066    -5051    -5040    -5032    -5027    -5020    -5017 
   -5016    -5012    -5003    -4992    -4985    -4982    -4978    -4973 
   -4968    -4961    -4953    -4939    -4928    -4922    -4916    -4914 
   -4908    -4903    -4897    -4885    -4870    -4857    -4849    -4842 
   -4831    -4823    -4814    -4800    -4792    -4784    -4777    -4766 
   -4756    -4743    -4727    -4716    -4712    -4708    -4707    -4702 
   -4691    -4676    -4658    -4644    -4626    -4606    -4590    -4575 
   -4554    -4529    -4509    -4487    -4464    -4448    -4437    -4419 
   -4399    -4379    -4360    -4338    -4322    -4307    -4297    -4286 
   -4271    -4266    -4258    -4243    -4232    -4222    -4205    -4194 
   -4189    -4178    -4159    -4136    -4117    -4099    -4088    -4083 
   -4072    -4055    -4036    -4017    -4006    -3997    -3989    -3979 
   -3967    -3948    -3932    -3923    -3912    -3909    -3910    -3901 
   -3892    -3892    -3896    -3897    -3896    -3890    -3889    -3888 
   -3885    -3885    -3880    -3875    -3873    -3871    -3875    -3882 
   -3888    -3889    -3892    -3899    -3915    -3928    -3936    -3948 
   -3964    -3979    -3993    -4006    -4014    -4023    -4036    -4051 
   -4063    -4077    -4090    -4104    -4117    -4131    -4143    -4158 
   -4174    -4190    -4205    -4220    -4233    -4252    -4271    -4294 
   -4321    -4351    -4382    -4407    -4429    -4453    -4482    -4509 
   -4534    -4560    -4580    -4596    -4619    -4650    -4679    -4706 
   -4731    -4753    -4768    -4787    -4814    -4843    -4861    -4873 
   -4887    -4899    -4911    -4926    -4939    -4949    -4959    -4977 
   -4997    -5017    -5038    -5053    -5063    -5077    -5093    -5109 
   -5125    -5140    -5154    -5169    -5186    -5205    -5223    -5235 
   -5243    -5248    -5255    -5256    -5255    -5265    -5273    -5273 
   -5277    -5271    -5263    -5263    -5267    -5273    -5277    -5273 
   -5271    -5271    -5275    -5281    -5286    -5289    -5287    -5287 
   -5286    -5286    -5286    -5281    -5273    -5268    -5260    -5247 
   -5238    -5235    -5227    -5216    -5212    -5200    -5188    -5178 
   -5169    -5158    -5150    -5150    -5144    -5131    -5121    -5111 
   -5101    -5092    -5074    -5059    -5053    -5039    -5026    -5015 
   -4996    -4973    -4961    -4946    -4927    -4912    -4897    -4880 
   -4865    -4851    -4837    -4822    -4806    -4789    -4770    -4753 
   -4743    -4738    -4727    -4712    -4695    -4681    -4675    -4666 
   -4653    -4639    -4627    -4612    -4598    -4579    -4565    -4553 
   -4540    -4526    -4515    -4502    -4490    -4475    -4463    -4455 
   -4445    -4437    -4429    -4417    -4403    -4395    -4393    -4393 
   -4388    -4383    -4378    -4365    -4360    -4357    -4352    -4347 
   -4341    -4332    -4320    -4310    -4297    -4284    -4275    -4263 
   -4253    -4248    -4243    -4236    -4233    -4232    -4223    -4217 
   -4217    -4217    -4217    -4220    -4220    -4215    -4217    -4222 
   -4225    -4228    -4233    -4228    -4225    -4228    -4233    -4236 
   -4232    -4232    -4236    -4232    -4230    -4232    -4233    -4237 
   -4240    -4241    -4243    -4240    -4232    -4236    -4243    -4248 
   -4252    -4255    -4256    -4263    -4266    -4268    -4271    -4279 
   -4286    -4289    -4298    -4307    -4313    -4320    -4327    -4340 
   -4349    -4355    -4364    -4368    -4369    -4378    -4383    -4383 
   -4388    -4391    -4390    -4388    -4390    -4391    -4391    -4391 
   -4395    -4399    -4402    -4401    -4402    -4407    -4415    -4421 
   -4421    -4425    -4434    -4442    -4452    -4460    -4461    -4463 
   -4467    -4472    -4477    -4483    -4490    -4492    -4488    -4487 
   -4494    -4499    -4502    -4506    -4506    -4507    -4510    -4517 
   -4530    -4541    -4550    -4560    -4571    -4580    -4590    -4602 
   -4611    -4619    -4633    -4645    -4653    -4661    -4669    -4683 
   -4691    -4695    -4703    -4712    -4718    -4729    -4737    -4739 
   -4743    -4750    -4758    -4769    -4776    -4781    -4791    -4799 
   -4801    -4806    -4811    -4819    -4828    -4838    -4847    -4852 
   -4851    -4858    -4866    -4869    -4874    -4882    -4889    -4895 
   -4901    -4903    -4901    -4897    -4893    -4891    -4892    -4895 
   -4895    -4893    -4888    -4880    -4874    -4870    -4858    -4847 
   -4841    -4833    -4822    -4812    -4808    -4796    -4780    -4769 
   -4758    -4748    -4741    -4730    -4718    -4708    -4696    -4684 
   -4673    -4658    -4642    -4633    -4619    -4603    -4594    -4583 
   -4564    -4550    -4535    -4521    -4506    -4492    -4483    -4473 
   -4455    -4431    -4415    -4399    -4384    -4375    -4364    -4352 
   -4340    -4324    -4307    -4294    -4284    -4279    -4268    -4255 
   -4243    -4233    -4228    -4217    -4205    -4195    -4182    -4170 
   -4166    -4156    -4143    -4136    -4124    -4112    -4107    -4106 
   -4105    -4101    -4093    -4088    -4090    -4090    -4091    -4093 
   -4093    -4093    -4095    -4098    -4101    -4099    -4101    -4105 
   -4107    -4110    -4117    -4118    -4118    -4126    -4133    -4137 
   -4143    -4145    -4149    -4152    -4153    -4159    -4172    -4180 
   -4191    -4207    -4218    -4223    -4238    -4255    -4266    -4282 
   -4298    -4311    -4321    -4333    -4345    -4357    -4372    -4387 
   -4399    -4406    -4411    -4417    -4421    -4430    -4444    -4455 
   -4464    -4475    -4484    -4494    -4502    -4513    -4526    -4538 
   -4548    -4554    -4561    -4568    -4579    -4588    -4598    -4611 
   -4622    -4627    -4637    -4648    -4654    -4662    -4672    -4677 
   -4683    -4691    -4702    -4712    -4720    -4729    -4738    -4742 
   -4741    -4742    -4747    -4753    -4762    -4774    -4783    -4791 
   -4801    -4810    -4820    -4834    -4846    -4858    -4870    -4882 
   -4897    -4914    -4923    -4932    -4945    -4956    -4968    -4977 
   -4989    -5000    -5004    -5009    -5020    -5026    -5031    -5036 
   -5044    -5057    -5069    -5082    -5096    -5104    -5112    -5123 
   -5130    -5138    -5146    -5151    -5157    -5162    -5166    -5173 
   -5177    -5173    -5169    -5169    -5164    -5161    -5159    -5162 
   -5163    -5159    -5151    -5144    -5142    -5135    -5131    -5131 
   -5124    -5113    -5108    -5103    -5100    -5093    -5092    -5089 
   -5078    -5070    -5066    -5054    -5039    -5027    -5013    -4996 
   -4980    -4969    -4956    -4939    -4926    -4915    -4896    -4880 
   -4868    -4854    -4839    -4824    -4808    -4795    -4780    -4769 
   -4761    -4754    -4750    -4742    -4727    -4718    -4708    -4698 
   -4691    -4687    -4677    -4666    -4656    -4642    -4630    -4621 
   -4606    -4595    -4588    -4580    -4575    -4568    -4560    -4552 
   -4540    -4526    -4518    -4510    -4499    -4491    -4487    -4483 
   -4480    -4480    -4477    -4471    -4464    -4464    -4463    -4455 
   -4441    -4429    -4419    -4411    -4402    -4393    -4383    -4365 
   -4349    -4333    -4320    -4306    -4295    -4289    -4283    -4274 
   -4268    -4263    -4253    -4247    -4236    -4223    -4215    -4207 
   -4197    -4190    -4185    -4176    -4166    -4148    -4129    -4117 
   -4104    -4085    -4072    -4059    -4039    -4020    -4000    -3978 
   -3960    -3946    -3935    -3928    -3917    -3905    -3894    -3885 
   -3877    -3874    -3861    -3846    -3835    -3825    -3816    -3805 
   -3792    -3776    -3763    -3748    -3731    -3717    -3704    -3686 
   -3674    -3663    -3650    -3640    -3630    -3618    -3607    -3601 
   -3603    -3600    -3588    -3574    -3565    -3555    -3546    -3538 
   -3535    -3532    -3523    -3515    -3511    -3504    -3495    -3488 
   -3478    -3469    -3470    -3481    -3487    -3484    -3483    -3483 
   -3484    -3492    -3503    -3514    -3519    -3522    -3528    -3543 
   -3555    -3566    -3580    -3593    -3605    -3622    -3634    -3653 
   -3676    -3703    -3721    -3734    -3750    -3776    -3802    -3827 
   -3858    -3885    -3902    -3929    -3960    -3990    -4024    -4055 
   -4088    -4117    -4137    -4163    -4197    -4232    -4266    -4297 
   -4324    -4349    -4376    -4410    -4445    -4476    -4510    -4549 
   -4583    -4617    -4652    -4691    -4734    -4770    -4807    -4849 
   -4881    -4914    -4947    -4978    -5011    -5043    -5077    -5113 
   -5148    -5182    -5220    -5254    -5283    -5310    -5336    -5366 
   -5404    -5441    -5468    -5494    -5521    -5545    -5567    -5594 
   -5625    -5652    -5679    -5706    -5732    -5757    -5780    -5800 
   -5821    -5840    -5856    -5873    -5890    -5906    -5919    -5931 
   -5944    -5954    -5961    -5972    -5980    -5980    -5981    -5984 
   -5983    -5984    -5987    -5980    -5972    -5962    -5953    -5950 
   -5950    -5950    -5949    -5940    -5931    -5922    -5908    -5898 
   -5890    -5881    -5869    -5854    -5833    -5809    -5790    -5769 
   -5748    -5726    -5703    -5678    -5652    -5628    -5602    -5572 
   -5547    -5519    -5490    -5466    -5443    -5420    -5391    -5363 
   -5336    -5312    -5289    -5260    -5228    -5196    -5162    -5131 
   -5098    -5062    -5027    -5000    -4973    -4939    -4909    -4881 
   -4855    -4833    -4811    -4787    -4766    -4745    -4723    -4702 
   -4676    -4653    -4634    -4617    -4598    -4572    -4542    -4513 
   -4487    -4468    -4445    -4429    -4414    -4390    -4367    -4349 
   -4333    -4317    -4301    -4283    -4263    -4248    -4240    -4243 
   -4238    -4225    -4215    -4207    -4195    -4183    -4172    -4170 
   -4167    -4151    -4136    -4126    -4112    -4094    -4088    -4090 
   -4087    -4082    -4079    -4082    -4090    -4090    -4088    -4094 
   -4099    -4112    -4131    -4148    -4159    -4159    -4153    -4148 
   -4145    -4145    -4155    -4168    -4180    -4190    -4192    -4195 
   -4197    -4202    -4203    -4209    -4218    -4225    -4228    -4233 
   -4247    -4263    -4279    -4293    -4307    -4325    -4341    -4356 
   -4368    -4375    -4379    -4390    -4405    -4417    -4431    -4445 
   -4455    -4463    -4472    -4482    -4487    -4495    -4509    -4515 
   -4517    -4521    -4525    -4530    -4544    -4560    -4575    -4591 
   -4604    -4614    -4629    -4641    -4646    -4658    -4669    -4681 
   -4696    -4700    -4702    -4703    -4700    -4693    -4688    -4692 
   -4700    -4708    -4718    -4730    -4742    -4745    -4745    -4745 
   -4742    -4741    -4742    -4748    -4760    -4762    -4757    -4750 
   -4741    -4729    -4722    -4718    -4718    -4716    -4712    -4712 
   -4708    -4698    -4693    -4696    -4702    -4704    -4710    -4719 
   -4716    -4710    -4708    -4706    -4698    -4688    -4680    -4669 
   -4656    -4646    -4642    -4634    -4621    -4606    -4598    -4588 
   -4583    -4581    -4581    -4579    -4572    -4567    -4563    -4563 
   -4564    -4563    -4554    -4546    -4544    -4541    -4538    -4534 
   -4531    -4525    -4513    -4496    -4487    -4486    -4483    -4480 
   -4476    -4463    -4452    -4449    -4450    -4450    -4445    -4438 
   -4430    -4417    -4410    -4413    -4413    -4409    -4407    -4410 
   -4410    -4405    -4395    -4387    -4380    -4374    -4369    -4369 
   -4367    -4357    -4349    -4342    -4332    -4326    -4326    -4325 
   -4324    -4320    -4315    -4314    -4314    -4315    -4321    -4322 
   -4327    -4334    -4334    -4332    -4333    -4330    -4325    -4322 
   -4321    -4318    -4310    -4298    -4289    -4284    -4280    -4282 
   -4283    -4275    -4263    -4256    -4248    -4237    -4233    -4236 
   -4233    -4225    -4220    -4223    -4228    -4225    -4225    -4228 
   -4225    -4218    -4218    -4218    -4217    -4214    -4207    -4197 
   -4185    -4174    -4166    -4159    -4159    -4156    -4145    -4139 
   -4132    -4125    -4121    -4120    -4122    -4125    -4133    -4143 
   -4148    -4153    -4162    -4168    -4175    -4190    -4202    -4207 
   -4214    -4215    -4220    -4223    -4220    -4220    -4225    -4225 
   -4223    -4225    -4222    -4220    -4222    -4225    -4230    -4240 
   -4245    -4251    -4256    -4266    -4287    -4302    -4313    -4326 
   -4338    -4352    -4369    -4380    -4393    -4410    -4419    -4423 
   -4431    -4440    -4450    -4457    -4460    -4464    -4467    -4464 
   -4467    -4475    -4480    -4486    -4491    -4499    -4504    -4507 
   -4514    -4525    -4535    -4544    -4550    -4561    -4572    -4580 
   -4592    -4604    -4612    -4618    -4626    -4631    -4634    -4642 
   -4650    -4658    -4671    -4683    -4687    -4695    -4707    -4714 
   -4720    -4727    -4730    -4734    -4739    -4747    -4754    -4757 
   -4758    -4765    -4773    -4777    -4785    -4796    -4804    -4811 
   -4819    -4831    -4846    -4858    -4873    -4889    -4897    -4900 
   -4904    -4912    -4914    -4912    -4916    -4920    -4920    -4920 
   -4922    -4918    -4912    -4907    -4904    -4904    -4903    -4899 
   -4903    -4905    -4900    -4896    -4896    -4891    -4887    -4885 
   -4881    -4877    -4870    -4864    -4864    -4858    -4846    -4838 
   -4824    -4807    -4797    -4788    -4774    -4764    -4747    -4729 
   -4712    -4695    -4676    -4656    -4635    -4617    -4603    -4587 
   -4567    -4546    -4526    -4504    -4487    -4471    -4452    -4434 
   -4419    -4405    -4387    -4372    -4360    -4344    -4322    -4299 
   -4278    -4248    -4218    -4194    -4175    -4156    -4133    -4112 
   -4091    -4064    -4040    -4021    -4001    -3983    -3963    -3939 
   -3921    -3902    -3880    -3861    -3835    -3811    -3798    -3780 
   -3754    -3735    -3716    -3699    -3684    -3666    -3646    -3630 
   -3620    -3613    -3601    -3589    -3584    -3578    -3573    -3569 
   -3562    -3554    -3546    -3539    -3535    -3530    -3520    -3510 
   -3504    -3497    -3484    -3474    -3473    -3468    -3465    -3469 
   -3474    -3481    -3492    -3511    -3530    -3543    -3558    -3581 
   -3601    -3623    -3647    -3667    -3682    -3697    -3711    -3724 
   -3738    -3750    -3765    -3782    -3802    -3820    -3836    -3851 
   -3867    -3885    -3905    -3929    -3955    -3977    -3998    -4025 
   -4054    -4081    -4114    -4151    -4186    -4220    -4252    -4289 
   -4324    -4349    -4379    -4407    -4429    -4449    -4469    -4490 
   -4506    -4515    -4533    -4558    -4577    -4591    -4606    -4626 
   -4645    -4661    -4676    -4693    -4710    -4730    -4745    -4758 
   -4770    -4781    -4795    -4807    -4816    -4827    -4835    -4837 
