Origin Time       2016/04/16 01:25:00
Lat.              32.753
Long.             130.762
Depth. (km)       12
Mag.              7.3
Station Code      TKY021
Station Lat.      35.6876
Station Long.     139.8193
Station Height(m) -9999
Record Time       2016/04/16 01:30:07
Sampling Freq(Hz) 100Hz
Duration Time(s)  60
Dir.              N-S
Scale Factor      7845(gal)/8223790
Max. Acc. (gal)   1.902
Last Correction   2016/04/16 01:30:09
Memo.             
[...]
   -4143    -4147    -4144    -4122    -4109    -4125    -4140    -4140 
   -4147    -4152    -4126    -4097    -4082    -4072    -4077    -4086 
   -4085    -4066    -4036    -4021    -4013    -3996    -3981    -3970 
   -3951    -3939    -3929    -3909    -3878    -3851    -3835    -3828 
   -3819    -3802    -3781    -3753    -3730    -3703    -3670    -3649 
   -3640    -3626    -3597    -3563    -3534    -3495    -3454    -3430 
   -3411    -3388    -3361    -3321    -3292    -3272    -3234    -3203 
   -3183    -3150    -3109    -3068    -3033    -3006    -2975    -2934 
   -2899    -2872    -2836    -2798    -2774    -2744    -2710    -2686 
   -2662    -2627    -2584    -2551    -2525    -2501    -2463    -2416 
   -2390    -2380    -2351    -2308    -2276    -2250    -2226    -2196 
   -2177    -2165    -2139    -2102    -2077    -2061    -2034    -2010 
   -2000    -1987    -1968    -1953    -1934    -1918    -1912    -1896 
   -1875    -1869    -1867    -1852    -1846    -1845    -1830    -1822 
   -1826    -1826    -1822    -1829    -1830    -1826    -1831    -1837 
   -1836    -1852    -1876    -1876    -1878    -1895    -1899    -1898 
   -1919    -1945    -1954    -1972    -1998    -2008    -2020    -2046 
   -2065    -2074    -2095    -2123    -2149    -2174    -2201    -2230 
   -2259    -2285    -2303    -2330    -2365    -2389    -2409    -2444 
   -2479    -2501    -2525    -2556    -2584    -2613    -2639    -2656 
   -2678    -2705    -2731    -2759    -2791    -2818    -2839    -2853 
   -2876    -2905    -2925    -2941    -2967    -2997    -3018    -3033 
   -3046    -3067    -3090    -3109    -3121    -3133    -3154    -3176 
   -3190    -3203    -3215    -3221    -3234    -3252    -3254    -3253 
   -3264    -3276    -3281    -3284    -3289    -3295    -3306    -3307 
   -3304    -3311    -3317    -3315    -3314    -3316    -3310    -3300 
   -3295    -3300    -3310    -3306    -3299    -3298    -3292    -3288 
   -3284    -3269    -3253    -3246    -3245    -3231    -3213    -3208 
   -3199    -3180    -3167    -3154    -3148    -3152    -3148    -3125 
   -3099    -3087    -3071    -3045    -3029    -3019    -2998    -2976 
   -2967    -2955    -2930    -2906    -2887    -2871    -2848    -2822 
   -2803    -2775    -2747    -2729    -2712    -2690    -2668    -2647 
   -2627    -2606    -2582    -2554    -2529    -2504    -2475    -2452 
   -2432    -2404    -2378    -2363    -2346    -2317    -2289    -2269 
   -2251    -2228    -2205    -2182    -2149    -2120    -2104    -2087 
   -2061    -2043    -2031    -2008    -1977    -1949    -1930    -1910 
   -1892    -1875    -1854    -1833    -1817    -1810    -1804    -1788 
   -1769    -1753    -1736    -1726    -1721    -1703    -1686    -1667 
   -1653    -1647    -1630    -1617    -1613    -1597    -1582    -1571 
   -1554    -1540    -1537    -1533    -1516    -1501    -1495    -1486 
   -1476    -1472    -1464    -1464    -1476    -1475    -1466    -1457 
   -1443    -1440    -1448    -1452    -1455    -1451    -1436    -1435 
   -1444    -1440    -1426    -1425    -1426    -1425    -1425    -1424 
   -1424    -1431    -1437    -1437    -1437    -1440    -1445    -1445 
   -1443    -1451    -1455    -1451    -1464    -1480    -1479    -1480 
   -1494    -1506    -1518    -1525    -1525    -1530    -1541    -1544 
   -1548    -1561    -1574    -1580    -1590    -1603    -1609    -1606 
   -1617    -1641    -1661    -1667    -1679    -1692    -1695    -1709 
   -1726    -1732    -1741    -1763    -1776    -1784    -1799    -1811 
   -1813    -1833    -1861    -1865    -1871    -1890    -1896    -1904 
   -1926    -1949    -1968    -1981    -1987    -1998    -2022    -2045 
   -2060    -2079    -2104    -2116    -2126    -2146    -2162    -2172 
   -2189    -2211    -2235    -2253    -2258    -2267    -2277    -2280 
   -2295    -2311    -2328    -2350    -2361    -2361    -2365    -2373 
   -2381    -2389    -2396    -2407    -2421    -2427    -2430    -2444 
   -2457    -2451    -2451    -2461    -2461    -2465    -2485    -2492 
   -2492    -2494    -2488    -2488    -2500    -2498    -2484    -2486 
   -2490    -2474    -2469    -2471    -2455    -2446    -2461    -2466 
   -2454    -2458    -2469    -2454    -2442    -2440    -2428    -2419 
   -2425    -2431    -2425    -2420    -2421    -2424    -2419    -2409 
   -2397    -2382    -2382    -2386    -2367    -2351    -2349    -2338 
   -2319    -2313    -2304    -2286    -2289    -2297    -2284    -2273 
   -2270    -2261    -2243    -2239    -2247    -2235    -2218    -2222 
   -2220    -2204    -2196    -2196    -2191    -2185    -2182    -2178 
   -2180    -2188    -2180    -2166    -2168    -2161    -2147    -2153 
   -2161    -2155    -2147    -2150    -2158    -2160    -2154    -2147 
   -2139    -2144    -2154    -2155    -2168    -2184    -2185    -2180 
   -2185    -2192    -2193    -2204    -2215    -2224    -2234    -2234 
   -2227    -2235    -2245    -2246    -2257    -2277    -2284    -2289 
   -2309    -2322    -2327    -2343    -2363    -2377    -2380    -2381 
   -2393    -2411    -2434    -2446    -2442    -2451    -2469    -2484 
   -2500    -2525    -2543    -2539    -2548    -2573    -2589    -2601 
   -2602    -2608    -2628    -2640    -2643    -2652    -2669    -2679 
   -2685    -2701    -2717    -2717    -2714    -2731    -2748    -2752 
   -2756    -2772    -2785    -2792    -2795    -2791    -2805    -2833 
   -2839    -2832    -2844    -2857    -2851    -2859    -2876    -2876 
   -2875    -2884    -2895    -2906    -2907    -2903    -2914    -2934 
   -2933    -2924    -2944    -2960    -2960    -2967    -2979    -2984 
   -2988    -2991    -2998    -3003    -3011    -3015    -3013    -3025 
   -3040    -3034    -3028    -3042    -3053    -3045    -3052    -3073 
   -3086    -3095    -3107    -3113    -3115    -3122    -3126    -3137 
   -3156    -3168    -3176    -3183    -3184    -3186    -3191    -3204 
   -3219    -3229    -3234    -3238    -3246    -3253    -3261    -3277 
   -3289    -3296    -3299    -3307    -3329    -3345    -3349    -3357 
   -3366    -3376    -3391    -3407    -3422    -3434    -3451    -3465 
   -3480    -3501    -3516    -3520    -3538    -3566    -3572    -3577 
   -3607    -3623    -3624    -3642    -3662    -3665    -3680    -3707 
   -3721    -3732    -3755    -3773    -3778    -3797    -3821    -3828 
   -3846    -3871    -3885    -3890    -3909    -3929    -3939    -3955 
   -3978    -3996    -4014    -4036    -4048    -4060    -4074    -4086 
   -4097    -4107    -4128    -4140    -4139    -4153    -4182    -4183 
   -4178    -4202    -4217    -4212    -4217    -4228    -4225    -4228 
   -4240    -4248    -4255    -4266    -4266    -4263    -4271    -4287 
   -4286    -4282    -4294    -4298    -4275    -4263    -4279    -4282 
   -4266    -4266    -4274    -4270    -4275    -4271    -4245    -4230 
   -4228    -4212    -4212    -4220    -4203    -4190    -4195    -4202 
   -4186    -4171    -4166    -4151    -4136    -4133    -4128    -4112 
   -4102    -4104    -4087    -4072    -4077    -4063    -4044    -4052 
   -4055    -4036    -4024    -4021    -4008    -3989    -3982    -3983 
   -3977    -3967    -3963    -3956    -3946    -3940    -3939    -3936 
   -3925    -3904    -3892    -3889    -3882    -3875    -3871    -3865 
   -3858    -3854    -3846    -3842    -3840    -3828    -3812    -3809 
   -3807    -3797    -3797    -3801    -3798    -3793    -3796    -3792 
   -3778    -3769    -3761    -3755    -3759    -3773    -3774    -3762 
   -3765    -3773    -3759    -3755    -3774    -3782    -3771    -3775 
   -3794    -3784    -3771    -3792    -3796    -3782    -3793    -3807 
   -3800    -3801    -3808    -3804    -3807    -3820    -3824    -3820 
   -3824    -3835    -3842    -3844    -3851    -3856    -3858    -3865 
   -3873    -3878    -3878    -3879    -3896    -3904    -3899    -3905 
   -3910    -3908    -3908    -3919    -3927    -3921    -3925    -3937 
   -3935    -3929    -3931    -3927    -3916    -3917    -3923    -3913 
   -3910    -3924    -3916    -3893    -3885    -3874    -3861    -3865 
   -3870    -3861    -3848    -3835    -3823    -3813    -3807    -3797 
   -3785    -3778    -3762    -3748    -3751    -3740    -3717    -3711 
   -3697    -3670    -3661    -3662    -3647    -3619    -3601    -3592 
   -3573    -3559    -3550    -3524    -3501    -3503    -3497    -3472 
   -3453    -3438    -3427    -3416    -3407    -3404    -3396    -3375 
   -3358    -3353    -3335    -3314    -3314    -3314    -3299    -3300 
   -3298    -3279    -3276    -3277    -3264    -3256    -3254    -3245 
   -3241    -3241    -3230    -3222    -3221    -3232    -3248    -3245 
   -3237    -3245    -3254    -3245    -3237    -3246    -3252    -3250 
   -3253    -3250    -3261    -3279    -3275    -3277    -3291    -3281 
   -3275    -3294    -3300    -3302    -3314    -3307    -3302    -3312 
   -3315    -3315    -3326    -3327    -3321    -3327    -3335    -3336 
   -3341    -3342    -3338    -3339    -3336    -3322    -3316    -3316 
   -3312    -3310    -3310    -3307    -3296    -3279    -3265    -3264 
   -3260    -3249    -3241    -3225    -3210    -3198    -3173    -3157 
   -3148    -3121    -3096    -3084    -3065    -3036    -3010    -2986 
   -2956    -2929    -2907    -2884    -2859    -2824    -2792    -2770 
   -2739    -2704    -2671    -2636    -2602    -2575    -2544    -2505 
   -2473    -2444    -2412    -2376    -2349    -2317    -2274    -2242 
   -2222    -2181    -2144    -2123    -2085    -2045    -2012    -1979 
   -1949    -1926    -1906    -1876    -1852    -1833    -1794    -1761 
   -1736    -1702    -1669    -1648    -1632    -1614    -1586    -1561 
   -1539    -1518    -1494    -1468    -1456    -1445    -1429    -1416 
   -1402    -1385    -1368    -1356    -1345    -1339    -1327    -1308 
   -1302    -1306    -1293    -1286    -1293    -1296    -1287    -1282 
   -1282    -1281    -1286    -1297    -1296    -1302    -1308    -1304 
   -1308    -1329    -1343    -1344    -1354    -1366    -1372    -1390 
   -1398    -1395    -1416    -1436    -1435    -1445    -1476    -1490 
   -1494    -1521    -1553    -1563    -1579    -1603    -1620    -1634 
   -1653    -1672    -1696    -1722    -1742    -1759    -1787    -1817 
   -1831    -1849    -1877    -1900    -1914    -1929    -1956    -1991 
   -2007    -2019    -2047    -2079    -2089    -2100    -2128    -2147 
   -2161    -2188    -2220    -2245    -2254    -2270    -2296    -2313 
   -2328    -2346    -2362    -2381    -2397    -2408    -2419    -2432 
   -2446    -2455    -2467    -2482    -2497    -2497    -2497    -2509 
   -2519    -2516    -2520    -2542    -2544    -2524    -2523    -2531 
   -2531    -2529    -2536    -2535    -2527    -2529    -2529    -2523 
   -2521    -2511    -2492    -2488    -2485    -2466    -2450    -2446 
   -2438    -2419    -2408    -2390    -2365    -2354    -2344    -2322 
   -2304    -2289    -2269    -2246    -2230    -2201    -2162    -2139 
   -2124    -2101    -2072    -2050    -2034    -2011    -1985    -1956 
   -1930    -1912    -1884    -1848    -1829    -1814    -1784    -1755 
   -1738    -1719    -1691    -1679    -1664    -1632    -1609    -1583 
   -1547    -1525    -1512    -1493    -1467    -1445    -1433    -1416 
   -1393    -1379    -1372    -1355    -1336    -1324    -1308    -1293 
   -1290    -1286    -1266    -1256    -1254    -1235    -1230    -1235 
   -1212    -1210    -1228    -1212    -1200    -1206    -1196    -1183 
   -1197    -1204    -1190    -1197    -1204    -1190    -1198    -1215 
   -1206    -1200    -1212    -1215    -1209    -1228    -1246    -1239 
   -1242    -1262    -1269    -1269    -1277    -1279    -1287    -1314 
   -1328    -1324    -1334    -1354    -1362    -1370    -1382    -1387 
   -1393    -1410    -1431    -1445    -1462    -1478    -1486    -1491 
   -1505    -1518    -1525    -1533    -1544    -1556    -1567    -1582 
   -1597    -1606    -1622    -1636    -1637    -1648    -1669    -1682 
   -1694    -1709    -1715    -1721    -1733    -1746    -1755    -1764 
   -1786    -1799    -1806    -1823    -1838    -1844    -1852    -1871 
   -1884    -1883    -1880    -1900    -1926    -1935    -1944    -1954 
   -1954    -1962    -1985    -1993    -1993    -2012    -2031    -2027 
   -2045    -2072    -2070    -2079    -2107    -2116    -2120    -2141 
   -2161    -2169    -2187    -2207    -2211    -2222    -2250    -2265 
   -2269    -2292    -2319    -2331    -2343    -2366    -2380    -2392 
   -2419    -2439    -2447    -2466    -2490    -2509    -2535    -2556 
   -2563    -2578    -2613    -2647    -2674    -2701    -2721    -2731 
   -2751    -2786    -2814    -2840    -2866    -2884    -2913    -2952 
   -2982    -3002    -3030    -3059    -3080    -3100    -3129    -3163 
   -3190    -3210    -3238    -3271    -3291    -3308    -3339    -3379 
   -3410    -3437    -3457    -3477    -3511    -3543    -3565    -3591 
   -3620    -3647    -3669    -3697    -3728    -3748    -3766    -3790 
   -3815    -3836    -3861    -3888    -3921    -3951    -3964    -3977 
   -4008    -4039    -4058    -4068    -4088    -4116    -4143    -4167 
   -4185    -4197    -4213    -4237    -4261    -4279    -4295    -4306 
   -4324    -4364    -4392    -4399    -4414    -4437    -4453    -4468 
   -4479    -4490    -4506    -4521    -4534    -4553    -4563    -4565 
   -4576    -4588    -4595    -4599    -4610    -4623    -4631    -4630 
   -4631    -4642    -4657    -4664    -4664    -4662    -4661    -4668 
   -4679    -4688    -4692    -4692    -4696    -4704    -4706    -4699 
   -4695    -4695    -4695    -4692    -4684    -4683    -4683    -4675 
   -4672    -4671    -4662    -4648    -4629    -4622    -4621    -4610 
   -4595    -4583    -4575    -4563    -4542    -4530    -4519    -4507 
   -4495    -4486    -4468    -4438    -4413    -4396    -4380    -4369 
   -4357    -4336    -4311    -4287    -4258    -4237    -4225    -4209 
   -4183    -4163    -4144    -4112    -4078    -4051    -4021    -3994 
   -3975    -3956    -3935    -3910    -3882    -3852    -3825    -3800 
   -3770    -3743    -3724    -3697    -3663    -3636    -3608    -3576 
   -3544    -3524    -3503    -3476    -3449    -3415    -3381    -3358 
   -3338    -3310    -3280    -3253    -3231    -3213    -3190    -3160 
   -3138    -3115    -3080    -3059    -3042    -3011    -2984    -2967 
   -2947    -2910    -2872    -2849    -2835    -2816    -2794    -2774 
   -2751    -2721    -2697    -2685    -2666    -2639    -2617    -2601 
   -2583    -2563    -2538    -2515    -2502    -2489    -2461    -2439 
   -2425    -2415    -2403    -2385    -2365    -2350    -2338    -2312 
   -2289    -2278    -2258    -2241    -2238    -2236    -2224    -2205 
   -2193    -2180    -2170    -2166    -2153    -2141    -2133    -2119 
   -2114    -2114    -2101    -2088    -2089    -2083    -2060    -2052 
   -2049    -2037    -2041    -2043    -2022    -2012    -2019    -2008 
   -1999    -2010    -2012    -1998    -1989    -1993    -1996    -1995 
   -1993    -1998    -2003    -2001    -1999    -2004    -2018    -2031 
   -2034    -2039    -2053    -2066    -2070    -2077    -2085    -2096 
   -2118    -2133    -2143    -2161    -2172    -2174    -2187    -2209 
   -2230    -2247    -2273    -2290    -2303    -2330    -2357    -2378 
   -2397    -2416    -2440    -2467    -2493    -2513    -2540    -2578 
   -2602    -2617    -2650    -2679    -2705    -2739    -2764    -2785 
   -2809    -2839    -2862    -2880    -2909    -2930    -2952    -2995 
   -3021    -3026    -3057    -3096    -3115    -3142    -3179    -3196 
   -3210    -3241    -3269    -3288    -3314    -3339    -3357    -3383 
   -3416    -3439    -3454    -3483    -3511    -3522    -3539    -3569 
   -3585    -3596    -3615    -3638    -3658    -3676    -3681    -3696 
   -3719    -3735    -3748    -3762    -3774    -3789    -3809    -3832 
   -3846    -3855    -3866    -3863    -3871    -3892    -3894    -3899 
   -3917    -3920    -3909    -3919    -3932    -3921    -3915    -3932 
   -3943    -3932    -3927    -3928    -3932    -3932    -3927    -3920 
   -3906    -3904    -3912    -3905    -3897    -3899    -3894    -3885 
   -3878    -3873    -3861    -3848    -3848    -3852    -3842    -3834 
   -3835    -3817    -3794    -3786    -3774    -3754    -3744    -3746 
   -3738    -3719    -3708    -3701    -3685    -3682    -3672    -3643 
   -3640    -3638    -3619    -3619    -3615    -3593    -3585    -3580 
   -3563    -3555    -3551    -3543    -3527    -3515    -3508    -3499 
   -3488    -3480    -3468    -3454    -3449    -3447    -3443    -3431 
   -3419    -3406    -3393    -3391    -3391    -3385    -3381    -3379 
   -3365    -3354    -3350    -3345    -3338    -3333    -3334    -3326 
   -3311    -3311    -3303    -3291    -3288    -3275    -3267    -3265 
   -3256    -3245    -3240    -3240    -3230    -3206    -3194    -3194 
   -3183    -3179    -3177    -3167    -3154    -3140    -3125    -3125 
   -3119    -3102    -3090    -3079    -3064    -3055    -3044    -3037 
   -3025    -3001    -2984    -2975    -2959    -2951    -2948    -2930 
   -2910    -2901    -2893    -2874    -2857    -2849    -2840    -2833 
   -2826    -2809    -2792    -2789    -2779    -2758    -2744    -2733 
   -2718    -2706    -2695    -2686    -2683    -2674    -2663    -2656 
   -2635    -2616    -2617    -2608    -2589    -2586    -2582    -2573 
   -2562    -2551    -2540    -2538    -2533    -2520    -2515    -2509 
   -2492    -2477    -2475    -2475    -2474    -2463    -2454    -2455 
   -2455    -2442    -2428    -2427    -2423    -2411    -2413    -2420 
   -2408    -2394    -2397    -2394    -2389    -2392    -2385    -2381 
   -2394    -2392    -2371    -2373    -2378    -2365    -2362    -2371 
   -2361    -2350    -2358    -2357    -2353    -2363    -2363    -2351 
   -2347    -2342    -2336    -2334    -2336    -2338    -2335    -2334 
   -2335    -2336    -2338    -2338    -2328    -2324    -2336    -2347 
   -2331    -2323    -2324    -2307    -2307    -2327    -2319    -2309 
   -2316    -2315    -2307    -2315    -2319    -2311    -2309    -2312 
   -2303    -2303    -2313    -2307    -2300    -2309    -2316    -2309 
   -2309    -2312    -2308    -2308    -2303    -2295    -2299    -2303 
   -2304    -2305    -2305    -2304    -2305    -2305    -2301    -2293 
   -2285    -2290    -2300    -2292    -2281    -2284    -2284    -2277 
   -2281    -2290    -2286    -2276    -2280    -2286    -2274    -2265 
   -2269    -2267    -2266    -2269    -2265    -2265    -2277    -2284 
   -2282    -2284    -2270    -2263    -2282    -2297    -2300    -2307 
   -2308    -2305    -2313    -2319    -2317    -2328    -2342    -2334 
   -2330    -2349    -2358    -2351    -2354    -2362    -2359    -2365 
   -2382    -2397    -2409    -2419    -2428    -2438    -2447    -2461 
   -2471    -2473    -2488    -2512    -2517    -2519    -2536    -2555 
   -2565    -2578    -2596    -2602    -2609    -2629    -2648    -2660 
   -2673    -2675    -2675    -2687    -2694    -2694    -2712    -2725 
   -2721    -2735    -2759    -2771    -2776    -2786    -2792    -2799 
   -2810    -2806    -2808    -2829    -2840    -2837    -2848    -2853 
   -2847    -2856    -2872    -2870    -2867    -2867    -2866    -2876 
