Origin Time       2016/04/16 01:25:00
Lat.              32.753
Long.             130.762
Depth. (km)       12
Mag.              7.3
Station Code      TKY017
Station Lat.      35.6474
Station Long.     139.8093
Station Height(m) -9999
Record Time       2016/04/16 01:29:41
Sampling Freq(Hz) 100Hz
Duration Time(s)  60
Dir.              E-W
Scale Factor      7845(gal)/8223790
Max. Acc. (gal)   1.188
Last Correction   2016/04/16 01:29:42
Memo.             
[...]
   -1350    -1358    -1355    -1364    -1366    -1364    -1354    -1332 
   -1344    -1355    -1344    -1364    -1378    -1375    -1386    -1385 
   -1374    -1364    -1360    -1363    -1364    -1370    -1368    -1372 
   -1385    -1393    -1397    -1395    -1401    -1412    -1418    -1431 
   -1452    -1463    -1472    -1486    -1485    -1480    -1486    -1489 
   -1486    -1493    -1502    -1493    -1487    -1498    -1502    -1494 
   -1487    -1494    -1505    -1505    -1507    -1516    -1517    -1518 
   -1524    -1534    -1547    -1553    -1557    -1561    -1561    -1559 
   -1551    -1541    -1543    -1541    -1543    -1551    -1552    -1552 
   -1548    -1539    -1530    -1533    -1541    -1539    -1540    -1547 
   -1534    -1521    -1518    -1507    -1495    -1479    -1466    -1470 
   -1475    -1467    -1457    -1449    -1433    -1418    -1417    -1420 
   -1413    -1412    -1409    -1393    -1389    -1387    -1368    -1368 
   -1371    -1356    -1343    -1329    -1332    -1347    -1350    -1354 
   -1347    -1324    -1308    -1286    -1271    -1270    -1267    -1279 
   -1291    -1279    -1271    -1266    -1250    -1247    -1244    -1246 
   -1254    -1244    -1235    -1233    -1215    -1200    -1201    -1193 
   -1179    -1171    -1162    -1151    -1146    -1142    -1139    -1133 
   -1131    -1129    -1119    -1117    -1123    -1119    -1135    -1139 
   -1112    -1107    -1104    -1088    -1092    -1096    -1094    -1096 
   -1100    -1096    -1070    -1063    -1069    -1053    -1060    -1081 
   -1085    -1094    -1101    -1100    -1105    -1105    -1097    -1098 
   -1104    -1096    -1086    -1085    -1073    -1059    -1057    -1058 
   -1058    -1060    -1069    -1067    -1060    -1059    -1050    -1046 
   -1065    -1085    -1105    -1131    -1144    -1146    -1144    -1150 
   -1152    -1146    -1148    -1152    -1154    -1161    -1165    -1167 
   -1170    -1152    -1142    -1138    -1125    -1127    -1139    -1151 
   -1163    -1170    -1178    -1185    -1179    -1173    -1183    -1205 
   -1216    -1219    -1237    -1250    -1247    -1258    -1264    -1251 
   -1242    -1248    -1266    -1274    -1277    -1291    -1294    -1291 
   -1297    -1302    -1312    -1314    -1320    -1337    -1348    -1355 
   -1362    -1354    -1341    -1334    -1324    -1317    -1318    -1310 
   -1297    -1294    -1297    -1289    -1277    -1270    -1269    -1273 
   -1274    -1274    -1277    -1273    -1271    -1271    -1267    -1273 
   -1266    -1246    -1228    -1216    -1208    -1198    -1192    -1182 
   -1169    -1162    -1162    -1150    -1135    -1128    -1113    -1115 
   -1121    -1107    -1102    -1097    -1074    -1055    -1036    -1021 
   -1021    -1020    -1012    -1005    -1000     -992     -970     -955 
    -946     -931     -929     -931     -923     -919     -907     -903 
    -911     -909     -909     -918     -931     -932     -923     -918 
    -903     -889     -890     -884     -877     -886     -885     -877 
    -877     -866     -851     -851     -862     -882     -893     -897 
    -901     -901     -912     -920     -923     -932     -926     -927 
    -954     -966     -969     -980     -978     -982    -1000    -1011 
   -1008    -1008    -1020    -1026    -1038    -1055    -1063    -1065 
   -1063    -1062    -1073    -1085    -1096    -1102    -1102    -1101 
   -1100    -1107    -1129    -1158    -1185    -1204    -1215    -1232 
   -1246    -1259    -1282    -1301    -1310    -1327    -1351    -1355 
   -1355    -1371    -1372    -1354    -1359    -1368    -1363    -1371 
   -1385    -1389    -1394    -1401    -1399    -1408    -1426    -1426 
   -1428    -1445    -1457    -1476    -1501    -1521    -1540    -1537 
   -1528    -1540    -1551    -1563    -1586    -1598    -1598    -1595 
   -1590    -1584    -1583    -1583    -1576    -1568    -1582    -1597 
   -1588    -1586    -1584    -1566    -1552    -1553    -1556    -1560 
   -1560    -1563    -1578    -1590    -1594    -1602    -1620    -1638 
   -1655    -1667    -1672    -1671    -1679    -1690    -1690    -1686 
   -1687    -1679    -1675    -1684    -1679    -1667    -1661    -1657 
   -1658    -1655    -1657    -1658    -1656    -1655    -1656    -1677 
   -1694    -1688    -1696    -1706    -1705    -1706    -1705    -1714 
   -1728    -1728    -1734    -1749    -1757    -1765    -1777    -1790 
   -1795    -1792    -1796    -1802    -1804    -1811    -1815    -1825 
   -1838    -1838    -1840    -1840    -1830    -1825    -1826    -1837 
   -1840    -1831    -1829    -1833    -1823    -1800    -1796    -1798 
   -1796    -1814    -1821    -1823    -1842    -1845    -1848    -1872 
   -1877    -1868    -1877    -1898    -1903    -1896    -1900    -1894 
   -1873    -1867    -1854    -1837    -1822    -1803    -1796    -1790 
   -1779    -1775    -1757    -1729    -1709    -1692    -1686    -1688 
   -1701    -1701    -1675    -1667    -1665    -1651    -1641    -1638 
   -1640    -1645    -1641    -1642    -1642    -1626    -1610    -1603 
   -1601    -1587    -1561    -1547    -1530    -1499    -1478    -1467 
   -1456    -1443    -1426    -1412    -1393    -1371    -1355    -1336 
   -1324    -1321    -1323    -1333    -1336    -1324    -1310    -1286 
   -1254    -1237    -1227    -1216    -1216    -1217    -1210    -1201 
   -1193    -1188    -1175    -1156    -1146    -1146    -1147    -1143 
   -1140    -1127    -1105    -1089    -1069    -1057    -1051    -1039 
   -1038    -1042    -1031    -1016     -999     -982     -984     -984 
    -982     -992     -993     -996     -999     -996    -1005    -1011 
   -1009    -1017    -1024    -1026    -1015    -1007    -1013    -1005 
    -997    -1012    -1015    -1004     -994     -981     -978     -985 
    -985    -1000    -1026    -1030    -1032    -1039    -1039    -1044 
   -1051    -1051    -1057    -1067    -1074    -1084    -1084    -1081 
   -1085    -1077    -1070    -1084    -1092    -1094    -1107    -1115 
   -1116    -1120    -1133    -1155    -1171    -1190    -1217    -1230 
   -1240    -1256    -1258    -1255    -1262    -1271    -1278    -1277 
   -1275    -1282    -1285    -1282    -1294    -1302    -1306    -1325 
   -1348    -1360    -1375    -1393    -1405    -1418    -1429    -1445 
   -1467    -1478    -1479    -1479    -1485    -1493    -1489    -1480 
   -1468    -1460    -1466    -1486    -1509    -1528    -1548    -1563 
   -1574    -1598    -1622    -1634    -1640    -1649    -1658    -1660 
   -1668    -1682    -1687    -1690    -1692    -1684    -1684    -1692 
   -1692    -1698    -1714    -1715    -1715    -1729    -1729    -1721 
   -1737    -1755    -1771    -1796    -1809    -1810    -1815    -1826 
   -1836    -1837    -1846    -1856    -1859    -1861    -1854    -1841 
   -1830    -1823    -1819    -1821    -1831    -1830    -1831    -1842 
   -1840    -1845    -1856    -1845    -1842    -1850    -1850    -1857 
   -1871    -1880    -1878    -1868    -1852    -1833    -1822    -1817 
   -1807    -1810    -1817    -1814    -1809    -1815    -1809    -1791 
   -1777    -1760    -1752    -1755    -1749    -1748    -1741    -1726 
   -1710    -1699    -1695    -1680    -1675    -1683    -1671    -1652 
   -1645    -1632    -1628    -1632    -1625    -1624    -1622    -1610 
   -1605    -1590    -1567    -1553    -1543    -1534    -1530    -1535 
   -1539    -1524    -1509    -1506    -1495    -1487    -1482    -1471 
   -1456    -1444    -1426    -1404    -1389    -1379    -1362    -1354 
   -1350    -1334    -1334    -1341    -1334    -1337    -1336    -1321 
   -1313    -1310    -1304    -1290    -1285    -1290    -1275    -1247 
   -1220    -1193    -1174    -1159    -1154    -1159    -1155    -1136 
   -1117    -1105    -1101    -1115    -1140    -1151    -1147    -1142 
   -1133    -1117    -1107    -1107    -1107    -1107    -1113    -1121 
   -1117    -1105    -1092    -1077    -1059    -1047    -1050    -1057 
   -1050    -1039    -1035    -1023    -1016    -1026    -1039    -1044 
   -1053    -1050    -1043    -1047    -1053    -1059    -1073    -1084 
   -1081    -1071    -1069    -1067    -1057    -1057    -1055    -1051 
   -1062    -1067    -1060    -1071    -1085    -1102    -1121    -1124 
   -1124    -1138    -1146    -1154    -1165    -1174    -1179    -1177 
   -1170    -1166    -1173    -1185    -1196    -1205    -1202    -1200 
   -1213    -1221    -1219    -1223    -1229    -1230    -1243    -1263 
   -1279    -1291    -1306    -1312    -1305    -1306    -1313    -1316 
   -1332    -1356    -1368    -1370    -1372    -1383    -1383    -1382 
   -1401    -1413    -1405    -1416    -1424    -1420    -1422    -1429 
   -1443    -1456    -1463    -1482    -1494    -1493    -1495    -1497 
   -1499    -1503    -1507    -1520    -1528    -1543    -1556    -1557 
   -1552    -1541    -1540    -1540    -1533    -1545    -1552    -1537 
   -1535    -1545    -1553    -1560    -1552    -1541    -1545    -1553 
   -1570    -1590    -1593    -1593    -1583    -1560    -1560    -1553 
   -1524    -1526    -1543    -1540    -1535    -1528    -1522    -1512 
   -1503    -1501    -1494    -1494    -1493    -1480    -1474    -1472 
   -1467    -1468    -1464    -1451    -1433    -1414    -1401    -1401 
   -1401    -1387    -1372    -1362    -1341    -1325    -1334    -1343 
   -1334    -1323    -1308    -1305    -1300    -1287    -1291    -1300 
   -1297    -1285    -1263    -1248    -1243    -1240    -1232    -1220 
   -1216    -1202    -1183    -1174    -1161    -1143    -1132    -1129 
   -1133    -1140    -1142    -1139    -1136    -1132    -1125    -1124 
   -1119    -1107    -1112    -1119    -1109    -1107    -1102    -1085 
   -1078    -1073    -1063    -1069    -1073    -1075    -1081    -1074 
   -1074    -1084    -1090    -1093    -1093    -1088    -1084    -1098 
   -1113    -1107    -1111    -1121    -1112    -1093    -1088    -1088 
   -1084    -1088    -1100    -1105    -1113    -1123    -1124    -1140 
   -1151    -1146    -1159    -1182    -1192    -1201    -1204    -1208 
   -1220    -1224    -1225    -1232    -1235    -1229    -1224    -1221 
   -1227    -1233    -1232    -1228    -1228    -1235    -1243    -1250 
   -1248    -1233    -1230    -1247    -1259    -1281    -1305    -1308 
   -1298    -1301    -1308    -1323    -1350    -1363    -1352    -1352 
   -1355    -1341    -1334    -1339    -1336    -1334    -1339    -1336 
   -1341    -1359    -1370    -1377    -1383    -1382    -1391    -1398 
   -1394    -1404    -1422    -1437    -1455    -1466    -1479    -1486 
   -1480    -1489    -1499    -1507    -1518    -1520    -1520    -1514 
   -1505    -1514    -1534    -1545    -1551    -1560    -1563    -1559 
   -1554    -1561    -1578    -1599    -1632    -1656    -1671    -1686 
   -1684    -1680    -1702    -1726    -1741    -1755    -1765    -1757 
   -1746    -1746    -1753    -1765    -1783    -1788    -1792    -1804 
   -1809    -1810    -1818    -1822    -1821    -1826    -1837    -1840 
   -1844    -1852    -1857    -1859    -1859    -1852    -1848    -1849 
   -1849    -1850    -1852    -1844    -1842    -1852    -1852    -1852 
   -1852    -1848    -1837    -1830    -1825    -1810    -1792    -1775 
   -1757    -1744    -1733    -1729    -1728    -1706    -1684    -1672 
   -1656    -1634    -1613    -1597    -1584    -1566    -1544    -1525 
   -1505    -1495    -1493    -1485    -1476    -1467    -1449    -1435 
   -1424    -1417    -1414    -1412    -1412    -1413    -1401    -1377 
   -1360    -1352    -1334    -1321    -1312    -1293    -1286    -1282 
   -1279    -1279    -1269    -1254    -1250    -1243    -1236    -1240 
   -1240    -1236    -1246    -1247    -1233    -1235    -1246    -1242 
   -1233    -1244    -1250    -1242    -1246    -1246    -1239    -1246 
   -1244    -1237    -1248    -1260    -1263    -1273    -1275    -1271 
   -1269    -1260    -1262    -1271    -1274    -1279    -1282    -1282 
   -1287    -1289    -1282    -1274    -1273    -1277    -1270    -1264 
   -1269    -1266    -1267    -1273    -1271    -1269    -1264    -1262 
   -1255    -1250    -1254    -1240    -1219    -1210    -1188    -1165 
   -1154    -1140    -1131    -1129    -1125    -1113    -1094    -1070 
   -1051    -1026     -996     -977     -966     -958     -950     -936 
    -926     -915     -901     -880     -849     -831     -826     -815 
    -799     -781     -754     -724     -692     -669     -649     -623 
    -595     -575     -560     -540     -519     -499     -473     -450 
    -433     -414     -403     -399     -394     -386     -380     -383 
    -376     -361     -359     -349     -324     -317     -315     -307 
    -319     -326     -314     -301     -298     -299     -291     -295 
    -313     -315     -319     -324     -324     -329     -342     -361 
    -375     -386     -407     -429     -442     -456     -475     -488 
    -513     -537     -557     -589     -621     -643     -664     -673 
    -693     -730     -757     -791     -837     -859     -877     -909 
    -945     -972     -996    -1042    -1081    -1096    -1125    -1158 
   -1181    -1220    -1264    -1308    -1351    -1382    -1409    -1436 
   -1468    -1507    -1539    -1575    -1621    -1661    -1699    -1736 
   -1769    -1791    -1807    -1837    -1867    -1907    -1952    -1980 
   -2014    -2045    -2068    -2096    -2119    -2144    -2173    -2203 
   -2231    -2257    -2282    -2295    -2304    -2319    -2335    -2362 
   -2390    -2412    -2431    -2442    -2454    -2471    -2489    -2517 
   -2544    -2563    -2582    -2586    -2586    -2598    -2600    -2592 
   -2590    -2594    -2593    -2581    -2573    -2573    -2562    -2550 
   -2543    -2521    -2508    -2508    -2494    -2478    -2467    -2448 
   -2431    -2421    -2412    -2393    -2377    -2369    -2343    -2316 
   -2301    -2276    -2245    -2220    -2196    -2172    -2141    -2101 
   -2073    -2056    -2033    -2010    -1988    -1965    -1941    -1911 
   -1880    -1861    -1840    -1813    -1796    -1779    -1763    -1746 
   -1714    -1680    -1652    -1630    -1618    -1599    -1575    -1553 
   -1540    -1533    -1525    -1503    -1472    -1447    -1421    -1401 
   -1393    -1379    -1360    -1354    -1341    -1325    -1321    -1318 
   -1313    -1305    -1296    -1296    -1291    -1275    -1274    -1286 
   -1286    -1286    -1296    -1300    -1296    -1291    -1291    -1290 
   -1285    -1282    -1282    -1291    -1298    -1293    -1301    -1316 
   -1313    -1317    -1323    -1321    -1337    -1348    -1344    -1348 
   -1354    -1362    -1374    -1379    -1383    -1386    -1395    -1409 
   -1416    -1421    -1424    -1420    -1418    -1421    -1424    -1420 
   -1414    -1421    -1422    -1418    -1431    -1439    -1426    -1417 
   -1409    -1404    -1404    -1412    -1428    -1440    -1440    -1437 
   -1428    -1417    -1413    -1410    -1414    -1417    -1418    -1421 
   -1421    -1418    -1418    -1420    -1421    -1417    -1418    -1429 
   -1435    -1436    -1443    -1445    -1435    -1421    -1420    -1421 
   -1417    -1421    -1418    -1410    -1413    -1414    -1414    -1420 
   -1422    -1417    -1414    -1417    -1413    -1405    -1420    -1433 
   -1435    -1443    -1452    -1453    -1456    -1468    -1489    -1494 
   -1489    -1490    -1485    -1487    -1497    -1480    -1464    -1467 
   -1451    -1435    -1437    -1435    -1429    -1418    -1405    -1397 
   -1390    -1394    -1399    -1395    -1398    -1405    -1405    -1408 
   -1398    -1386    -1393    -1395    -1377    -1375    -1382    -1370 
   -1368    -1363    -1347    -1337    -1320    -1306    -1304    -1289 
   -1270    -1258    -1251    -1250    -1240    -1237    -1252    -1251 
   -1239    -1229    -1205    -1194    -1194    -1196    -1208    -1185 
   -1150    -1156    -1151    -1124    -1127    -1132    -1128    -1128 
   -1119    -1111    -1107    -1105    -1113    -1119    -1109    -1096 
   -1088    -1088    -1102    -1109    -1104    -1101    -1097    -1094 
   -1098    -1100    -1105    -1101    -1096    -1096    -1085    -1081 
   -1093    -1093    -1093    -1101    -1104    -1105    -1107    -1117 
   -1127    -1125    -1131    -1150    -1161    -1158    -1154    -1162 
   -1183    -1193    -1189    -1197    -1209    -1210    -1223    -1244 
   -1262    -1266    -1269    -1278    -1278    -1271    -1271    -1279 
   -1281    -1282    -1294    -1298    -1297    -1294    -1286    -1282 
   -1282    -1285    -1286    -1291    -1305    -1314    -1313    -1302 
   -1300    -1308    -1310    -1305    -1305    -1297    -1291    -1289 
   -1275    -1256    -1240    -1232    -1237    -1243    -1240    -1236 
   -1230    -1223    -1208    -1205    -1213    -1198    -1188    -1194 
   -1178    -1161    -1162    -1144    -1121    -1117    -1116    -1107 
   -1109    -1107    -1104    -1109    -1113    -1112    -1112    -1107 
   -1097    -1089    -1090    -1089    -1093    -1093    -1081    -1077 
   -1074    -1063    -1060    -1057    -1050    -1055    -1059    -1055 
   -1053    -1058    -1060    -1065    -1080    -1090    -1094    -1109 
   -1125    -1131    -1138    -1140    -1147    -1158    -1161    -1170 
   -1183    -1183    -1174    -1174    -1189    -1190    -1192    -1205 
   -1209    -1223    -1244    -1244    -1242    -1247    -1258    -1266 
   -1269    -1279    -1281    -1282    -1305    -1310    -1312    -1327 
   -1334    -1350    -1360    -1359    -1366    -1370    -1386    -1410 
   -1412    -1417    -1428    -1421    -1424    -1433    -1436    -1440 
   -1448    -1451    -1463    -1486    -1495    -1497    -1507    -1514 
   -1516    -1525    -1541    -1554    -1567    -1575    -1570    -1566 
   -1563    -1567    -1590    -1601    -1588    -1588    -1586    -1578 
   -1586    -1588    -1584    -1588    -1580    -1561    -1552    -1547 
   -1543    -1539    -1528    -1526    -1528    -1526    -1528    -1541 
   -1564    -1571    -1560    -1556    -1551    -1539    -1535    -1534 
   -1535    -1534    -1526    -1517    -1501    -1482    -1471    -1462 
   -1455    -1447    -1418    -1389    -1378    -1368    -1352    -1333 
   -1314    -1291    -1267    -1255    -1246    -1227    -1209    -1201 
   -1190    -1178    -1170    -1155    -1138    -1132    -1131    -1125 
   -1120    -1109    -1084    -1062    -1053    -1031    -1011     -997 
    -976     -962     -955     -939     -926     -913     -900     -882 
    -859     -850     -847     -838     -828     -819     -808     -801 
    -788     -773     -765     -745     -731     -737     -728     -714 
    -710     -700     -683     -672     -672     -673     -664     -665 
    -662     -648     -650     -660     -657     -654     -661     -669 
    -666     -661     -661     -657     -669     -688     -693     -702 
    -707     -702     -702     -704     -702     -700     -699     -702 
    -707     -710     -711     -711     -714     -719     -734     -757 
    -773     -784     -803     -814     -814     -814     -818     -823 
    -834     -857     -869     -876     -884     -870     -862     -872 
    -877     -893     -915     -923     -938     -949     -958     -980 
    -976     -977     -997     -993    -1004    -1034    -1042    -1051 
   -1065    -1080    -1090    -1093    -1111    -1131    -1131    -1136 
   -1138    -1131    -1133    -1138    -1142    -1139    -1131    -1133 
   -1127    -1107    -1104    -1107    -1104    -1109    -1116    -1120 
