Origin Time       2016/04/16 01:25:00
Lat.              32.753
Long.             130.762
Depth. (km)       12
Mag.              7.3
Station Code      TKY021
Station Lat.      35.6876
Station Long.     139.8193
Station Height(m) -9999
Record Time       2016/04/16 01:30:07
Sampling Freq(Hz) 100Hz
Duration Time(s)  60
Dir.              E-W
Scale Factor      7845(gal)/8223790
Max. Acc. (gal)   1.764
Last Correction   2016/04/16 01:30:09
Memo.             
[...]
    5285     5278     5277     5271     5273     5271     5271     5279 
    5278     5270     5260     5244     5243     5247     5232     5227 
    5235     5223     5215     5220     5202     5186     5201     5196 
    5167     5169     5162     5134     5134     5130     5103     5093 
    5085     5071     5065     5046     5031     5019     5004     5003 
    4992     4973     4969     4961     4943     4935     4923     4914 
    4918     4915     4897     4878     4872     4861     4849     4857 
    4835     4803     4818     4811     4789     4797     4774     4745 
    4754     4748     4730     4731     4718     4698     4696     4687 
    4676     4672     4660     4649     4649     4645     4629     4623 
    4626     4606     4590     4594     4585     4579     4579     4557 
    4541     4545     4531     4522     4517     4498     4486     4476 
    4463     4456     4452     4448     4437     4426     4423     4407 
    4386     4386     4382     4364     4355     4357     4342     4327 
    4322     4307     4289     4284     4283     4271     4263     4256 
    4245     4228     4214     4213     4200     4175     4172     4167 
    4140     4136     4139     4118     4099     4101     4094     4071 
    4062     4060     4045     4039     4039     4029     4012     3997 
    3993     3984     3969     3967     3959     3931     3920     3924 
    3906     3890     3904     3905     3875     3869     3882     3863 
    3852     3861     3839     3825     3832     3821     3815     3819 
    3812     3800     3794     3790     3790     3796     3796     3792 
    3790     3775     3751     3755     3761     3753     3767     3770 
    3746     3748     3757     3736     3723     3727     3719     3709 
    3717     3716     3704     3693     3682     3681     3684     3686 
    3692     3682     3669     3662     3653     3638     3634     3645 
    3634     3623     3627     3609     3584     3577     3572     3565 
    3562     3561     3555     3530     3507     3492     3472     3464 
    3466     3458     3450     3445     3429     3416     3404     3383 
    3372     3372     3362     3357     3354     3335     3322     3326 
    3325     3317     3321     3317     3300     3295     3295     3276 
    3269     3272     3272     3284     3287     3275     3264     3249 
    3248     3256     3257     3257     3267     3272     3267     3273 
    3279     3262     3269     3292     3289     3287     3298     3291 
    3291     3308     3311     3325     3345     3345     3354     3357 
    3342     3348     3361     3362     3375     3388     3387     3391 
    3412     3414     3402     3422     3443     3442     3451     3459 
    3443     3449     3469     3473     3488     3511     3515     3520 
    3524     3516     3518     3528     3532     3543     3555     3563 
    3570     3584     3589     3584     3595     3611     3618     3628 
    3638     3639     3646     3651     3659     3667     3670     3682 
    3697     3705     3726     3738     3734     3743     3754     3754 
    3765     3789     3798     3800     3820     3828     3835     3865 
    3871     3877     3899     3904     3921     3955     3959     3958 
    3978     3996     3996     4016     4050     4060     4077     4104 
    4107     4109     4128     4137     4149     4168     4178     4192 
    4217     4237     4258     4271     4268     4279     4299     4306 
    4313     4329     4337     4345     4369     4390     4393     4398 
    4411     4423     4430     4440     4448     4453     4456     4464 
    4480     4479     4480     4506     4515     4507     4517     4530 
    4527     4527     4548     4554     4550     4568     4575     4561 
    4571     4588     4594     4600     4608     4614     4622     4627 
    4626     4627     4630     4635     4641     4645     4650     4660 
    4666     4666     4672     4683     4688     4693     4703     4704 
    4699     4704     4718     4726     4726     4733     4738     4741 
    4748     4753     4756     4752     4760     4768     4760     4765 
    4772     4774     4788     4796     4801     4801     4803     4811 
    4804     4808     4823     4827     4839     4842     4839     4852 
    4850     4845     4850     4851     4854     4858     4857     4850 
    4847     4854     4852     4850     4860     4861     4855     4861 
    4865     4865     4862     4855     4862     4872     4872     4881 
    4884     4876     4873     4864     4862     4873     4881     4885 
    4877     4866     4869     4872     4865     4865     4873     4872 
    4868     4868     4866     4865     4860     4854     4855     4862 
    4873     4874     4870     4876     4874     4878     4885     4878 
    4885     4903     4899     4897     4914     4918     4920     4930 
    4928     4932     4945     4954     4959     4959     4965     4968 
    4972     4992     4994     4993     5012     5017     5020     5031 
    5042     5062     5080     5088     5098     5112     5125     5135 
    5144     5163     5184     5193     5206     5221     5225     5240 
    5260     5283     5310     5339     5355     5356     5366     5389 
    5406     5427     5458     5475     5486     5518     5541     5544 
    5566     5593     5606     5629     5649     5656     5671     5698 
    5719     5733     5749     5772     5786     5798     5821     5837 
    5853     5877     5894     5910     5926     5934     5949     5965 
    5968     5979     5994     6002     6015     6035     6043     6049 
    6057     6068     6076     6085     6102     6110     6108     6110 
    6115     6115     6123     6133     6130     6123     6123     6115 
    6119     6135     6138     6139     6138     6122     6122     6130 
    6119     6110     6115     6114     6107     6112     6119     6108 
    6091     6076     6079     6079     6064     6054     6050     6052 
    6048     6034     6019     6000     5983     5975     5975     5962 
    5937     5925     5914     5895     5881     5863     5848     5837 
    5823     5809     5782     5760     5757     5736     5701     5680 
    5664     5638     5625     5609     5570     5541     5524     5495 
    5468     5443     5417     5394     5375     5352     5320     5290 
    5260     5227     5194     5166     5146     5130     5112     5092 
    5060     5030     5007     4977     4950     4923     4897     4881 
    4858     4824     4803     4792     4777     4752     4722     4685 
    4650     4629     4608     4598     4598     4590     4567     4549 
    4541     4521     4500     4495     4482     4475     4468     4445 
    4437     4431     4414     4402     4393     4388     4379     4369 
    4371     4365     4355     4351     4342     4332     4325     4321 
    4311     4303     4305     4301     4295     4299     4306     4313 
    4311     4303     4307     4314     4315     4318     4325     4322 
    4321     4336     4341     4340     4345     4341     4334     4341 
    4355     4364     4371     4378     4379     4386     4387     4395 
    4414     4425     4430     4431     4431     4448     4464     4479 
    4498     4510     4517     4518     4526     4541     4558     4579 
    4590     4606     4631     4649     4658     4658     4675     4703 
    4714     4735     4768     4785     4803     4823     4841     4864 
    4887     4904     4916     4935     4961     4980     5008     5050 
    5081     5097     5109     5121     5135     5148     5169     5189 
    5211     5248     5277     5279     5298     5324     5327     5348 
    5385     5395     5402     5424     5439     5443     5455     5468 
    5464     5474     5508     5517     5516     5539     5551     5528 
    5521     5532     5522     5517     5537     5555     5541     5524 
    5521     5498     5472     5479     5472     5441     5440     5448 
    5429     5416     5413     5379     5346     5341     5327     5297 
    5287     5278     5248     5225     5219     5194     5169     5151 
    5125     5093     5073     5062     5049     5020     4997     4970 
    4931     4908     4891     4865     4847     4831     4801     4776 
    4760     4731     4693     4679     4671     4645     4635     4627 
    4603     4577     4556     4541     4515     4490     4480     4455 
    4438     4437     4425     4415     4398     4376     4367     4344 
    4320     4310     4297     4275     4263     4255     4228     4212 
    4209     4186     4155     4145     4132     4104     4090     4087 
    4060     4033     4029     4020     4000     3979     3963     3944 
    3928     3923     3909     3889     3885     3871     3838     3813 
    3798     3778     3765     3750     3726     3711     3699     3681 
    3666     3643     3620     3611     3600     3580     3559     3535 
    3507     3483     3469     3458     3446     3439     3424     3399 
    3377     3360     3350     3343     3322     3303     3287     3267 
    3267     3268     3254     3237     3213     3194     3179     3169 
    3172     3169     3159     3152     3134     3117     3111     3099 
    3095     3105     3099     3088     3092     3094     3082     3075 
    3068     3063     3071     3076     3071     3073     3078     3078 
    3079     3084     3094     3092     3088     3092     3100     3105 
    3107     3117     3123     3126     3129     3127     3136     3150 
    3161     3167     3179     3191     3190     3198     3219     3215 
    3210     3229     3241     3256     3279     3283     3272     3280 
    3299     3306     3314     3334     3341     3345     3365     3376 
    3373     3379     3388     3407     3426     3433     3439     3451 
    3456     3461     3472     3485     3492     3500     3516     3524 
    3532     3551     3566     3574     3588     3593     3591     3600 
    3605     3603     3618     3636     3647     3662     3672     3665 
    3659     3665     3658     3650     3658     3662     3673     3692 
    3689     3684     3690     3688     3678     3678     3684     3678 
    3684     3696     3700     3705     3705     3697     3701     3701 
    3689     3690     3693     3690     3703     3708     3693     3681 
    3676     3673     3684     3686     3674     3685     3700     3685 
    3680     3690     3680     3669     3680     3692     3704     3712 
    3705     3701     3715     3713     3704     3713     3727     3726 
    3728     3738     3738     3731     3734     3735     3740     3748 
    3754     3761     3765     3766     3765     3771     3785     3788 
    3789     3797     3798     3798     3804     3809     3819     3828 
    3832     3838     3844     3847     3844     3851     3874     3879 
    3871     3878     3890     3901     3905     3902     3910     3924 
    3924     3921     3932     3942     3942     3950     3955     3951 
    3970     3989     3991     4002     4017     4024     4032     4040 
    4039     4044     4055     4055     4055     4074     4093     4095 
    4107     4121     4124     4126     4135     4143     4155     4167 
    4170     4174     4189     4194     4192     4203     4214     4223 
    4240     4258     4271     4280     4294     4301     4301     4299 
    4305     4314     4327     4340     4349     4365     4379     4378 
    4383     4391     4401     4417     4423     4430     4452     4461 
    4452     4464     4483     4476     4482     4498     4502     4521 
    4541     4545     4553     4568     4576     4576     4585     4596 
    4611     4630     4637     4639     4660     4673     4672     4687 
    4708     4725     4743     4752     4756     4768     4768     4768 
    4787     4806     4824     4849     4866     4878     4896     4909 
    4909     4918     4941     4954     4963     4980     4996     5015 
    5026     5030     5049     5069     5077     5093     5115     5120 
    5121     5135     5148     5161     5178     5192     5196     5206 
    5224     5233     5243     5256     5271     5282     5285     5292 
    5300     5304     5312     5323     5321     5313     5321     5328 
    5327     5337     5348     5358     5366     5363     5364     5374 
    5379     5383     5395     5416     5420     5413     5414     5418 
    5428     5437     5433     5441     5460     5455     5454     5468 
    5474     5466     5462     5464     5463     5468     5483     5487 
    5493     5501     5495     5490     5501     5510     5503     5502 
    5514     5518     5521     5536     5533     5519     5522     5526 
    5529     5540     5547     5548     5547     5544     5539     5540 
    5551     5564     5568     5567     5570     5576     5578     5575 
    5582     5590     5582     5582     5594     5598     5602     5601 
    5597     5606     5613     5610     5613     5617     5622     5623 
    5626     5637     5647     5647     5652     5661     5663     5668 
    5676     5679     5683     5682     5682     5686     5692     5711 
    5726     5730     5741     5752     5760     5767     5776     5790 
    5805     5814     5821     5831     5846     5860     5872     5879 
    5881     5898     5917     5926     5940     5965     5975     5983 
    6008     6016     6016     6037     6053     6066     6091     6108 
    6115     6127     6150     6172     6185     6203     6216     6226 
    6239     6251     6262     6276     6290     6312     6326     6334 
    6347     6346     6343     6363     6376     6376     6386     6394 
    6396     6404     6411     6415     6423     6427     6427     6427 
    6431     6434     6432     6434     6440     6440     6434     6424 
    6416     6415     6409     6394     6386     6393     6394     6381 
    6366     6353     6346     6334     6320     6318     6305     6281 
    6274     6273     6249     6230     6219     6192     6176     6173 
    6156     6138     6134     6110     6070     6056     6044     6021 
    6004     5991     5962     5945     5935     5911     5890     5872 
    5841     5818     5814     5805     5783     5749     5725     5714 
    5699     5687     5668     5652     5644     5620     5598     5590 
    5568     5543     5540     5521     5491     5483     5475     5451 
    5437     5433     5412     5393     5385     5359     5343     5339 
    5320     5319     5328     5309     5293     5289     5273     5258 
    5256     5258     5250     5251     5250     5232     5220     5220 
    5219     5213     5208     5201     5192     5190     5190     5185 
    5178     5169     5166     5164     5163     5173     5177     5169 
    5159     5152     5148     5146     5143     5143     5142     5140 
    5140     5140     5138     5138     5136     5127     5120     5112 
    5105     5111     5115     5105     5093     5085     5073     5067 
    5065     5057     5049     5047     5038     5027     5023     5009 
    4989     4984     4976     4959     4945     4939     4931     4918 
    4903     4880     4865     4857     4845     4835     4818     4797 
    4787     4768     4743     4726     4704     4681     4668     4662 
    4639     4604     4585     4568     4540     4527     4506     4476 
    4471     4450     4417     4407     4386     4349     4333     4311 
    4282     4263     4243     4220     4199     4189     4164     4125 
    4113     4094     4054     4040     4032     4003     3982     3967 
    3946     3923     3908     3888     3851     3827     3817     3793 
    3770     3767     3746     3709     3703     3692     3662     3649 
    3639     3612     3585     3582     3570     3542     3537     3524 
    3492     3483     3472     3443     3431     3433     3422     3407 
    3402     3388     3373     3358     3343     3334     3327     3319 
    3310     3303     3287     3268     3271     3269     3256     3256 
    3252     3235     3237     3240     3223     3221     3227     3222 
    3213     3215     3215     3199     3186     3191     3190     3180 
    3191     3192     3180     3191     3190     3171     3172     3180 
    3176     3179     3183     3173     3163     3168     3175     3168 
    3169     3171     3165     3173     3173     3160     3172     3186 
    3176     3176     3176     3169     3173     3173     3165     3163 
    3160     3154     3156     3164     3152     3137     3141     3144 
    3142     3142     3134     3126     3126     3129     3129     3127 
    3123     3118     3119     3119     3117     3113     3113     3121 
    3123     3121     3115     3117     3117     3107     3107     3109 
    3106     3111     3114     3118     3123     3121     3119     3126 
    3121     3111     3113     3118     3130     3144     3146     3152 
    3163     3163     3161     3167     3172     3172     3176     3194 
    3206     3210     3234     3252     3258     3272     3275     3281 
    3289     3302     3327     3326     3321     3343     3355     3369 
    3392     3397     3406     3427     3451     3465     3469     3481 
    3492     3500     3518     3530     3538     3554     3572     3593 
    3615     3628     3642     3651     3657     3674     3689     3701 
    3721     3731     3746     3765     3770     3788     3808     3827 
    3850     3854     3855     3871     3890     3908     3916     3925 
    3932     3944     3967     3978     3975     3986     3996     4000 
    4017     4033     4040     4055     4064     4069     4081     4074 
    4083     4112     4112     4107     4128     4133     4129     4140 
    4148     4140     4140     4155     4151     4140     4145     4140 
    4133     4147     4145     4133     4132     4124     4121     4121 
    4105     4098     4101     4093     4086     4072     4054     4043 
    4039     4040     4027     4006     3997     3984     3973     3964 
    3955     3944     3932     3921     3912     3896     3883     3877 
    3861     3852     3846     3825     3809     3801     3794     3780 
    3757     3755     3755     3730     3723     3719     3703     3704 
    3708     3699     3694     3692     3686     3684     3681     3677 
    3681     3692     3690     3684     3678     3672     3674     3692 
    3694     3690     3700     3693     3685     3711     3716     3703 
    3726     3736     3728     3748     3761     3757     3775     3790 
    3794     3805     3813     3815     3828     3850     3855     3867 
    3896     3899     3908     3940     3940     3935     3960     3969 
    3981     4013     4024     4032     4054     4063     4067     4083 
    4106     4118     4124     4145     4167     4172     4191     4220 
    4225     4233     4260     4278     4289     4309     4324     4329 
    4344     4367     4374     4380     4410     4414     4413     4445 
    4456     4453     4469     4475     4477     4488     4502     4518 
    4526     4544     4557     4557     4577     4590     4590     4608 
    4621     4618     4627     4641     4653     4664     4666     4668 
    4676     4684     4687     4677     4671     4684     4695     4702 
    4706     4707     4712     4710     4710     4723     4726     4730 
    4743     4746     4741     4731     4734     4741     4745     4754 
    4752     4745     4752     4761     4766     4764     4757     4762 
    4769     4777     4783     4780     4781     4784     4793     4801 
    4800     4807     4814     4814     4826     4838     4838     4847 
    4872     4881     4891     4905     4895     4896     4927     4938 
