Origin Time       2016/04/16 01:25:00
Lat.              32.753
Long.             130.762
Depth. (km)       12
Mag.              7.3
Station Code      TKY013
Station Lat.      35.6596
Station Long.     139.8343
Station Height(m) -9999
Record Time       2016/04/16 01:30:22
Sampling Freq(Hz) 100Hz
Duration Time(s)  60
Dir.              N-S
Scale Factor      7845(gal)/8223790
Max. Acc. (gal)   1.746
Last Correction   2016/04/16 01:30:24
Memo.             
[...]
   11114    11124    11146    11156    11169    11171    11199    11246 
   11260    11241    11195    11175    11259    11337    11268    11173 
   11203    11275    11291    11300    11296    11267    11296    11333 
   11334    11367    11364    11326    11377    11475    11481    11408 
   11381    11429    11468    11469    11441    11437    11470    11470 
   11481    11510    11470    11399    11402    11465    11497    11512 
   11516    11450    11449    11547    11568    11541    11546    11566 
   11587    11583    11570    11560    11578    11624    11591    11560 
   11584    11577    11595    11604    11545    11543    11542    11507 
   11551    11564    11551    11612    11611    11576    11595    11577 
   11587    11643    11622    11550    11531    11583    11626    11589 
   11543    11539    11557    11554    11504    11479    11502    11496 
   11473    11473    11466    11449    11439    11427    11431    11458 
   11439    11414    11430    11408    11379    11399    11403    11391 
   11372    11326    11298    11298    11298    11275    11241    11225 
   11206    11194    11192    11190    11213    11210    11164    11157 
   11160    11156    11151    11117    11134    11191    11149    11051 
   11039    11076    11057    11018    10976    10953    11003    11006 
   10920    10870    10876    10908    10916    10876    10864    10895 
   10906    10872    10833    10824    10829    10843    10849    10821 
   10786    10764    10759    10768    10729    10702    10747    10720 
   10678    10727    10717    10662    10671    10700    10685    10606 
   10609    10729    10748    10678    10655    10669    10705    10712 
   10682    10662    10646    10662    10689    10670    10639    10594 
   10611    10705    10666    10563    10612    10694    10687    10606 
   10566    10679    10758    10696    10660    10686    10708    10737 
   10771    10739    10673    10662    10682    10697    10689    10652 
   10655    10686    10679    10627    10565    10578    10652    10669 
   10646    10635    10597    10616    10708    10704    10635    10613 
   10635    10708    10731    10659    10615    10593    10566    10586 
   10605    10570    10524    10504    10509    10530    10517    10457 
   10419    10420    10416    10415    10427    10419    10365    10314 
   10309    10322    10288    10251    10250    10269    10311    10272 
   10149    10108    10118    10118    10126    10080    10031    10034 
   10014    10004    10019     9983     9929     9911     9903     9871 
    9840     9819     9780     9763     9836     9899     9802     9660 
    9667     9737     9695     9625     9641     9678     9686     9675 
    9647     9636     9624     9614     9605     9562     9563     9612 
    9618     9589     9555     9586     9684     9676     9548     9509 
    9620     9705     9666     9605     9585     9563     9610     9702 
    9666     9572     9606     9690     9715     9738     9736     9679 
    9680     9741     9737     9709     9725     9748     9803     9830 
    9764     9742     9771     9760     9783     9804     9778     9794 
    9794     9748     9764     9811     9842     9844     9807     9810 
    9828     9810     9817     9814     9755     9721     9778     9865 
    9876     9813     9752     9729     9759     9768     9709     9668 
    9653     9624     9657     9701     9640     9589     9607     9599 
    9566     9529     9491     9486     9486     9470     9474     9468 
    9397     9324     9294     9292     9305     9273     9229     9248 
    9246     9208     9194     9188     9175     9166     9151     9107 
    9022     8939     8918     8946     8976     8962     8896     8851 
    8870     8895     8877     8779     8655     8662     8741     8743 
    8714     8710     8703     8665     8638     8662     8657     8572 
    8522     8559     8591     8584     8571     8542     8523     8540 
    8526     8500     8550     8548     8444     8387     8367     8364 
    8397     8390     8404     8471     8484     8474     8467     8460 
    8446     8372     8368     8451     8457     8440     8437     8457 
    8527     8522     8453     8469     8513     8513     8529     8579 
    8587     8567     8560     8500     8456     8550     8652     8673 
    8680     8700     8777     8808     8752     8758     8789     8824 
    8883     8887     8903     8932     8896     8895     8949     8951 
    8943     9007     9074     9065     9050     9104     9142     9099 
    9086     9166     9248     9251     9209     9252     9366     9393 
    9354     9347     9375     9413     9435     9435     9413     9406 
    9445     9466     9452     9431     9448     9493     9478     9478 
    9506     9482     9490     9553     9575     9518     9489     9570 
    9599     9544     9548     9567     9563     9591     9595     9541 
    9505     9508     9497     9490     9516     9497     9459     9487 
    9481     9406     9409     9444     9418     9397     9401     9400 
    9391     9375     9343     9302     9293     9331     9343     9283 
    9238     9254     9246     9198     9166     9159     9167     9184 
    9197     9158     9047     8992     9035     9074     9036     8954 
    8931     8992     9008     8916     8872     8949     8966     8907 
    8923     8962     8911     8822     8795     8816     8806     8789 
    8810     8811     8810     8804     8730     8694     8696     8658 
    8703     8725     8625     8629     8712     8716     8677     8648 
    8648     8649     8657     8677     8631     8575     8621     8703 
    8671     8553     8538     8600     8579     8563     8598     8592 
    8612     8652     8598     8523     8533     8592     8608     8583 
    8579     8587     8612     8662     8673     8644     8627     8615 
    8627     8695     8733     8712     8723     8723     8699     8721 
    8725     8726     8777     8779     8795     8858     8842     8812 
    8845     8889     8899     8904     8938     8980     9028     9045 
    9071     9139     9092     9018     9059     9116     9158     9186 
    9213     9298     9358     9350     9377     9437     9428     9378 
    9412     9522     9613     9621     9574     9591     9701     9764 
    9752     9753     9806     9891     9927     9913     9918     9925 
    9960     9996     9991    10050    10120    10119    10183    10273 
   10276    10282    10308    10323    10380    10449    10493    10509 
   10504    10537    10619    10666    10651    10667    10714    10727 
   10731    10702    10675    10762    10835    10817    10837    10875 
   10906    10940    10916    10909    10966    10998    10970    10948 
   11032    11124    11071    10991    11024    11095    11122    11148 
   11187    11209    11204    11163    11155    11167    11082    11024 
   11094    11206    11261    11167    11067    11134    11196    11125 
   11059    11075    11117    11155    11163    11132    11113    11094 
   11024    10995    11041    11076    11102    11115    11068    11020 
   11024    11016    10959    10908    10894    10924    10975    10963 
   10902    10872    10824    10785    10820    10836    10824    10808 
   10767    10782    10812    10750    10659    10621    10660    10720 
   10705    10648    10601    10617    10704    10685    10537    10498 
   10585    10624    10578    10519    10500    10493    10478    10467 
   10444    10457    10467    10434    10434    10438    10438    10449 
   10401    10381    10408    10390    10376    10377    10370    10346 
   10319    10357    10407    10400    10396    10417    10426    10376 
   10304    10291    10336    10403    10427    10392    10351    10372 
   10419    10397    10346    10345    10366    10405    10444    10420 
   10381    10427    10500    10466    10404    10447    10465    10407 
   10423    10478    10497    10480    10419    10403    10444    10503 
   10562    10544    10489    10490    10511    10511    10497    10520 
   10547    10539    10542    10547    10558    10600    10585    10534 
   10561    10597    10577    10579    10620    10650    10650    10604 
   10562    10551    10584    10660    10678    10665    10687    10666 
   10663    10714    10694    10686    10728    10727    10737    10739 
   10689    10727    10821    10797    10755    10787    10788    10828 
   10899    10875    10863    10897    10882    10854    10863    10878 
   10886    10897    10906    10928    10963    10984    10986    10971 
   11003    11076    11075    11037    11025    11022    11082    11113 
   11044    11076    11121    11087    11165    11198    11092    11098 
   11148    11142    11152    11115    11062    11118    11206    11187 
   11126    11125    11133    11141    11153    11119    11098    11113 
   11114    11117    11103    11097    11111    11080    11065    11083 
   11037    11011    11036    11022    11034    11055    11003    10972 
   10924    10866    10906    10901    10817    10801    10801    10786 
   10778    10764    10771    10755    10698    10655    10624    10601 
   10600    10625    10627    10574    10569    10594    10530    10461 
   10454    10438    10436    10443    10409    10351    10324    10354 
   10362    10354    10372    10327    10276    10293    10277    10270 
   10295    10239    10211    10235    10208    10220    10260    10230 
   10227    10266    10272    10238    10208    10208    10228    10274 
   10299    10276    10285    10299    10289    10303    10303    10273 
   10249    10296    10385    10378    10345    10362    10374    10417 
   10463    10470    10477    10446    10422    10507    10623    10624 
   10547    10546    10625    10716    10722    10624    10639    10758 
   10762    10763    10813    10783    10779    10859    10924    10925 
   10886    10891    10940    10976    11017    11051    11039    11013 
   11057    11126    11109    11098    11124    11109    11163    11245 
   11206    11155    11169    11232    11292    11277    11229    11221 
   11237    11259    11272    11271    11290    11346    11360    11322 
   11310    11337    11377    11373    11346    11360    11371    11384 
   11418    11384    11306    11325    11395    11376    11317    11299 
   11337    11400    11384    11323    11327    11354    11361    11356 
   11317    11268    11292    11376    11384    11300    11249    11265 
   11306    11311    11246    11214    11264    11287    11242    11190 
   11179    11204    11236    11219    11144    11114    11148    11151 
   11141    11159    11129    11068    11080    11124    11097    11049 
   11037    11032    11036    11045    11021    10995    11016    11010 
   10949    10936    10947    10939    10936    10871    10817    10858 
   10858    10844    10860    10821    10788    10788    10786    10788 
   10762    10720    10704    10733    10743    10652    10606    10660 
   10651    10602    10600    10584    10547    10546    10543    10501 
   10469    10450    10409    10415    10446    10389    10320    10334 
   10355    10314    10235    10196    10251    10291    10192    10088 
   10104    10168    10177    10103    10021    10010    10044    10030 
    9942     9891     9915     9913     9883     9837     9776     9780 
    9806     9753     9686     9651     9641     9683     9695     9590 
    9472     9487     9540     9517     9464     9397     9359     9387 
    9377     9308     9282     9296     9271     9217     9169     9132 
    9157     9201     9153     9063     9038     9046     9015     8986 
    8977     8962     8972     8962     8926     8903     8866     8866 
    8899     8884     8868     8839     8796     8797     8800     8777 
    8749     8779     8830     8792     8760     8760     8721     8749 
    8787     8729     8681     8703     8746     8735     8721     8777 
    8761     8714     8772     8780     8742     8773     8795     8815 
    8847     8826     8785     8795     8869     8891     8829     8818 
    8889     8950     8926     8870     8884     8942     8974     8957 
    8957     9022     9054     9036     9054     9113     9180     9196 
    9161     9177     9244     9236     9173     9211     9308     9337 
    9329     9316     9328     9413     9460     9408     9406     9472 
    9522     9544     9512     9510     9594     9625     9618     9659 
    9693     9705     9749     9804     9780     9738     9804     9860 
    9860     9875     9865     9871     9911     9954     9979     9945 
    9938     9984     9998    10041    10085    10076    10066    10049 
   10069    10095    10068    10107    10137    10081    10110    10189 
   10176    10116    10115    10173    10183    10147    10107    10058 
   10084    10145    10142    10093    10026    10014    10066    10073 
   10026     9988     9981     9995     9994     9965     9938     9923 
    9907     9919     9946     9869     9783     9810     9792     9718 
    9724     9749     9721     9648     9591     9605     9576     9491 
    9466     9435     9401     9433     9402     9332     9309     9255 
    9248     9289     9208     9100     9099     9128     9139     9097 
    8993     8950     8974     8947     8901     8877     8830     8797 
    8777     8745     8718     8667     8622     8629     8612     8560 
    8540     8510     8464     8467     8487     8474     8437     8403 
    8401     8431     8411     8344     8340     8352     8328     8318 
    8299     8299     8321     8301     8272     8266     8284     8291 
    8248     8226     8247     8267     8284     8290     8267     8255 
    8283     8332     8380     8414     8418     8411     8398     8411 
    8490     8545     8533     8510     8525     8615     8669     8614 
    8614     8707     8742     8719     8743     8807     8838     8841 
    8873     8907     8927     8966     8981     9015     9111     9173 
    9158     9128     9180     9286     9312     9296     9315     9387 
    9454     9475     9505     9509     9513     9609     9656     9633 
    9670     9705     9724     9747     9747     9782     9822     9807 
    9840     9925     9944     9938     9967     9967     9968    10053 
   10125    10104    10080    10107    10164    10207    10192    10153 
   10149    10187    10239    10245    10211    10208    10233    10266 
   10287    10266    10253    10266    10287    10305    10293    10301 
   10359    10361    10299    10299    10335    10329    10336    10345 
   10338    10365    10320    10269    10349    10357    10287    10320 
   10336    10299    10280    10263    10296    10328    10301    10285 
   10305    10336    10308    10222    10214    10255    10258    10249 
   10241    10266    10295    10269    10263    10307    10305    10242 
   10255    10314    10282    10255    10276    10257    10253    10261 
   10218    10210    10268    10274    10238    10237    10226    10210 
   10211    10214    10273    10288    10226    10253    10280    10237 
   10238    10265    10270    10255    10249    10263    10251    10251 
   10263    10230    10207    10230    10265    10257    10200    10203 
   10258    10254    10222    10203    10204    10250    10241    10168 
   10166    10201    10187    10162    10179    10207    10184    10134 
   10149    10210    10185    10095    10100    10142    10096    10085 
   10118    10088    10084    10116    10103    10095    10088    10048 
   10034    10057    10054    10002     9987    10035    10019     9969 
    9981     9984     9958     9956    10003    10026     9934     9880 
    9949     9985     9960     9941     9940     9927     9933     9981 
    9988     9961     9937     9892     9910     9985     9984     9934 
    9961     9985     9942     9975    10022     9969     9987    10057 
   10033    10029    10058    10030    10037    10085    10079    10073 
   10106    10125    10138    10134    10110    10137    10187    10187 
   10173    10199    10261    10269    10214    10227    10278    10312 
   10386    10372    10281    10343    10444    10442    10430    10409 
   10393    10450    10508    10497    10467    10477    10521    10547 
   10546    10580    10628    10586    10570    10677    10733    10678 
   10646    10687    10755    10795    10767    10733    10755    10800 
   10828    10809    10812    10854    10814    10785    10854    10860 
   10832    10881    10906    10878    10870    10876    10891    10925 
   10939    10949    10967    10948    10955    10979    10944    10930 
   10955    10956    10975    10987    10943    10947    10996    10995 
   10999    11005    10971    10976    10975    10940    10972    10999 
   10966    10941    10924    10929    10955    10968    10959    10951 
   10971    10959    10947    10996    10987    10935    10943    10956 
   10962    10951    10897    10908    10955    10953    10966    10936 
   10875    10918    10966    10935    10902    10897    10905    10925 
   10953    10948    10921    10939    10953    10955    10986    11002 
   10970    10952    10978    11002    10998    10970    10959    10978 
   10986    10989    11007    11007    11005    11005    10989    11009 
   11053    11056    11037    11028    11036    11070    11092    11067 
   11034    11067    11119    11119    11095    11043    11029    11141 
   11184    11072    11033    11087    11137    11180    11144    11087 
   11105    11129    11159    11161    11117    11151    11204    11153 
   11118    11184    11221    11178    11167    11218    11257    11232 
   11164    11186    11280    11277    11190    11149    11175    11226 
   11225    11184    11192    11183    11146    11171    11219    11246 
   11213    11145    11186    11253    11203    11171    11203    11190 
   11206    11237    11198    11180    11210    11219    11223    11187 
   11115    11126    11200    11202    11136    11107    11119    11155 
   11213    11187    11075    11061    11141    11156    11118    11122 
   11133    11103    11102    11128    11136    11145    11124    11068 
   11047    11053    11059    11067    11068    11044    11005    10993 
   11017    11034    11007    10972    10971    10998    11001    10941 
   10895    10922    10975    11001    10957    10895    10929    10963 
   10895    10858    10881    10870    10854    10878    10910    10883 
   10801    10779    10839    10860    10808    10759    10737    10728 
   10743    10751    10732    10719    10683    10644    10681    10737 
   10706    10638    10616    10663    10709    10666    10594    10604 
   10665    10658    10598    10578    10582    10565    10546    10543 
   10543    10525    10496    10451    10416    10446    10492    10455 
   10400    10395    10388    10392    10392    10345    10326    10326 
   10326    10359    10357    10311    10285    10282    10284    10276 
   10260    10214    10191    10230    10216    10158    10146    10152 
   10147    10119    10098    10134    10118    10031    10011    10054 
   10091    10031     9929     9960    10002     9961     9946     9896 
    9863     9919     9925     9887     9872     9860     9846     9834 
    9873     9895     9815     9764     9786     9814     9819     9769 
    9728     9737     9711     9711     9771     9717     9624     9634 
    9667     9687     9661     9591     9567     9595     9621     9607 
    9606     9582     9495     9525     9617     9567     9460     9443 
