Origin Time       2016/04/16 01:25:00
Lat.              32.753
Long.             130.762
Depth. (km)       12
Mag.              7.3
Station Code      TKY020
Station Lat.      35.6657
Station Long.     139.8087
Station Height(m) -9999
Record Time       2016/04/16 01:30:17
Sampling Freq(Hz) 100Hz
Duration Time(s)  60
Dir.              N-S
Scale Factor      7845(gal)/8223790
Max. Acc. (gal)   1.546
Last Correction   2016/04/16 01:30:19
Memo.             
[...]
  -13254   -13278   -13290   -13300   -13306   -13304   -13320   -13344 
  -13356   -13359   -13366   -13386   -13408   -13421   -13413   -13401 
  -13397   -13410   -13446   -13477   -13468   -13460   -13474   -13460 
  -13448   -13470   -13479   -13494   -13517   -13525   -13533   -13533 
  -13510   -13487   -13489   -13501   -13502   -13506   -13508   -13493 
  -13482   -13481   -13468   -13458   -13450   -13440   -13459   -13486 
  -13475   -13455   -13456   -13448   -13431   -13437   -13440   -13425 
  -13429   -13432   -13405   -13385   -13390   -13386   -13377   -13383 
  -13380   -13370   -13365   -13347   -13325   -13316   -13308   -13309 
  -13317   -13304   -13288   -13278   -13267   -13254   -13234   -13223 
  -13238   -13251   -13243   -13231   -13209   -13178   -13157   -13144 
  -13143   -13158   -13176   -13174   -13150   -13131   -13129   -13138 
  -13127   -13108   -13108   -13095   -13077   -13073   -13059   -13059 
  -13082   -13076   -13045   -13028   -13011   -12996   -13018   -13026 
  -13008   -13003   -12982   -12968   -12981   -12964   -12950   -12966 
  -12957   -12937   -12945   -12931   -12910   -12910   -12908   -12907 
  -12916   -12904   -12876   -12870   -12862   -12846   -12865   -12874 
  -12847   -12839   -12847   -12855   -12855   -12829   -12800   -12807 
  -12833   -12839   -12833   -12834   -12822   -12802   -12816   -12847 
  -12830   -12795   -12799   -12812   -12815   -12815   -12818   -12819 
  -12818   -12810   -12808   -12808   -12800   -12800   -12822   -12845 
  -12839   -12818   -12811   -12811   -12826   -12850   -12850   -12843 
  -12857   -12868   -12868   -12861   -12857   -12883   -12900   -12896 
  -12914   -12928   -12924   -12942   -12970   -12980   -12988   -12991 
  -12993   -13015   -13043   -13065   -13096   -13108   -13096   -13115 
  -13134   -13139   -13169   -13193   -13200   -13217   -13238   -13259 
  -13288   -13293   -13300   -13343   -13366   -13382   -13428   -13451 
  -13458   -13482   -13493   -13516   -13555   -13567   -13590   -13629 
  -13644   -13671   -13710   -13718   -13736   -13776   -13798   -13818 
  -13851   -13861   -13875   -13914   -13937   -13952   -13990   -14018 
  -14035   -14056   -14072   -14099   -14134   -14170   -14193   -14203 
  -14222   -14250   -14264   -14287   -14323   -14341   -14351   -14374 
  -14396   -14413   -14440   -14467   -14488   -14509   -14519   -14534 
  -14565   -14574   -14580   -14615   -14644   -14656   -14675   -14681 
  -14686   -14709   -14733   -14747   -14762   -14770   -14769   -14777 
  -14783   -14789   -14816   -14827   -14820   -14843   -14855   -14839 
  -14848   -14862   -14852   -14858   -14872   -14868   -14860   -14859 
  -14854   -14854   -14859   -14854   -14859   -14863   -14846   -14831 
  -14813   -14796   -14793   -14787   -14771   -14763   -14747   -14723 
  -14710   -14698   -14678   -14673   -14656   -14623   -14608   -14593 
  -14562   -14543   -14526   -14493   -14469   -14454   -14432   -14407 
  -14382   -14350   -14315   -14284   -14253   -14233   -14218   -14176 
  -14130   -14111   -14095   -14072   -14041   -13999   -13964   -13940 
  -13911   -13876   -13842   -13822   -13798   -13760   -13725   -13689 
  -13649   -13624   -13605   -13582   -13562   -13535   -13497   -13467 
  -13433   -13392   -13373   -13371   -13354   -13328   -13311   -13275 
  -13240   -13232   -13217   -13190   -13177   -13157   -13129   -13109 
  -13089   -13076   -13070   -13059   -13046   -13030   -13007   -12987 
  -12973   -12970   -12973   -12964   -12951   -12954   -12947   -12918 
  -12911   -12903   -12880   -12891   -12900   -12891   -12900   -12901 
  -12879   -12884   -12897   -12893   -12897   -12898   -12887   -12885 
  -12893   -12903   -12920   -12934   -12923   -12923   -12939   -12947 
  -12962   -12977   -12977   -12980   -12985   -12995   -13022   -13041 
  -13057   -13082   -13088   -13092   -13120   -13135   -13147   -13178 
  -13201   -13213   -13238   -13259   -13271   -13296   -13323   -13343 
  -13367   -13389   -13404   -13428   -13460   -13482   -13506   -13536 
  -13555   -13574   -13598   -13624   -13652   -13682   -13702   -13714 
  -13734   -13763   -13796   -13829   -13851   -13865   -13895   -13927 
  -13948   -13973   -14010   -14033   -14053   -14077   -14092   -14119 
  -14153   -14176   -14193   -14200   -14200   -14224   -14262   -14285 
  -14304   -14319   -14327   -14342   -14358   -14370   -14380   -14392 
  -14415   -14435   -14449   -14465   -14484   -14488   -14499   -14524 
  -14527   -14529   -14547   -14551   -14558   -14580   -14581   -14584 
  -14598   -14592   -14600   -14627   -14629   -14629   -14628   -14623 
  -14640   -14652   -14658   -14671   -14669   -14662   -14679   -14683 
  -14681   -14692   -14698   -14709   -14721   -14710   -14702   -14709 
  -14716   -14733   -14754   -14756   -14746   -14747   -14740   -14720 
  -14731   -14742   -14735   -14747   -14747   -14723   -14723   -14732 
  -14728   -14735   -14742   -14732   -14729   -14725   -14720   -14725 
  -14728   -14723   -14720   -14719   -14713   -14706   -14706   -14704 
  -14694   -14690   -14681   -14670   -14666   -14662   -14643   -14628 
  -14619   -14608   -14597   -14589   -14577   -14561   -14547   -14538 
  -14521   -14508   -14500   -14488   -14477   -14469   -14447   -14426 
  -14412   -14395   -14376   -14366   -14358   -14354   -14350   -14331 
  -14315   -14297   -14276   -14261   -14253   -14245   -14230   -14215 
  -14203   -14193   -14183   -14164   -14150   -14141   -14121   -14103 
  -14094   -14077   -14068   -14062   -14041   -14027   -14031   -14021 
  -14006   -13992   -13975   -13969   -13971   -13961   -13948   -13940 
  -13929   -13917   -13918   -13918   -13911   -13905   -13894   -13876 
  -13868   -13857   -13852   -13852   -13832   -13819   -13817   -13799 
  -13802   -13809   -13788   -13776   -13768   -13755   -13757   -13768 
  -13765   -13763   -13752   -13737   -13736   -13730   -13726   -13728 
  -13721   -13710   -13702   -13697   -13694   -13689   -13679   -13667 
  -13668   -13671   -13666   -13664   -13654   -13648   -13653   -13645 
  -13640   -13647   -13628   -13616   -13635   -13626   -13620   -13635 
  -13621   -13612   -13625   -13626   -13630   -13647   -13639   -13629 
  -13639   -13633   -13633   -13649   -13651   -13653   -13667   -13666 
  -13664   -13672   -13670   -13675   -13691   -13686   -13683   -13707 
  -13711   -13702   -13716   -13720   -13717   -13734   -13738   -13740 
  -13759   -13759   -13753   -13768   -13773   -13768   -13775   -13786 
  -13787   -13796   -13802   -13799   -13814   -13834   -13833   -13836 
  -13846   -13846   -13851   -13859   -13860   -13869   -13867   -13867 
  -13886   -13891   -13887   -13895   -13894   -13896   -13910   -13915 
  -13917   -13921   -13922   -13927   -13937   -13934   -13934   -13946 
  -13946   -13948   -13964   -13965   -13960   -13973   -13973   -13975 
  -13998   -13995   -13976   -13991   -13996   -13984   -13996   -14002 
  -13995   -14007   -14004   -13990   -14002   -14000   -13987   -13991 
  -13994   -13981   -13983   -14003   -14000   -13992   -14007   -14008 
  -14003   -14014   -14011   -14003   -14019   -14022   -14018   -14035 
  -14034   -14017   -14018   -14023   -14010   -14006   -14019   -14014 
  -14006   -14003   -13987   -13980   -13980   -13964   -13961   -13968 
  -13954   -13937   -13936   -13932   -13927   -13927   -13925   -13919 
  -13917   -13913   -13909   -13913   -13909   -13890   -13891   -13890 
  -13876   -13872   -13860   -13845   -13845   -13836   -13818   -13806 
  -13795   -13788   -13780   -13765   -13756   -13743   -13733   -13728 
  -13709   -13705   -13697   -13668   -13671   -13679   -13664   -13659 
  -13644   -13610   -13602   -13603   -13590   -13586   -13583   -13562 
  -13541   -13527   -13513   -13508   -13497   -13479   -13470   -13459 
  -13433   -13421   -13410   -13386   -13383   -13382   -13354   -13335 
  -13327   -13308   -13298   -13279   -13252   -13252   -13247   -13227 
  -13227   -13219   -13185   -13167   -13167   -13155   -13138   -13128 
  -13116   -13103   -13089   -13077   -13077   -13072   -13055   -13054 
  -13051   -13026   -13005   -13003   -12988   -12970   -12966   -12964 
  -12964   -12954   -12939   -12935   -12931   -12921   -12916   -12903 
  -12888   -12893   -12891   -12887   -12885   -12877   -12876   -12876 
  -12877   -12891   -12895   -12883   -12880   -12880   -12868   -12868 
  -12881   -12888   -12898   -12900   -12888   -12893   -12892   -12888 
  -12901   -12910   -12907   -12912   -12915   -12916   -12927   -12934 
  -12933   -12941   -12947   -12950   -12964   -12964   -12960   -12984 
  -12992   -12987   -13011   -13018   -13009   -13024   -13024   -13024 
  -13047   -13053   -13055   -13076   -13077   -13068   -13081   -13089 
  -13085   -13100   -13108   -13103   -13109   -13115   -13119   -13129 
  -13127   -13131   -13149   -13146   -13150   -13163   -13155   -13151 
  -13158   -13155   -13166   -13181   -13181   -13178   -13177   -13177 
  -13186   -13200   -13197   -13194   -13196   -13189   -13186   -13192 
  -13194   -13201   -13207   -13197   -13203   -13216   -13208   -13215 
  -13228   -13217   -13215   -13224   -13219   -13219   -13238   -13246 
  -13238   -13246   -13251   -13244   -13240   -13244   -13248   -13257 
  -13269   -13274   -13279   -13285   -13284   -13285   -13288   -13289 
  -13292   -13296   -13304   -13302   -13296   -13300   -13304   -13297 
  -13306   -13316   -13304   -13313   -13323   -13314   -13320   -13319 
  -13306   -13319   -13324   -13311   -13312   -13316   -13309   -13311 
  -13309   -13304   -13304   -13301   -13296   -13286   -13274   -13263 
  -13257   -13255   -13242   -13227   -13225   -13208   -13186   -13181 
  -13170   -13147   -13135   -13132   -13122   -13108   -13100   -13081 
  -13061   -13053   -13032   -13012   -13003   -12985   -12970   -12962 
  -12943   -12923   -12910   -12895   -12884   -12876   -12865   -12853 
  -12839   -12820   -12802   -12787   -12771   -12760   -12753   -12738 
  -12719   -12710   -12702   -12692   -12683   -12675   -12665   -12663 
  -12667   -12658   -12645   -12640   -12633   -12627   -12626   -12623 
  -12636   -12647   -12650   -12661   -12672   -12671   -12669   -12675 
  -12688   -12698   -12696   -12699   -12708   -12729   -12741   -12746 
  -12764   -12775   -12777   -12793   -12810   -12825   -12847   -12870 
  -12888   -12908   -12928   -12947   -12962   -12984   -13009   -13026 
  -13054   -13089   -13109   -13131   -13159   -13182   -13203   -13228 
  -13259   -13281   -13297   -13325   -13351   -13374   -13408   -13431 
  -13443   -13475   -13504   -13528   -13565   -13586   -13603   -13630 
  -13653   -13675   -13702   -13726   -13756   -13780   -13790   -13811 
  -13846   -13872   -13898   -13930   -13954   -13976   -14002   -14021 
  -14035   -14060   -14076   -14089   -14119   -14141   -14161   -14183 
  -14188   -14200   -14222   -14233   -14246   -14273   -14281   -14292 
  -14316   -14323   -14328   -14354   -14361   -14364   -14386   -14392 
  -14389   -14415   -14430   -14430   -14451   -14469   -14466   -14472 
  -14480   -14478   -14484   -14492   -14489   -14494   -14496   -14488 
  -14499   -14511   -14499   -14496   -14504   -14499   -14496   -14499 
  -14493   -14490   -14481   -14473   -14477   -14466   -14455   -14458 
  -14455   -14453   -14453   -14446   -14440   -14435   -14422   -14409 
  -14397   -14384   -14380   -14382   -14376   -14359   -14350   -14342 
  -14328   -14327   -14321   -14304   -14300   -14295   -14283   -14292 
  -14288   -14264   -14260   -14254   -14237   -14234   -14235   -14222 
  -14208   -14206   -14207   -14203   -14202   -14207   -14208   -14202 
  -14195   -14199   -14195   -14184   -14188   -14192   -14181   -14185 
  -14188   -14176   -14179   -14179   -14179   -14196   -14199   -14195 
  -14210   -14215   -14207   -14215   -14230   -14230   -14231   -14241 
  -14245   -14250   -14251   -14246   -14251   -14255   -14253   -14268 
  -14280   -14272   -14281   -14292   -14284   -14292   -14297   -14292 
  -14301   -14303   -14303   -14318   -14311   -14311   -14334   -14330 
  -14331   -14362   -14359   -14350   -14364   -14358   -14347   -14358 
  -14362   -14359   -14369   -14359   -14354   -14378   -14373   -14353 
  -14369   -14376   -14369   -14380   -14380   -14377   -14381   -14364 
  -14359   -14381   -14378   -14372   -14382   -14374   -14368   -14382 
  -14395   -14397   -14396   -14391   -14385   -14384   -14393   -14403 
  -14407   -14405   -14397   -14403   -14415   -14404   -14401   -14407 
  -14400   -14415   -14427   -14427   -14439   -14447   -14451   -14455 
  -14447   -14453   -14463   -14461   -14469   -14489   -14496   -14496 
  -14503   -14512   -14520   -14526   -14529   -14536   -14546   -14555 
  -14567   -14571   -14569   -14578   -14592   -14590   -14600   -14620 
  -14621   -14629   -14648   -14648   -14655   -14677   -14673   -14681 
  -14706   -14704   -14712   -14742   -14743   -14744   -14756   -14766 
  -14786   -14797   -14796   -14812   -14823   -14831   -14850   -14858 
  -14858   -14868   -14878   -14889   -14910   -14924   -14932   -14948 
  -14955   -14964   -14982   -14987   -14990   -15005   -15021   -15033 
  -15049   -15070   -15079   -15088   -15102   -15110   -15121   -15132 
  -15136   -15148   -15169   -15182   -15190   -15205   -15205   -15203 
  -15215   -15225   -15229   -15246   -15255   -15248   -15256   -15261 
  -15257   -15276   -15290   -15290   -15295   -15291   -15282   -15296 
  -15298   -15286   -15303   -15305   -15287   -15290   -15286   -15275 
  -15286   -15286   -15271   -15272   -15275   -15259   -15253   -15250 
  -15229   -15206   -15191   -15176   -15168   -15163   -15151   -15140 
  -15122   -15101   -15086   -15071   -15054   -15044   -15029   -15005 
  -14985   -14967   -14943   -14918   -14897   -14883   -14870   -14846 
  -14825   -14800   -14770   -14746   -14720   -14702   -14689   -14662 
  -14634   -14612   -14578   -14539   -14521   -14501   -14476   -14453 
  -14418   -14385   -14370   -14342   -14303   -14278   -14253   -14226 
  -14210   -14183   -14154   -14137   -14103   -14060   -14034   -14014 
  -13987   -13965   -13941   -13913   -13887   -13856   -13822   -13799 
  -13771   -13737   -13718   -13697   -13664   -13643   -13621   -13594 
  -13570   -13539   -13513   -13491   -13458   -13429   -13408   -13370 
  -13339   -13324   -13292   -13252   -13238   -13213   -13177   -13157 
  -13128   -13085   -13065   -13050   -13018   -12996   -12970   -12935 
  -12918   -12888   -12860   -12845   -12820   -12792   -12777   -12752 
  -12722   -12704   -12680   -12652   -12633   -12607   -12580   -12565 
  -12548   -12523   -12509   -12490   -12467   -12453   -12432   -12406 
  -12396   -12383   -12367   -12363   -12351   -12326   -12307   -12293 
  -12272   -12267   -12263   -12243   -12236   -12236   -12231   -12216 
  -12190   -12179   -12188   -12179   -12166   -12172   -12162   -12147 
  -12155   -12150   -12140   -12147   -12139   -12129   -12143   -12140 
  -12131   -12147   -12141   -12121   -12139   -12145   -12131   -12141 
  -12151   -12140   -12144   -12150   -12154   -12167   -12163   -12159 
  -12168   -12159   -12163   -12194   -12194   -12185   -12205   -12202 
  -12195   -12225   -12221   -12201   -12226   -12239   -12231   -12254 
  -12259   -12249   -12280   -12293   -12278   -12305   -12317   -12295 
  -12314   -12340   -12339   -12359   -12378   -12375   -12387   -12403 
  -12410   -12428   -12437   -12438   -12453   -12467   -12476   -12496 
  -12511   -12515   -12533   -12548   -12553   -12571   -12584   -12596 
  -12614   -12622   -12630   -12654   -12668   -12675   -12696   -12704 
  -12708   -12738   -12756   -12756   -12779   -12796   -12802   -12822 
  -12837   -12846   -12873   -12892   -12906   -12924   -12928   -12931 
  -12954   -12968   -12977   -13003   -13019   -13019   -13030   -13043 
  -13049   -13068   -13085   -13090   -13104   -13116   -13113   -13129 
  -13150   -13157   -13176   -13189   -13185   -13198   -13216   -13213 
  -13221   -13235   -13242   -13254   -13261   -13270   -13284   -13292 
  -13304   -13319   -13319   -13323   -13331   -13333   -13342   -13347 
  -13351   -13362   -13356   -13359   -13371   -13366   -13377   -13398 
  -13400   -13406   -13412   -13398   -13404   -13423   -13429   -13432 
  -13428   -13425   -13433   -13440   -13451   -13458   -13454   -13444 
  -13437   -13439   -13446   -13455   -13458   -13456   -13462   -13460 
  -13455   -13466   -13459   -13441   -13450   -13446   -13435   -13450 
  -13452   -13435   -13437   -13439   -13436   -13446   -13439   -13423 
  -13421   -13405   -13401   -13425   -13428   -13417   -13425   -13412 
  -13387   -13397   -13393   -13379   -13387   -13378   -13359   -13369 
  -13370   -13365   -13380   -13379   -13354   -13362   -13367   -13346 
  -13352   -13366   -13356   -13359   -13359   -13363   -13378   -13362 
  -13350   -13375   -13374   -13356   -13374   -13392   -13394   -13394 
  -13396   -13404   -13405   -13397   -13392   -13406   -13417   -13413 
  -13433   -13452   -13446   -13450   -13459   -13468   -13487   -13491 
  -13500   -13525   -13529   -13528   -13544   -13552   -13565   -13575 
  -13576   -13598   -13614   -13609   -13625   -13645   -13653   -13666 
  -13666   -13663   -13682   -13697   -13706   -13725   -13737   -13740 
  -13748   -13763   -13786   -13795   -13791   -13799   -13824   -13829 
  -13819   -13829   -13846   -13859   -13871   -13869   -13875   -13892 
  -13886   -13879   -13900   -13909   -13909   -13915   -13911   -13917 
  -13934   -13919   -13909   -13925   -13923   -13918   -13923   -13925 
  -13929   -13929   -13921   -13932   -13938   -13929   -13932   -13930 
  -13918   -13922   -13919   -13911   -13914   -13913   -13909   -13905 
  -13894   -13896   -13895   -13875   -13872   -13878   -13876   -13880 
  -13867   -13849   -13848   -13839   -13821   -13815   -13821   -13817 
  -13810   -13806   -13790   -13783   -13787   -13779   -13773   -13775 
  -13765   -13749   -13736   -13734   -13730   -13713   -13703   -13707 
  -13709   -13709   -13702   -13684   -13672   -13662   -13648   -13647 
  -13643   -13636   -13637   -13629   -13613   -13598   -13587   -13586 
  -13576   -13560   -13563   -13558   -13537   -13533   -13536   -13531 
  -13524   -13510   -13489   -13481   -13477   -13464   -13463   -13463 
  -13446   -13440   -13439   -13420   -13412   -13413   -13405   -13401 
  -13409   -13396   -13375   -13370   -13362   -13355   -13362   -13360 
  -13347   -13331   -13321   -13324   -13325   -13320   -13317   -13313 
  -13306   -13311   -13308   -13304   -13311   -13304   -13294   -13304 
  -13301   -13293   -13304   -13304   -13304   -13314   -13309   -13293 
  -13296   -13301   -13304   -13314   -13328   -13329   -13327   -13327 
  -13333   -13352   -13362   -13363   -13382   -13392   -13389   -13400 
  -13409   -13417   -13435   -13450   -13467   -13482   -13482   -13489 
  -13506   -13522   -13539   -13559   -13565   -13564   -13576   -13595 
  -13609   -13621   -13635   -13641   -13640   -13644   -13664   -13689 
  -13705   -13714   -13737   -13763   -13767   -13780   -13801   -13801 
  -13805   -13829   -13851   -13868   -13879   -13882   -13890   -13909 
  -13921   -13937   -13967   -13976   -13968   -13986   -14007   -14006 
  -14018   -14033   -14035   -14054   -14073   -14079   -14085   -14087 
