Origin Time       2016/04/16 01:25:00
Lat.              32.753
Long.             130.762
Depth. (km)       12
Mag.              7.3
Station Code      TTR005
Station Lat.      35.4290
Station Long.     133.8253
Station Height(m) 27
Record Time       2016/04/16 01:27:03
Sampling Freq(Hz) 100Hz
Duration Time(s)  61
Dir.              E-W
Scale Factor      7845(gal)/8223790
Max. Acc. (gal)   2.135
Last Correction   2016/04/16 01:27:04
Memo.             
[...]
   -4517    -4500    -4486    -4468    -4449    -4436    -4423    -4414 
   -4413    -4415    -4417    -4422    -4436    -4446    -4457    -4464 
   -4456    -4433    -4396    -4352    -4301    -4245    -4190    -4139 
   -4091    -4051    -4024    -4006    -3991    -3983    -3981    -3974 
   -3975    -3986    -4000    -4020    -4055    -4099    -4147    -4197 
   -4248    -4303    -4352    -4390    -4421    -4444    -4455    -4456 
   -4438    -4406    -4365    -4322    -4275    -4228    -4185    -4152 
   -4126    -4113    -4107    -4105    -4107    -4114    -4120    -4126 
   -4135    -4137    -4139    -4140    -4139    -4136    -4136    -4133 
   -4121    -4104    -4083    -4060    -4036    -4013    -3989    -3971 
   -3958    -3951    -3951    -3960    -3973    -3987    -4005    -4025 
   -4050    -4078    -4107    -4140    -4178    -4228    -4283    -4337 
   -4391    -4450    -4504    -4552    -4600    -4645    -4687    -4725 
   -4760    -4792    -4820    -4843    -4865    -4881    -4891    -4893 
   -4897    -4897    -4887    -4874    -4865    -4852    -4838    -4816 
   -4789    -4760    -4725    -4687    -4641    -4588    -4535    -4483 
   -4428    -4376    -4332    -4293    -4256    -4228    -4195    -4164 
   -4135    -4098    -4058    -4017    -3978    -3944    -3919    -3905 
   -3894    -3882    -3875    -3880    -3888    -3892    -3897    -3905 
   -3915    -3924    -3931    -3932    -3932    -3937    -3942    -3937 
   -3935    -3936    -3929    -3916    -3906    -3889    -3852    -3816 
   -3780    -3738    -3705    -3678    -3649    -3628    -3615    -3603 
   -3596    -3593    -3593    -3607    -3628    -3655    -3696    -3736 
   -3773    -3817    -3855    -3875    -3896    -3909    -3912    -3915 
   -3912    -3902    -3898    -3899    -3902    -3915    -3929    -3948 
   -3979    -4016    -4054    -4099    -4145    -4190    -4240    -4284 
   -4321    -4356    -4372    -4364    -4353    -4334    -4303    -4268 
   -4233    -4197    -4163    -4139    -4129    -4124    -4124    -4140 
   -4158    -4178    -4213    -4253    -4283    -4315    -4360    -4403 
   -4442    -4480    -4513    -4538    -4563    -4581    -4587    -4580 
   -4568    -4552    -4526    -4499    -4475    -4449    -4422    -4391 
   -4356    -4325    -4298    -4275    -4258    -4245    -4233    -4220 
   -4207    -4192    -4174    -4148    -4122    -4097    -4068    -4039 
   -4014    -3997    -3982    -3974    -3973    -3978    -3997    -4016 
   -4035    -4063    -4098    -4132    -4164    -4186    -4199    -4217 
   -4228    -4225    -4217    -4202    -4180    -4158    -4133    -4107 
   -4086    -4062    -4036    -4023    -4016    -4012    -4008    -4008 
   -4013    -4021    -4032    -4051    -4074    -4098    -4126    -4156 
   -4186    -4212    -4236    -4261    -4293    -4325    -4356    -4392 
   -4433    -4477    -4521    -4554    -4580    -4600    -4615    -4631 
   -4645    -4646    -4648    -4652    -4650    -4641    -4629    -4614 
   -4596    -4575    -4548    -4519    -4491    -4459    -4428    -4399 
   -4375    -4353    -4334    -4326    -4334    -4352    -4371    -4386 
   -4393    -4395    -4391    -4384    -4375    -4359    -4342    -4332 
   -4324    -4320    -4324    -4332    -4347    -4367    -4384    -4399 
   -4413    -4426    -4441    -4448    -4453    -4455    -4444    -4423 
   -4399    -4367    -4322    -4268    -4209    -4143    -4074    -4013 
   -3955    -3904    -3861    -3828    -3807    -3789    -3778    -3774 
   -3770    -3769    -3769    -3773    -3780    -3788    -3798    -3811 
   -3820    -3823    -3824    -3817    -3801    -3790    -3776    -3751 
   -3730    -3709    -3686    -3667    -3649    -3631    -3622    -3613 
   -3612    -3622    -3630    -3640    -3651    -3657    -3661    -3665 
   -3665    -3667    -3676    -3685    -3699    -3719    -3743    -3774 
   -3807    -3838    -3861    -3875    -3889    -3897    -3897    -3893 
   -3888    -3883    -3888    -3901    -3924    -3956    -3994    -4040 
   -4094    -4152    -4210    -4270    -4327    -4374    -4410    -4441 
   -4459    -4467    -4467    -4459    -4445    -4434    -4425    -4413 
   -4396    -4372    -4345    -4324    -4299    -4271    -4248    -4228 
   -4222    -4233    -4255    -4278    -4311    -4353    -4395    -4430 
   -4459    -4476    -4490    -4500    -4509    -4507    -4504    -4507 
   -4510    -4502    -4492    -4482    -4461    -4437    -4413    -4378 
   -4337    -4313    -4298    -4287    -4287    -4301    -4322    -4345 
   -4376    -4405    -4425    -4440    -4453    -4457    -4457    -4460 
   -4464    -4471    -4475    -4479    -4477    -4476    -4472    -4461 
   -4446    -4430    -4418    -4403    -4387    -4374    -4356    -4334 
   -4318    -4302    -4282    -4263    -4251    -4238    -4230    -4228 
   -4223    -4214    -4205    -4197    -4189    -4176    -4166    -4168 
   -4178    -4195    -4220    -4245    -4271    -4309    -4348    -4379 
   -4406    -4430    -4453    -4476    -4491    -4498    -4502    -4499 
   -4486    -4463    -4433    -4396    -4357    -4313    -4263    -4214 
   -4170    -4124    -4083    -4051    -4025    -4000    -3970    -3943 
   -3924    -3909    -3898    -3894    -3892    -3898    -3917    -3944 
   -3978    -4016    -4055    -4099    -4144    -4183    -4215    -4241 
   -4263    -4283    -4298    -4305    -4317    -4326    -4325    -4324 
   -4321    -4315    -4311    -4305    -4295    -4289    -4291    -4294 
   -4294    -4294    -4297    -4298    -4301    -4302    -4303    -4303 
   -4307    -4315    -4318    -4317    -4320    -4325    -4332    -4338 
   -4344    -4348    -4356    -4360    -4365    -4371    -4371    -4369 
   -4372    -4371    -4372    -4376    -4380    -4388    -4401    -4423 
   -4457    -4495    -4537    -4583    -4627    -4666    -4698    -4718 
   -4727    -4737    -4745    -4748    -4757    -4766    -4774    -4783 
   -4784    -4774    -4764    -4741    -4708    -4668    -4614    -4550 
   -4488    -4421    -4353    -4286    -4214    -4143    -4072    -4001 
   -3931    -3861    -3785    -3712    -3642    -3576    -3520    -3473 
   -3433    -3404    -3383    -3366    -3353    -3335    -3310    -3283 
   -3254    -3227    -3204    -3184    -3167    -3159    -3157    -3154 
   -3153    -3154    -3152    -3150    -3150    -3145    -3136    -3122 
   -3105    -3084    -3056    -3024    -2992    -2957    -2914    -2871 
   -2829    -2786    -2743    -2700    -2664    -2636    -2609    -2592 
   -2596    -2614    -2640    -2679    -2728    -2787    -2860    -2940 
   -3022    -3109    -3198    -3289    -3376    -3459    -3541    -3611 
   -3673    -3731    -3776    -3809    -3838    -3858    -3869    -3874 
   -3878    -3875    -3867    -3856    -3842    -3828    -3823    -3824 
   -3828    -3835    -3850    -3874    -3901    -3935    -3974    -4009 
   -4045    -4090    -4140    -4197    -4258    -4320    -4378    -4428 
   -4469    -4499    -4521    -4537    -4542    -4548    -4558    -4560 
   -4563    -4575    -4584    -4598    -4608    -4612    -4615    -4617 
   -4618    -4622    -4626    -4637    -4657    -4677    -4702    -4723 
   -4741    -4758    -4770    -4774    -4768    -4747    -4722    -4693 
   -4660    -4622    -4585    -4556    -4538    -4531    -4537    -4565 
   -4612    -4664    -4731    -4816    -4900    -4982    -5065    -5136 
   -5194    -5240    -5267    -5273    -5260    -5242    -5221    -5193 
   -5150    -5103    -5058    -5009    -4949    -4884    -4816    -4745 
   -4675    -4611    -4554    -4509    -4480    -4463    -4450    -4450 
   -4456    -4456    -4452    -4441    -4418    -4390    -4360    -4327 
   -4297    -4274    -4258    -4253    -4256    -4261    -4274    -4298 
   -4334    -4375    -4415    -4461    -4513    -4561    -4602    -4646 
   -4692    -4733    -4770    -4814    -4850    -4876    -4903    -4930 
   -4953    -4969    -4972    -4956    -4938    -4916    -4880    -4833 
   -4785    -4739    -4688    -4635    -4579    -4513    -4436    -4353 
   -4274    -4192    -4112    -4036    -3964    -3897    -3848    -3812 
   -3786    -3781    -3794    -3819    -3855    -3901    -3948    -3994 
   -4040    -4077    -4091    -4088    -4074    -4036    -3989    -3936 
   -3873    -3807    -3753    -3708    -3674    -3655    -3643    -3640 
   -3651    -3669    -3696    -3730    -3763    -3800    -3842    -3894 
   -3962    -4032    -4098    -4159    -4215    -4263    -4297    -4313 
   -4309    -4289    -4260    -4220    -4178    -4137    -4094    -4054 
   -4021    -4000    -3989    -3981    -3978    -3982    -3989    -3989 
   -3989    -3991    -3989    -3990    -4003    -4027    -4062    -4109 
   -4168    -4233    -4295    -4348    -4398    -4438    -4469    -4490 
   -4492    -4483    -4467    -4436    -4391    -4337    -4266    -4183 
   -4105    -4028    -3951    -3883    -3824    -3773    -3735    -3704 
   -3680    -3676    -3684    -3700    -3732    -3775    -3821    -3867 
   -3913    -3958    -3993    -4016    -4032    -4044    -4051    -4055 
   -4055    -4050    -4043    -4036    -4036    -4044    -4062    -4083 
   -4116    -4153    -4195    -4243    -4293    -4334    -4369    -4396 
   -4417    -4423    -4419    -4407    -4387    -4352    -4303    -4241 
   -4164    -4081    -3997    -3910    -3819    -3732    -3657    -3596 
   -3551    -3527    -3520    -3534    -3568    -3619    -3678    -3742 
   -3811    -3878    -3932    -3982    -4033    -4072    -4099    -4125 
   -4151    -4174    -4197    -4220    -4241    -4266    -4293    -4314 
   -4338    -4359    -4376    -4388    -4391    -4386    -4380    -4363 
   -4329    -4291    -4243    -4178    -4099    -4016    -3929    -3842 
   -3757    -3688    -3623    -3570    -3530    -3497    -3480    -3470 
   -3454    -3437    -3427    -3414    -3395    -3375    -3354    -3341 
   -3333    -3323    -3314    -3311    -3316    -3325    -3338    -3357 
   -3377    -3399    -3423    -3442    -3458    -3472    -3487    -3501 
   -3515    -3538    -3561    -3582    -3604    -3620    -3628    -3630 
   -3623    -3605    -3578    -3547    -3515    -3491    -3478    -3474 
   -3480    -3500    -3535    -3578    -3630    -3686    -3747    -3811 
   -3878    -3948    -4020    -4094    -4168    -4243    -4311    -4374 
   -4428    -4473    -4517    -4554    -4587    -4618    -4642    -4657 
   -4675    -4689    -4703    -4716    -4727    -4738    -4752    -4761 
   -4765    -4765    -4752    -4729    -4695    -4639    -4572    -4500 
   -4422    -4349    -4286    -4222    -4171    -4145    -4140    -4159 
   -4189    -4209    -4228    -4248    -4256    -4266    -4255    -4195 
   -4102    -4006    -3906    -3794    -3667    -3543    -3429    -3312 
   -3200    -3099    -3014    -2947    -2894    -2855    -2848    -2871 
   -2905    -2953    -3019    -3090    -3167    -3238    -3291    -3331 
   -3357    -3353    -3326    -3280    -3213    -3133    -3045    -2960 
   -2884    -2825    -2782    -2758    -2762    -2792    -2839    -2906 
   -2992    -3086    -3175    -3256    -3334    -3414    -3478    -3530 
   -3573    -3605    -3628    -3636    -3634    -3634    -3627    -3619 
   -3612    -3604    -3599    -3604    -3623    -3651    -3692    -3736 
   -3784    -3842    -3894    -3943    -3997    -4047    -4083    -4118 
   -4148    -4171    -4189    -4203    -4214    -4222    -4223    -4223 
   -4228    -4228    -4228    -4225    -4222    -4225    -4237    -4256 
   -4282    -4307    -4332    -4360    -4380    -4391    -4398    -4405 
   -4409    -4413    -4418    -4425    -4440    -4464    -4492    -4525 
   -4558    -4596    -4639    -4680    -4716    -4748    -4770    -4781 
   -4787    -4776    -4748    -4710    -4660    -4595    -4529    -4460 
   -4396    -4347    -4307    -4284    -4283    -4293    -4314    -4353 
   -4401    -4461    -4534    -4606    -4680    -4756    -4831    -4903 
   -4972    -5034    -5092    -5150    -5211    -5268    -5325    -5374 
   -5420    -5463    -5491    -5506    -5505    -5485    -5460    -5429 
   -5379    -5321    -5265    -5204    -5135    -5066    -4994    -4918 
   -4841    -4760    -4668    -4584    -4510    -4434    -4363    -4303 
   -4251    -4209    -4178    -4158    -4144    -4139    -4144    -4152 
   -4151    -4145    -4136    -4120    -4097    -4067    -4036    -4010 
   -3991    -3981    -3967    -3955    -3951    -3951    -3947    -3943 
   -3931    -3908    -3879    -3851    -3824    -3797    -3766    -3738 
   -3719    -3704    -3684    -3657    -3624    -3589    -3551    -3510 
   -3466    -3423    -3381    -3348    -3315    -3281    -3258    -3235 
   -3204    -3171    -3144    -3125    -3109    -3095    -3090    -3099 
   -3127    -3171    -3223    -3284    -3358    -3437    -3510    -3585 
   -3663    -3727    -3778    -3819    -3842    -3848    -3847    -3828 
   -3801    -3767    -3724    -3672    -3624    -3582    -3543    -3508 
   -3485    -3476    -3480    -3492    -3520    -3562    -3619    -3690 
   -3781    -3879    -3982    -4086    -4185    -4270    -4348    -4413 
   -4459    -4486    -4500    -4507    -4502    -4479    -4456    -4437 
   -4409    -4386    -4376    -4374    -4380    -4401    -4436    -4486 
   -4549    -4631    -4725    -4823    -4930    -5046    -5166    -5292 
   -5413    -5518    -5622    -5724    -5810    -5887    -5954    -6008 
   -6061    -6114    -6158    -6199    -6235    -6264    -6299    -6331 
   -6351    -6369    -6394    -6415    -6431    -6446    -6448    -6451 
   -6457    -6454    -6446    -6448    -6454    -6451    -6444    -6446 
   -6451    -6458    -6465    -6462    -6447    -6427    -6400    -6361 
   -6308    -6249    -6193    -6135    -6072    -6015    -5965    -5922 
   -5887    -5853    -5821    -5800    -5783    -5756    -5732    -5717 
   -5703    -5702    -5717    -5727    -5738    -5753    -5765    -5767 
   -5764    -5757    -5738    -5711    -5682    -5634    -5579    -5524 
   -5467    -5409    -5352    -5300    -5251    -5206    -5173    -5155 
   -5146    -5144    -5155    -5175    -5212    -5267    -5327    -5390 
   -5466    -5539    -5609    -5680    -5742    -5795    -5848    -5895 
   -5931    -5956    -5967    -5972    -5968    -5949    -5923    -5899 
   -5875    -5848    -5815    -5779    -5749    -5717    -5679    -5647 
   -5616    -5589    -5564    -5536    -5501    -5460    -5414    -5366 
   -5317    -5265    -5215    -5177    -5142    -5111    -5097    -5096 
   -5100    -5112    -5134    -5166    -5216    -5265    -5312    -5368 
   -5427    -5481    -5535    -5585    -5632    -5682    -5737    -5792 
   -5849    -5894    -5926    -5948    -5952    -5938    -5911    -5871 
   -5827    -5791    -5749    -5710    -5679    -5651    -5623    -5601 
   -5575    -5549    -5532    -5518    -5509    -5513    -5522    -5541 
   -5570    -5597    -5633    -5676    -5713    -5749    -5784    -5807 
   -5833    -5856    -5857    -5861    -5867    -5861    -5853    -5842 
   -5827    -5814    -5793    -5771    -5751    -5722    -5691    -5668 
   -5644    -5616    -5587    -5560    -5530    -5501    -5476    -5454 
   -5435    -5416    -5398    -5382    -5368    -5358    -5355    -5354 
   -5366    -5398    -5440    -5490    -5544    -5599    -5663    -5714 
   -5746    -5772    -5787    -5787    -5780    -5768    -5746    -5714 
   -5676    -5628    -5568    -5505    -5425    -5331    -5238    -5136 
   -5030    -4926    -4824    -4727    -4633    -4542    -4460    -4383 
   -4310    -4248    -4192    -4145    -4106    -4074    -4060    -4060 
   -4063    -4085    -4125    -4174    -4237    -4314    -4386    -4453 
   -4530    -4614    -4692    -4762    -4830    -4900    -4972    -5038 
   -5096    -5142    -5179    -5209    -5217    -5204    -5179    -5135 
   -5069    -4994    -4916    -4831    -4752    -4679    -4604    -4540 
   -4491    -4448    -4410    -4380    -4352    -4330    -4321    -4315 
   -4317    -4329    -4342    -4359    -4372    -4379    -4386    -4386 
   -4376    -4365    -4353    -4337    -4321    -4301    -4276    -4252 
   -4228    -4209    -4191    -4175    -4164    -4158    -4155    -4149 
   -4140    -4122    -4104    -4083    -4058    -4027    -3998    -3973 
   -3951    -3931    -3915    -3909    -3910    -3906    -3904    -3908 
   -3915    -3928    -3942    -3951    -3962    -3981    -4000    -4017 
   -4036    -4058    -4077    -4090    -4097    -4095    -4082    -4058 
   -4025    -3978    -3919    -3854    -3778    -3692    -3603    -3511 
   -3426    -3350    -3284    -3227    -3187    -3156    -3136    -3123 
   -3117    -3121    -3132    -3154    -3191    -3230    -3275    -3325 
   -3369    -3414    -3456    -3492    -3526    -3555    -3586    -3619 
   -3655    -3688    -3713    -3740    -3765    -3782    -3800    -3815 
   -3823    -3827    -3828    -3821    -3809    -3794    -3771    -3740 
   -3712    -3686    -3662    -3632    -3603    -3582    -3565    -3551 
   -3555    -3577    -3609    -3655    -3707    -3765    -3825    -3883 
   -3942    -4006    -4068    -4126    -4189    -4253    -4314    -4369 
   -4419    -4461    -4492    -4509    -4513    -4509    -4496    -4480 
   -4464    -4449    -4436    -4422    -4407    -4391    -4375    -4351 
   -4320    -4283    -4237    -4185    -4125    -4055    -3982    -3913 
   -3850    -3800    -3757    -3726    -3705    -3689    -3678    -3684 
   -3694    -3709    -3738    -3775    -3820    -3874    -3929    -3984 
   -4035    -4072    -4101    -4120    -4122    -4113    -4098    -4078 
   -4050    -4021    -3996    -3965    -3932    -3902    -3870    -3836 
   -3798    -3754    -3705    -3659    -3615    -3574    -3542    -3523 
   -3511    -3504    -3510    -3522    -3534    -3546    -3559    -3574 
   -3582    -3588    -3597    -3604    -3609    -3624    -3634    -3638 
   -3645    -3653    -3659    -3661    -3653    -3634    -3612    -3591 
   -3558    -3511    -3458    -3400    -3342    -3284    -3219    -3154 
   -3099    -3046    -2995    -2949    -2914    -2893    -2882    -2875 
   -2872    -2884    -2907    -2940    -2980    -3018    -3057    -3100 
   -3134    -3160    -3184    -3202    -3213    -3223    -3223    -3226 
   -3234    -3244    -3254    -3264    -3261    -3249    -3235    -3213 
   -3180    -3142    -3107    -3080    -3052    -3028    -3011    -2998 
   -2994    -2998    -2997    -2997    -3002    -2999    -2986    -2967 
   -2945    -2918    -2893    -2870    -2856    -2844    -2841    -2844 
   -2844    -2839    -2837    -2826    -2799    -2767    -2735    -2700 
   -2666    -2633    -2600    -2565    -2535    -2500    -2466    -2435 
   -2398    -2367    -2338    -2307    -2281    -2259    -2238    -2215 
   -2196    -2178    -2168    -2157    -2146    -2138    -2138    -2146 
   -2155    -2165    -2177    -2196    -2226    -2258    -2292    -2336 
   -2389    -2450    -2524    -2604    -2686    -2772    -2863    -2956 
   -3046    -3130    -3208    -3284    -3349    -3407    -3457    -3492 
   -3511    -3518    -3511    -3491    -3459    -3423    -3377    -3331 
   -3280    -3218    -3163    -3114    -3065    -3021    -2983    -2952 
   -2926    -2913    -2918    -2930    -2945    -2971    -3005    -3042 
   -3086    -3130    -3175    -3219    -3267    -3316    -3357    -3393 
   -3430    -3454    -3465    -3473    -3474    -3461    -3437    -3403 
   -3364    -3323    -3283    -3242    -3207    -3173    -3140    -3111 
   -3086    -3051    -3010    -2971    -2930    -2890    -2849    -2809 
