Origin Time       2016/04/16 01:25:00
Lat.              32.753
Long.             130.762
Depth. (km)       12
Mag.              7.3
Station Code      TTR008
Station Lat.      35.4258
Station Long.     133.3301
Station Height(m) 2
Record Time       2016/04/16 01:26:20
Sampling Freq(Hz) 100Hz
Duration Time(s)  135
Dir.              E-W
Scale Factor      7845(gal)/8223790
Max. Acc. (gal)   10.868
Last Correction   2016/04/16 01:26:20
Memo.             
[...]
   -3411    -3682    -3965    -4258    -4548    -4846    -5162    -5490 
   -5823    -6143    -6446    -6744    -7023    -7271    -7487    -7666 
   -7813    -7929    -8014    -8062    -8077    -8068    -8040    -7997 
   -7925    -7827    -7712    -7584    -7441    -7283    -7119    -6945 
   -6756    -6552    -6335    -6100    -5850    -5597    -5341    -5088 
   -4847    -4631    -4433    -4261    -4116    -3979    -3865    -3792 
   -3747    -3731    -3747    -3798    -3879    -3981    -4093    -4218 
   -4352    -4490    -4629    -4762    -4885    -4997    -5096    -5178 
   -5231    -5243    -5220    -5166    -5073    -4934    -4752    -4538 
   -4307    -4063    -3813    -3561    -3315    -3099    -2903    -2724 
   -2577    -2467    -2386    -2328    -2288    -2263    -2255    -2254 
   -2254    -2251    -2241    -2227    -2214    -2204    -2192    -2166 
   -2138    -2126    -2134    -2162    -2219    -2311    -2442    -2604 
   -2783    -2982    -3188    -3403    -3620    -3831    -4033    -4214 
   -4371    -4514    -4630    -4710    -4777    -4835    -4874    -4887 
   -4887    -4885    -4885    -4897    -4930    -4977    -5049    -5159 
   -5306    -5490    -5711    -5971    -6276    -6625    -6994    -7371 
   -7754    -8135    -8506    -8860    -9174    -9441    -9666    -9837 
   -9946    -9999    -9999    -9957    -9880    -9753    -9587    -9391 
   -9150    -8865    -8557    -8210    -7811    -7387    -6941    -6471 
   -5983    -5483    -4985    -4510    -4059    -3627    -3230    -2882 
   -2577    -2301    -2066    -1869    -1694    -1544    -1420    -1313 
   -1229    -1177    -1147    -1128    -1107    -1078    -1047    -1017 
    -984     -942     -889     -824     -745     -665     -599     -540 
    -483     -422     -367     -321     -278     -244     -241     -268 
    -311     -367     -448     -557     -691     -849    -1032    -1237 
   -1470    -1736    -2018    -2322    -2655    -3010    -3381    -3763 
   -4145    -4526    -4905    -5287    -5667    -6041    -6411    -6764 
   -7099    -7410    -7682    -7933    -8182    -8414    -8627    -8819 
   -8984    -9134    -9258    -9346    -9416    -9444    -9413    -9363 
   -9298    -9197    -9082    -8954    -8808    -8652    -8477    -8293 
   -8114    -7954    -7824    -7715    -7630    -7573    -7534    -7518 
   -7519    -7519    -7523    -7528    -7515    -7465    -7368    -7219 
   -7015    -6739    -6393    -5989    -5532    -5030    -4496    -3937 
   -3369    -2826    -2316    -1836    -1393     -997     -650     -364 
    -135       51      201      306      367      394      383      332 
     248      137        5     -141     -306     -486     -691     -923 
   -1165    -1409    -1663    -1923    -2187    -2459    -2745    -3045 
   -3345    -3640    -3932    -4203    -4450    -4689    -4911    -5107 
   -5281    -5433    -5562    -5663    -5736    -5775    -5783    -5772 
   -5746    -5699    -5644    -5607    -5590    -5598    -5626    -5672 
   -5748    -5854    -5981    -6131    -6288    -6446    -6606    -6747 
   -6866    -6966    -7032    -7069    -7088    -7086    -7051    -6997 
   -6932    -6855    -6775    -6705    -6628    -6539    -6448    -6350 
   -6235    -6114    -5984    -5845    -5701    -5543    -5375    -5204 
   -5026    -4841    -4658    -4486    -4311    -4136    -3971    -3809 
   -3634    -3450    -3254    -3033    -2797    -2552    -2281    -2003 
   -1750    -1501    -1255    -1042     -870     -743     -669     -649 
    -661     -711     -815     -934    -1044    -1167    -1291    -1393 
   -1472    -1535    -1593    -1647    -1684    -1707    -1734    -1781 
   -1846    -1935    -2060    -2209    -2381    -2594    -2843    -3103 
   -3380    -3674    -3971    -4256    -4523    -4768    -4996    -5196 
   -5351    -5467    -5551    -5601    -5616    -5597    -5562    -5508 
   -5437    -5370    -5300    -5225    -5155    -5077    -4976    -4870 
   -4753    -4614    -4457    -4282    -4087    -3880    -3667    -3459 
   -3261    -3080    -2933    -2832    -2772    -2744    -2749    -2802 
   -2899    -3017    -3157    -3323    -3500    -3692    -3910    -4148 
   -4405    -4676    -4955    -5239    -5518    -5791    -6052    -6285 
   -6493    -6663    -6802    -6910    -6974    -6988    -6960    -6885 
   -6781    -6660    -6511    -6343    -6180    -6014    -5837    -5655 
   -5472    -5287    -5100    -4912    -4723    -4537    -4359    -4186 
   -4024    -3889    -3767    -3655    -3558    -3476    -3407    -3364 
   -3339    -3336    -3357    -3402    -3472    -3557    -3642    -3721 
   -3792    -3844    -3879    -3896    -3890    -3856    -3797    -3723 
   -3640    -3551    -3451    -3336    -3210    -3069    -2906    -2721 
   -2528    -2327    -2119    -1917    -1737    -1583    -1460    -1382 
   -1359    -1395    -1493    -1649    -1864    -2128    -2431    -2762 
   -3113    -3459    -3796    -4126    -4441    -4734    -5017    -5293 
   -5552    -5796    -6037    -6277    -6519    -6755    -6982    -7203 
   -7408    -7580    -7717    -7824    -7888    -7896    -7842    -7726 
   -7539    -7290    -6993    -6658    -6289    -5908    -5530    -5161 
   -4807    -4479    -4183    -3927    -3709    -3551    -3450    -3388 
   -3362    -3361    -3393    -3458    -3543    -3661    -3815    -4002 
   -4222    -4459    -4710    -4980    -5246    -5499    -5734    -5934 
   -6097    -6219    -6305    -6361    -6393    -6400    -6385    -6339 
   -6257    -6148    -6023    -5881    -5727    -5566    -5393    -5208 
   -5011    -4796    -4567    -4325    -4064    -3789    -3505    -3219 
   -2947    -2704    -2486    -2288    -2111    -1966    -1858    -1791 
   -1760    -1771    -1821    -1899    -2001    -2128    -2278    -2436 
   -2594    -2754    -2918    -3090    -3264    -3440    -3634    -3840 
   -4045    -4255    -4475    -4695    -4915    -5142    -5373    -5601 
   -5836    -6084    -6331    -6574    -6812    -7041    -7263    -7462 
   -7643    -7812    -7969    -8113    -8226    -8306    -8357    -8382 
   -8379    -8352    -8310    -8262    -8202    -8128    -8046    -7952 
   -7835    -7692    -7523    -7319    -7084    -6818    -6521    -6201 
   -5852    -5476    -5089    -4693    -4291    -3890    -3504    -3133 
   -2774    -2440    -2135    -1858    -1613    -1404    -1232    -1109 
   -1035    -1000    -1007    -1034    -1069    -1113    -1148    -1163 
   -1174    -1166    -1127    -1057     -959     -835     -696     -557 
    -432     -322     -230     -162     -121     -117     -147     -202 
    -284     -388     -506     -630     -753     -877     -993    -1094 
   -1205    -1324    -1433    -1552    -1690    -1825    -1956    -2095 
   -2238    -2386    -2546    -2716    -2889    -3065    -3252    -3451 
   -3673    -3913    -4166    -4440    -4735    -5043    -5373    -5729 
   -6102    -6478    -6855    -7233    -7600    -7946    -8275    -8579 
   -8857    -9104    -9319    -9495    -9647    -9775    -9876    -9956 
  -10027   -10095   -10152   -10191   -10223   -10255   -10273   -10265 
  -10233   -10164   -10075    -9973    -9840    -9675    -9513    -9335 
   -9119    -8892    -8654    -8385    -8095    -7794    -7492    -7184 
   -6848    -6494    -6138    -5760    -5356    -4932    -4499    -4068 
   -3639    -3194    -2744    -2311    -1896    -1498    -1117     -745 
    -380      -39      283      598      899     1185     1462     1719 
    1939     2120     2265     2371     2430     2434     2398     2334 
    2228     2091     1934     1776     1620     1452     1273     1097 
     919      728      529      317       94     -122     -355     -612 
    -859    -1071    -1264    -1449    -1621    -1763    -1887    -2018 
   -2153    -2282    -2411    -2525    -2635    -2759    -2902    -3046 
   -3192    -3348    -3519    -3696    -3875    -4071    -4286    -4519 
   -4762    -4996    -5219    -5448    -5703    -5975    -6230    -6465 
   -6698    -6910    -7078    -7211    -7321    -7408    -7472    -7515 
   -7527    -7510    -7495    -7477    -7434    -7369    -7279    -7163 
   -7028    -6860    -6673    -6498    -6334    -6168    -5996    -5841 
   -5722    -5640    -5578    -5536    -5521    -5529    -5563    -5623 
   -5702    -5798    -5900    -5996    -6088    -6166    -6235    -6313 
   -6409    -6512    -6613    -6710    -6814    -6926    -7047    -7177 
   -7315    -7460    -7597    -7722    -7827    -7912    -7986    -8058 
   -8118    -8159    -8176    -8167    -8128    -8056    -7946    -7799 
   -7623    -7416    -7188    -6944    -6691    -6431    -6157    -5887 
   -5625    -5370    -5130    -4911    -4714    -4533    -4364    -4209 
   -4058    -3905    -3747    -3581    -3418    -3258    -3094    -2930 
   -2779    -2644    -2539    -2458    -2392    -2344    -2316    -2297 
   -2290    -2285    -2272    -2251    -2220    -2168    -2106    -2034 
   -1949    -1861    -1788    -1726    -1682    -1661    -1664    -1695 
   -1752    -1830    -1933    -2046    -2162    -2274    -2369    -2440 
   -2489    -2519    -2523    -2498    -2461    -2421    -2378    -2340 
   -2313    -2309    -2331    -2382    -2457    -2548    -2667    -2806 
   -2949    -3096    -3254    -3414    -3576    -3740    -3905    -4069 
   -4240    -4407    -4568    -4723    -4870    -5003    -5116    -5212 
   -5296    -5374    -5448    -5526    -5613    -5717    -5838    -5972 
   -6124    -6296    -6486    -6687    -6880    -7051    -7195    -7319 
   -7411    -7461    -7470    -7452    -7402    -7323    -7219    -7094 
   -6952    -6798    -6632    -6467    -6307    -6157    -6027    -5919 
   -5831    -5763    -5707    -5647    -5579    -5516    -5445    -5366 
   -5277    -5169    -5043    -4914    -4773    -4621    -4463    -4301 
   -4152    -4024    -3913    -3827    -3778    -3767    -3801    -3877 
   -3974    -4074    -4185    -4303    -4417    -4514    -4587    -4631 
   -4645    -4610    -4517    -4384    -4218    -4010    -3780    -3549 
   -3316    -3084    -2866    -2668    -2488    -2327    -2181    -2041 
   -1906    -1775    -1653    -1560    -1495    -1452    -1426    -1424 
   -1439    -1462    -1499    -1544    -1601    -1690    -1799    -1899 
   -1996    -2088    -2161    -2224    -2284    -2330    -2373    -2424 
   -2477    -2538    -2605    -2682    -2766    -2847    -2924    -2990 
   -3041    -3098    -3167    -3238    -3308    -3372    -3453    -3557 
   -3673    -3813    -3991    -4199    -4430    -4681    -4934    -5178 
   -5413    -5621    -5800    -5957    -6076    -6166    -6247    -6323 
   -6403    -6502    -6627    -6777    -6952    -7159    -7387    -7641 
   -7924    -8230    -8543    -8850    -9140    -9412    -9649    -9832 
   -9979   -10103   -10193   -10251   -10287   -10301   -10305   -10301 
  -10277   -10230   -10154   -10052    -9930    -9809    -9695    -9582 
   -9468    -9374    -9300    -9255    -9261    -9317    -9429    -9593 
   -9788   -10007   -10250   -10504   -10751   -10976   -11165   -11302 
  -11388   -11415   -11367   -11253   -11091   -10879   -10613   -10307 
   -9956    -9560    -9142    -8719    -8291    -7852    -7400    -6941 
   -6492    -6058    -5632    -5220    -4835    -4463    -4107    -3785 
   -3488    -3217    -2990    -2787    -2578    -2378    -2215    -2074 
   -1949    -1857    -1804    -1780    -1784    -1813    -1871    -1953 
   -2050    -2172    -2319    -2488    -2669    -2867    -3083    -3319 
   -3565    -3816    -4069    -4310    -4522    -4712    -4882    -5019 
   -5128    -5224    -5301    -5354    -5393    -5428    -5452    -5462 
   -5464    -5455    -5429    -5382    -5310    -5235    -5169    -5096 
   -5031    -4984    -4953    -4945    -4955    -4997    -5085    -5206 
   -5364    -5552    -5763    -5999    -6243    -6482    -6728    -6964 
   -7179    -7357    -7487    -7576    -7618    -7599    -7533    -7430 
   -7292    -7118    -6913    -6679    -6427    -6172    -5915    -5649 
   -5390    -5146    -4909    -4706    -4541    -4395    -4289    -4232 
   -4190    -4174    -4180    -4187    -4205    -4240    -4271    -4317 
   -4378    -4450    -4558    -4696    -4847    -5026    -5238    -5489 
   -5775    -6091    -6444    -6836    -7248    -7649    -8013    -8340 
   -8646    -8919    -9140    -9319    -9450    -9541    -9602    -9621 
   -9598    -9540    -9436    -9289    -9104    -8873    -8592    -8286 
   -7973    -7651    -7333    -7029    -6747    -6492    -6278    -6102 
   -5965    -5884    -5849    -5849    -5877    -5925    -5977    -6026 
   -6070    -6102    -6092    -6033    -5948    -5853    -5737    -5611 
   -5495    -5377    -5243    -5109    -4984    -4861    -4747    -4641 
   -4513    -4357    -4185    -3986    -3770    -3542    -3279    -2982 
   -2677    -2347    -1999    -1644    -1278     -924     -599     -289 
     -13      220      417      557      630      648      608      488 
     289       36     -280     -672    -1117    -1603    -2128    -2679 
   -3235    -3796    -4352    -4885    -5381    -5837    -6262    -6650 
   -6994    -7300    -7553    -7763    -7944    -8089    -8206    -8302 
   -8382    -8459    -8527    -8584    -8638    -8687    -8726    -8766 
   -8816    -8881    -8968    -9070    -9178    -9286    -9390    -9487 
   -9580    -9664    -9717    -9744    -9755    -9725    -9645    -9514 
   -9325    -9078    -8777    -8418    -7992    -7499    -6967    -6388 
   -5757    -5088    -4363    -3600    -2829    -2034    -1219     -403 
     400     1188     1946     2671     3365     4016     4617     5169 
    5653     6060     6385     6631     6799     6886     6881     6782 
    6605     6326     5944     5497     4989     4410     3761     3060 
    2344     1628      901      176     -546    -1269    -1975    -2647 
   -3276    -3871    -4428    -4926    -5368    -5760    -6102    -6386 
   -6624    -6829    -7018    -7182    -7330    -7491    -7661    -7835 
   -8021    -8213    -8414    -8645    -8896    -9155    -9418    -9688 
   -9963   -10228   -10467   -10669   -10836   -10972   -11075   -11138 
  -11159   -11130   -11057   -10943   -10783   -10565   -10295    -9992 
   -9652    -9267    -8847    -8387    -7885    -7357    -6820    -6258 
   -5671    -5082    -4507    -3939    -3380    -2837    -2322    -1837 
   -1382     -945     -533     -164      178      506      811     1078 
    1306     1506     1668     1792     1883     1930     1942     1930 
    1900     1865     1829     1784     1726     1651     1578     1495 
    1389     1282     1170     1032      876      664      383       78 
    -271     -669    -1081    -1521    -1984    -2446    -2934    -3426 
   -3893    -4369    -4837    -5296    -5782    -6261    -6739    -7206 
   -7628    -8046    -8440    -8773    -9067    -9296    -9458    -9578 
   -9602    -9536    -9416    -9238    -9023    -8785    -8527    -8275 
   -8017    -7742    -7469    -7188    -6902    -6635    -6393    -6162 
   -5937    -5722    -5529    -5355    -5196    -5042    -4892    -4756 
   -4617    -4469    -4309    -4133    -3944    -3730    -3481    -3194 
   -2863    -2500    -2092    -1641    -1158     -646     -135      364 
     858     1345     1814     2239     2606     2934     3206     3388 
    3491     3500     3407     3221     2941     2579     2139     1617 
    1031      392     -297    -1004    -1729    -2492    -3275    -4078 
   -4911    -5729    -6519    -7307    -8066    -8765    -9412    -9992 
  -10496   -10926   -11280   -11560   -11767   -11894   -11916   -11836 
  -11680   -11446   -11134   -10760   -10323    -9813    -9246    -8634 
   -7960    -7222    -6442    -5613    -4739    -3861    -2990    -2134 
   -1321     -552      163      805     1391     1923     2389     2786 
    3118     3379     3566     3696     3774     3809     3804     3757 
    3694     3618     3546     3487     3416     3354     3319     3275 
    3234     3226     3232     3258     3284     3284     3262     3225 
    3159     3075     2960     2809     2641     2447     2209     1930 
    1615     1270      888      454      -35     -591    -1206    -1875 
   -2602    -3387    -4200    -5035    -5884    -6752    -7627    -8464 
   -9238    -9952   -10600   -11173   -11661   -12043   -12325   -12518 
  -12614   -12613   -12518   -12336   -12079   -11753   -11364   -10935 
  -10481   -10003    -9493    -8939    -8355    -7766    -7191    -6616 
   -6037    -5468    -4918    -4384    -3861    -3345    -2847    -2353 
   -1861    -1379     -916     -486      -81      310      669      981 
    1256     1495     1695     1844     1933     1977     1972     1900 
    1769     1599     1399     1177      943      688      409      129 
    -143     -427     -715    -1003    -1270    -1522    -1780    -2039 
   -2296    -2559    -2829    -3127    -3470    -3867    -4327    -4834 
   -5385    -5968    -6550    -7132    -7703    -8237    -8742    -9217 
   -9649   -10035   -10365   -10646   -10889   -11078   -11207   -11284 
  -11330   -11352   -11335   -11292   -11234   -11160   -11082   -10999 
  -10908   -10808   -10704   -10602   -10485   -10338   -10152    -9917 
   -9653    -9362    -9036    -8673    -8256    -7789    -7294    -6741 
   -6127    -5486    -4812    -4081    -3300    -2501    -1694     -886 
     -89      687     1422     2097     2724     3289     3769     4159 
    4464     4676     4810     4877     4878     4824     4725     4584 
    4413     4205     3963     3709     3438     3149     2853     2555 
    2242     1910     1572     1230      876      496       94     -315 
    -730    -1156    -1587    -2014    -2434    -2853    -3273    -3693 
   -4107    -4499    -4869    -5216    -5529    -5823    -6110    -6367 
   -6597    -6832    -7067    -7292    -7527    -7777    -8023    -8280 
   -8557    -8830    -9101    -9377    -9644    -9913   -10177   -10397 
  -10575   -10739   -10864   -10929   -10951   -10940   -10897   -10821 
  -10696   -10509   -10293   -10052    -9784    -9501    -9200    -8887 
   -8568    -8221    -7832    -7430    -7026    -6593    -6123    -5652 
   -5185    -4710    -4237    -3773    -3316    -2891    -2497    -2124 
   -1796    -1516    -1270    -1073     -926     -819     -745     -696 
    -669     -645     -629     -618     -584     -526     -453     -349 
    -217      -52      140      348      571      796     1000     1197 
    1394     1564     1688     1772     1799     1740     1598     1393 
    1117      784      396      -56     -549    -1043    -1541    -2061 
   -2596    -3127    -3662    -4197    -4719    -5238    -5768    -6293 
   -6810    -7330    -7852    -8355    -8830    -9297    -9751   -10162 
  -10517   -10828   -11095   -11298   -11429   -11488   -11469   -11381 
  -11240   -11036   -10793   -10521   -10220    -9909    -9583    -9229 
   -8878    -8560    -8272    -8025    -7820    -7643    -7493    -7377 
   -7285    -7203    -7130    -7071    -7032    -7011    -7003    -7003 
   -7017    -7049    -7091    -7129    -7159    -7172    -7173    -7155 
   -7098    -7007    -6890    -6728    -6523    -6289    -6027    -5740 
   -5436    -5123    -4806    -4491    -4183    -3883    -3593    -3302 
   -3010    -2740    -2492    -2259    -2057    -1883    -1726    -1594 
   -1494    -1418    -1356    -1308    -1275    -1260    -1275    -1321 
   -1401    -1528    -1705    -1923    -2177    -2459    -2763    -3092 
   -3450    -3827    -4200    -4548    -4874    -5182    -5467    -5734 
