Origin Time       2016/04/16 01:25:00
Lat.              32.753
Long.             130.762
Depth. (km)       12
Mag.              7.3
Station Code      TTR001
Station Lat.      35.3415
Station Long.     134.3975
Station Height(m) 219
Record Time       2016/04/16 01:27:13
Sampling Freq(Hz) 100Hz
Duration Time(s)  64
Dir.              E-W
Scale Factor      7845(gal)/8223790
Max. Acc. (gal)   1.465
Last Correction   2016/04/16 01:27:15
Memo.             
[...]
   10790    10747    10764    10774    10727    10744    10751    10724 
   10731    10725    10689    10679    10732    10729    10632    10670 
   10764    10692    10670    10739    10706    10687    10741    10743 
   10682    10686    10782    10767    10674    10733    10817    10768 
   10721    10754    10804    10795    10767    10778    10788    10814 
   10831    10779    10786    10821    10798    10814    10800    10755 
   10816    10837    10771    10777    10843    10844    10779    10813 
   10885    10831    10820    10886    10871    10848    10887    10918 
   10908    10910    10957    10975    10953    10970    11014    11014 
   10978    11003    11051    11014    10991    11039    11036    10980 
   11005    11044    10979    10925    10987    11024    10914    10844 
   10963    10994    10833    10827    10962    10908    10818    10913 
   10945    10839    10879    11005    10924    10820    10968    11062 
   10887    10840    11013    11017    10859    10848    10960    10935 
   10817    10839    10889    10843    10812    10821    10813    10775 
   10785    10821    10760    10708    10774    10804    10733    10702 
   10755    10777    10741    10732    10748    10767    10764    10741 
   10763    10781    10740    10747    10774    10746    10739    10737 
   10740    10763    10717    10719    10777    10736    10721    10747 
   10739    10777    10755    10697    10759    10816    10763    10705 
   10770    10856    10777    10737    10845    10851    10770    10805 
   10889    10828    10755    10864    10901    10783    10787    10860 
   10854    10782    10744    10821    10843    10762    10755    10808 
   10843    10809    10775    10848    10868    10825    10859    10905 
   10921    10914    10930    10972    10987    11028    11021    10980 
   11075    11115    11033    11056    11114    11095    11079    11083 
   11088    11075    11051    11065    11076    11036    11006    11049 
   11075    11017    10990    11026    11044    11006    10933    10948 
   11021    10972    10872    10890    10978    10963    10848    10858 
   10957    10912    10835    10879    10912    10881    10872    10895 
   10910    10887    10879    10925    10912    10852    10866    10914 
   10881    10798    10829    10910    10839    10768    10848    10868 
   10794    10797    10821    10805    10814    10810    10775    10817 
   10854    10813    10813    10872    10897    10874    10889    10920 
   10916    10963    10960    10874    10925    11010    10951    10879 
   10893    10952    10945    10878    10878    10903    10906    10916 
   10894    10878    10908    10932    10940    10905    10870    10929 
   10970    10901    10863    10924    10962    10916    10893    10917 
   10903    10903    10913    10852    10827    10856    10835    10775 
   10741    10751    10736    10685    10675    10652    10629    10650 
   10616    10596    10639    10628    10598    10623    10651    10635 
   10621    10673    10678    10616    10665    10728    10660    10644 
   10717    10698    10656    10689    10705    10678    10683    10720 
   10708    10696    10771    10758    10667    10762    10847    10732 
   10704    10825    10851    10750    10746    10847    10829    10767 
   10816    10845    10788    10802    10890    10851    10758    10825 
   10921    10858    10762    10809    10902    10863    10791    10802 
   10831    10867    10872    10795    10798    10901    10895    10800 
   10793    10874    10902    10827    10800    10881    10874    10827 
   10870    10856    10825    10887    10897    10849    10851    10894 
   10920    10891    10885    10913    10924    10936    10935    10922 
   10948    10971    10960    10955    10972    10986    10963    10947 
   10966    10957    10935    10937    10916    10913    10936    10897 
   10870    10901    10903    10868    10831    10851    10893    10840 
   10787    10828    10841    10788    10777    10806    10763    10720 
   10782    10783    10697    10717    10770    10722    10693    10712 
   10692    10692    10720    10670    10643    10712    10717    10644 
   10663    10739    10709    10677    10736    10746    10721    10760 
   10779    10750    10764    10810    10808    10777    10774    10818 
   10840    10794    10802    10848    10836    10848    10858    10832 
   10859    10894    10870    10839    10867    10925    10901    10849 
   10895    10941    10917    10902    10897    10910    10953    10943 
   10882    10897    10983    10974    10876    10894    10968    10930 
   10887    10902    10891    10885    10897    10872    10840    10863 
   10887    10847    10829    10859    10843    10837    10854    10804 
   10787    10837    10801    10733    10762    10791    10750    10712 
   10731    10739    10708    10697    10696    10702    10704    10667 
   10678    10716    10681    10652    10689    10720    10698    10689 
   10737    10741    10708    10748    10763    10725    10758    10785 
   10744    10760    10791    10737    10740    10800    10736    10685 
   10755    10763    10700    10701    10725    10720    10721    10721 
   10698    10709    10744    10710    10671    10710    10721    10681 
   10710    10710    10648    10709    10762    10669    10646    10747 
   10758    10667    10671    10762    10747    10683    10706    10755 
   10743    10705    10732    10747    10696    10705    10752    10736 
   10667    10666    10779    10770    10611    10658    10809    10732 
   10638    10710    10759    10732    10721    10728    10737    10755 
   10748    10727    10755    10763    10720    10739    10767    10729 
   10717    10755    10752    10704    10712    10759    10728    10685 
   10702    10727    10737    10705    10674    10710    10741    10712 
   10666    10678    10722    10705    10670    10683    10708    10712 
   10714    10719    10731    10758    10777    10766    10764    10802 
   10824    10809    10804    10831    10867    10863    10832    10854 
   10908    10894    10862    10893    10920    10906    10908    10913 
   10909    10920    10928    10925    10899    10890    10952    10979 
   10895    10876    10991    11006    10901    10916    11017    11016 
   10953    10962    11034    11043    10980    10991    11059    11051 
   11011    11045    11091    11060    11041    11115    11140    11060 
   11079    11184    11151    11080    11129    11187    11184    11145 
   11138    11209    11203    11145    11202    11218    11126    11163 
   11254    11179    11072    11142    11237    11118    11013    11118 
   11136    11028    11047    11087    11014    11021    11107    11017 
   10916    11052    11097    10918    10905    11045    11014    10890 
   10916    11002    10970    10902    10941    11003    10963    10928 
   10989    11016    10968    10986    11029    10989    10970    11034 
   11029    10947    10967    11038    10990    10932    10991    11007 
   10952    10971    10983    10963    10994    10983    10944    10978 
   10991    10955    10953    10947    10908    10902    10914    10874 
   10832    10852    10878    10839    10801    10843    10866    10821 
   10816    10854    10876    10844    10827    10891    10886    10833 
   10903    10925    10863    10883    10944    10949    10886    10885 
   10967    10971    10939    10920    10926    11010    10989    10882 
   10952    11039    10949    10933    11028    10991    10963    11029 
   10998    10966    11028    11032    10975    10968    11014    11033 
   10984    10947    10989    11024    10982    10940    10948    10994 
   10975    10906    10960    10982    10910    10951    10979    10932 
   10953    10989    10983    10979    11014    11060    11065    11056 
   11044    11080    11148    11092    11011    11074    11137    11076 
   11010    11049    11097    11029    11006    11087    11048    10967 
   11056    11121    11009    10963    11107    11145    11001    11014 
   11157    11126    11029    11078    11160    11122    11043    11084 
   11148    11060    11002    11094    11078    10960    10982    11057 
   10999    10909    10957    11016    10936    10894    10955    10952 
   10921    10932    10921    10920    10957    10951    10929    10966 
   10989    10963    10966    10994    11003    10998    10990    10979 
   10993    10993    10952    10952    10951    10901    10909    10941 
   10886    10854    10902    10881    10821    10844    10835    10775 
   10778    10778    10739    10733    10755    10727    10677    10717 
   10747    10683    10666    10694    10706    10689    10639    10643 
   10673    10638    10612    10611    10592    10586    10594    10577 
   10535    10531    10571    10546    10482    10508    10537    10477 
   10458    10492    10457    10431    10473    10467    10419    10427 
   10476    10459    10396    10417    10476    10444    10400    10431 
   10462    10432    10393    10415    10449    10419    10395    10408 
   10416    10434    10435    10431    10462    10478    10500    10534 
   10521    10546    10620    10628    10612    10658    10714    10729 
   10727    10758    10781    10786    10832    10828    10795    10864 
   10899    10847    10848    10894    10921    10887    10847    10905 
   10939    10882    10908    10972    10951    10963    11038    11060 
   11070    11115    11180    11229    11234    11280    11385    11411 
   11383    11441    11531    11538    11537    11569    11589    11639 
   11657    11611    11630    11692    11674    11611    11618    11659 
   11619    11576    11596    11589    11550    11551    11569    11534 
   11476    11497    11534    11460    11392    11426    11422    11352 
   11304    11286    11260    11204    11148    11113    11060    11013 
   10986    10932    10864    10833    10833    10783    10701    10700 
   10721    10663    10615    10627    10633    10606    10594    10605 
   10609    10613    10625    10632    10633    10642    10666    10651 
   10628    10673    10685    10646    10648    10679    10686    10663 
   10655    10673    10663    10646    10660    10646    10594    10604 
   10643    10601    10558    10590    10616    10582    10559    10592 
   10600    10575    10600    10586    10550    10629    10652    10546 
   10563    10656    10638    10567    10550    10605    10605    10516 
   10494    10525    10492    10416    10400    10417    10350    10308 
   10345    10296    10241    10288    10295    10247    10254    10291 
   10309    10305    10288    10309    10355    10361    10346    10350 
   10392    10430    10408    10385    10424    10471    10462    10434 
   10449    10480    10497    10498    10485    10504    10544    10566 
   10596    10598    10604    10698    10771    10736    10731    10848 
   10945    10908    10916    11033    11065    11071    11132    11128 
   11121    11194    11207    11133    11124    11188    11171    11079 
   11068    11091    11045    10998    10972    10930    10905    10870 
   10797    10748    10724    10666    10593    10562    10532    10457 
   10405    10401    10361    10305    10304    10301    10258    10251 
   10269    10241    10215    10238    10251    10226    10210    10227 
   10261    10260    10227    10257    10315    10304    10304    10362 
   10401    10413    10466    10524    10524    10551    10643    10673 
   10660    10702    10758    10798    10816    10793    10816    10918 
   10933    10858    10894    10989    10971    10933    10987    11029 
   10998    11017    11083    11047    11024    11136    11156    11071 
   11119    11237    11227    11157    11209    11329    11319    11250 
   11310    11410    11379    11345    11435    11468    11416    11473 
   11543    11488    11487    11573    11568    11529    11587    11632 
   11599    11612    11689    11704    11689    11742    11792    11793 
   11800    11862    11914    11875    11902    12033    12044    12000 
   12062    12154    12174    12139    12171    12235    12225    12231 
   12224    12183    12225    12237    12162    12128    12144    12151 
   12109    12051    12040    12050    12039    11996    11962    11967 
   11958    11942    11923    11867    11853    11871    11848    11792 
   11742    11745    11767    11724    11654    11645    11681    11684 
   11615    11577    11634    11649    11578    11542    11577    11608 
   11554    11495    11566    11605    11510    11516    11605    11549 
   11488    11589    11618    11495    11520    11670    11608    11491 
   11611    11703    11593    11561    11653    11659    11599    11611 
   11639    11596    11615    11670    11605    11564    11645    11658 
   11581    11574    11616    11581    11549    11589    11564    11492 
   11508    11550    11485    11414    11464    11492    11416    11372 
   11402    11412    11337    11286    11327    11291    11211    11230 
   11214    11151    11145    11145    11110    11074    11064    11056 
   11017    10993    10998    10972    10936    10952    10945    10876 
   10864    10879    10827    10767    10747    10739    10689    10621 
   10616    10602    10514    10451    10469    10459    10359    10311 
   10349    10314    10230    10218    10208    10146    10129    10143 
   10042     9968    10061    10037     9863     9877     9979     9882 
    9771     9815     9815     9733     9718     9705     9628     9595 
    9596     9533     9475     9466     9432     9404     9391     9342 
    9316     9358     9377     9316     9293     9400     9462     9385 
    9402     9559     9609     9566     9640     9768     9801     9828 
    9896     9964    10035    10085    10119    10180    10242    10276 
   10295    10339    10372    10368    10416    10462    10428    10449 
   10512    10504    10478    10507    10547    10528    10516    10570 
   10551    10512    10582    10578    10504    10551    10596    10530 
   10485    10531    10546    10469    10454    10480    10430    10401 
   10397    10339    10307    10308    10280    10224    10203    10223 
   10204    10161    10164    10179    10162    10164    10207    10199 
   10179    10246    10299    10266    10289    10384    10388    10361 
   10450    10504    10458    10496    10573    10547    10546    10642 
   10654    10609    10693    10777    10754    10771    10854    10913 
   10944    10983    11052    11133    11190    11240    11307    11373 
   11458    11538    11545    11591    11711    11749    11746    11808 
   11862    11878    11896    11920    11935    11934    11947    11946 
   11919    11916    11907    11884    11853    11820    11808    11776 
   11734    11713    11655    11605    11597    11556    11466    11421 
   11435    11394    11292    11250    11261    11244    11141    11074 
   11132    11087    10955    10955    10974    10890    10809    10805 
   10798    10712    10643    10655    10635    10552    10524    10534 
   10504    10474    10463    10466    10461    10451    10470    10474 
   10466    10484    10508    10539    10527    10511    10567    10593 
   10584    10598    10590    10604    10639    10621    10613    10623 
   10612    10629    10635    10578    10551    10596    10602    10500 
   10453    10537    10523    10408    10408    10440    10405    10372 
   10357    10335    10314    10338    10331    10238    10243    10315 
   10269    10212    10224    10218    10201    10204    10176    10110 
   10108    10166    10118    10008    10035    10100    10038     9946 
    9953     9999     9972     9900     9900     9945     9941     9906 
    9919     9977     9979     9960    10048    10084    10017    10095 
   10211    10143    10129    10253    10272    10222    10266    10326 
   10318    10323    10366    10372    10376    10413    10423    10424 
   10451    10467    10492    10509    10496    10537    10593    10547 
   10528    10604    10621    10569    10570    10608    10602    10579 
   10566    10536    10527    10537    10467    10400    10428    10395 
   10301    10288    10269    10189    10141    10133    10079     9981 
    9961     9981     9898     9825     9849     9825     9779     9787 
    9761     9747     9786     9786     9755     9749     9796     9841 
    9807     9786     9847     9906     9915     9900     9913     9987 
   10033     9987     9975    10062    10110    10064    10045    10106 
   10150    10119    10112    10170    10177    10157    10201    10243 
   10219    10199    10269    10346    10280    10227    10362    10446 
   10345    10341    10482    10520    10477    10512    10578    10612 
   10638    10650    10655    10701    10754    10737    10717    10763 
   10809    10801    10778    10810    10854    10828    10827    10870 
   10856    10864    10889    10845    10854    10901    10854    10821 
   10859    10862    10827    10813    10814    10787    10751    10743 
   10696    10616    10592    10563    10477    10385    10350    10357 
   10274    10158    10153    10145    10068    10004     9961     9933 
    9892     9846     9823     9771     9722     9730     9709     9649 
    9606     9594     9618     9582     9499     9506     9529     9491 
    9462     9443     9443     9478     9474     9428     9452     9529 
    9541     9536     9566     9598     9664     9694     9657     9714 
    9799     9792     9807     9852     9871     9894     9904     9904 
    9911     9925     9937     9913     9902     9938     9950     9913 
    9896     9938     9957     9931     9934     9960     9979     9999 
   10007    10022    10053    10077    10100    10125    10135    10170 
   10253    10273    10234    10309    10431    10422    10393    10474 
   10567    10586    10588    10638    10694    10719    10741    10763 
   10775    10809    10824    10801    10831    10890    10848    10818 
   10917    10921    10831    10895    10972    10897    10891    11003 
   10998    10933    11013    11090    11048    11033    11091    11140 
   11109    11099    11176    11160    11105    11179    11214    11137 
   11110    11180    11219    11115    11045    11137    11151    11043 
   11029    11079    11068    11037    11021    10993    10989    11026 
   10998    10930    10959    10991    10939    10920    10948    10924 
   10886    10905    10920    10867    10843    10899    10882    10787 
   10814    10882    10831    10767    10786    10841    10824    10751 
   10762    10795    10773    10744    10732    10759    10773    10727 
   10728    10750    10720    10727    10752    10700    10681    10759 
   10758    10670    10700    10752    10682    10640    10670    10650 
   10619    10635    10617    10569    10604    10629    10557    10543 
   10600    10582    10536    10559    10582    10547    10559    10612 
   10567    10524    10613    10656    10558    10537    10640    10652 
   10579    10567    10608    10628    10589    10551    10566    10577 
   10567    10534    10497    10513    10516    10489    10458    10420 
   10438    10422    10345    10346    10331    10272    10272    10260 
   10216    10169    10154    10160    10080    10038    10091    10042 
    9967     9989     9983     9936     9934     9937     9895     9894 
    9953     9937     9876     9930    10010     9992     9976    10035 
   10110    10134    10130    10189    10274    10291    10320    10395 
