Origin Time       2016/04/16 01:25:00
Lat.              32.753
Long.             130.762
Depth. (km)       12
Mag.              7.3
Station Code      TTR002
Station Lat.      35.4853
Station Long.     134.2198
Station Height(m) 7
Record Time       2016/04/16 01:26:25
Sampling Freq(Hz) 100Hz
Duration Time(s)  148
Dir.              E-W
Scale Factor      7845(gal)/8223790
Max. Acc. (gal)   5.670
Last Correction   2016/04/16 01:26:26
Memo.             
[...]
   -5980    -6025    -6075    -6122    -6168    -6214    -6264    -6315 
   -6363    -6407    -6440    -6459    -6465    -6462    -6440    -6397 
   -6346    -6295    -6234    -6165    -6100    -6038    -5975    -5919 
   -5867    -5813    -5764    -5722    -5679    -5629    -5585    -5547 
   -5506    -5471    -5448    -5425    -5406    -5398    -5390    -5375 
   -5355    -5335    -5304    -5267    -5235    -5198    -5161    -5139 
   -5131    -5127    -5139    -5166    -5197    -5228    -5266    -5297 
   -5310    -5316    -5316    -5294    -5252    -5204    -5147    -5082 
   -5020    -4961    -4901    -4850    -4812    -4776    -4739    -4707 
   -4673    -4638    -4608    -4579    -4546    -4518    -4499    -4483 
   -4471    -4459    -4445    -4436    -4428    -4415    -4405    -4396 
   -4384    -4374    -4372    -4379    -4386    -4399    -4431    -4477 
   -4531    -4600    -4683    -4776    -4880    -4985    -5086    -5196 
   -5312    -5421    -5529    -5645    -5764    -5884    -6004    -6124 
   -6243    -6361    -6475    -6583    -6685    -6782    -6868    -6949 
   -7034    -7113    -7180    -7245    -7307    -7364    -7406    -7435 
   -7452    -7444    -7426    -7400    -7350    -7287    -7225    -7150 
   -7064    -6979    -6895    -6808    -6721    -6637    -6552    -6462 
   -6374    -6293    -6218    -6147    -6088    -6031    -5976    -5926 
   -5876    -5826    -5773    -5717    -5656    -5593    -5529    -5464 
   -5397    -5335    -5278    -5223    -5171    -5130    -5093    -5062 
   -5032    -5016    -4997    -4976    -4969    -4973    -4974    -4981 
   -4999    -5016    -5032    -5057    -5088    -5113    -5139    -5171 
   -5201    -5224    -5247    -5268    -5290    -5313    -5341    -5370 
   -5397    -5439    -5487    -5537    -5589    -5640    -5689    -5742 
   -5793    -5845    -5895    -5937    -5973    -6010    -6041    -6069 
   -6087    -6091    -6087    -6077    -6060    -6037    -6012    -5985 
   -5962    -5949    -5946    -5952    -5965    -5977    -5979    -5980 
   -5975    -5950    -5923    -5895    -5853    -5802    -5752    -5692 
   -5622    -5552    -5483    -5410    -5339    -5270    -5204    -5136 
   -5067    -4999    -4923    -4845    -4766    -4692    -4619    -4545 
   -4471    -4401    -4325    -4243    -4164    -4091    -4017    -3946 
   -3886    -3842    -3812    -3798    -3807    -3828    -3863    -3912 
   -3970    -4035    -4112    -4197    -4284    -4383    -4483    -4577 
   -4675    -4776    -4868    -4949    -5035    -5123    -5202    -5278 
   -5356    -5435    -5518    -5609    -5705    -5800    -5896    -6003 
   -6118    -6230    -6343    -6451    -6546    -6631    -6706    -6766 
   -6808    -6841    -6868    -6883    -6893    -6899    -6903    -6902 
   -6893    -6879    -6862    -6840    -6817    -6793    -6766    -6739 
   -6714    -6678    -6629    -6573    -6505    -6420    -6322    -6223 
   -6120    -6010    -5900    -5800    -5705    -5611    -5525    -5448 
   -5379    -5310    -5254    -5213    -5177    -5146    -5130    -5123 
   -5123    -5127    -5131    -5135    -5144    -5162    -5184    -5211 
   -5239    -5268    -5306    -5348    -5386    -5424    -5463    -5499 
   -5536    -5574    -5611    -5644    -5672    -5699    -5717    -5717 
   -5703    -5689    -5672    -5640    -5601    -5568    -5541    -5512 
   -5487    -5468    -5448    -5425    -5408    -5398    -5391    -5382 
   -5381    -5386    -5397    -5406    -5409    -5410    -5409    -5401 
   -5386    -5368    -5346    -5313    -5275    -5235    -5193    -5144 
   -5090    -5031    -4969    -4905    -4846    -4787    -4720    -4658 
   -4602    -4541    -4483    -4429    -4369    -4313    -4258    -4197 
   -4140    -4090    -4039    -3989    -3947    -3908    -3870    -3838 
   -3815    -3800    -3793    -3794    -3808    -3832    -3863    -3899 
   -3940    -3984    -4035    -4082    -4132    -4187    -4247    -4313 
   -4383    -4453    -4529    -4606    -4689    -4777    -4877    -4985 
   -5090    -5200    -5316    -5436    -5556    -5678    -5788    -5890 
   -5987    -6081    -6169    -6254    -6330    -6397    -6467    -6544 
   -6617    -6686    -6759    -6831    -6895    -6959    -7021    -7075 
   -7122    -7168    -7210    -7246    -7280    -7304    -7319    -7327 
   -7330    -7319    -7294    -7257    -7211    -7148    -7067    -6974 
   -6870    -6755    -6632    -6505    -6377    -6247    -6118    -5985 
   -5856    -5730    -5606    -5485    -5366    -5258    -5154    -5047 
   -4951    -4869    -4789    -4716    -4653    -4599    -4550    -4509 
   -4484    -4467    -4455    -4460    -4476    -4496    -4526    -4564 
   -4604    -4646    -4688    -4734    -4785    -4835    -4880    -4928 
   -4982    -5039    -5093    -5147    -5198    -5254    -5301    -5336 
   -5368    -5394    -5406    -5406    -5397    -5377    -5351    -5317 
   -5279    -5242    -5202    -5158    -5119    -5082    -5043    -5008 
   -4985    -4962    -4939    -4923    -4909    -4887    -4865    -4850 
   -4835    -4816    -4801    -4788    -4769    -4760    -4752    -4735 
   -4720    -4707    -4685    -4668    -4657    -4652    -4650    -4661 
   -4684    -4715    -4750    -4788    -4831    -4878    -4928    -4981 
   -5043    -5113    -5185    -5255    -5337    -5433    -5532    -5630 
   -5732    -5833    -5931    -6033    -6134    -6227    -6313    -6396 
   -6471    -6539    -6598    -6655    -6705    -6750    -6789    -6818 
   -6845    -6864    -6874    -6878    -6872    -6858    -6841    -6824 
   -6791    -6750    -6705    -6660    -6612    -6563    -6516    -6470 
   -6417    -6365    -6312    -6246    -6176    -6110    -6041    -5972 
   -5906    -5837    -5768    -5706    -5645    -5584    -5528    -5476 
   -5427    -5386    -5351    -5317    -5287    -5266    -5250    -5233 
   -5231    -5243    -5260    -5278    -5298    -5317    -5333    -5344 
   -5343    -5327    -5302    -5273    -5227    -5169    -5101    -5027 
   -4959    -4888    -4810    -4731    -4654    -4576    -4499    -4425 
   -4351    -4279    -4213    -4147    -4086    -4033    -3984    -3937 
   -3894    -3855    -3820    -3786    -3759    -3738    -3717    -3705 
   -3707    -3715    -3724    -3742    -3763    -3792    -3832    -3885 
   -3940    -3998    -4062    -4131    -4205    -4289    -4382    -4472 
   -4567    -4668    -4776    -4893    -5016    -5140    -5268    -5394 
   -5516    -5634    -5746    -5844    -5930    -6006    -6070    -6119 
   -6156    -6188    -6211    -6227    -6249    -6265    -6274    -6282 
   -6288    -6282    -6266    -6246    -6226    -6200    -6169    -6142 
   -6115    -6095    -6083    -6066    -6049    -6037    -6023    -6012 
   -6011    -6011    -6012    -6026    -6052    -6081    -6119    -6169 
   -6224    -6281    -6345    -6405    -6459    -6516    -6567    -6604 
   -6631    -6651    -6662    -6671    -6673    -6667    -6654    -6647 
   -6640    -6624    -6609    -6600    -6588    -6569    -6554    -6538 
   -6515    -6485    -6458    -6423    -6376    -6322    -6268    -6203 
   -6120    -6035    -5945    -5844    -5737    -5626    -5506    -5383 
   -5260    -5139    -5027    -4922    -4819    -4730    -4649    -4568 
   -4484    -4407    -4338    -4274    -4205    -4140    -4088    -4044 
   -4012    -3989    -3979    -3982    -3996    -4024    -4069    -4124 
   -4186    -4258    -4336    -4414    -4504    -4598    -4685    -4776 
   -4877    -4982    -5089    -5202    -5324    -5452    -5593    -5740 
   -5877    -6012    -6154    -6295    -6420    -6539    -6660    -6782 
   -6897    -7015    -7132    -7242    -7344    -7442    -7539    -7634 
   -7722    -7804    -7885    -7966    -8040    -8113    -8186    -8256 
   -8316    -8371    -8424    -8463    -8480    -8472    -8441    -8394 
   -8324    -8229    -8118    -7996    -7854    -7701    -7553    -7400 
   -7242    -7092    -6944    -6791    -6644    -6500    -6351    -6199 
   -6046    -5891    -5729    -5572    -5424    -5273    -5123    -4981 
   -4843    -4704    -4573    -4453    -4327    -4203    -4091    -3977 
   -3866    -3766    -3669    -3574    -3485    -3397    -3308    -3215 
   -3115    -3007    -2890    -2764    -2635    -2505    -2381    -2257 
   -2130    -2018    -1908    -1795    -1688    -1594    -1503    -1417 
   -1344    -1289    -1247    -1217    -1209    -1217    -1242    -1282 
   -1344    -1425    -1526    -1645    -1784    -1934    -2098    -2284 
   -2481    -2682    -2890    -3106    -3325    -3544    -3762    -3979 
   -4197    -4410    -4614    -4816    -5013    -5204    -5401    -5599 
   -5791    -5983    -6174    -6358    -6535    -6698    -6841    -6974 
   -7105    -7217    -7307    -7400    -7487    -7550    -7607    -7663 
   -7705    -7728    -7743    -7751    -7756    -7758    -7753    -7743 
   -7739    -7734    -7726    -7716    -7707    -7697    -7690    -7688 
   -7685    -7678    -7672    -7673    -7677    -7668    -7661    -7666 
   -7668    -7668    -7674    -7673    -7662    -7639    -7597    -7541 
   -7466    -7378    -7280    -7167    -7047    -6921    -6787    -6658 
   -6531    -6404    -6281    -6161    -6044    -5937    -5822    -5698 
   -5570    -5433    -5286    -5136    -4976    -4801    -4622    -4440 
   -4241    -4036    -3836    -3628    -3415    -3213    -3010    -2803 
   -2604    -2412    -2223    -2042    -1877    -1729    -1587    -1453 
   -1336    -1224    -1125    -1051     -986     -943     -923     -924 
    -949     -994    -1063    -1162    -1281    -1405    -1544    -1695 
   -1857    -2018    -2181    -2353    -2535    -2728    -2929    -3136 
   -3352    -3578    -3809    -4043    -4287    -4530    -4765    -5004 
   -5242    -5471    -5698    -5919    -6127    -6322    -6498    -6656 
   -6791    -6902    -6990    -7059    -7107    -7149    -7190    -7230 
   -7269    -7312    -7368    -7429    -7489    -7561    -7628    -7689 
   -7753    -7807    -7855    -7901    -7938    -7962    -7973    -7963 
   -7943    -7917    -7874    -7813    -7743    -7665    -7578    -7476 
   -7364    -7252    -7132    -7015    -6907    -6793    -6677    -6573 
   -6465    -6350    -6238    -6120    -5988    -5857    -5724    -5575 
   -5421    -5270    -5127    -4994    -4868    -4738    -4617    -4504 
   -4403    -4310    -4228    -4162    -4112    -4077    -4048    -4033 
   -4031    -4033    -4043    -4059    -4078    -4093    -4105    -4121 
   -4136    -4139    -4143    -4140    -4128    -4118    -4117    -4114 
   -4110    -4114    -4131    -4151    -4178    -4225    -4286    -4355 
   -4440    -4541    -4645    -4758    -4884    -5012    -5134    -5266 
   -5408    -5548    -5697    -5856    -6015    -6176    -6349    -6527 
   -6697    -6859    -7020    -7167    -7296    -7416    -7520    -7596 
   -7649    -7690    -7712    -7711    -7690    -7657    -7605    -7537 
   -7457    -7366    -7264    -7157    -7048    -6939    -6821    -6701 
   -6582    -6459    -6342    -6232    -6122    -6011    -5910    -5815 
   -5718    -5626    -5544    -5458    -5377    -5309    -5256    -5220 
   -5193    -5185    -5198    -5221    -5258    -5312    -5371    -5433 
   -5499    -5555    -5599    -5634    -5652    -5653    -5651    -5625 
   -5574    -5516    -5448    -5359    -5258    -5155    -5044    -4931 
   -4819    -4702    -4583    -4469    -4355    -4233    -4112    -3994 
   -3877    -3755    -3639    -3520    -3402    -3288    -3172    -3060 
   -2961    -2875    -2794    -2737    -2706    -2688    -2686    -2714 
   -2767    -2833    -2918    -3034    -3168    -3307    -3462    -3639 
   -3828    -4020    -4218    -4425    -4633    -4842    -5047    -5246 
   -5445    -5651    -5848    -6043    -6237    -6419    -6598    -6777 
   -6941    -7092    -7233    -7356    -7461    -7555    -7630    -7684 
   -7728    -7763    -7781    -7789    -7794    -7785    -7759    -7731 
   -7701    -7655    -7592    -7520    -7438    -7342    -7241    -7129 
   -7011    -6891    -6762    -6621    -6480    -6338    -6189    -6037 
   -5894    -5753    -5610    -5478    -5358    -5242    -5139    -5049 
   -4965    -4893    -4839    -4796    -4762    -4750    -4747    -4747 
   -4760    -4779    -4795    -4810    -4828    -4846    -4862    -4884 
   -4915    -4947    -4984    -5035    -5096    -5167    -5260    -5363 
   -5478    -5609    -5749    -5902    -6065    -6231    -6394    -6550 
   -6696    -6826    -6944    -7049    -7138    -7221    -7298    -7365 
   -7435    -7507    -7570    -7632    -7701    -7774    -7839    -7903 
   -7981    -8062    -8139    -8229    -8329    -8434    -8546    -8658 
   -8770    -8880    -8976    -9057    -9132    -9193    -9238    -9270 
   -9290    -9300    -9297    -9286    -9267    -9238    -9200    -9161 
   -9120    -9076    -9027    -8978    -8928    -8874    -8811    -8739 
   -8653    -8553    -8434    -8294    -8139    -7963    -7763    -7555 
   -7338    -7106    -6871    -6635    -6386    -6138    -5900    -5667 
   -5429    -5205    -4994    -4784    -4581    -4392    -4209    -4024 
   -3842    -3665    -3491    -3315    -3140    -2974    -2816    -2664 
   -2523    -2390    -2270    -2168    -2074    -1996    -1941    -1910 
   -1900    -1919    -1965    -2034    -2126    -2250    -2397    -2565 
   -2752    -2961    -3192    -3433    -3672    -3920    -4176    -4428 
   -4677    -4939    -5206    -5478    -5768    -6073    -6377    -6682 
   -6993    -7307    -7616    -7911    -8197    -8477    -8743    -9003 
   -9258    -9501    -9737    -9969   -10191   -10405   -10612   -10798 
  -10966   -11114   -11234   -11322   -11387   -11430   -11443   -11435 
  -11415   -11379   -11333   -11280   -11214   -11132   -11036   -10924 
  -10787   -10623   -10432   -10218    -9976    -9717    -9445    -9162 
   -8869    -8567    -8257    -7942    -7618    -7283    -6933    -6579 
   -6227    -5864    -5502    -5151    -4811    -4482    -4163    -3854 
   -3553    -3265    -2990    -2725    -2475    -2242    -2025    -1819 
   -1630    -1464    -1321    -1209    -1124    -1063    -1030    -1028 
   -1046    -1081    -1140    -1210    -1285    -1374    -1482    -1599 
   -1722    -1854    -2004    -2166    -2330    -2496    -2650    -2792 
   -2933    -3059    -3167    -3265    -3360    -3450    -3537    -3623 
   -3715    -3807    -3899    -4008    -4128    -4245    -4360    -4488 
   -4619    -4758    -4901    -5046    -5196    -5347    -5506    -5671 
   -5838    -6018    -6205    -6394    -6589    -6787    -6993    -7196 
   -7384    -7572    -7756    -7925    -8081    -8225    -8352    -8467 
   -8572    -8660    -8721    -8769    -8811    -8833    -8843    -8851 
   -8849    -8842    -8842    -8853    -8863    -8869    -8884    -8905 
   -8923    -8942    -8964    -8982    -9001    -9018    -9028    -9028 
   -9027    -9015    -8984    -8943    -8893    -8826    -8748    -8661 
   -8563    -8451    -8334    -8209    -8073    -7939    -7804    -7663 
   -7519    -7378    -7241    -7099    -6957    -6817    -6673    -6527 
   -6389    -6246    -6097    -5958    -5825    -5692    -5562    -5443 
   -5339    -5244    -5154    -5080    -5015    -4961    -4916    -4876 
   -4839    -4810    -4781    -4752    -4725    -4699    -4676    -4662 
   -4657    -4657    -4668    -4691    -4718    -4753    -4796    -4841 
   -4892    -4950    -5013    -5074    -5131    -5188    -5243    -5294 
   -5336    -5371    -5395    -5409    -5431    -5459    -5481    -5497 
   -5516    -5530    -5548    -5576    -5609    -5636    -5667    -5717 
   -5773    -5829    -5886    -5942    -5998    -6048    -6087    -6115 
   -6137    -6147    -6145    -6135    -6115    -6081    -6038    -5985 
   -5926    -5854    -5771    -5675    -5574    -5471    -5366    -5248 
   -5117    -4977    -4834    -4692    -4554    -4422    -4294    -4175 
   -4069    -3978    -3902    -3838    -3781    -3727    -3688    -3659 
   -3630    -3604    -3591    -3582    -3569    -3549    -3530    -3511 
   -3485    -3469    -3453    -3433    -3420    -3420    -3420    -3431 
   -3454    -3478    -3508    -3554    -3608    -3662    -3721    -3790 
   -3854    -3910    -3975    -4044    -4116    -4200    -4301    -4411 
   -4534    -4672    -4819    -4973    -5136    -5306    -5478    -5656 
   -5840    -6018    -6196    -6376    -6546    -6710    -6868    -7014 
   -7149    -7271    -7373    -7457    -7528    -7592    -7643    -7685 
   -7722    -7747    -7763    -7781    -7793    -7799    -7801    -7801 
   -7799    -7789    -7771    -7743    -7701    -7651    -7591    -7510 
   -7420    -7319    -7210    -7094    -6980    -6860    -6732    -6613 
   -6501    -6386    -6276    -6174    -6075    -5975    -5864    -5749 
   -5629    -5508    -5377    -5238    -5086    -4927    -4765    -4602 
   -4438    -4279    -4126    -3978    -3831    -3685    -3543    -3407 
   -3272    -3140    -3011    -2880    -2759    -2655    -2563    -2485 
   -2425    -2386    -2370    -2373    -2396    -2432    -2484    -2556 
   -2644    -2743    -2859    -2991    -3137    -3296    -3468    -3651 
   -3842    -4051    -4268    -4487    -4714    -4954    -5194    -5431 
   -5663    -5892    -6122    -6346    -6559    -6758    -6943    -7115 
   -7272    -7408    -7523    -7611    -7677    -7722    -7742    -7742 
   -7713    -7659    -7588    -7499    -7391    -7279    -7171    -7055 
   -6936    -6825    -6714    -6601    -6488    -6374    -6259    -6134 
   -6004    -5875    -5738    -5597    -5456    -5314    -5178    -5035 
   -4874    -4715    -4571    -4426    -4287    -4170    -4060    -3947 
   -3835    -3728    -3634    -3559    -3500    -3449    -3396    -3341 
   -3294    -3258    -3230    -3208    -3190    -3168    -3154    -3152 
   -3159    -3177    -3200    -3226    -3264    -3310    -3353    -3407 
   -3483    -3559    -3638    -3734    -3842    -3951    -4063    -4175 
   -4287    -4393    -4496    -4596    -4685    -4765    -4835    -4892 
   -4947    -4999    -5030    -5046    -5058    -5066    -5070    -5073 
   -5076    -5074    -5066    -5053    -5038    -5022    -5000    -4970 
   -4932    -4897    -4858    -4806    -4750    -4706    -4654    -4583 
   -4517    -4467    -4414    -4336    -4241    -4144    -4055    -3971 
   -3894    -3824    -3757    -3684    -3607    -3534    -3480    -3442 
   -3410    -3380    -3355    -3330    -3302    -3281    -3276    -3283 
   -3289    -3292    -3287    -3280    -3284    -3303    -3327    -3357 
   -3388    -3427    -3477    -3532    -3588    -3653    -3734    -3817 
   -3898    -3979    -4068    -4159    -4251    -4355    -4464    -4573 
   -4687    -4799    -4896    -4989    -5092    -5189    -5275    -5356 
   -5441    -5518    -5570    -5610    -5656    -5694    -5719    -5748 
   -5772    -5782    -5786    -5791    -5798    -5803    -5800    -5796 
   -5798    -5788    -5767    -5751    -5730    -5698    -5659    -5613 
   -5564    -5518    -5475    -5431    -5382    -5329    -5279    -5232 
   -5186    -5142    -5093    -5042    -4997    -4959    -4922    -4885 
   -4852    -4824    -4796    -4770    -4748    -4726    -4702    -4681 
   -4661    -4639    -4621    -4606    -4592    -4591    -4599    -4623 
   -4661    -4714    -4788    -4880    -4982    -5096    -5219    -5347 
   -5475    -5607    -5736    -5863    -5995    -6126    -6249    -6365 
   -6477    -6585    -6679    -6759    -6835    -6899    -6951    -6997 
   -7033    -7052    -7059    -7056    -7048    -7020    -6966    -6893 
