Origin Time       2016/04/16 01:25:00
Lat.              32.753
Long.             130.762
Depth. (km)       12
Mag.              7.3
Station Code      TTR004
Station Lat.      35.4606
Station Long.     134.0548
Station Height(m) 50
Record Time       2016/04/16 01:26:29
Sampling Freq(Hz) 100Hz
Duration Time(s)  129
Dir.              E-W
Scale Factor      7845(gal)/8223790
Max. Acc. (gal)   6.066
Last Correction   2016/04/16 01:26:30
Memo.             
[...]
   -3711    -3696    -3681    -3663    -3646    -3630    -3611    -3589 
   -3574    -3558    -3539    -3524    -3508    -3485    -3458    -3433 
   -3404    -3369    -3335    -3306    -3279    -3260    -3252    -3254 
   -3269    -3299    -3339    -3396    -3468    -3547    -3636    -3735 
   -3842    -3951    -4071    -4197    -4326    -4453    -4580    -4703 
   -4814    -4918    -5012    -5090    -5158    -5216    -5255    -5283 
   -5304    -5312    -5308    -5297    -5273    -5242    -5204    -5157 
   -5100    -5036    -4966    -4892    -4814    -4733    -4646    -4558 
   -4473    -4386    -4294    -4200    -4109    -4013    -3919    -3828 
   -3743    -3661    -3585    -3518    -3462    -3415    -3373    -3338 
   -3311    -3291    -3280    -3273    -3272    -3277    -3291    -3310 
   -3334    -3357    -3385    -3426    -3470    -3523    -3584    -3650 
   -3724    -3797    -3866    -3939    -4012    -4078    -4140    -4197 
   -4251    -4305    -4353    -4391    -4422    -4446    -4463    -4467 
   -4460    -4444    -4418    -4378    -4329    -4275    -4213    -4145 
   -4078    -4012    -3942    -3873    -3808    -3748    -3692    -3640 
   -3593    -3549    -3514    -3481    -3450    -3427    -3414    -3406 
   -3404    -3414    -3427    -3445    -3469    -3492    -3519    -3549 
   -3578    -3607    -3634    -3658    -3678    -3697    -3715    -3730 
   -3742    -3759    -3781    -3805    -3836    -3867    -3896    -3923 
   -3946    -3962    -3971    -3970    -3969    -3962    -3946    -3931 
   -3916    -3894    -3877    -3858    -3834    -3816    -3798    -3775 
   -3755    -3728    -3697    -3669    -3639    -3609    -3582    -3555 
   -3530    -3507    -3478    -3450    -3424    -3395    -3360    -3329 
   -3302    -3279    -3265    -3261    -3261    -3264    -3283    -3314 
   -3348    -3388    -3443    -3501    -3562    -3626    -3692    -3762 
   -3828    -3897    -3969    -4036    -4097    -4158    -4213    -4258 
   -4299    -4334    -4364    -4388    -4410    -4433    -4453    -4475 
   -4498    -4522    -4546    -4568    -4595    -4623    -4645    -4660 
   -4673    -4680    -4680    -4676    -4665    -4652    -4634    -4612 
   -4588    -4560    -4525    -4487    -4445    -4399    -4348    -4295 
   -4241    -4186    -4131    -4078    -4023    -3965    -3910    -3854 
   -3802    -3754    -3705    -3658    -3615    -3577    -3541    -3505 
   -3472    -3443    -3420    -3410    -3410    -3416    -3437    -3470 
   -3510    -3557    -3605    -3657    -3709    -3757    -3802    -3850 
   -3896    -3940    -3981    -4020    -4055    -4085    -4109    -4131 
   -4149    -4171    -4195    -4214    -4236    -4260    -4278    -4293 
   -4305    -4310    -4315    -4311    -4298    -4287    -4268    -4238 
   -4210    -4178    -4143    -4101    -4062    -4020    -3973    -3920 
   -3867    -3811    -3746    -3678    -3609    -3539    -3468    -3395 
   -3329    -3269    -3215    -3173    -3138    -3109    -3098    -3096 
   -3102    -3117    -3140    -3171    -3215    -3267    -3322    -3385 
   -3456    -3527    -3596    -3665    -3732    -3796    -3855    -3913 
   -3969    -4021    -4077    -4131    -4180    -4228    -4279    -4325 
   -4363    -4402    -4438    -4468    -4491    -4510    -4515    -4513 
   -4502    -4483    -4457    -4422    -4384    -4340    -4288    -4238 
   -4189    -4136    -4079    -4020    -3963    -3899    -3828    -3757 
   -3680    -3597    -3511    -3429    -3348    -3269    -3196    -3130 
   -3071    -3022    -2984    -2956    -2934    -2926    -2930    -2941 
   -2959    -2984    -3015    -3052    -3092    -3133    -3173    -3213 
   -3256    -3299    -3336    -3376    -3420    -3462    -3503    -3544 
   -3588    -3627    -3661    -3692    -3719    -3746    -3770    -3788 
   -3798    -3808    -3817    -3821    -3824    -3827    -3823    -3819 
   -3817    -3815    -3813    -3816    -3815    -3812    -3815    -3819 
   -3825    -3839    -3859    -3879    -3904    -3939    -3977    -4017 
   -4059    -4105    -4155    -4210    -4268    -4330    -4395    -4461 
   -4531    -4602    -4672    -4739    -4806    -4868    -4922    -4969 
   -5009    -5040    -5062    -5073    -5078    -5076    -5058    -5031 
   -4997    -4951    -4893    -4834    -4770    -4698    -4625    -4557 
   -4488    -4421    -4359    -4305    -4261    -4228    -4203    -4190 
   -4182    -4180    -4190    -4197    -4205    -4214    -4220    -4220 
   -4215    -4202    -4182    -4156    -4120    -4071    -4012    -3942 
   -3861    -3775    -3681    -3573    -3464    -3353    -3231    -3109 
   -2988    -2870    -2759    -2664    -2575    -2502    -2450    -2412 
   -2389    -2382    -2389    -2408    -2436    -2471    -2509    -2551 
   -2592    -2631    -2660    -2681    -2694    -2700    -2697    -2681 
   -2656    -2631    -2594    -2554    -2515    -2473    -2438    -2411 
   -2388    -2369    -2361    -2363    -2376    -2389    -2411    -2439 
   -2471    -2513    -2559    -2605    -2655    -2713    -2772    -2830 
   -2889    -2944    -2994    -3041    -3084    -3119    -3148    -3173 
   -3184    -3192    -3203    -3206    -3206    -3208    -3207    -3204 
   -3200    -3199    -3199    -3200    -3207    -3223    -3245    -3276 
   -3319    -3369    -3433    -3510    -3596    -3692    -3794    -3906 
   -4027    -4151    -4278    -4406    -4527    -4645    -4756    -4855 
   -4947    -5032    -5104    -5163    -5217    -5263    -5297    -5321 
   -5344    -5368    -5387    -5409    -5439    -5467    -5499    -5537 
   -5571    -5605    -5640    -5668    -5694    -5713    -5725    -5732 
   -5727    -5714    -5692    -5663    -5625    -5579    -5529    -5476 
   -5418    -5358    -5296    -5233    -5167    -5097    -5030    -4961 
   -4888    -4814    -4743    -4675    -4604    -4534    -4467    -4399 
   -4336    -4270    -4207    -4149    -4094    -4044    -3998    -3955 
   -3912    -3874    -3838    -3798    -3759    -3726    -3696    -3667 
   -3640    -3620    -3605    -3600    -3604    -3618    -3642    -3677 
   -3717    -3774    -3840    -3902    -3965    -4035    -4104    -4170 
   -4222    -4271    -4321    -4360    -4386    -4411    -4431    -4441 
   -4446    -4448    -4441    -4428    -4409    -4380    -4347    -4310 
   -4268    -4222    -4174    -4128    -4083    -4035    -3986    -3939 
   -3894    -3850    -3800    -3747    -3693    -3630    -3566    -3504 
   -3433    -3355    -3280    -3206    -3127    -3052    -2979    -2905 
   -2830    -2763    -2700    -2640    -2584    -2538    -2498    -2465 
   -2439    -2425    -2423    -2428    -2446    -2485    -2539    -2604 
   -2686    -2781    -2884    -2997    -3117    -3238    -3361    -3484 
   -3603    -3717    -3827    -3932    -4040    -4140    -4237    -4327 
   -4410    -4486    -4553    -4606    -4656    -4698    -4726    -4747 
   -4758    -4752    -4738    -4715    -4676    -4623    -4567    -4504 
   -4430    -4347    -4258    -4170    -4071    -3969    -3863    -3759 
   -3653    -3550    -3445    -3339    -3235    -3129    -3024    -2924 
   -2833    -2749    -2675    -2609    -2552    -2505    -2467    -2442 
   -2435    -2442    -2461    -2497    -2548    -2612    -2688    -2778 
   -2874    -2980    -3092    -3203    -3326    -3459    -3595    -3732 
   -3878    -4028    -4176    -4324    -4464    -4608    -4746    -4872 
   -4988    -5093    -5184    -5259    -5316    -5348    -5362    -5359 
   -5337    -5300    -5248    -5185    -5108    -5024    -4936    -4841 
   -4741    -4646    -4550    -4453    -4359    -4270    -4189    -4104 
   -4013    -3927    -3839    -3750    -3662    -3570    -3481    -3399 
   -3322    -3249    -3180    -3122    -3078    -3045    -3021    -3013 
   -3022    -3042    -3076    -3125    -3186    -3254    -3331    -3410 
   -3491    -3574    -3651    -3726    -3796    -3854    -3905    -3946 
   -3967    -3973    -3959    -3927    -3879    -3815    -3730    -3634 
   -3530    -3415    -3296    -3183    -3071    -2961    -2859    -2762 
   -2666    -2577    -2497    -2425    -2361    -2305    -2263    -2228 
   -2201    -2192    -2195    -2200    -2220    -2259    -2308    -2371 
   -2451    -2540    -2636    -2743    -2856    -2975    -3095    -3218 
   -3348    -3483    -3620    -3757    -3893    -4032    -4167    -4299 
   -4428    -4545    -4661    -4769    -4865    -4951    -5032    -5100 
   -5158    -5215    -5262    -5298    -5335    -5364    -5379    -5390 
   -5395    -5391    -5381    -5363    -5335    -5296    -5250    -5196 
   -5131    -5065    -4988    -4905    -4819    -4723    -4617    -4498 
   -4368    -4220    -4058    -3883    -3696    -3500    -3296    -3084 
   -2871    -2663    -2447    -2232    -2029    -1825    -1622    -1437 
   -1263    -1100     -947     -805     -683     -571     -468     -387 
    -328     -280     -244     -225     -224     -234     -259     -305 
    -368     -444     -531     -642     -773     -926    -1097    -1282 
   -1479    -1701    -1935    -2177    -2431    -2697    -2971    -3257 
   -3546    -3842    -4147    -4453    -4757    -5062    -5368    -5678 
   -5976    -6264    -6550    -6825    -7088    -7338    -7568    -7777 
   -7959    -8114    -8243    -8340    -8401    -8428    -8426    -8388 
   -8317    -8220    -8093    -7947    -7782    -7595    -7388    -7176 
   -6960    -6739    -6520    -6297    -6083    -5873    -5665    -5466 
   -5270    -5077    -4888    -4703    -4529    -4360    -4185    -4010 
   -3842    -3672    -3511    -3358    -3208    -3067    -2932    -2797 
   -2671    -2555    -2438    -2328    -2227    -2130    -2042    -1960 
   -1883    -1813    -1746    -1683    -1624    -1564    -1512    -1474 
   -1431    -1393    -1368    -1356    -1356    -1374    -1405    -1448 
   -1506    -1580    -1663    -1755    -1865    -1987    -2116    -2258 
   -2413    -2578    -2755    -2934    -3113    -3302    -3495    -3686 
   -3879    -4071    -4263    -4460    -4648    -4831    -5020    -5201 
   -5370    -5533    -5682    -5815    -5942    -6050    -6145    -6219 
   -6273    -6305    -6322    -6320    -6300    -6259    -6199    -6122 
   -6026    -5915    -5784    -5637    -5476    -5301    -5113    -4918 
   -4710    -4491    -4271    -4044    -3817    -3597    -3373    -3149 
   -2930    -2716    -2501    -2290    -2095    -1906    -1723    -1559 
   -1408    -1269    -1144    -1035     -942     -859     -789     -738 
    -702     -679     -666     -664     -673     -692     -719     -756 
    -799     -843     -896     -958    -1017    -1075    -1139    -1200 
   -1258    -1320    -1382    -1443    -1501    -1557    -1603    -1636 
   -1653    -1667    -1682    -1692    -1687    -1674    -1658    -1637 
   -1620    -1613    -1606    -1614    -1626    -1632    -1634    -1651 
   -1694    -1750    -1802    -1867    -1960    -2077    -2203    -2335 
   -2481    -2641    -2814    -3005    -3199    -3392    -3604    -3832 
   -4062    -4297    -4545    -4803    -5065    -5331    -5601    -5864 
   -6123    -6382    -6633    -6870    -7094    -7302    -7487    -7654 
   -7808    -7935    -8037    -8125    -8189    -8229    -8248    -8243 
   -8215    -8166    -8091    -8001    -7896    -7780    -7655    -7524 
   -7395    -7263    -7126    -6998    -6878    -6759    -6644    -6536 
   -6427    -6323    -6231    -6146    -6061    -5984    -5922    -5869 
   -5822    -5783    -5757    -5741    -5736    -5745    -5760    -5779 
   -5815    -5868    -5927    -5998    -6076    -6151    -6223    -6297 
   -6365    -6420    -6463    -6484    -6488    -6477    -6447    -6397 
   -6335    -6255    -6161    -6058    -5940    -5813    -5675    -5530 
   -5383    -5227    -5065    -4903    -4741    -4580    -4425    -4278 
   -4137    -4002    -3878    -3770    -3674    -3585    -3510    -3440 
   -3384    -3345    -3319    -3308    -3319    -3343    -3380    -3434 
   -3503    -3580    -3672    -3771    -3870    -3973    -4079    -4180 
   -4275    -4367    -4456    -4537    -4610    -4679    -4742    -4799 
   -4852    -4907    -4965    -5039    -5120    -5205    -5308    -5418 
   -5533    -5661    -5800    -5940    -6085    -6234    -6378    -6520 
   -6652    -6777    -6898    -7005    -7092    -7163    -7215    -7249 
   -7264    -7257    -7230    -7184    -7115    -7026    -6925    -6809 
   -6673    -6527    -6372    -6212    -6054    -5902    -5751    -5607 
   -5479    -5360    -5248    -5150    -5069    -4999    -4935    -4881 
   -4838    -4796    -4761    -4731    -4703    -4675    -4649    -4625 
   -4603    -4579    -4558    -4544    -4529    -4510    -4486    -4456 
   -4422    -4388    -4351    -4311    -4274    -4243    -4214    -4194 
   -4186    -4183    -4190    -4207    -4233    -4271    -4315    -4369 
   -4433    -4504    -4587    -4681    -4785    -4897    -5013    -5130 
   -5248    -5377    -5513    -5638    -5751    -5860    -5964    -6054 
   -6129    -6191    -6250    -6295    -6320    -6338    -6340    -6323 
   -6301    -6269    -6219    -6158    -6083    -5994    -5891    -5768 
   -5630    -5481    -5310    -5121    -4915    -4691    -4456    -4205 
   -3936    -3658    -3375    -3083    -2789    -2494    -2207    -1926 
   -1658    -1414    -1183     -970     -785     -630     -492     -386 
    -318     -282     -276     -317     -399     -515     -670     -864 
   -1089    -1350    -1651    -1982    -2344    -2739    -3156    -3596 
   -4055    -4529    -5012    -5501    -5985    -6465    -6926    -7369 
   -7797    -8201    -8569    -8910    -9221    -9501    -9744    -9948 
  -10103   -10207   -10266   -10277   -10234   -10147   -10026    -9856 
   -9641    -9397    -9116    -8806    -8479    -8132    -7767    -7399 
   -7030    -6664    -6304    -5950    -5614    -5294    -4985    -4699 
   -4433    -4185    -3963    -3765    -3588    -3434    -3302    -3188 
   -3090    -3013    -2951    -2902    -2868    -2849    -2844    -2852 
   -2871    -2905    -2947    -2998    -3065    -3144    -3231    -3333 
   -3437    -3538    -3647    -3757    -3852    -3947    -4036    -4109 
   -4172    -4240    -4294    -4336    -4372    -4399    -4421    -4444 
   -4464    -4487    -4514    -4537    -4558    -4583    -4606    -4630 
   -4648    -4657    -4664    -4665    -4657    -4639    -4611    -4575 
   -4531    -4472    -4405    -4329    -4232    -4122    -4000    -3859 
   -3704    -3537    -3360    -3173    -2978    -2778    -2574    -2370 
   -2174    -1984    -1798    -1625    -1466    -1317    -1185    -1073 
    -976     -896     -834     -795     -774     -769     -787     -826 
    -877     -945    -1026    -1116    -1217    -1329    -1445    -1570 
   -1696    -1825    -1956    -2088    -2220    -2349    -2474    -2600 
   -2720    -2837    -2961    -3086    -3202    -3312    -3418    -3518 
   -3609    -3697    -3780    -3851    -3916    -3977    -4036    -4093 
   -4144    -4194    -4241    -4284    -4322    -4355    -4374    -4386 
   -4395    -4391    -4375    -4353    -4325    -4291    -4252    -4212 
   -4167    -4118    -4074    -4029    -3984    -3947    -3915    -3883 
   -3859    -3838    -3816    -3798    -3785    -3770    -3761    -3759 
   -3765    -3775    -3786    -3804    -3831    -3856    -3879    -3908 
   -3942    -3975    -4008    -4040    -4074    -4110    -4148    -4190 
   -4228    -4266    -4302    -4330    -4351    -4360    -4360    -4349 
   -4330    -4301    -4263    -4222    -4178    -4129    -4074    -4016 
   -3960    -3902    -3844    -3797    -3759    -3732    -3723    -3730 
   -3757    -3800    -3861    -3939    -4033    -4140    -4261    -4383 
   -4507    -4633    -4757    -4874    -4981    -5081    -5173    -5247 
   -5309    -5358    -5391    -5416    -5425    -5421    -5409    -5383 
   -5346    -5298    -5235    -5161    -5074    -4973    -4855    -4725 
   -4583    -4434    -4271    -4099    -3925    -3746    -3562    -3376 
   -3192    -3011    -2835    -2660    -2489    -2319    -2158    -2004 
   -1849    -1695    -1551    -1413    -1279    -1158    -1047     -940 
    -843     -760     -687     -625     -572     -538     -526     -533 
    -565     -621     -699     -800     -922    -1062    -1223    -1395 
   -1580    -1783    -1993    -2208    -2427    -2646    -2866    -3083 
   -3291    -3488    -3667    -3836    -3993    -4128    -4245    -4345 
   -4423    -4484    -4523    -4541    -4541    -4521    -4486    -4440 
   -4376    -4303    -4225    -4136    -4031    -3920    -3802    -3680 
   -3547    -3411    -3277    -3137    -2995    -2857    -2721    -2589 
   -2457    -2328    -2201    -2079    -1965    -1859    -1757    -1664 
   -1587    -1520    -1459    -1412    -1377    -1347    -1331    -1321 
   -1316    -1325    -1348    -1371    -1402    -1441    -1482    -1528 
   -1578    -1625    -1672    -1717    -1757    -1799    -1830    -1857 
   -1891    -1921    -1941    -1960    -1975    -1984    -1987    -1988 
   -1988    -1981    -1969    -1962    -1953    -1942    -1945    -1945 
   -1944    -1956    -1980    -2007    -2041    -2081    -2133    -2189 
   -2255    -2336    -2428    -2529    -2641    -2758    -2880    -3015 
   -3159    -3307    -3458    -3613    -3775    -3932    -4081    -4228 
   -4365    -4486    -4599    -4695    -4776    -4843    -4889    -4912 
   -4920    -4905    -4865    -4804    -4727    -4633    -4527    -4406 
   -4263    -4112    -3951    -3774    -3589    -3393    -3186    -2975 
   -2759    -2536    -2323    -2110    -1890    -1683    -1493    -1312 
   -1144     -990     -862     -757     -662     -589     -549     -526 
    -530     -553     -598     -665     -754     -857     -977    -1115 
   -1264    -1425    -1597    -1776    -1969    -2169    -2374    -2584 
   -2805    -3033    -3264    -3496    -3734    -3973    -4205    -4433 
   -4657    -4872    -5074    -5259    -5424    -5568    -5688    -5783 
   -5859    -5915    -5940    -5942    -5927    -5896    -5845    -5775 
   -5689    -5593    -5481    -5355    -5223    -5085    -4941    -4792 
   -4638    -4482    -4326    -4168    -4009    -3854    -3701    -3555 
   -3415    -3279    -3153    -3038    -2932    -2837    -2754    -2679 
   -2614    -2562    -2519    -2484    -2458    -2444    -2438    -2434 
   -2444    -2465    -2488    -2521    -2565    -2612    -2669    -2731 
   -2791    -2860    -2933    -3006    -3086    -3171    -3261    -3358 
   -3461    -3573    -3690    -3809    -3931    -4051    -4168    -4284 
   -4393    -4496    -4587    -4658    -4720    -4774    -4807    -4828 
   -4845    -4850    -4846    -4841    -4827    -4807    -4780    -4753 
   -4726    -4689    -4644    -4590    -4522    -4448    -4360    -4266 
   -4171    -4069    -3963    -3858    -3751    -3650    -3555    -3459 
   -3369    -3288    -3204    -3125    -3056    -2988    -2922    -2863 
   -2806    -2754    -2702    -2652    -2605    -2563    -2527    -2497 
   -2474    -2461    -2457    -2459    -2473    -2496    -2525    -2562 
   -2606    -2660    -2718    -2782    -2849    -2914    -2979    -3051 
   -3119    -3184    -3246    -3304    -3355    -3402    -3438    -3457 
   -3472    -3481    -3480    -3466    -3443    -3407    -3364    -3314 
   -3256    -3192    -3125    -3049    -2972    -2895    -2818    -2744 
   -2674    -2609    -2548    -2500    -2467    -2442    -2427    -2424 
   -2431    -2448    -2479    -2519    -2565    -2621    -2681    -2749 
   -2828    -2905    -2982    -3061    -3136    -3207    -3280    -3350 
