Origin Time       2016/04/16 01:25:00
Lat.              32.753
Long.             130.762
Depth. (km)       12
Mag.              7.3
Station Code      TTR007
Station Lat.      35.2826
Station Long.     133.4876
Station Height(m) 155
Record Time       2016/04/16 01:26:53
Sampling Freq(Hz) 100Hz
Duration Time(s)  66
Dir.              E-W
Scale Factor      7845(gal)/8223790
Max. Acc. (gal)   2.496
Last Correction   2016/04/16 01:26:38
Memo.             
[...]
   -3785    -3786    -3773    -3747    -3708    -3663    -3615    -3572 
   -3530    -3485    -3429    -3365    -3294    -3217    -3140    -3073 
   -3021    -2986    -2976    -2988    -3017    -3049    -3084    -3125 
   -3167    -3200    -3230    -3264    -3303    -3355    -3423    -3504 
   -3595    -3688    -3762    -3800    -3800    -3769    -3712    -3638 
   -3559    -3483    -3414    -3361    -3323    -3289    -3264    -3253 
   -3252    -3260    -3281    -3323    -3385    -3458    -3543    -3631 
   -3715    -3789    -3850    -3890    -3923    -3944    -3947    -3937 
   -3915    -3871    -3816    -3744    -3655    -3554    -3447    -3338 
   -3230    -3132    -3051    -2986    -2948    -2936    -2952    -2988 
   -3034    -3086    -3134    -3176    -3219    -3268    -3322    -3380 
   -3437    -3497    -3561    -3627    -3697    -3767    -3836    -3901 
   -3959    -4002    -4025    -4028    -4014    -3978    -3913    -3835 
   -3747    -3650    -3550    -3456    -3369    -3298    -3237    -3184 
   -3140    -3114    -3111    -3132    -3183    -3260    -3352    -3450 
   -3550    -3642    -3723    -3796    -3855    -3899    -3932    -3942 
   -3927    -3883    -3816    -3732    -3636    -3537    -3439    -3350 
   -3277    -3223    -3183    -3153    -3141    -3148    -3164    -3188 
   -3230    -3284    -3350    -3420    -3487    -3549    -3609    -3658 
   -3690    -3708    -3716    -3708    -3677    -3626    -3555    -3469 
   -3375    -3280    -3186    -3098    -3018    -2936    -2855    -2785 
   -2721    -2666    -2628    -2620    -2639    -2687    -2766    -2857 
   -2951    -3042    -3133    -3219    -3303    -3376    -3437    -3481 
   -3507    -3507    -3485    -3443    -3391    -3336    -3291    -3249 
   -3204    -3165    -3138    -3117    -3098    -3090    -3100    -3130 
   -3177    -3238    -3304    -3372    -3442    -3514    -3582    -3653 
   -3726    -3794    -3852    -3896    -3920    -3917    -3883    -3824 
   -3743    -3658    -3572    -3487    -3418    -3368    -3326    -3284 
   -3257    -3245    -3254    -3280    -3317    -3362    -3411    -3464 
   -3519    -3569    -3618    -3666    -3701    -3723    -3735    -3742 
   -3746    -3753    -3763    -3780    -3800    -3823    -3834    -3832 
   -3824    -3805    -3774    -3738    -3701    -3662    -3626    -3584 
   -3535    -3488    -3439    -3388    -3339    -3287    -3230    -3176 
   -3136    -3115    -3106    -3100    -3100    -3107    -3121    -3142 
   -3164    -3180    -3202    -3227    -3248    -3264    -3284    -3302 
   -3312    -3326    -3336    -3343    -3349    -3346    -3333    -3308 
   -3287    -3269    -3252    -3237    -3240    -3254    -3281    -3323 
   -3376    -3429    -3477    -3515    -3535    -3539    -3527    -3503 
   -3470    -3438    -3407    -3379    -3350    -3325    -3302    -3272 
   -3231    -3183    -3127    -3067    -3009    -2963    -2929    -2907 
   -2901    -2907    -2920    -2933    -2953    -2978    -3003    -3032 
   -3065    -3095    -3125    -3168    -3218    -3275    -3346    -3420 
   -3478    -3526    -3568    -3591    -3592    -3586    -3576    -3561 
   -3547    -3535    -3514    -3491    -3468    -3439    -3414    -3391 
   -3368    -3343    -3317    -3298    -3291    -3291    -3303    -3335 
   -3393    -3470    -3553    -3630    -3696    -3738    -3750    -3731 
   -3686    -3623    -3544    -3453    -3352    -3249    -3160    -3084 
   -3021    -2984    -2982    -2994    -3022    -3076    -3142    -3207 
   -3275    -3350    -3431    -3514    -3597    -3674    -3735    -3786 
   -3828    -3854    -3869    -3878    -3875    -3863    -3846    -3821 
   -3800    -3788    -3781    -3778    -3780    -3780    -3785    -3796 
   -3809    -3825    -3840    -3855    -3869    -3873    -3870    -3865 
   -3854    -3840    -3832    -3827    -3820    -3815    -3815    -3820 
   -3831    -3846    -3866    -3894    -3927    -3955    -3986    -4021 
   -4050    -4071    -4090    -4102    -4112    -4118    -4121    -4120 
   -4112    -4093    -4071    -4055    -4051    -4062    -4093    -4155 
   -4241    -4340    -4441    -4538    -4622    -4691    -4748    -4801 
   -4846    -4885    -4918    -4938    -4936    -4912    -4873    -4824 
   -4769    -4716    -4665    -4618    -4573    -4525    -4473    -4428 
   -4386    -4348    -4311    -4279    -4260    -4252    -4243    -4237 
   -4233    -4230    -4214    -4180    -4133    -4086    -4039    -3989 
   -3944    -3902    -3859    -3823    -3789    -3754    -3728    -3707 
   -3674    -3636    -3596    -3555    -3516    -3485    -3468    -3464 
   -3472    -3485    -3495    -3496    -3489    -3466    -3419    -3360 
   -3302    -3244    -3183    -3127    -3079    -3037    -2998    -2963 
   -2930    -2891    -2848    -2808    -2763    -2712    -2659    -2606 
   -2560    -2533    -2525    -2527    -2536    -2546    -2552    -2559 
   -2558    -2548    -2542    -2543    -2555    -2575    -2604    -2636 
   -2674    -2710    -2740    -2756    -2759    -2759    -2751    -2737 
   -2724    -2706    -2685    -2673    -2667    -2667    -2666    -2658 
   -2648    -2643    -2636    -2633    -2632    -2639    -2662    -2688 
   -2716    -2752    -2795    -2832    -2855    -2870    -2879    -2872 
   -2855    -2837    -2821    -2820    -2839    -2872    -2917    -2965 
   -3010    -3046    -3069    -3076    -3075    -3067    -3051    -3034 
   -3021    -3011    -3001    -2984    -2961    -2933    -2898    -2848 
   -2781    -2709    -2640    -2573    -2513    -2466    -2425    -2392 
   -2367    -2357    -2363    -2386    -2424    -2478    -2554    -2644 
   -2743    -2851    -2970    -3090    -3207    -3310    -3392    -3456 
   -3497    -3508    -3488    -3446    -3388    -3325    -3250    -3171 
   -3094    -3022    -2956    -2889    -2821    -2755    -2695    -2641 
   -2590    -2554    -2544    -2551    -2567    -2597    -2636    -2673 
   -2700    -2717    -2731    -2732    -2714    -2674    -2613    -2540 
   -2461    -2385    -2317    -2266    -2230    -2205    -2196    -2200 
   -2220    -2267    -2342    -2440    -2565    -2708    -2852    -2988 
   -3105    -3196    -3265    -3308    -3326    -3329    -3315    -3288 
   -3250    -3204    -3152    -3102    -3053    -3003    -2963    -2932 
   -2920    -2925    -2943    -2984    -3046    -3115    -3198    -3289 
   -3383    -3487    -3596    -3703    -3807    -3893    -3951    -3984 
   -3981    -3940    -3869    -3767    -3645    -3504    -3361    -3231 
   -3113    -3015    -2951    -2915    -2910    -2937    -2986    -3045 
   -3111    -3186    -3272    -3365    -3456    -3543    -3620    -3684 
   -3728    -3751    -3757    -3753    -3734    -3693    -3634    -3569 
   -3500    -3429    -3369    -3321    -3284    -3267    -3261    -3262 
   -3280    -3312    -3357    -3420    -3507    -3608    -3712    -3808 
   -3889    -3946    -3969    -3956    -3919    -3859    -3785    -3701 
   -3604    -3499    -3396    -3296    -3210    -3145    -3100    -3086 
   -3118    -3200    -3326    -3478    -3651    -3831    -4009    -4191 
   -4378    -4554    -4718    -4868    -4994    -5088    -5152    -5184 
   -5167    -5103    -5007    -4870    -4691    -4479    -4241    -3991 
   -3738    -3501    -3292    -3115    -2978    -2880    -2820    -2803 
   -2830    -2889    -2971    -3068    -3175    -3281    -3383    -3488 
   -3593    -3690    -3774    -3836    -3871    -3886    -3883    -3854 
   -3804    -3742    -3674    -3607    -3543    -3496    -3472    -3464 
   -3470    -3497    -3542    -3596    -3653    -3715    -3780    -3850 
   -3923    -3982    -4027    -4060    -4079    -4081    -4060    -4020 
   -3951    -3859    -3743    -3609    -3465    -3323    -3184    -3051 
   -2934    -2841    -2774    -2728    -2705    -2709    -2728    -2749 
   -2774    -2805    -2848    -2906    -2971    -3041    -3113    -3172 
   -3215    -3235    -3240    -3248    -3260    -3273    -3288    -3299 
   -3298    -3276    -3240    -3202    -3169    -3149    -3145    -3152 
   -3171    -3199    -3219    -3229    -3227    -3217    -3196    -3172 
   -3152    -3138    -3119    -3095    -3076    -3056    -3030    -2992 
   -2940    -2882    -2825    -2771    -2717    -2666    -2627    -2604 
   -2594    -2597    -2612    -2636    -2674    -2713    -2755    -2799 
   -2844    -2886    -2917    -2947    -2984    -3026    -3069    -3114 
   -3154    -3184    -3206    -3222    -3235    -3253    -3280    -3314 
   -3354    -3415    -3492    -3581    -3678    -3780    -3883    -3986 
   -4082    -4174    -4263    -4349    -4431    -4509    -4583    -4657 
   -4722    -4780    -4833    -4874    -4899    -4899    -4870    -4822 
   -4754    -4668    -4577    -4480    -4375    -4266    -4148    -4020 
   -3890    -3766    -3645    -3532    -3437    -3360    -3306    -3265 
   -3234    -3213    -3204    -3204    -3213    -3230    -3250    -3271 
   -3288    -3304    -3329    -3364    -3404    -3449    -3496    -3538 
   -3573    -3612    -3647    -3676    -3701    -3719    -3724    -3730 
   -3742    -3755    -3776    -3801    -3823    -3842    -3861    -3874 
   -3882    -3894    -3917    -3946    -3970    -3990    -4000    -3984 
   -3951    -3901    -3835    -3747    -3634    -3499    -3343    -3180 
   -3013    -2843    -2679    -2532    -2394    -2269    -2160    -2064 
   -1985    -1927    -1894    -1888    -1918    -1984    -2083    -2205 
   -2336    -2459    -2565    -2664    -2752    -2820    -2863    -2889 
   -2884    -2847    -2771    -2658    -2509    -2338    -2161    -1984 
   -1819    -1682    -1576    -1499    -1456    -1445    -1467    -1528 
   -1629    -1760    -1921    -2111    -2311    -2513    -2714    -2901 
   -3069    -3221    -3345    -3440    -3507    -3543    -3553    -3537 
   -3504    -3466    -3427    -3396    -3376    -3369    -3376    -3393 
   -3423    -3465    -3516    -3574    -3640    -3719    -3813    -3909 
   -3997    -4077    -4151    -4209    -4248    -4271    -4270    -4243 
   -4190    -4105    -3998    -3870    -3724    -3562    -3383    -3202 
   -3036    -2890    -2775    -2693    -2644    -2633    -2641    -2654 
   -2671    -2698    -2727    -2759    -2806    -2863    -2928    -2992 
   -3051    -3102    -3150    -3188    -3202    -3188    -3153    -3090 
   -3009    -2920    -2837    -2767    -2714    -2682    -2671    -2683 
   -2721    -2783    -2855    -2940    -3036    -3130    -3221    -3315 
   -3410    -3499    -3572    -3615    -3628    -3601    -3528    -3412 
   -3265    -3105    -2928    -2733    -2546    -2376    -2228    -2114 
   -2042    -2014    -2029    -2088    -2178    -2285    -2397    -2505 
   -2600    -2678    -2747    -2805    -2844    -2860    -2847    -2798 
   -2716    -2614    -2501    -2388    -2289    -2205    -2134    -2077 
   -2038    -2018    -2022    -2053    -2116    -2215    -2346    -2496 
   -2659    -2826    -2992    -3150    -3298    -3430    -3551    -3653 
   -3734    -3785    -3817    -3838    -3840    -3828    -3815    -3800 
   -3788    -3782    -3784    -3786    -3789    -3800    -3825    -3866 
   -3929    -4005    -4082    -4152    -4213    -4260    -4289    -4295 
   -4278    -4243    -4202    -4151    -4095    -4040    -3979    -3915 
   -3850    -3793    -3747    -3704    -3673    -3653    -3647    -3663 
   -3704    -3762    -3854    -3981    -4120    -4266    -4417    -4567 
   -4710    -4847    -4982    -5112    -5227    -5320    -5383    -5414 
   -5417    -5386    -5324    -5239    -5140    -5030    -4908    -4787 
   -4672    -4564    -4471    -4401    -4348    -4313    -4302    -4311 
   -4337    -4378    -4429    -4477    -4513    -4537    -4546    -4541 
   -4530    -4515    -4496    -4480    -4468    -4450    -4431    -4421 
   -4413    -4402    -4392    -4388    -4392    -4407    -4429    -4452 
   -4475    -4494    -4499    -4492    -4477    -4459    -4437    -4414 
   -4387    -4355    -4310    -4251    -4176    -4102    -4044    -4000 
   -3974    -3971    -3981    -4002    -4036    -4074    -4118    -4167 
   -4209    -4237    -4253    -4252    -4233    -4195    -4147    -4087 
   -4014    -3929    -3836    -3738    -3647    -3573    -3508    -3459 
   -3437    -3438    -3457    -3492    -3541    -3599    -3655    -3704 
   -3738    -3754    -3747    -3728    -3697    -3658    -3623    -3589 
   -3557    -3524    -3500    -3481    -3469    -3470    -3491    -3526 
   -3572    -3628    -3692    -3766    -3852    -3954    -4069    -4202 
   -4344    -4486    -4621    -4737    -4818    -4866    -4877    -4846 
   -4784    -4707    -4615    -4527    -4463    -4417    -4386    -4369 
   -4371    -4390    -4423    -4475    -4533    -4599    -4685    -4787 
   -4896    -5024    -5162    -5297    -5428    -5552    -5663    -5742 
   -5793    -5815    -5796    -5742    -5664    -5566    -5458    -5358 
   -5263    -5169    -5084    -5004    -4922    -4847    -4791    -4753 
   -4741    -4764    -4820    -4904    -5011    -5127    -5255    -5400 
   -5544    -5676    -5782    -5853    -5887    -5871    -5806    -5709 
   -5580    -5433    -5286    -5143    -5007    -4882    -4768    -4661 
   -4567    -4479    -4398    -4322    -4263    -4228    -4209    -4205 
   -4223    -4263    -4326    -4411    -4510    -4619    -4733    -4834 
   -4911    -4950    -4949    -4904    -4819    -4702    -4564    -4417 
   -4271    -4129    -3991    -3867    -3767    -3690    -3642    -3624 
   -3631    -3666    -3735    -3838    -3983    -4170    -4382    -4617 
   -4869    -5121    -5356    -5562    -5730    -5868    -5972    -6039 
   -6077    -6092    -6095    -6087    -6062    -6022    -5971    -5910 
   -5844    -5778    -5715    -5651    -5584    -5514    -5441    -5371 
   -5312    -5258    -5215    -5193    -5196    -5208    -5220    -5228 
   -5224    -5213    -5196    -5152    -5093    -5038    -4961    -4865 
   -4774    -4691    -4602    -4511    -4429    -4349    -4275    -4214 
   -4166    -4126    -4107    -4109    -4120    -4136    -4175    -4236 
   -4301    -4365    -4433    -4490    -4522    -4534    -4525    -4499 
   -4477    -4460    -4437    -4411    -4387    -4349    -4303    -4261 
   -4223    -4192    -4172    -4159    -4139    -4109    -4067    -4017 
   -3962    -3912    -3865    -3815    -3766    -3721    -3690    -3669 
   -3653    -3634    -3607    -3569    -3523    -3462    -3403    -3360 
   -3327    -3304    -3295    -3298    -3310    -3331    -3358    -3384 
   -3416    -3464    -3516    -3577    -3649    -3726    -3812    -3906 
   -4000    -4085    -4166    -4240    -4306    -4356    -4382    -4379 
   -4348    -4291    -4213    -4116    -4013    -3916    -3834    -3775 
   -3736    -3712    -3707    -3728    -3780    -3852    -3942    -4045 
   -4155    -4258    -4351    -4419    -4467    -4500    -4513    -4502 
   -4471    -4418    -4345    -4258    -4166    -4072    -3983    -3904 
   -3838    -3797    -3786    -3802    -3839    -3894    -3969    -4058 
   -4148    -4233    -4313    -4388    -4457    -4521    -4575    -4615 
   -4634    -4629    -4602    -4552    -4482    -4402    -4320    -4237 
   -4158    -4078    -4006    -3946    -3896    -3856    -3820    -3785 
   -3759    -3750    -3757    -3775    -3793    -3816    -3842    -3865 
   -3889    -3913    -3935    -3950    -3963    -3975    -3979    -3973 
   -3948    -3908    -3854    -3788    -3709    -3620    -3522    -3416 
   -3316    -3219    -3123    -3042    -2978    -2929    -2905    -2901 
   -2907    -2933    -2967    -2997    -3022    -3041    -3049    -3046 
   -3026    -2995    -2956    -2906    -2855    -2811    -2786    -2775 
   -2781    -2794    -2816    -2844    -2872    -2896    -2924    -2951 
   -2979    -3010    -3046    -3083    -3115    -3144    -3163    -3175 
   -3191    -3204    -3211    -3213    -3207    -3196    -3180    -3157 
   -3132    -3105    -3082    -3057    -3040    -3038    -3053    -3076 
   -3109    -3157    -3210    -3261    -3311    -3342    -3352    -3350 
   -3335    -3302    -3261    -3213    -3156    -3090    -3006    -2898 
   -2781    -2652    -2511    -2370    -2241    -2133    -2050    -1989 
   -1956    -1949    -1958    -1968    -1975    -1980    -1989    -2008 
   -2030    -2056    -2084    -2106    -2119    -2121    -2119    -2115 
   -2104    -2091    -2072    -2037    -1993    -1938    -1861    -1776 
   -1690    -1601    -1509    -1414    -1323    -1240    -1175    -1131 
   -1107    -1115    -1152    -1202    -1266    -1341    -1416    -1475 
   -1520    -1552    -1571    -1580    -1584    -1583    -1583    -1571 
   -1534    -1475    -1397    -1306    -1209    -1117    -1036     -976 
    -934     -908     -896     -903     -928     -972    -1036    -1125 
   -1228    -1333    -1445    -1561    -1667    -1763    -1849    -1919 
   -1977    -2023    -2057    -2088    -2119    -2146    -2170    -2191 
   -2204    -2203    -2185    -2160    -2133    -2101    -2070    -2045 
   -2030    -2030    -2047    -2076    -2119    -2178    -2241    -2301 
   -2362    -2419    -2477    -2539    -2597    -2650    -2698    -2736 
   -2762    -2781    -2792    -2794    -2786    -2771    -2749    -2725 
   -2702    -2682    -2668    -2669    -2686    -2706    -2733    -2768 
   -2798    -2820    -2841    -2856    -2870    -2880    -2891    -2905 
   -2921    -2940    -2956    -2967    -2972    -2971    -2952    -2920 
   -2882    -2844    -2806    -2770    -2745    -2732    -2733    -2755 
   -2799    -2859    -2928    -3006    -3087    -3165    -3240    -3299 
   -3346    -3384    -3414    -3430    -3431    -3414    -3379    -3329 
   -3260    -3173    -3080    -2986    -2896    -2818    -2747    -2688 
   -2648    -2621    -2612    -2625    -2652    -2688    -2747    -2817 
   -2891    -2975    -3067    -3154    -3234    -3312    -3384    -3433 
   -3456    -3450    -3416    -3361    -3288    -3202    -3115    -3030 
   -2956    -2893    -2839    -2801    -2783    -2776    -2786    -2808 
   -2836    -2875    -2924    -2978    -3048    -3125    -3203    -3281 
   -3349    -3403    -3440    -3449    -3431    -3403    -3355    -3284 
   -3199    -3096    -2986    -2879    -2779    -2697    -2636    -2601 
   -2582    -2582    -2598    -2631    -2678    -2743    -2824    -2918 
   -3022    -3134    -3244    -3346    -3442    -3514    -3549    -3551 
   -3530    -3484    -3410    -3314    -3204    -3087    -2965    -2848 
   -2736    -2631    -2538    -2465    -2416    -2397    -2412    -2455 
   -2525    -2617    -2720    -2826    -2936    -3038    -3133    -3213 
   -3265    -3295    -3314    -3312    -3288    -3238    -3159    -3057 
   -2941    -2811    -2675    -2539    -2411    -2297    -2193    -2102 
   -2033    -1977    -1937    -1918    -1921    -1938    -1954    -1965 
   -1973    -1977    -1979    -1979    -1982    -1985    -1979    -1958 
   -1927    -1888    -1848    -1814    -1781    -1752    -1728    -1710 
   -1701    -1701    -1710    -1732    -1765    -1804    -1837    -1865 
   -1898    -1930    -1961    -1985    -2004    -2012    -2012    -2004 
   -1998    -1996    -2004    -2023    -2045    -2064    -2092    -2121 
   -2146    -2169    -2188    -2200    -2208    -2215    -2219    -2231 
   -2257    -2290    -2328    -2369    -2403    -2424    -2438    -2447 
   -2444    -2427    -2400    -2370    -2336    -2305    -2285    -2274 
   -2276    -2295    -2312    -2323    -2340    -2362    -2384    -2420 
   -2470    -2528    -2604    -2691    -2781    -2870    -2959    -3042 
