Origin Time       2016/04/16 01:25:00
Lat.              32.753
Long.             130.762
Depth. (km)       12
Mag.              7.3
Station Code      TTR006
Station Lat.      35.5106
Station Long.     133.6303
Station Height(m) 20
Record Time       2016/04/16 01:27:01
Sampling Freq(Hz) 100Hz
Duration Time(s)  148
Dir.              E-W
Scale Factor      7845(gal)/8223790
Max. Acc. (gal)   3.902
Last Correction   2016/04/16 01:27:02
Memo.             
[...]
    -499     -454     -409     -369     -333     -287     -238     -195 
    -160     -136     -112      -86      -51      -18        5       29 
      47       56       62       60       44       10      -36      -90 
    -153     -222     -288     -353     -427     -502     -565     -626 
    -689     -747     -801     -854     -900     -938     -969     -989 
   -1003    -1024    -1039    -1034    -1031    -1036    -1042    -1048 
   -1050    -1051    -1073    -1094    -1107    -1116    -1123    -1138 
   -1158    -1161    -1144    -1121    -1107    -1113    -1119    -1107 
   -1085    -1059    -1039    -1023    -1000     -970     -949     -946 
    -946     -928     -893     -853     -823     -811     -804     -791 
    -770     -757     -761     -766     -751     -722     -697     -685 
    -681     -668     -635     -598     -565     -537     -510     -481 
    -457     -444     -442     -442     -436     -429     -427     -422 
    -407     -392     -382     -370     -359     -344     -325     -307 
    -292     -279     -265     -255     -256     -256     -253     -246 
    -238     -230     -228     -225     -228     -222     -218     -220 
    -221     -224     -228     -230     -232     -234     -245     -259 
    -278     -299     -321     -341     -365     -387     -410     -430 
    -441     -454     -475     -498     -523     -546     -565     -584 
    -610     -643     -673     -695     -715     -735     -751     -769 
    -785     -792     -793     -789     -781     -762     -737     -706 
    -669     -631     -599     -571     -531     -487     -451     -425 
    -410     -403     -394     -376     -369     -376     -387     -396 
    -399     -406     -423     -445     -463     -473     -481     -496 
    -514     -529     -545     -557     -572     -585     -594     -596 
    -587     -579     -579     -577     -579     -594     -610     -623 
    -638     -653     -660     -669     -687     -708     -730     -753 
    -778     -803     -823     -847     -882     -915     -940     -959 
    -969     -978     -989     -985     -969     -953     -940     -934 
    -929     -929     -935     -949     -969     -989    -1005    -1026 
   -1042    -1044    -1046    -1044    -1026    -1000     -985     -966 
    -950     -949     -954     -955     -950     -940     -931     -926 
    -919     -903     -884     -869     -854     -835     -805     -769 
    -737     -720     -715     -712     -706     -706     -718     -741 
    -770     -795     -808     -816     -824     -835     -838     -832 
    -824     -818     -812     -805     -795     -773     -750     -728 
    -702     -673     -642     -604     -561     -518     -475     -427 
    -370     -318     -280     -244     -209     -172     -126      -87 
     -64      -41      -10       22       59       85       93       97 
     101      102       98       89       74       62       51       36 
      13      -17      -51      -87     -125     -164     -205     -243 
    -279     -315     -351     -388     -411     -421     -429     -436 
    -437     -433     -423     -417     -407     -396     -387     -368 
    -349     -338     -329     -317     -314     -309     -286     -256 
    -225     -198     -183     -178     -164     -141     -122     -120 
    -129     -143     -155     -178     -210     -252     -311     -367 
    -415     -477     -540     -603     -679     -760     -838     -923 
   -1000    -1075    -1152    -1230    -1306    -1371    -1429    -1486 
   -1541    -1586    -1613    -1622    -1626    -1622    -1611    -1598 
   -1574    -1547    -1521    -1485    -1447    -1425    -1404    -1381 
   -1364    -1344    -1327    -1324    -1318    -1308    -1298    -1293 
   -1286    -1279    -1277    -1273    -1266    -1263    -1269    -1281 
   -1287    -1293    -1302    -1310    -1320    -1340    -1356    -1363 
   -1377    -1389    -1393    -1395    -1395    -1393    -1387    -1389 
   -1399    -1410    -1426    -1444    -1462    -1486    -1506    -1521 
   -1539    -1553    -1568    -1593    -1615    -1636    -1655    -1669 
   -1677    -1682    -1686    -1694    -1705    -1718    -1728    -1736 
   -1748    -1764    -1790    -1823    -1850    -1875    -1900    -1908 
   -1907    -1911    -1904    -1875    -1840    -1796    -1736    -1667 
   -1588    -1503    -1418    -1328    -1229    -1124    -1016     -908 
    -803     -693     -579     -464     -355     -240     -125      -23 
      63      147      221      284      344      400      453      502 
     537      564      589      618      646      669      683      699 
     724      758      799      837      861      877      900      923 
     939      936      918      896      876      857      841      822 
     811      820      835      849      874      901      927      970 
    1026     1093     1163     1225     1285     1344     1397     1452 
    1505     1547     1583     1610     1624     1632     1648     1664 
    1679     1684     1676     1661     1648     1629     1591     1537 
    1480     1422     1368     1317     1237     1127     1012      908 
     811      708      599      495      387      271      159       54 
     -51     -147     -238     -333     -425     -517     -599     -675 
    -743     -804     -869     -945    -1026    -1107    -1178    -1243 
   -1312    -1383    -1452    -1514    -1567    -1613    -1648    -1682 
   -1726    -1767    -1794    -1818    -1844    -1864    -1887    -1914 
   -1942    -1977    -2019    -2046    -2053    -2058    -2053    -2039 
   -2029    -2016    -1989    -1949    -1907    -1872    -1833    -1792 
   -1744    -1686    -1632    -1590    -1540    -1482    -1426    -1378 
   -1324    -1260    -1201    -1144    -1088    -1038     -985     -935 
    -888     -841     -801     -770     -728     -679     -630     -584 
    -545     -502     -446     -390     -334     -287     -240     -191 
    -144     -101      -60      -32        0       32       58       81 
      97      102       99       85       60       35        5      -25 
     -67     -114     -162     -209     -251     -288     -325     -356 
    -375     -386     -395     -415     -437     -446     -448     -441 
    -436     -436     -430     -413     -386     -361     -336     -303 
    -261     -201     -126      -52       18       91      162      233 
     298      356      411      463      506      550      596      635 
     669      693      707      727      750      764      774      780 
     785      791      783      760      733      706      679      646 
     594      531      468      396      321      238      144       40 
     -76     -203     -329     -463     -604     -737     -870    -1008 
   -1140    -1264    -1387    -1514    -1636    -1748    -1841    -1904 
   -1949    -1982    -2004    -2022    -2025    -2007    -1979    -1942 
   -1912    -1891    -1864    -1840    -1825    -1814    -1810    -1806 
   -1799    -1792    -1780    -1775    -1775    -1764    -1761    -1764 
   -1764    -1773    -1796    -1815    -1826    -1836    -1844    -1844 
   -1838    -1833    -1829    -1818    -1803    -1775    -1741    -1713 
   -1694    -1682    -1668    -1653    -1632    -1602    -1574    -1539 
   -1489    -1440    -1401    -1377    -1363    -1345    -1331    -1334 
   -1363    -1405    -1444    -1471    -1502    -1540    -1571    -1590 
   -1591    -1579    -1571    -1575    -1582    -1582    -1574    -1564 
   -1557    -1549    -1532    -1505    -1474    -1441    -1401    -1352 
   -1300    -1236    -1165    -1086     -993     -893     -788     -662 
    -525     -387     -249     -112       20      149      272      380 
     472      548      610      665      715      757      797      837 
     866      885      893      893      895      885      869      851 
     832      811      780      739      695      652      614      565 
     504      441      379      318      252      176      106       45 
      -5      -52     -105     -175     -251     -321     -382     -440 
    -502     -562     -623     -684     -733     -764     -788     -804 
    -811     -808     -801     -785     -745     -693     -633     -564 
    -496     -419     -336     -255     -175      -98      -13       83 
     174      257      340      419      499      575      634      684 
     728      766      799      820      824      810      773      724 
     658      571      476      373      261      148       29      -98 
    -234     -378     -522     -664     -791     -907    -1019    -1121 
   -1210    -1286    -1350    -1401    -1433    -1440    -1418    -1366 
   -1289    -1200    -1101     -996     -897     -789     -672     -556 
    -433     -311     -191      -65       52      157      255      344 
     422      483      533      579      621      665      718      773 
     823      864      903      945      987     1028     1060     1084 
    1098     1104     1097     1081     1059     1038     1019     1000 
     992      989      985      981      973      954      924      889 
     854      826      797      749      687      625      577      540 
     511      481      444      411      390      370      349      325 
     309      305      298      282      263      232      197      160 
     112       62        2      -64     -135     -217     -306     -394 
    -483     -579     -691     -815     -940    -1071    -1200    -1333 
   -1487    -1651    -1813    -1977    -2141    -2311    -2490    -2667 
   -2835    -2991    -3136    -3277    -3415    -3546    -3665    -3774 
   -3875    -3964    -4036    -4098    -4143    -4171    -4185    -4187 
   -4178    -4156    -4129    -4102    -4064    -4020    -3971    -3905 
   -3820    -3724    -3624    -3520    -3403    -3275    -3148    -3015 
   -2879    -2740    -2592    -2447    -2308    -2162    -2015    -1869 
   -1733    -1614    -1509    -1410    -1314    -1224    -1139    -1053 
    -976     -912     -869     -838     -820     -803     -789     -791 
    -793     -791     -787     -788     -808     -838     -866     -892 
    -913     -931     -949     -966     -984     -987     -992    -1004 
   -1011    -1011     -999     -970     -938     -892     -823     -741 
    -649     -553     -456     -338     -203      -68       68      203 
     344      493      627      731      811      884      959     1026 
    1073     1102     1121     1142     1174     1208     1242     1274 
    1312     1354     1391     1428     1467     1501     1524     1533 
    1530     1525     1513     1495     1468     1426     1378     1325 
    1270     1224     1175     1115     1047      974      892      811 
     730      650      573      502      440      394      349      302 
     259      236      222      218      224      238      259      287 
     325      367      417      475      526      576      612      635 
     664      696      702      679      648      621      599      573 
     533      491      441      390      341      286      224      164 
     105       36      -41     -117     -187     -255     -313     -359 
    -402     -438     -457     -464     -481     -506     -535     -568 
    -588     -603     -626     -654     -672     -681     -685     -696 
    -722     -751     -767     -770     -773     -785     -807     -827 
    -841     -851     -859     -870     -877     -874     -873     -876 
    -884     -903     -927     -955     -985    -1019    -1062    -1113 
   -1178    -1246    -1308    -1375    -1437    -1490    -1537    -1578 
   -1614    -1651    -1679    -1703    -1732    -1767    -1809    -1846 
   -1869    -1895    -1937    -1985    -2030    -2056    -2064    -2070 
   -2076    -2069    -2052    -2022    -1988    -1954    -1922    -1885 
   -1840    -1787    -1740    -1692    -1642    -1593    -1532    -1476 
   -1435    -1390    -1331    -1255    -1169    -1093    -1031     -981 
    -938     -900     -877     -880     -893     -912     -934     -969 
   -1021    -1081    -1144    -1210    -1273    -1337    -1409    -1489 
   -1575    -1665    -1765    -1865    -1952    -2034    -2111    -2178 
   -2247    -2317    -2381    -2438    -2489    -2544    -2604    -2664 
   -2729    -2789    -2841    -2896    -2951    -3005    -3056    -3103 
   -3150    -3190    -3217    -3235    -3241    -3235    -3229    -3213 
   -3186    -3142    -3084    -3019    -2945    -2857    -2764    -2675 
   -2601    -2533    -2448    -2347    -2238    -2126    -2012    -1895 
   -1781    -1674    -1574    -1486    -1395    -1304    -1216    -1138 
   -1078    -1036     -997     -965     -953     -961     -978    -1004 
   -1028    -1053    -1098    -1167    -1246    -1320    -1385    -1457 
   -1551    -1651    -1749    -1841    -1925    -2012    -2110    -2201 
   -2282    -2351    -2408    -2465    -2523    -2563    -2581    -2578 
   -2570    -2567    -2565    -2550    -2517    -2478    -2448    -2416 
   -2369    -2317    -2265    -2212    -2169    -2126    -2056    -1954 
   -1848    -1748    -1653    -1554    -1447    -1340    -1256    -1196 
   -1151    -1119    -1089    -1071    -1081    -1100    -1113    -1132 
   -1169    -1228    -1300    -1368    -1435    -1507    -1588    -1679 
   -1773    -1858    -1942    -2042    -2151    -2261    -2361    -2444 
   -2520    -2608    -2708    -2805    -2893    -2975    -3055    -3138 
   -3222    -3287    -3342    -3406    -3478    -3563    -3628    -3667 
   -3717    -3771    -3838    -3912    -3964    -4021    -4078    -4132 
   -4197    -4247    -4297    -4360    -4419    -4487    -4537    -4575 
   -4621    -4653    -4681    -4710    -4729    -4743    -4753    -4761 
   -4761    -4750    -4739    -4714    -4684    -4657    -4617    -4563 
   -4504    -4455    -4414    -4357    -4288    -4217    -4140    -4074 
   -4017    -3950    -3869    -3773    -3681    -3591    -3489    -3377 
   -3252    -3114    -2975    -2836    -2698    -2558    -2417    -2292 
   -2176    -2062    -1956    -1844    -1725    -1613    -1505    -1399 
   -1296    -1200    -1120    -1047     -985     -936     -897     -873 
    -854     -835     -827     -826     -826     -820     -818     -827 
    -835     -846     -858     -851     -841     -824     -804     -784 
    -756     -726     -697     -668     -638     -600     -544     -471 
    -379     -279     -182      -89        2       97      187      278 
     375      473      561      638      710      773      831      888 
     942      997     1058     1117     1174     1225     1273     1312 
    1339     1367     1389     1398     1405     1404     1390     1372 
    1348     1310     1274     1240     1204     1156     1104     1046 
     982      923      862      792      724      669      626      591 
     552      506      450      383      314      243      167       94 
      14      -67     -144     -230     -325     -418     -518     -622 
    -722     -828     -943    -1050    -1159    -1278    -1394    -1502 
   -1603    -1702    -1802    -1894    -1972    -2039    -2102    -2172 
   -2236    -2286    -2330    -2367    -2405    -2442    -2477    -2511 
   -2548    -2589    -2631    -2666    -2697    -2732    -2770    -2798 
   -2803    -2798    -2792    -2783    -2772    -2755    -2720    -2677 
   -2629    -2575    -2513    -2434    -2340    -2238    -2118    -1975 
   -1819    -1651    -1479    -1317    -1163     -999     -816     -621 
    -419     -224      -31      164      365      565      758      957 
    1156     1351     1547     1726     1888     2045     2185     2328 
    2475     2604     2721     2826     2918     2990     3022     3036 
    3030     3017     3013     2992     2940     2863     2781     2697 
    2610     2517     2404     2286     2181     2077     1966     1840 
    1705     1579     1464     1362     1262     1159     1067      977 
     889      807      719      629      538      441      342      257 
     194      148      103       54       -2      -62     -121     -175 
    -228     -280     -318     -356     -402     -441     -471     -490 
    -503     -514     -523     -531     -525     -503     -476     -453 
    -427     -387     -336     -280     -230     -191     -156     -112 
     -64      -14       32       75      112      151      190      218 
     236      252      263      274      278      280      291      319 
     361      400      434      469      511      562      614      658 
     695      723      757      803      845      877      907      935 
     969     1004     1032     1060     1096     1144     1210     1281 
    1344     1418     1502     1586     1668     1744     1810     1880 
    1954     2023     2087     2149     2218     2293     2369     2430 
    2470     2502     2535     2573     2605     2627     2650     2668 
    2668     2659     2652     2636     2616     2597     2573     2552 
    2532     2500     2465     2425     2377     2319     2253     2182 
    2110     2027     1945     1867     1784     1702     1626     1559 
    1499     1444     1389     1329     1269     1215     1159     1105 
    1053      992      928      872      827      805      792      770 
     754      741      727      718      697      672      648      619 
     588      552      503      445      386      329      263      190 
     117       51       -1      -43      -89     -137     -178     -210 
    -241     -286     -353     -417     -464     -515     -573     -650 
    -741     -828     -913    -1005    -1107    -1216    -1308    -1385 
   -1448    -1503    -1568    -1630    -1658    -1676    -1717    -1746 
   -1738    -1717    -1695    -1656    -1593    -1525    -1448    -1347 
   -1239    -1125    -1005     -882     -750     -612     -491     -379 
    -272     -170      -58       60      167      253      322      379 
     430      469      492      508      526      545      549      550 
     557      540      506      483      467      456      450      437 
     425      425      425      425      436      442      449      473 
     517      553      583      608      641      681      719      764 
     815      864      912      962     1015     1067     1111     1152 
    1188     1213     1227     1229     1232     1243     1244     1221 
    1190     1162     1136     1111     1081     1055     1020      985 
     962      927      869      808      750      700      646      588 
     544      500      450      406      368      325      278      234 
     193      141       89       44        8      -28      -64      -99 
    -128     -139     -141     -144     -157     -176     -193     -207 
    -221     -244     -282     -321     -353     -373     -396     -425 
    -451     -471     -484     -490     -484     -476     -461     -429 
    -400     -388     -373     -363     -369     -382     -390     -407 
    -441     -479     -513     -558     -627     -704     -781     -855 
    -927    -1009    -1104    -1185    -1258    -1339    -1413    -1474 
   -1534    -1580    -1605    -1632    -1660    -1671    -1682    -1698 
   -1699    -1686    -1664    -1642    -1629    -1613    -1587    -1560 
   -1532    -1498    -1457    -1414    -1370    -1308    -1221    -1131 
   -1055     -980     -897     -814     -735     -666     -611     -565 
    -526     -483     -440     -406     -367     -332     -313     -295 
    -292     -302     -310     -329     -355     -375     -406     -449 
    -500     -561     -622     -685     -756     -827     -897     -963 
