Origin Time       2016/04/16 01:25:00
Lat.              32.753
Long.             130.762
Depth. (km)       12
Mag.              7.3
Station Code      TTR006
Station Lat.      35.5106
Station Long.     133.6303
Station Height(m) 20
Record Time       2016/04/16 01:27:01
Sampling Freq(Hz) 100Hz
Duration Time(s)  148
Dir.              N-S
Scale Factor      7845(gal)/8223790
Max. Acc. (gal)   5.365
Last Correction   2016/04/16 01:27:02
Memo.             
[...]
   -6569    -6605    -6616    -6609    -6606    -6608    -6613    -6620 
   -6612    -6592    -6575    -6569    -6573    -6571    -6561    -6552 
   -6558    -6564    -6569    -6569    -6558    -6547    -6547    -6552 
   -6552    -6548    -6544    -6548    -6564    -6583    -6593    -6604 
   -6627    -6660    -6693    -6717    -6737    -6763    -6795    -6826 
   -6847    -6864    -6886    -6912    -6937    -6952    -6945    -6921 
   -6886    -6843    -6795    -6750    -6705    -6664    -6632    -6601 
   -6562    -6520    -6485    -6453    -6426    -6408    -6389    -6365 
   -6345    -6327    -6308    -6289    -6264    -6226    -6189    -6169 
   -6156    -6133    -6093    -6052    -6025    -6011    -6002    -5983 
   -5953    -5933    -5921    -5907    -5884    -5846    -5811    -5795 
   -5788    -5783    -5782    -5784    -5802    -5829    -5860    -5896 
   -5937    -5972    -6010    -6060    -6115    -6178    -6250    -6322 
   -6388    -6458    -6534    -6608    -6679    -6747    -6808    -6864 
   -6912    -6944    -6972    -6997    -7015    -7033    -7045    -7052 
   -7060    -7063    -7041    -6998    -6952    -6919    -6891    -6858 
   -6813    -6763    -6713    -6670    -6627    -6574    -6517    -6470 
   -6442    -6432    -6427    -6419    -6399    -6376    -6367    -6361 
   -6353    -6342    -6328    -6315    -6308    -6304    -6304    -6307 
   -6319    -6345    -6377    -6415    -6451    -6475    -6492    -6504 
   -6512    -6517    -6516    -6509    -6494    -6471    -6455    -6446 
   -6442    -6440    -6443    -6438    -6434    -6440    -6454    -6470 
   -6497    -6528    -6551    -6569    -6582    -6588    -6592    -6601 
   -6625    -6655    -6675    -6693    -6717    -6751    -6779    -6794 
   -6802    -6810    -6814    -6810    -6802    -6787    -6767    -6744 
   -6728    -6733    -6759    -6797    -6832    -6860    -6899    -6961 
   -7028    -7094    -7160    -7223    -7283    -7329    -7361    -7396 
   -7430    -7447    -7453    -7468    -7504    -7538    -7557    -7573 
   -7599    -7639    -7685    -7726    -7750    -7761    -7776    -7801 
   -7820    -7816    -7796    -7769    -7755    -7759    -7761    -7750 
   -7734    -7726    -7734    -7754    -7761    -7750    -7735    -7730 
   -7744    -7774    -7803    -7824    -7846    -7889    -7955    -8029 
   -8095    -8156    -8214    -8266    -8311    -8352    -8379    -8398 
   -8414    -8430    -8446    -8464    -8487    -8515    -8545    -8573 
   -8610    -8650    -8691    -8727    -8743    -8734    -8714    -8695 
   -8673    -8640    -8592    -8540    -8494    -8444    -8395    -8338 
   -8279    -8220    -8160    -8104    -8054    -7997    -7931    -7862 
   -7801    -7743    -7681    -7605    -7520    -7429    -7339    -7254 
   -7173    -7094    -7013    -6930    -6851    -6768    -6690    -6608 
   -6516    -6421    -6318    -6204    -6083    -5952    -5818    -5705 
   -5606    -5510    -5409    -5296    -5175    -5062    -4953    -4843 
   -4737    -4633    -4534    -4449    -4374    -4297    -4205    -4099 
   -4010    -3944    -3892    -3847    -3801    -3757    -3721    -3688 
   -3657    -3628    -3607    -3601    -3607    -3626    -3653    -3685 
   -3734    -3786    -3842    -3920    -4017    -4128    -4255    -4391 
   -4529    -4661    -4795    -4932    -5069    -5192    -5300    -5412 
   -5540    -5674    -5798    -5908    -6015    -6123    -6238    -6350 
   -6448    -6536    -6625    -6709    -6787    -6868    -6951    -7033 
   -7115    -7194    -7275    -7362    -7438    -7495    -7546    -7599 
   -7665    -7735    -7784    -7807    -7819    -7836    -7857    -7859 
   -7832    -7789    -7754    -7723    -7693    -7643    -7576    -7499 
   -7420    -7345    -7271    -7190    -7099    -7005    -6919    -6845 
   -6766    -6677    -6583    -6493    -6417    -6365    -6330    -6300 
   -6270    -6243    -6219    -6196    -6170    -6138    -6100    -6058 
   -6019    -5994    -5968    -5937    -5911    -5895    -5894    -5896 
   -5896    -5898    -5900    -5906    -5913    -5927    -5949    -5967 
   -5977    -5991    -5999    -6002    -6002    -5984    -5953    -5935 
   -5937    -5949    -5956    -5945    -5922    -5895    -5867    -5842 
   -5813    -5767    -5710    -5652    -5590    -5532    -5474    -5410 
   -5344    -5285    -5235    -5188    -5135    -5076    -5009    -4954 
   -4916    -4889    -4864    -4827    -4779    -4727    -4669    -4604 
   -4534    -4453    -4355    -4248    -4148    -4048    -3944    -3836 
   -3736    -3661    -3612    -3573    -3535    -3508    -3495    -3489 
   -3480    -3473    -3485    -3511    -3559    -3624    -3696    -3785 
   -3899    -4027    -4159    -4294    -4440    -4606    -4781    -4951 
   -5120    -5286    -5462    -5656    -5852    -6025    -6169    -6315 
   -6480    -6648    -6812    -6963    -7102    -7244    -7392    -7542 
   -7681    -7801    -7915    -8039    -8175    -8305    -8413    -8500 
   -8579    -8655    -8726    -8783    -8814    -8816    -8806    -8797 
   -8796    -8791    -8766    -8731    -8696    -8662    -8627    -8590 
   -8553    -8513    -8487    -8494    -8517    -8542    -8567    -8596 
   -8631    -8669    -8702    -8726    -8745    -8761    -8775    -8791 
   -8811    -8830    -8835    -8823    -8812    -8803    -8785    -8754 
   -8706    -8641    -8569    -8496    -8410    -8299    -8170    -8031 
   -7897    -7773    -7649    -7518    -7377    -7234    -7096    -6957 
   -6812    -6656    -6492    -6330    -6178    -6043    -5929    -5822 
   -5725    -5633    -5548    -5485    -5443    -5421    -5416    -5428 
   -5455    -5498    -5551    -5595    -5625    -5645    -5671    -5711 
   -5756    -5792    -5826    -5864    -5914    -5965    -6011    -6050 
   -6087    -6130    -6185    -6239    -6285    -6327    -6366    -6400 
   -6436    -6484    -6531    -6571    -6604    -6637    -6686    -6741 
   -6781    -6804    -6814    -6813    -6808    -6804    -6795    -6774 
   -6739    -6697    -6654    -6604    -6531    -6443    -6349    -6257 
   -6177    -6108    -6048    -5989    -5935    -5894    -5877    -5887 
   -5910    -5948    -6008    -6097    -6210    -6320    -6424    -6528 
   -6632    -6737    -6840    -6930    -7010    -7086    -7159    -7233 
   -7307    -7385    -7464    -7537    -7608    -7678    -7739    -7789 
   -7832    -7875    -7923    -7966    -7992    -8007    -8021    -8031 
   -8040    -8050    -8046    -8031    -8013    -7998    -7985    -7966 
   -7947    -7935    -7921    -7905    -7886    -7869    -7871    -7902 
   -7939    -7963    -7989    -8029    -8085    -8149    -8209    -8263 
   -8324    -8408    -8507    -8595    -8665    -8721    -8762    -8799 
   -8830    -8847    -8853    -8843    -8815    -8765    -8694    -8612 
   -8532    -8441    -8337    -8224    -8108    -7996    -7875    -7732 
   -7573    -7414    -7271    -7146    -7032    -6910    -6782    -6655 
   -6529    -6411    -6289    -6156    -6015    -5871    -5727    -5593 
   -5452    -5304    -5161    -5038    -4932    -4842    -4761    -4689 
   -4630    -4584    -4552    -4530    -4510    -4486    -4464    -4455 
   -4461    -4483    -4502    -4529    -4576    -4637    -4707    -4773 
   -4824    -4880    -4942    -5003    -5063    -5125    -5186    -5247 
   -5304    -5360    -5413    -5456    -5493    -5529    -5571    -5620 
   -5682    -5756    -5823    -5877    -5934    -5989    -6046    -6092 
   -6119    -6143    -6170    -6193    -6205    -6203    -6200    -6214 
   -6252    -6311    -6367    -6430    -6508    -6604    -6701    -6790 
   -6879    -6975    -7083    -7196    -7300    -7396    -7496    -7597 
   -7707    -7825    -7946    -8064    -8182    -8283    -8360    -8413 
   -8461    -8510    -8550    -8571    -8572    -8569    -8571    -8559 
   -8513    -8441    -8352    -8266    -8195    -8136    -8078    -8023 
   -7963    -7903    -7839    -7780    -7736    -7699    -7665    -7639 
   -7619    -7605    -7592    -7568    -7545    -7527    -7512    -7501 
   -7493    -7482    -7469    -7452    -7429    -7392    -7349    -7315 
   -7288    -7260    -7223    -7171    -7117    -7064    -7003    -6934 
   -6858    -6779    -6710    -6644    -6573    -6500    -6426    -6359 
   -6305    -6255    -6212    -6185    -6180    -6195    -6219    -6246 
   -6285    -6343    -6408    -6458    -6490    -6531    -6582    -6628 
   -6667    -6687    -6693    -6700    -6708    -6700    -6678    -6658 
   -6647    -6631    -6601    -6558    -6521    -6498    -6486    -6481 
   -6478    -6465    -6447    -6430    -6404    -6378    -6358    -6340 
   -6327    -6320    -6311    -6296    -6284    -6276    -6270    -6261 
   -6245    -6222    -6203    -6192    -6178    -6154    -6124    -6097 
   -6076    -6070    -6077    -6089    -6108    -6141    -6183    -6228 
   -6269    -6297    -6323    -6365    -6419    -6488    -6569    -6643 
   -6705    -6768    -6839    -6898    -6940    -6967    -6990    -7021 
   -7060    -7094    -7113    -7115    -7107    -7084    -7045    -7006 
   -6970    -6932    -6883    -6818    -6741    -6667    -6596    -6516 
   -6427    -6331    -6242    -6161    -6073    -5962    -5825    -5667 
   -5505    -5346    -5178    -5001    -4834    -4688    -4558    -4440 
   -4325    -4215    -4120    -4050    -4000    -3963    -3942    -3929 
   -3932    -3955    -3991    -4021    -4036    -4044    -4055    -4082 
   -4129    -4192    -4252    -4305    -4355    -4399    -4425    -4428 
   -4407    -4371    -4336    -4303    -4261    -4199    -4128    -4066 
   -4016    -3975    -3944    -3917    -3892    -3861    -3832    -3812 
   -3801    -3801    -3804    -3805    -3802    -3800    -3801    -3790 
   -3771    -3757    -3750    -3748    -3759    -3780    -3805    -3835 
   -3874    -3932    -4012    -4101    -4194    -4287    -4380    -4471 
   -4553    -4622    -4677    -4730    -4785    -4833    -4877    -4923 
   -4962    -4996    -5020    -5031    -5040    -5053    -5055    -5057 
   -5058    -5057    -5055    -5049    -5023    -4980    -4932    -4903 
   -4905    -4918    -4922    -4926    -4926    -4923    -4930    -4938 
   -4942    -4941    -4939    -4949    -4970    -4989    -4989    -4972 
   -4956    -4956    -4956    -4946    -4922    -4881    -4838    -4804 
   -4772    -4729    -4680    -4626    -4581    -4537    -4476    -4399 
   -4307    -4207    -4120    -4036    -3951    -3866    -3778    -3693 
   -3618    -3539    -3443    -3338    -3232    -3141    -3064    -2978 
   -2886    -2818    -2772    -2739    -2710    -2686    -2675    -2695 
   -2731    -2766    -2811    -2867    -2930    -2994    -3044    -3083 
   -3123    -3165    -3199    -3218    -3215    -3188    -3159    -3134 
   -3102    -3048    -2975    -2890    -2805    -2717    -2616    -2498 
   -2377    -2273    -2196    -2137    -2073    -1999    -1933    -1896 
   -1877    -1863    -1854    -1852    -1863    -1895    -1934    -1966 
   -2003    -2045    -2096    -2166    -2236    -2290    -2340    -2385 
   -2424    -2458    -2492    -2527    -2569    -2617    -2662    -2701 
   -2740    -2774    -2805    -2849    -2901    -2949    -2998    -3055 
   -3115    -3176    -3245    -3314    -3392    -3491    -3588    -3672 
   -3747    -3823    -3906    -4000    -4101    -4195    -4279    -4379 
   -4491    -4595    -4699    -4810    -4923    -5057    -5206    -5366 
   -5530    -5698    -5867    -6048    -6250    -6463    -6685    -6913 
   -7148    -7387    -7618    -7840    -8058    -8270    -8484    -8699 
   -8903    -9086    -9252    -9406    -9552    -9697    -9840    -9971 
  -10085   -10181   -10255   -10314   -10355   -10372   -10370   -10376 
  -10392   -10413   -10438   -10463   -10492   -10528   -10573   -10627 
  -10686   -10744   -10790   -10829   -10868   -10903   -10937   -10972 
  -11003   -11029   -11051   -11072   -11107   -11155   -11206   -11268 
  -11337   -11408   -11475   -11531   -11577   -11611   -11630   -11645 
  -11647   -11638   -11620   -11603   -11581   -11554   -11524   -11480 
  -11416   -11337   -11246   -11145   -11037   -10926   -10805   -10669 
  -10521   -10368   -10203   -10018    -9821    -9633    -9462    -9296 
   -9111    -8903    -8700    -8502    -8295    -8097    -7905    -7716 
   -7543    -7381    -7219    -7060    -6906    -6760    -6637    -6536 
   -6450    -6374    -6305    -6238    -6183    -6142    -6107    -6081 
   -6054    -6018    -5971    -5913    -5854    -5811    -5769    -5722 
   -5679    -5645    -5613    -5576    -5536    -5487    -5431    -5366 
   -5287    -5179    -5050    -4928    -4814    -4702    -4581    -4452 
   -4321    -4189    -4054    -3915    -3771    -3634    -3516    -3399 
   -3276    -3156    -3040    -2926    -2821    -2717    -2623    -2556 
   -2524    -2505    -2481    -2442    -2401    -2367    -2354    -2361 
   -2381    -2407    -2442    -2492    -2555    -2625    -2685    -2727 
   -2766    -2833    -2926    -3025    -3115    -3207    -3307    -3414 
   -3530    -3651    -3778    -3912    -4055    -4217    -4387    -4542 
   -4679    -4804    -4927    -5059    -5185    -5286    -5401    -5543 
   -5684    -5818    -5930    -6027    -6134    -6259    -6384    -6494 
   -6605    -6720    -6836    -6955    -7065    -7169    -7279    -7393 
   -7507    -7614    -7722    -7832    -7946    -8050    -8144    -8253 
   -8385    -8533    -8687    -8841    -8995    -9153    -9304    -9445 
   -9579    -9710    -9865   -10050   -10227   -10388   -10554   -10721 
  -10886   -11043   -11178   -11292   -11399   -11506   -11615   -11715 
  -11790   -11848   -11909   -11973   -12024   -12059   -12070   -12062 
  -12044   -12013   -11961   -11892   -11815   -11739   -11665   -11593 
  -11512   -11415   -11310   -11211   -11117   -11022   -10929   -10839 
  -10763   -10709   -10651   -10570   -10478   -10369   -10246   -10125 
   -9985    -9830    -9678    -9539    -9418    -9312    -9198    -9074 
   -8957    -8854    -8760    -8676    -8596    -8510    -8433    -8360 
   -8272    -8176    -8089    -8009    -7931    -7863    -7816    -7781 
   -7751    -7730    -7715    -7704    -7693    -7692    -7697    -7689 
   -7665    -7632    -7600    -7570    -7535    -7487    -7431    -7380 
   -7339    -7311    -7273    -7221    -7169    -7122    -7076    -7042 
   -7017    -6985    -6957    -6940    -6929    -6926    -6925    -6914 
   -6899    -6895    -6907    -6928    -6941    -6937    -6924    -6914 
   -6898    -6870    -6836    -6785    -6717    -6655    -6593    -6531 
   -6471    -6407    -6347    -6308    -6296    -6308    -6322    -6323 
   -6316    -6312    -6322    -6335    -6334    -6318    -6296    -6277 
   -6265    -6252    -6232    -6218    -6222    -6235    -6250    -6257 
   -6252    -6251    -6268    -6285    -6296    -6304    -6299    -6300 
   -6318    -6332    -6340    -6347    -6359    -6393    -6434    -6459 
   -6473    -6486    -6512    -6542    -6562    -6569    -6575    -6592 
   -6609    -6624    -6642    -6670    -6706    -6752    -6798    -6835 
   -6864    -6906    -6952    -6980    -6997    -7014    -7034    -7061 
   -7089    -7114    -7129    -7138    -7155    -7183    -7213    -7236 
   -7246    -7245    -7241    -7249    -7267    -7287    -7302    -7329 
   -7376    -7427    -7460    -7477    -7492    -7518    -7564    -7618 
   -7668    -7708    -7742    -7776    -7819    -7874    -7927    -7969 
   -8021    -8097    -8181    -8256    -8324    -8375    -8417    -8464 
   -8517    -8571    -8611    -8640    -8673    -8719    -8762    -8789 
   -8806    -8811    -8804    -8808    -8824    -8837    -8847    -8860 
   -8870    -8893    -8927    -8951    -8972    -9005    -9049    -9097 
   -9150    -9205    -9252    -9283    -9315    -9351    -9386    -9427 
   -9481    -9539    -9583    -9603    -9633    -9694    -9745    -9771 
   -9795    -9813    -9818    -9814    -9806    -9792    -9760    -9705 
   -9641    -9572    -9509    -9440    -9358    -9270    -9189    -9101 
   -9011    -8916    -8818    -8726    -8630    -8529    -8430    -8333 
   -8245    -8162    -8073    -7993    -7924    -7875    -7834    -7785 
   -7738    -7685    -7631    -7569    -7495    -7406    -7306    -7195 
   -7079    -6967    -6851    -6732    -6617    -6486    -6339    -6186 
   -6037    -5900    -5765    -5623    -5475    -5312    -5150    -5013 
   -4881    -4742    -4604    -4467    -4337    -4222    -4106    -3984 
   -3875    -3781    -3697    -3615    -3530    -3453    -3379    -3312 
   -3245    -3171    -3109    -3057    -3003    -2953    -2899    -2851 
   -2818    -2790    -2749    -2698    -2650    -2617    -2620    -2656 
   -2697    -2735    -2785    -2857    -2947    -3037    -3127    -3222 
   -3314    -3430    -3568    -3697    -3813    -3927    -4047    -4178 
   -4311    -4437    -4548    -4645    -4739    -4830    -4926    -5020 
   -5100    -5189    -5301    -5418    -5533    -5636    -5730    -5836 
   -5950    -6073    -6196    -6319    -6448    -6583    -6708    -6813 
   -6916    -7038    -7172    -7291    -7392    -7479    -7564    -7659 
   -7753    -7844    -7931    -8010    -8095    -8182    -8255    -8310 
   -8357    -8394    -8417    -8430    -8449    -8469    -8483    -8486 
   -8476    -8469    -8457    -8441    -8431    -8411    -8383    -8357 
   -8326    -8297    -8276    -8248    -8224    -8208    -8185    -8154 
   -8122    -8086    -8048    -8021    -8006    -8000    -7989    -7966 
   -7927    -7877    -7830    -7794    -7765    -7723    -7673    -7614 
   -7561    -7515    -7462    -7403    -7350    -7300    -7256    -7213 
   -7168    -7130    -7086    -7036    -6993    -6948    -6909    -6879 
   -6851    -6820    -6790    -6766    -6754    -6756    -6754    -6744 
   -6754    -6767    -6782    -6798    -6804    -6809    -6822    -6828 
   -6836    -6860    -6886    -6912    -6937    -6951    -6952    -6957 
   -6955    -6952    -6945    -6924    -6898    -6880    -6871    -6855 
   -6832    -6812    -6791    -6770    -6752    -6724    -6689    -6662 
   -6644    -6621    -6589    -6556    -6529    -6516    -6511    -6498 
   -6485    -6486    -6492    -6485    -6465    -6434    -6405    -6386 
   -6366    -6339    -6300    -6258    -6224    -6193    -6154    -6091 
   -6003    -5914    -5833    -5751    -5653    -5536    -5402    -5268 
   -5150    -5044    -4947    -4835    -4710    -4590    -4486    -4388 
   -4282    -4178    -4086    -3993    -3909    -3832    -3750    -3669 
   -3603    -3557    -3511    -3468    -3434    -3403    -3388    -3383 
   -3369    -3360    -3362    -3380    -3395    -3402    -3402    -3395 
   -3406    -3439    -3464    -3468    -3476    -3500    -3526    -3541 
   -3547    -3559    -3576    -3589    -3607    -3631    -3657    -3669 
   -3665    -3669    -3674    -3685    -3713    -3735    -3738    -3740 
   -3754    -3776    -3793    -3794    -3780    -3765    -3759    -3750 
   -3742    -3727    -3696    -3673    -3666    -3669    -3663    -3647 
   -3639    -3636    -3634    -3647    -3667    -3690    -3719    -3762 
   -3813    -3873    -3931    -3987    -4052    -4122    -4187    -4252 
   -4330    -4418    -4509    -4606    -4716    -4824    -4918    -5008 
   -5107    -5204    -5302    -5405    -5505    -5609    -5706    -5788 
   -5864    -5929    -5981    -6038    -6103    -6165    -6224    -6285 
   -6346    -6405    -6470    -6536    -6601    -6656    -6700    -6747 
   -6802    -6855    -6893    -6918    -6945    -6987    -7033    -7086 
