Origin Time       2016/04/16 01:25:00
Lat.              32.753
Long.             130.762
Depth. (km)       12
Mag.              7.3
Station Code      TTR005
Station Lat.      35.4290
Station Long.     133.8253
Station Height(m) 27
Record Time       2016/04/16 01:27:03
Sampling Freq(Hz) 100Hz
Duration Time(s)  61
Dir.              N-S
Scale Factor      7845(gal)/8223790
Max. Acc. (gal)   2.051
Last Correction   2016/04/16 01:27:04
Memo.             
[...]
   -2427    -2411    -2390    -2362    -2330    -2304    -2278    -2253 
   -2241    -2245    -2255    -2276    -2303    -2331    -2357    -2377 
   -2396    -2408    -2409    -2411    -2416    -2415    -2411    -2420 
   -2435    -2451    -2474    -2498    -2521    -2551    -2584    -2614 
   -2631    -2644    -2658    -2662    -2654    -2644    -2628    -2604 
   -2573    -2533    -2490    -2442    -2398    -2357    -2316    -2282 
   -2257    -2232    -2200    -2176    -2169    -2160    -2149    -2147 
   -2146    -2142    -2141    -2135    -2126    -2123    -2120    -2124 
   -2126    -2120    -2124    -2128    -2126    -2126    -2119    -2106 
   -2102    -2102    -2098    -2096    -2095    -2091    -2079    -2060 
   -2026    -1995    -1965    -1929    -1892    -1850    -1798    -1750 
   -1702    -1652    -1617    -1591    -1576    -1574    -1580    -1605 
   -1647    -1698    -1757    -1822    -1887    -1949    -2000    -2034 
   -2062    -2084    -2093    -2096    -2101    -2102    -2104    -2107 
   -2110    -2106    -2097    -2084    -2068    -2046    -2027    -2023 
   -2022    -2019    -2023    -2034    -2049    -2062    -2074    -2084 
   -2092    -2098    -2097    -2084    -2066    -2049    -2026    -2004 
   -1980    -1956    -1934    -1926    -1930    -1944    -1966    -2004 
   -2060    -2111    -2166    -2226    -2280    -2319    -2342    -2351 
   -2353    -2346    -2328    -2303    -2274    -2254    -2231    -2201 
   -2176    -2147    -2119    -2100    -2083    -2066    -2066    -2077 
   -2091    -2111    -2137    -2163    -2193    -2220    -2250    -2277 
   -2297    -2319    -2338    -2347    -2347    -2344    -2338    -2328 
   -2319    -2312    -2311    -2312    -2311    -2312    -2316    -2316 
   -2309    -2297    -2281    -2266    -2251    -2238    -2224    -2215 
   -2211    -2208    -2205    -2203    -2209    -2220    -2227    -2238 
   -2247    -2253    -2261    -2274    -2286    -2299    -2309    -2323 
   -2334    -2331    -2323    -2317    -2308    -2296    -2288    -2276 
   -2262    -2257    -2250    -2239    -2234    -2238    -2245    -2251 
   -2258    -2263    -2266    -2261    -2251    -2242    -2228    -2209 
   -2185    -2149    -2114    -2079    -2039    -1999    -1960    -1926 
   -1906    -1899    -1888    -1878    -1875    -1873    -1871    -1867 
   -1869    -1885    -1910    -1944    -1984    -2034    -2098    -2160 
   -2211    -2259    -2307    -2340    -2363    -2381    -2392    -2405 
   -2430    -2450    -2459    -2473    -2484    -2484    -2477    -2458 
   -2424    -2385    -2344    -2311    -2276    -2239    -2212    -2189 
   -2162    -2135    -2106    -2076    -2053    -2034    -2025    -2020 
   -2019    -2022    -2030    -2034    -2041    -2045    -2050    -2052 
   -2050    -2052    -2050    -2046    -2042    -2037    -2027    -2011 
   -1999    -1989    -1968    -1945    -1927    -1902    -1878    -1861 
   -1842    -1826    -1825    -1833    -1854    -1895    -1946    -2003 
   -2076    -2154    -2222    -2284    -2338    -2384    -2421    -2447 
   -2467    -2482    -2492    -2501    -2509    -2506    -2496    -2482 
   -2461    -2436    -2408    -2377    -2350    -2331    -2315    -2309 
   -2311    -2312    -2316    -2330    -2351    -2374    -2398    -2423 
   -2444    -2469    -2497    -2527    -2548    -2558    -2565    -2573 
   -2570    -2558    -2538    -2509    -2479    -2446    -2408    -2376 
   -2347    -2323    -2300    -2274    -2249    -2224    -2200    -2180 
   -2162    -2146    -2143    -2147    -2155    -2174    -2200    -2228 
   -2255    -2281    -2301    -2312    -2317    -2311    -2296    -2277 
   -2250    -2212    -2172    -2126    -2085    -2046    -2010    -1975 
   -1946    -1925    -1911    -1902    -1896    -1892    -1887    -1890 
   -1898    -1910    -1934    -1969    -2007    -2052    -2101    -2150 
   -2201    -2245    -2273    -2300    -2323    -2331    -2327    -2316 
   -2292    -2266    -2250    -2224    -2200    -2188    -2180    -2176 
   -2178    -2181    -2195    -2215    -2232    -2258    -2292    -2324 
   -2361    -2400    -2432    -2461    -2493    -2520    -2539    -2551 
   -2556    -2558    -2558    -2550    -2536    -2523    -2508    -2493 
   -2479    -2466    -2461    -2457    -2447    -2442    -2432    -2420 
   -2413    -2392    -2362    -2338    -2317    -2297    -2281    -2261 
   -2243    -2241    -2239    -2238    -2247    -2267    -2293    -2326 
   -2358    -2386    -2417    -2450    -2471    -2486    -2500    -2504 
   -2502    -2492    -2470    -2446    -2421    -2396    -2369    -2338 
   -2303    -2265    -2223    -2181    -2137    -2093    -2062    -2039 
   -2025    -2031    -2046    -2068    -2101    -2134    -2168    -2209 
   -2250    -2289    -2334    -2377    -2413    -2451    -2482    -2506 
   -2533    -2555    -2560    -2555    -2536    -2500    -2455    -2397 
   -2331    -2269    -2203    -2134    -2073    -2012    -1958    -1914 
   -1875    -1844    -1826    -1815    -1811    -1818    -1833    -1856 
   -1891    -1933    -1972    -2008    -2043    -2077    -2106    -2130 
   -2151    -2172    -2185    -2191    -2184    -2166    -2142    -2115 
   -2084    -2050    -2016    -1992    -1977    -1962    -1948    -1935 
   -1929    -1929    -1930    -1939    -1961    -1988    -2016    -2057 
   -2107    -2160    -2220    -2282    -2335    -2385    -2432    -2469 
   -2500    -2520    -2524    -2527    -2533    -2531    -2523    -2506 
   -2484    -2466    -2446    -2415    -2390    -2374    -2362    -2363 
   -2365    -2357    -2351    -2350    -2335    -2319    -2301    -2273 
   -2246    -2224    -2204    -2191    -2182    -2172    -2169    -2174 
   -2174    -2173    -2173    -2168    -2165    -2162    -2155    -2155 
   -2160    -2160    -2162    -2163    -2157    -2154    -2151    -2138 
   -2120    -2104    -2087    -2070    -2058    -2042    -2030    -2033 
   -2039    -2052    -2066    -2079    -2093    -2111    -2121    -2126 
   -2130    -2133    -2138    -2139    -2134    -2130    -2134    -2138 
   -2142    -2144    -2147    -2153    -2158    -2158    -2154    -2150 
   -2154    -2163    -2168    -2182    -2211    -2239    -2272    -2313 
   -2357    -2397    -2442    -2492    -2536    -2574    -2609    -2633 
   -2641    -2641    -2633    -2612    -2586    -2560    -2528    -2493 
   -2461    -2421    -2386    -2353    -2315    -2276    -2238    -2201 
   -2169    -2139    -2118    -2106    -2104    -2115    -2134    -2158 
   -2181    -2205    -2231    -2253    -2266    -2266    -2257    -2242 
   -2215    -2184    -2153    -2116    -2085    -2061    -2042    -2034 
   -2037    -2041    -2053    -2077    -2110    -2149    -2188    -2223 
   -2262    -2304    -2343    -2378    -2412    -2439    -2458    -2478 
   -2488    -2486    -2482    -2470    -2448    -2423    -2388    -2350 
   -2315    -2282    -2258    -2242    -2239    -2259    -2289    -2319 
   -2361    -2415    -2467    -2515    -2554    -2590    -2624    -2655 
   -2685    -2708    -2721    -2729    -2736    -2735    -2721    -2708 
   -2693    -2675    -2651    -2620    -2589    -2556    -2521    -2490 
   -2465    -2442    -2421    -2401    -2376    -2355    -2336    -2313 
   -2290    -2270    -2253    -2242    -2236    -2239    -2249    -2259 
   -2269    -2273    -2267    -2251    -2234    -2223    -2214    -2200 
   -2189    -2177    -2163    -2144    -2114    -2079    -2046    -2001 
   -1956    -1915    -1876    -1848    -1830    -1817    -1809    -1804 
   -1804    -1806    -1803    -1803    -1809    -1815    -1826    -1846 
   -1868    -1890    -1915    -1942    -1965    -1988    -2018    -2050 
   -2083    -2111    -2137    -2161    -2184    -2205    -2236    -2267 
   -2295    -2323    -2343    -2362    -2380    -2384    -2376    -2365 
   -2349    -2331    -2313    -2288    -2269    -2263    -2267    -2280 
   -2292    -2303    -2315    -2323    -2322    -2316    -2303    -2284 
   -2269    -2250    -2227    -2208    -2192    -2168    -2143    -2115 
   -2079    -2046    -2011    -1973    -1941    -1915    -1894    -1876 
   -1858    -1842    -1830    -1819    -1810    -1799    -1788    -1781 
   -1779    -1771    -1759    -1752    -1745    -1741    -1750    -1764 
   -1779    -1810    -1848    -1883    -1917    -1954    -1993    -2031 
   -2062    -2089    -2111    -2130    -2151    -2170    -2191    -2219 
   -2247    -2269    -2296    -2324    -2343    -2363    -2386    -2407 
   -2434    -2461    -2477    -2496    -2515    -2525    -2531    -2535 
   -2531    -2521    -2511    -2498    -2475    -2440    -2407    -2378 
   -2338    -2299    -2274    -2247    -2227    -2226    -2224    -2224 
   -2235    -2249    -2259    -2267    -2273    -2274    -2280    -2282 
   -2273    -2262    -2249    -2232    -2215    -2196    -2169    -2144 
   -2121    -2100    -2081    -2057    -2039    -2029    -2015    -2004 
   -1998    -1980    -1956    -1938    -1923    -1912    -1900    -1888 
   -1890    -1900    -1914    -1930    -1949    -1971    -2007    -2052 
   -2100    -2155    -2214    -2273    -2332    -2378    -2413    -2450 
   -2478    -2500    -2520    -2528    -2521    -2519    -2515    -2498 
   -2482    -2465    -2432    -2392    -2354    -2315    -2277    -2247 
   -2226    -2209    -2203    -2208    -2226    -2245    -2265    -2286 
   -2305    -2322    -2332    -2334    -2332    -2322    -2304    -2289 
   -2272    -2251    -2234    -2211    -2187    -2169    -2154    -2138 
   -2118    -2097    -2087    -2077    -2069    -2065    -2060    -2053 
   -2050    -2045    -2031    -2018    -2008    -1999    -1995    -1998 
   -2001    -2008    -2022    -2030    -2034    -2050    -2065    -2077 
   -2085    -2093    -2104    -2115    -2123    -2134    -2142    -2153 
   -2163    -2168    -2166    -2161    -2149    -2130    -2106    -2079 
   -2060    -2045    -2037    -2031    -2031    -2038    -2050    -2068 
   -2083    -2091    -2100    -2116    -2134    -2149    -2165    -2189 
   -2214    -2231    -2254    -2277    -2288    -2301    -2315    -2317 
   -2319    -2327    -2331    -2335    -2343    -2350    -2355    -2358 
   -2350    -2334    -2305    -2269    -2228    -2181    -2128    -2077 
   -2033    -1991    -1958    -1939    -1930    -1939    -1958    -1979 
   -2008    -2045    -2079    -2119    -2168    -2218    -2274    -2331 
   -2381    -2421    -2447    -2461    -2466    -2454    -2428    -2404 
   -2385    -2374    -2376    -2393    -2428    -2474    -2527    -2586 
   -2650    -2712    -2775    -2843    -2909    -2974    -3041    -3094 
   -3138    -3184    -3222    -3249    -3273    -3295    -3323    -3352 
   -3375    -3397    -3418    -3438    -3464    -3488    -3507    -3535 
   -3570    -3611    -3661    -3711    -3761    -3815    -3855    -3880 
   -3898    -3910    -3915    -3920    -3920    -3915    -3916    -3921 
   -3925    -3927    -3913    -3896    -3888    -3873    -3856    -3850 
   -3847    -3848    -3856    -3863    -3861    -3854    -3844    -3825 
   -3796    -3762    -3726    -3699    -3681    -3667    -3661    -3665 
   -3676    -3681    -3677    -3672    -3662    -3645    -3622    -3604 
   -3593    -3585    -3570    -3549    -3520    -3484    -3445    -3406 
   -3358    -3311    -3279    -3250    -3217    -3184    -3153    -3117 
   -3073    -3022    -2964    -2903    -2841    -2785    -2733    -2691 
   -2656    -2621    -2587    -2555    -2520    -2471    -2413    -2346 
   -2263    -2177    -2092    -1998    -1899    -1806    -1719    -1642 
   -1567    -1490    -1425    -1367    -1314    -1273    -1233    -1193 
   -1159    -1131    -1100    -1069    -1039    -1013     -993     -977 
    -970     -978    -1000    -1032    -1075    -1131    -1198    -1271 
   -1347    -1420    -1489    -1557    -1621    -1669    -1711    -1748 
   -1775    -1792    -1790    -1767    -1732    -1684    -1613    -1520 
   -1414    -1296    -1167    -1038     -903     -776     -670     -581 
    -510     -461     -440     -438     -454     -486     -526     -579 
    -635     -687     -739     -793     -845     -900     -955    -1005 
   -1062    -1124    -1183    -1242    -1296    -1348    -1394    -1431 
   -1468    -1505    -1530    -1553    -1582    -1609    -1632    -1658 
   -1690    -1717    -1741    -1771    -1806    -1845    -1878    -1908 
   -1934    -1956    -1972    -1980    -1985    -1989    -1993    -1995 
   -1989    -1980    -1964    -1944    -1918    -1884    -1846    -1807 
   -1767    -1729    -1698    -1664    -1637    -1615    -1598    -1588 
   -1584    -1576    -1570    -1575    -1587    -1606    -1630    -1644 
   -1653    -1663    -1667    -1665    -1655    -1641    -1636    -1628 
   -1618    -1614    -1611    -1614    -1628    -1647    -1663    -1686 
   -1721    -1759    -1788    -1815    -1841    -1859    -1869    -1878 
   -1894    -1904    -1908    -1915    -1919    -1919    -1927    -1939 
   -1946    -1954    -1965    -1968    -1962    -1956    -1939    -1912 
   -1881    -1844    -1803    -1767    -1734    -1710    -1692    -1684 
   -1688    -1701    -1732    -1786    -1850    -1929    -2020    -2118 
   -2226    -2338    -2446    -2551    -2659    -2762    -2863    -2967 
   -3067    -3159    -3238    -3303    -3362    -3412    -3456    -3496 
   -3532    -3563    -3595    -3623    -3653    -3685    -3716    -3744 
   -3769    -3792    -3817    -3839    -3858    -3882    -3904    -3916 
   -3925    -3932    -3936    -3942    -3954    -3965    -3978    -3996 
   -4017    -4051    -4088    -4121    -4159    -4205    -4248    -4291 
   -4320    -4338    -4356    -4365    -4356    -4329    -4289    -4241 
   -4186    -4120    -4039    -3950    -3852    -3748    -3638    -3520 
   -3393    -3271    -3157    -3044    -2932    -2818    -2705    -2592 
   -2477    -2366    -2263    -2161    -2068    -1982    -1904    -1836 
   -1772    -1711    -1660    -1614    -1566    -1518    -1476    -1439 
   -1417    -1409    -1409    -1424    -1449    -1476    -1512    -1551 
   -1583    -1609    -1632    -1645    -1649    -1645    -1638    -1629 
   -1614    -1591    -1561    -1521    -1470    -1410    -1340    -1260 
   -1182    -1100    -1017     -942     -872     -807     -757     -723 
    -697     -693     -710     -733     -766     -812     -862     -920 
    -974    -1024    -1077    -1120    -1161    -1204    -1236    -1260 
   -1290    -1320    -1348    -1383    -1414    -1444    -1475    -1498 
   -1513    -1520    -1512    -1489    -1456    -1420    -1382    -1337 
   -1291    -1255    -1225    -1197    -1177    -1156    -1135    -1116 
   -1096    -1071    -1046    -1016     -989     -978     -984    -1000 
   -1028    -1071    -1135    -1216    -1298    -1389    -1493    -1599 
   -1711    -1830    -1948    -2072    -2196    -2315    -2428    -2535 
   -2616    -2678    -2721    -2743    -2751    -2749    -2732    -2709 
   -2690    -2673    -2671    -2681    -2691    -2721    -2783    -2852 
   -2929    -3017    -3114    -3229    -3343    -3451    -3569    -3692 
   -3800    -3899    -3991    -4069    -4133    -4178    -4202    -4209 
   -4207    -4192    -4167    -4137    -4109    -4090    -4078    -4074 
   -4081    -4091    -4105    -4125    -4151    -4172    -4190    -4200 
   -4205    -4210    -4209    -4197    -4182    -4153    -4129    -4113 
   -4099    -4095    -4095    -4093    -4106    -4131    -4152    -4170 
   -4178    -4178    -4166    -4135    -4087    -4021    -3944    -3861 
   -3774    -3686    -3589    -3492    -3402    -3308    -3218    -3134 
   -3060    -2999    -2951    -2917    -2898    -2875    -2855    -2843 
   -2821    -2795    -2768    -2732    -2701    -2669    -2639    -2617 
   -2605    -2600    -2606    -2629    -2664    -2716    -2778    -2847 
   -2915    -2986    -3049    -3106    -3153    -3190    -3213    -3218 
   -3203    -3180    -3149    -3099    -3040    -2986    -2930    -2874 
   -2821    -2774    -2732    -2698    -2663    -2624    -2583    -2552 
   -2533    -2521    -2517    -2525    -2540    -2560    -2583    -2602 
   -2620    -2633    -2635    -2628    -2621    -2610    -2600    -2598 
   -2601    -2609    -2631    -2663    -2701    -2743    -2786    -2835 
   -2882    -2925    -2961    -2988    -3001    -3007    -3007    -2998 
   -2984    -2967    -2952    -2934    -2914    -2895    -2887    -2882 
   -2879    -2886    -2906    -2932    -2967    -3009    -3046    -3094 
   -3134    -3164    -3186    -3192    -3192    -3180    -3148    -3105 
   -3061    -3007    -2949    -2895    -2832    -2764    -2695    -2617 
   -2531    -2436    -2340    -2247    -2154    -2062    -1977    -1899 
   -1818    -1733    -1652    -1567    -1483    -1405    -1339    -1282 
   -1244    -1223    -1220    -1227    -1237    -1252    -1269    -1279 
   -1285    -1281    -1267    -1248    -1220    -1182    -1140    -1089 
   -1034     -976     -919     -864     -815     -766     -728     -707 
    -700     -710     -734     -767     -801     -835     -870     -905 
    -931     -946     -957     -965     -961     -946     -918     -876 
    -822     -753     -672     -585     -504     -427     -360     -303 
    -259     -229     -209     -198     -193     -193     -206     -232 
    -261     -301     -360     -427     -502     -585     -675     -757 
    -831     -895     -947     -989    -1019    -1048    -1081    -1107 
   -1135    -1166    -1200    -1233    -1264    -1293    -1308    -1312 
   -1324    -1337    -1345    -1358    -1382    -1418    -1467    -1528 
   -1593    -1655    -1722    -1791    -1852    -1914    -1966    -2010 
   -2053    -2089    -2107    -2126    -2143    -2147    -2149    -2142 
   -2124    -2111    -2097    -2079    -2066    -2050    -2034    -2029 
   -2015    -1982    -1956    -1930    -1903    -1883    -1868    -1861 
   -1869    -1883    -1892    -1894    -1895    -1896    -1891    -1878 
   -1861    -1842    -1831    -1831    -1831    -1826    -1823    -1813 
   -1787    -1765    -1745    -1721    -1707    -1715    -1719    -1728 
   -1757    -1790    -1809    -1829    -1849    -1852    -1848    -1838 
   -1813    -1775    -1728    -1664    -1587    -1502    -1412    -1310 
   -1206    -1107    -1016     -947     -897     -858     -838     -835 
    -831     -838     -846     -845     -845     -845     -837     -830 
    -824     -818     -811     -803     -789     -783     -780     -774 
    -766     -765     -781     -819     -864     -907     -954    -1004 
   -1050    -1084    -1109    -1128    -1143    -1150    -1151    -1150 
   -1143    -1138    -1139    -1142    -1139    -1136    -1133    -1124 
   -1111    -1101    -1092    -1090    -1105    -1127    -1154    -1179 
   -1202    -1221    -1227    -1227    -1221    -1200    -1173    -1154 
   -1136    -1124    -1107    -1085    -1065    -1053    -1044    -1038 
   -1026    -1021    -1036    -1059    -1080    -1092    -1101    -1111 
   -1115    -1107    -1092    -1080    -1073    -1065    -1065    -1073 
   -1078    -1081    -1080    -1065    -1050    -1042    -1030    -1011 
    -987     -972     -962     -950     -939     -918     -880     -845 
    -815     -776     -735     -702     -673     -652     -637     -625 
    -622     -645     -679     -712     -758     -815     -864     -913 
    -965    -1005    -1038    -1059    -1065    -1060    -1053    -1042 
   -1026    -1007     -987     -974     -972     -970     -959     -959 
    -972     -977     -985    -1008    -1026    -1043    -1070    -1092 
