Origin Time       2016/04/16 01:25:00
Lat.              32.753
Long.             130.762
Depth. (km)       12
Mag.              7.3
Station Code      TTR001
Station Lat.      35.3415
Station Long.     134.3975
Station Height(m) 219
Record Time       2016/04/16 01:27:13
Sampling Freq(Hz) 100Hz
Duration Time(s)  64
Dir.              N-S
Scale Factor      7845(gal)/8223790
Max. Acc. (gal)   1.623
Last Correction   2016/04/16 01:27:15
Memo.             
[...]
   -1975    -1972    -1977    -1962    -1946    -1948    -1944    -1948 
   -1958    -1961    -1958    -1945    -1954    -1992    -1984    -1938 
   -1945    -1988    -1979    -1945    -1949    -1939    -1938    -2006 
   -1991    -1902    -1939    -2058    -2053    -1948    -1973    -2102 
   -2107    -2034    -2042    -2119    -2158    -2149    -2139    -2142 
   -2199    -2266    -2239    -2205    -2270    -2323    -2290    -2267 
   -2277    -2274    -2297    -2293    -2208    -2193    -2289    -2262 
   -2130    -2158    -2242    -2162    -2101    -2165    -2139    -2053 
   -2100    -2157    -2077    -2039    -2116    -2142    -2106    -2116 
   -2150    -2158    -2200    -2230    -2184    -2204    -2281    -2262 
   -2224    -2276    -2301    -2262    -2266    -2288    -2277    -2277 
   -2266    -2254    -2289    -2301    -2246    -2243    -2313    -2307 
   -2241    -2251    -2301    -2309    -2270    -2245    -2295    -2317 
   -2255    -2235    -2267    -2259    -2238    -2238    -2191    -2162 
   -2235    -2208    -2079    -2123    -2212    -2128    -2058    -2126 
   -2138    -2069    -2087    -2138    -2091    -2039    -2095    -2149 
   -2079    -2022    -2119    -2169    -2060    -2056    -2166    -2139 
   -2088    -2160    -2163    -2107    -2178    -2231    -2146    -2151 
   -2259    -2241    -2185    -2232    -2263    -2259    -2258    -2269 
   -2278    -2257    -2261    -2285    -2273    -2239    -2243    -2278 
   -2231    -2209    -2278    -2242    -2172    -2230    -2266    -2191 
   -2177    -2218    -2178    -2173    -2207    -2143    -2114    -2170 
   -2147    -2104    -2137    -2115    -2072    -2130    -2126    -2031 
   -2072    -2139    -2053    -2007    -2089    -2100    -2034    -2034 
   -2065    -2057    -2041    -2053    -2046    -2014    -2041    -2089 
   -2065    -2008    -2039    -2116    -2091    -2029    -2052    -2089 
   -2061    -2011    -2027    -2060    -2030    -1981    -1985    -2018 
   -2006    -1975    -1985    -1992    -1977    -1996    -2007    -1972 
   -1972    -2014    -1996    -1956    -2003    -2014    -1962    -1981 
   -2008    -1992    -1985    -1985    -1996    -2001    -1985    -1984 
   -2012    -2001    -1971    -2022    -2053    -1993    -2014    -2083 
   -2043    -2010    -2068    -2072    -2025    -2061    -2088    -2027 
   -2033    -2104    -2089    -2016    -2043    -2139    -2111    -2015 
   -2076    -2182    -2110    -2041    -2149    -2184    -2092    -2134 
   -2219    -2143    -2101    -2243    -2254    -2093    -2157    -2331 
   -2241    -2100    -2215    -2326    -2219    -2157    -2243    -2280 
   -2226    -2219    -2278    -2274    -2220    -2263    -2327    -2251 
   -2211    -2307    -2297    -2208    -2234    -2266    -2236    -2224 
   -2215    -2195    -2199    -2207    -2182    -2173    -2178    -2147 
   -2162    -2189    -2139    -2120    -2142    -2130    -2119    -2101 
   -2091    -2115    -2104    -2056    -2068    -2118    -2100    -2052 
   -2053    -2091    -2133    -2097    -2025    -2101    -2177    -2087 
   -2084    -2178    -2149    -2118    -2205    -2220    -2134    -2178 
   -2289    -2234    -2170    -2239    -2276    -2249    -2227    -2224 
   -2263    -2273    -2209    -2188    -2249    -2249    -2160    -2181 
   -2253    -2185    -2123    -2191    -2243    -2178    -2124    -2181 
   -2223    -2195    -2177    -2192    -2230    -2249    -2224    -2222 
   -2270    -2285    -2258    -2273    -2309    -2290    -2266    -2304 
   -2319    -2269    -2253    -2295    -2313    -2265    -2215    -2247 
   -2288    -2251    -2199    -2211    -2228    -2211    -2196    -2162 
   -2150    -2200    -2187    -2116    -2142    -2208    -2182    -2151 
   -2205    -2235    -2204    -2219    -2274    -2281    -2246    -2251 
   -2316    -2330    -2273    -2300    -2385    -2347    -2297    -2386 
   -2408    -2309    -2338    -2424    -2358    -2297    -2363    -2378 
   -2338    -2358    -2326    -2305    -2403    -2381    -2263    -2313 
   -2394    -2331    -2297    -2319    -2281    -2301    -2357    -2250 
   -2193    -2303    -2305    -2212    -2188    -2189    -2218    -2243 
   -2151    -2077    -2160    -2195    -2111    -2091    -2107    -2101 
   -2123    -2123    -2070    -2069    -2121    -2126    -2097    -2107 
   -2124    -2130    -2141    -2134    -2120    -2128    -2147    -2141 
   -2104    -2095    -2111    -2107    -2084    -2049    -2042    -2057 
   -2038    -2001    -1991    -1993    -1980    -1965    -1971    -1971 
   -1954    -1971    -2025    -2026    -1991    -2034    -2110    -2081 
   -2049    -2141    -2195    -2102    -2115    -2257    -2203    -2104 
   -2236    -2297    -2173    -2185    -2292    -2243    -2199    -2274 
   -2251    -2203    -2285    -2303    -2228    -2243    -2319    -2315 
   -2267    -2272    -2301    -2313    -2290    -2270    -2274    -2253 
   -2259    -2301    -2238    -2160    -2258    -2332    -2203    -2133 
   -2241    -2269    -2172    -2141    -2163    -2158    -2151    -2126 
   -2061    -2068    -2126    -2077    -1989    -2016    -2053    -1996 
   -1948    -1953    -1948    -1910    -1899    -1906    -1850    -1815 
   -1865    -1869    -1799    -1806    -1864    -1850    -1833    -1861 
   -1871    -1877    -1899    -1902    -1900    -1923    -1946    -1945 
   -1952    -1973    -1989    -1993    -2000    -2034    -2050    -2037 
   -2065    -2102    -2097    -2087    -2098    -2121    -2134    -2134 
   -2107    -2089    -2133    -2146    -2068    -2058    -2134    -2111 
   -2043    -2081    -2111    -2045    -2052    -2121    -2076    -2030 
   -2100    -2120    -2056    -2076    -2128    -2107    -2123    -2153 
   -2121    -2149    -2226    -2204    -2158    -2222    -2273    -2246 
   -2251    -2281    -2284    -2286    -2305    -2309    -2286    -2289 
   -2316    -2317    -2274    -2254    -2305    -2319    -2257    -2257 
   -2312    -2293    -2266    -2296    -2289    -2282    -2323    -2303 
   -2258    -2305    -2349    -2282    -2242    -2304    -2305    -2235 
   -2235    -2232    -2199    -2209    -2181    -2104    -2124    -2168 
   -2085    -2029    -2095    -2091    -2026    -2042    -2058    -2029 
   -2038    -2046    -2010    -2015    -2039    -2012    -2007    -2030 
   -2003    -1989    -2031    -2019    -1969    -2015    -2052    -1985 
   -1971    -2037    -2037    -1991    -1998    -2027    -2029    -2022 
   -2029    -2062    -2085    -2046    -2038    -2128    -2158    -2064 
   -2056    -2176    -2184    -2098    -2130    -2188    -2149    -2144 
   -2193    -2166    -2135    -2180    -2193    -2170    -2196    -2195 
   -2172    -2235    -2249    -2178    -2211    -2282    -2232    -2201 
   -2254    -2224    -2204    -2270    -2226    -2168    -2249    -2269 
   -2196    -2208    -2246    -2211    -2211    -2234    -2172    -2158 
   -2219    -2173    -2106    -2143    -2165    -2118    -2089    -2098 
   -2114    -2115    -2077    -2047    -2093    -2107    -2061    -2070 
   -2077    -2033    -2076    -2144    -2058    -1993    -2107    -2173 
   -2070    -2029    -2130    -2161    -2088    -2087    -2141    -2138 
   -2107    -2111    -2137    -2150    -2141    -2107    -2124    -2163 
   -2116    -2088    -2137    -2110    -2053    -2085    -2107    -2050 
   -2014    -2052    -2073    -2033    -1995    -2010    -2061    -2049 
   -1985    -2012    -2079    -2052    -2014    -2066    -2096    -2066 
   -2081    -2123    -2126    -2126    -2153    -2174    -2182    -2188 
   -2208    -2231    -2228    -2228    -2259    -2267    -2247    -2265 
   -2296    -2280    -2273    -2282    -2274    -2286    -2292    -2263 
   -2270    -2295    -2273    -2261    -2282    -2276    -2259    -2276 
   -2277    -2251    -2263    -2295    -2266    -2223    -2243    -2273 
   -2236    -2178    -2184    -2208    -2166    -2107    -2119    -2147 
   -2110    -2066    -2088    -2133    -2104    -2060    -2123    -2176 
   -2119    -2118    -2214    -2218    -2150    -2205    -2293    -2265 
   -2226    -2270    -2324    -2336    -2319    -2315    -2366    -2401 
   -2355    -2377    -2416    -2346    -2376    -2484    -2374    -2253 
   -2415    -2485    -2288    -2273    -2416    -2367    -2286    -2331 
   -2316    -2254    -2307    -2326    -2222    -2215    -2297    -2261 
   -2185    -2223    -2281    -2238    -2188    -2232    -2282    -2241 
   -2196    -2253    -2296    -2218    -2204    -2295    -2269    -2192 
   -2238    -2278    -2219    -2224    -2270    -2223    -2215    -2285 
   -2269    -2214    -2266    -2323    -2281    -2272    -2319    -2319 
   -2309    -2323    -2311    -2304    -2330    -2315    -2265    -2262 
   -2265    -2234    -2220    -2187    -2126    -2142    -2160    -2083 
   -2039    -2070    -2064    -2019    -1999    -1998    -1991    -1999 
   -1981    -1952    -1981    -1995    -1975    -2006    -2019    -1996 
   -2047    -2119    -2074    -2058    -2170    -2189    -2146    -2199 
   -2215    -2208    -2270    -2266    -2215    -2285    -2317    -2232 
   -2270    -2327    -2236    -2241    -2307    -2227    -2195    -2270 
   -2212    -2135    -2215    -2211    -2126    -2147    -2147    -2135 
   -2169    -2124    -2069    -2137    -2176    -2076    -2074    -2158 
   -2106    -2083    -2144    -2126    -2107    -2170    -2192    -2150 
   -2173    -2234    -2245    -2249    -2250    -2253    -2324    -2371 
   -2308    -2289    -2392    -2428    -2365    -2355    -2409    -2427 
   -2398    -2412    -2459    -2438    -2405    -2489    -2542    -2438 
   -2430    -2563    -2542    -2420    -2452    -2532    -2471    -2408 
   -2442    -2438    -2385    -2373    -2385    -2369    -2301    -2293 
   -2361    -2326    -2219    -2258    -2346    -2261    -2187    -2282 
   -2301    -2215    -2232    -2280    -2257    -2246    -2254    -2238 
   -2257    -2280    -2247    -2257    -2295    -2276    -2284    -2319 
   -2304    -2311    -2342    -2319    -2331    -2380    -2331    -2307 
   -2384    -2358    -2286    -2338    -2366    -2293    -2305    -2365 
   -2313    -2305    -2362    -2330    -2322    -2373    -2350    -2328 
   -2370    -2370    -2331    -2342    -2354    -2346    -2349    -2311 
   -2296    -2351    -2332    -2266    -2280    -2289    -2257    -2243 
   -2230    -2201    -2185    -2188    -2153    -2096    -2100    -2095 
   -2039    -2010    -2011    -1979    -1935    -1949    -1945    -1888 
   -1891    -1938    -1908    -1869    -1917    -1944    -1912    -1914 
   -1946    -1977    -1985    -1972    -1991    -2046    -2053    -2030 
   -2085    -2162    -2160    -2161    -2224    -2288    -2315    -2319 
   -2338    -2393    -2439    -2440    -2436    -2465    -2501    -2523 
   -2513    -2516    -2565    -2594    -2593    -2616    -2650    -2667 
   -2695    -2727    -2714    -2709    -2762    -2785    -2739    -2732 
   -2781    -2787    -2751    -2740    -2764    -2751    -2717    -2727 
   -2728    -2690    -2694    -2724    -2712    -2694    -2724    -2762 
   -2754    -2758    -2808    -2844    -2830    -2813    -2874    -2940 
   -2905    -2890    -2952    -2976    -2974    -2992    -2998    -2999 
   -3044    -3053    -3014    -3028    -3052    -3033    -3015    -3009 
   -2984    -2961    -2964    -2926    -2863    -2843    -2835    -2809 
   -2752    -2705    -2704    -2687    -2644    -2613    -2606    -2574 
   -2531    -2535    -2517    -2454    -2436    -2442    -2411    -2361 
   -2350    -2361    -2317    -2265    -2261    -2247    -2208    -2169 
   -2146    -2124    -2076    -2046    -2033    -1989    -1937    -1904 
   -1876    -1825    -1783    -1761    -1703    -1634    -1621    -1610 
   -1525    -1453    -1466    -1435    -1347    -1316    -1306    -1260 
   -1223    -1197    -1151    -1123    -1116    -1084    -1035    -1012 
   -1032    -1038     -987     -969    -1019    -1048    -1020    -1023 
   -1071    -1090    -1109    -1123    -1107    -1155    -1225    -1210 
   -1183    -1236    -1285    -1269    -1269    -1297    -1312    -1312 
   -1305    -1328    -1333    -1291    -1285    -1308    -1274    -1225 
   -1242    -1235    -1173    -1166    -1183    -1165    -1150    -1140 
   -1140    -1171    -1179    -1138    -1167    -1251    -1244    -1215 
   -1258    -1323    -1356    -1360    -1368    -1412    -1468    -1490 
   -1509    -1537    -1561    -1613    -1660    -1672    -1676    -1718 
   -1802    -1842    -1814    -1830    -1949    -2016    -1962    -1973 
   -2066    -2088    -2089    -2123    -2097    -2092    -2181    -2177 
   -2089    -2135    -2207    -2161    -2147    -2201    -2208    -2199 
   -2220    -2231    -2234    -2232    -2215    -2222    -2227    -2177 
   -2149    -2169    -2147    -2084    -2046    -2037    -2023    -1971 
   -1908    -1895    -1878    -1826    -1781    -1764    -1729    -1676 
   -1679    -1683    -1620    -1588    -1617    -1632    -1586    -1541 
   -1588    -1632    -1597    -1597    -1648    -1658    -1675    -1742 
   -1750    -1742    -1829    -1892    -1895    -1930    -1975    -2027 
   -2100    -2137    -2130    -2189    -2299    -2323    -2312    -2398 
   -2484    -2471    -2496    -2592    -2623    -2605    -2660    -2731 
   -2721    -2737    -2814    -2837    -2813    -2867    -2956    -2934 
   -2898    -2998    -3080    -3014    -3003    -3144    -3194    -3114 
   -3160    -3299    -3300    -3262    -3357    -3438    -3412    -3449 
   -3534    -3514    -3499    -3580    -3622    -3599    -3611    -3670 
   -3689    -3678    -3713    -3738    -3736    -3754    -3771    -3774 
   -3766    -3782    -3827    -3804    -3751    -3794    -3848    -3805 
   -3759    -3792    -3817    -3798    -3786    -3757    -3747    -3775 
   -3744    -3688    -3688    -3689    -3670    -3655    -3628    -3591 
   -3596    -3607    -3561    -3527    -3522    -3497    -3495    -3477 
   -3402    -3383    -3433    -3388    -3287    -3283    -3307    -3276 
   -3227    -3179    -3164    -3179    -3132    -3065    -3060    -3060 
   -3017    -2975    -2957    -2933    -2920    -2886    -2817    -2821 
   -2829    -2740    -2700    -2733    -2659    -2571    -2617    -2587 
   -2451    -2463    -2527    -2413    -2307    -2389    -2417    -2297 
   -2263    -2332    -2342    -2308    -2336    -2365    -2354    -2403 
   -2465    -2454    -2461    -2546    -2601    -2569    -2596    -2686 
   -2675    -2647    -2712    -2751    -2708    -2714    -2776    -2756 
   -2709    -2756    -2790    -2728    -2700    -2755    -2762    -2688 
   -2679    -2720    -2668    -2623    -2652    -2624    -2543    -2520 
   -2531    -2475    -2404    -2390    -2365    -2319    -2288    -2241 
   -2196    -2162    -2138    -2110    -2050    -1995    -1982    -1980 
   -1929    -1865    -1869    -1864    -1809    -1798    -1806    -1752 
   -1717    -1775    -1761    -1649    -1656    -1722    -1665    -1598 
   -1620    -1628    -1594    -1603    -1599    -1537    -1545    -1621 
   -1591    -1486    -1525    -1626    -1557    -1480    -1551    -1584 
   -1548    -1567    -1597    -1576    -1603    -1672    -1653    -1624 
   -1686    -1740    -1722    -1715    -1757    -1794    -1813    -1819 
   -1803    -1837    -1900    -1872    -1838    -1878    -1917    -1896 
   -1849    -1850    -1872    -1848    -1815    -1796    -1781    -1769 
   -1745    -1729    -1711    -1682    -1667    -1657    -1656    -1625 
   -1572    -1584    -1599    -1532    -1494    -1528    -1499    -1444 
   -1459    -1452    -1395    -1405    -1440    -1381    -1355    -1421 
   -1412    -1370    -1408    -1444    -1417    -1420    -1480    -1487 
   -1457    -1485    -1514    -1518    -1530    -1545    -1552    -1559 
   -1595    -1632    -1634    -1652    -1709    -1734    -1733    -1791 
   -1868    -1865    -1877    -1966    -2007    -2004    -2065    -2130 
   -2119    -2141    -2239    -2251    -2226    -2296    -2347    -2309 
   -2309    -2362    -2350    -2327    -2350    -2327    -2307    -2334 
   -2324    -2293    -2282    -2301    -2315    -2277    -2249    -2280 
   -2293    -2250    -2222    -2236    -2223    -2189    -2191    -2162 
   -2114    -2133    -2118    -2060    -2060    -2066    -2026    -1995 
   -2023    -2023    -1968    -1975    -2001    -1973    -1953    -1979 
   -1987    -1935    -1929    -1966    -1939    -1912    -1923    -1917 
   -1906    -1904    -1894    -1873    -1887    -1918    -1888    -1877 
   -1910    -1929    -1933    -1921    -1944    -1982    -1979    -1975 
   -2015    -2053    -2019    -2014    -2089    -2093    -2039    -2041 
   -2085    -2091    -2027    -2000    -2023    -2011    -1961    -1925 
   -1907    -1873    -1858    -1858    -1806    -1773    -1807    -1822 
   -1798    -1792    -1811    -1831    -1856    -1872    -1859    -1863 
   -1904    -1918    -1881    -1878    -1904    -1891    -1872    -1854 
   -1809    -1804    -1844    -1799    -1699    -1713    -1788    -1722 
   -1611    -1641    -1682    -1618    -1561    -1561    -1552    -1525 
   -1516    -1482    -1417    -1421    -1457    -1417    -1359    -1368 
   -1391    -1391    -1395    -1404    -1405    -1440    -1493    -1495 
   -1494    -1566    -1618    -1624    -1653    -1695    -1746    -1791 
   -1787    -1811    -1895    -1912    -1887    -1944    -1992    -1952 
   -1965    -2039    -2022    -1980    -2038    -2065    -2007    -2015 
   -2068    -2027    -1981    -2026    -2027    -1960    -1949    -1952 
   -1922    -1895    -1850    -1813    -1821    -1803    -1732    -1711 
   -1715    -1660    -1634    -1632    -1561    -1528    -1560    -1506 
   -1429    -1456    -1455    -1394    -1401    -1413    -1366    -1383 
   -1435    -1382    -1351    -1426    -1429    -1378    -1414    -1447 
   -1412    -1443    -1486    -1437    -1444    -1526    -1518    -1475 
   -1516    -1566    -1556    -1545    -1541    -1528    -1541    -1552 
   -1505    -1441    -1441    -1457    -1412    -1337    -1294    -1291 
   -1277    -1193    -1127    -1138    -1119    -1048    -1020    -1020 
    -996     -967     -951     -936     -924     -920     -918     -915 
    -905     -896     -916     -926     -900     -892     -916     -949 
    -957     -919     -922    -1019    -1051     -976    -1000    -1116 
   -1116    -1075    -1132    -1177    -1166    -1193    -1227    -1232 
   -1266    -1300    -1297    -1321    -1375    -1377    -1358    -1404 
   -1440    -1405    -1394    -1428    -1425    -1379    -1352    -1351 
   -1332    -1301    -1267    -1224    -1200    -1185    -1146    -1088 
   -1036    -1009     -992     -946     -885     -841     -830     -830 
    -799     -753     -728     -756     -789     -751     -718     -780 
    -828     -823     -849     -885     -903     -963    -1032    -1024 
   -1028    -1121    -1197    -1193    -1190    -1240    -1328    -1379 
   -1341    -1352    -1457    -1497    -1472    -1490    -1528    -1549 
   -1576    -1590    -1575    -1586    -1620    -1621    -1591    -1603 
   -1636    -1632    -1611    -1614    -1655    -1657    -1622    -1652 
   -1698    -1683    -1669    -1713    -1740    -1737    -1767    -1777 
   -1775    -1817    -1844    -1819    -1810    -1844    -1872    -1864 
   -1842    -1838    -1867    -1890    -1864    -1845    -1871    -1881 
   -1867    -1877    -1884    -1859    -1880    -1919    -1884    -1857 
   -1929    -1975    -1917    -1912    -1995    -2011    -1981    -2023 
   -2084    -2073    -2083    -2153    -2174    -2170    -2204    -2230 
