Origin Time       2016/04/16 01:25:00
Lat.              32.753
Long.             130.762
Depth. (km)       12
Mag.              7.3
Station Code      TTR008
Station Lat.      35.4258
Station Long.     133.3301
Station Height(m) 2
Record Time       2016/04/16 01:26:20
Sampling Freq(Hz) 100Hz
Duration Time(s)  135
Dir.              N-S
Scale Factor      7845(gal)/8223790
Max. Acc. (gal)   11.085
Last Correction   2016/04/16 01:26:20
Memo.             
[...]
   -9617    -9381    -9169    -8980    -8810    -8672    -8569    -8490 
   -8437    -8414    -8421    -8441    -8476    -8540    -8608    -8657 
   -8704    -8746    -8777    -8804    -8827    -8854    -8881    -8896 
   -8935    -8993    -9046    -9112    -9200    -9285    -9366    -9456 
   -9562    -9672    -9779    -9892   -10014   -10137   -10255   -10366 
  -10480   -10592   -10696   -10798   -10903   -10994   -11074   -11152 
  -11217   -11269   -11311   -11337   -11354   -11362   -11356   -11353 
  -11354   -11349   -11341   -11348   -11369   -11399   -11443   -11511 
  -11596   -11692   -11793   -11893   -11994   -12086   -12151   -12205 
  -12252   -12264   -12254   -12237   -12198   -12143   -12077   -12016 
  -11962   -11907   -11863   -11838   -11820   -11790   -11746   -11689 
  -11615   -11512   -11387   -11242   -11070   -10875   -10674   -10462 
  -10247   -10042    -9852    -9678    -9514    -9360    -9228    -9126 
   -9036    -8959    -8903    -8851    -8808    -8792    -8810    -8854 
   -8937    -9067    -9236    -9429    -9648    -9892   -10152   -10417 
  -10677   -10926   -11159   -11354   -11507   -11619   -11693   -11727 
  -11709   -11654   -11568   -11435   -11269   -11087   -10883   -10654 
  -10400   -10127    -9844    -9539    -9225    -8919    -8607    -8305 
   -8046    -7827    -7650    -7528    -7460    -7449    -7495    -7580 
   -7700    -7855    -8035    -8235    -8453    -8673    -8899    -9135 
   -9369    -9595    -9822   -10052   -10277   -10492   -10689   -10863 
  -11018   -11156   -11265   -11352   -11415   -11460   -11485   -11502 
  -11518   -11539   -11564   -11596   -11646   -11711   -11786   -11880 
  -12000   -12137   -12286   -12455   -12641   -12831   -13028   -13225 
  -13408   -13576   -13733   -13865   -13973   -14046   -14080   -14088 
  -14058   -13990   -13891   -13765   -13598   -13398   -13172   -12921 
  -12645   -12341   -12025   -11708   -11379   -11037   -10698   -10372 
  -10049    -9711    -9378    -9065    -8756    -8449    -8163    -7893 
   -7643    -7408    -7184    -6994    -6839    -6708    -6615    -6558 
   -6535    -6556    -6612    -6694    -6808    -6952    -7121    -7298 
   -7484    -7692    -7911    -8122    -8334    -8559    -8780    -8985 
   -9197    -9421    -9634    -9836   -10033   -10214   -10378   -10534 
  -10667   -10773   -10866   -10939   -10990   -11029   -11067   -11103 
  -11145   -11192   -11244   -11303   -11379   -11470   -11564   -11673 
  -11808   -11958   -12140   -12349   -12569   -12800   -13030   -13259 
  -13483   -13682   -13848   -13980   -14069   -14116   -14122   -14073 
  -13980   -13848   -13678   -13473   -13242   -12995   -12741   -12486 
  -12231   -11983   -11751   -11535   -11329   -11133   -10952   -10773 
  -10596   -10427   -10241   -10030    -9804    -9560    -9292    -9013 
   -8729    -8434    -8148    -7870    -7601    -7364    -7163    -7005 
   -6897    -6840    -6828    -6862    -6947    -7078    -7252    -7474 
   -7742    -8052    -8410    -8811    -9244    -9699   -10162   -10635 
  -11103   -11541   -11937   -12302   -12614   -12862   -13057   -13189 
  -13257   -13271   -13240   -13157   -13032   -12892   -12738   -12571 
  -12403   -12245   -12104   -11988   -11908   -11859   -11840   -11858 
  -11914   -12016   -12155   -12328   -12529   -12752   -12984   -13211 
  -13423   -13618   -13786   -13921   -14007   -14037   -14014   -13948 
  -13833   -13672   -13470   -13240   -12996   -12738   -12478   -12241 
  -12009   -11782   -11583   -11395   -11211   -11049   -10897   -10739 
  -10570   -10399   -10219   -10017    -9803    -9587    -9358    -9123 
   -8905    -8700    -8505    -8334    -8187    -8062    -7966    -7886 
   -7821    -7801    -7827    -7878    -7963    -8089    -8239    -8408 
   -8598    -8785    -8972    -9161    -9332    -9489    -9624    -9717 
   -9778    -9811    -9796    -9738    -9649    -9513    -9331    -9117 
   -8876    -8596    -8289    -8004    -7751    -7503    -7276    -7102 
   -6967    -6860    -6789    -6767    -6804    -6886    -7020    -7215 
   -7464    -7759    -8105    -8487    -8884    -9283    -9695   -10115 
  -10532   -10939   -11330   -11699   -12048   -12383   -12698   -12988 
  -13266   -13527   -13768   -13999   -14222   -14439   -14651   -14846 
  -15021   -15172   -15303   -15410   -15490   -15543   -15566   -15562 
  -15538   -15488   -15418   -15327   -15206   -15070   -14925   -14770 
  -14601   -14422   -14245   -14069   -13879   -13679   -13475   -13263 
  -13049   -12822   -12577   -12316   -12033   -11736   -11441   -11144 
  -10832   -10517   -10218    -9926    -9633    -9339    -9051    -8780 
   -8520    -8267    -8017    -7770    -7539    -7334    -7142    -6960 
   -6809    -6693    -6600    -6525    -6469    -6426    -6389    -6356 
   -6335    -6327    -6331    -6343    -6366    -6407    -6459    -6531 
   -6631    -6755    -6886    -7017    -7160    -7318    -7472    -7622 
   -7773    -7923    -8064    -8194    -8314    -8428    -8537    -8649 
   -8766    -8888    -9009    -9135    -9279    -9435    -9590    -9760 
   -9950   -10150   -10374   -10612   -10852   -11101   -11356   -11618 
  -11878   -12122   -12349   -12567   -12785   -12995   -13193   -13396 
  -13591   -13778   -13957   -14108   -14242   -14370   -14482   -14572 
  -14640   -14675   -14693   -14701   -14685   -14643   -14594   -14531 
  -14446   -14342   -14216   -14080   -13937   -13782   -13620   -13440 
  -13235   -13018   -12796   -12571   -12341   -12108   -11881   -11661 
  -11446   -11233   -11028   -10841   -10670   -10504   -10336   -10161 
   -9983    -9798    -9595    -9386    -9165    -8927    -8696    -8476 
   -8255    -8035    -7820    -7627    -7464    -7302    -7146    -7017 
   -6901    -6785    -6682    -6590    -6508    -6446    -6417    -6427 
   -6480    -6589    -6766    -6982    -7234    -7553    -7940    -8374 
   -8845    -9346    -9873   -10400   -10917   -11439   -11961   -12471 
  -12969   -13425   -13821   -14160   -14427   -14623   -14774   -14882 
  -14926   -14918   -14868   -14770   -14624   -14443   -14229   -13979 
  -13714   -13439   -13149   -12847   -12545   -12252   -11973   -11699 
  -11439   -11206   -10998   -10813   -10656   -10532   -10427   -10339 
  -10281   -10245   -10211   -10184   -10170   -10172   -10180   -10192 
  -10220   -10266   -10326   -10392   -10454   -10516   -10566   -10570 
  -10546   -10500   -10407   -10284   -10139    -9961    -9745    -9497 
   -9235    -8964    -8692    -8424    -8160    -7915    -7708    -7524 
   -7364    -7244    -7165    -7125    -7125    -7149    -7194    -7277 
   -7408    -7580    -7777    -8005    -8262    -8542    -8857    -9201 
   -9559    -9933   -10320   -10710   -11087   -11426   -11726   -11996 
  -12217   -12382   -12501   -12577   -12603   -12573   -12510   -12422 
  -12297   -12143   -11974   -11772   -11520   -11241   -10944   -10635 
  -10318   -10000    -9705    -9444    -9211    -9020    -8889    -8808 
   -8760    -8756    -8808    -8892    -9004    -9167    -9371    -9586 
   -9810   -10050   -10309   -10589   -10893   -11223   -11564   -11907 
  -12241   -12569   -12885   -13167   -13413   -13630   -13798   -13907 
  -13964   -13967   -13919   -13829   -13699   -13535   -13329   -13081 
  -12806   -12511   -12201   -11892   -11599   -11329   -11086   -10881 
  -10721   -10615   -10550   -10516   -10527   -10585   -10675   -10793 
  -10943   -11122   -11321   -11534   -11755   -11969   -12166   -12352 
  -12522   -12657   -12748   -12791   -12803   -12787   -12733   -12645 
  -12529   -12370   -12164   -11916   -11632   -11313   -10948   -10550 
  -10126    -9660    -9154    -8629    -8100    -7580    -7098    -6662 
   -6274    -5948    -5698    -5529    -5435    -5425    -5514    -5689 
   -5953    -6308    -6752    -7277    -7862    -8464    -9066    -9662 
  -10247   -10805   -11331   -11824   -12276   -12677   -13030   -13347 
  -13621   -13838   -14017   -14166   -14281   -14368   -14440   -14499 
  -14534   -14548   -14550   -14534   -14486   -14405   -14303   -14179 
  -14006   -13791   -13560   -13304   -13005   -12665   -12299   -11913 
  -11503   -11090   -10689   -10307    -9945    -9607    -9290    -9003 
   -8754    -8548    -8395    -8305    -8260    -8271    -8348    -8473 
   -8635    -8839    -9080    -9350    -9643    -9945   -10249   -10547 
  -10845   -11142   -11439   -11729   -12004   -12259   -12490   -12698 
  -12880   -13046   -13200   -13336   -13460   -13576   -13659   -13691 
  -13694   -13662   -13585   -13489   -13400   -13311   -13230   -13176 
  -13150   -13153   -13184   -13240   -13325   -13432   -13543   -13649 
  -13745   -13826   -13888   -13932   -13965   -13986   -13969   -13917 
  -13832   -13701   -13527   -13325   -13096   -12838   -12552   -12229 
  -11869   -11466   -11025   -10552   -10053    -9526    -8970    -8401 
   -7836    -7279    -6741    -6242    -5792    -5404    -5077    -4819 
   -4654    -4584    -4600    -4706    -4888    -5142    -5454    -5814 
   -6214    -6633    -7056    -7491    -7928    -8352    -8769    -9177 
   -9571    -9945   -10296   -10629   -10933   -11204   -11449   -11661 
  -11827   -11940   -11990   -11985   -11919   -11785   -11607   -11414 
  -11213   -11001   -10804   -10633   -10477   -10341   -10233   -10149 
  -10083   -10027    -9995    -9988    -9995   -10027   -10095   -10195 
  -10327   -10494   -10696   -10925   -11176   -11445   -11719   -11986 
  -12239   -12467   -12671   -12854   -13008   -13120   -13192   -13223 
  -13197   -13113   -12980   -12807   -12614   -12421   -12225   -12036 
  -11863   -11705   -11577   -11487   -11437   -11439   -11495   -11580 
  -11684   -11800   -11927   -12055   -12174   -12278   -12363   -12433 
  -12478   -12510   -12546   -12584   -12625   -12672   -12727   -12800 
  -12885   -12968   -13032   -13068   -13061   -13004   -12895   -12735 
  -12544   -12336   -12105   -11838   -11547   -11230   -10882   -10517 
  -10152    -9774    -9370    -8951    -8520    -8073    -7611    -7138 
   -6658    -6178    -5688    -5181    -4677    -4178    -3667    -3160 
   -2688    -2254    -1845    -1483    -1179     -928     -738     -604 
    -510     -453     -430     -440     -469     -513     -575     -656 
    -750     -858     -982    -1139    -1331    -1552    -1803    -2092 
   -2423    -2809    -3248    -3728    -4243    -4781    -5347    -5938 
   -6538    -7141    -7763    -8398    -9038    -9690   -10349   -11010 
  -11682   -12359   -13034   -13703   -14347   -14960   -15541   -16067 
  -16524   -16915   -17244   -17512   -17725   -17894   -18030   -18143 
  -18246   -18361   -18488   -18628   -18783   -18952   -19129   -19302 
  -19464   -19626   -19778   -19896   -19985   -20070   -20156   -20245 
  -20352   -20464   -20569   -20663   -20740   -20800   -20833   -20811 
  -20748   -20646   -20484   -20256   -19985   -19661   -19278   -18850 
  -18387   -17895   -17382   -16856   -16324   -15781   -15228   -14667 
  -14100   -13522   -12937   -12344   -11759   -11179   -10589   -10004 
   -9437    -8873    -8316    -7769    -7234    -6710    -6203    -5721 
   -5262    -4820    -4403    -4012    -3657    -3336    -3030    -2731 
   -2450    -2193    -1949    -1718    -1497    -1290    -1112     -966 
    -853     -777     -745     -756     -793     -872    -1012    -1204 
   -1441    -1748    -2120    -2558    -3061    -3628    -4256    -4938 
   -5651    -6386    -7146    -7923    -8698    -9460   -10208   -10937 
  -11624   -12264   -12876   -13463   -14021   -14562   -15097   -15606 
  -16083   -16533   -16958   -17354   -17720   -18057   -18354   -18609 
  -18824   -18995   -19149   -19288   -19387   -19446   -19480   -19489 
  -19485   -19462   -19413   -19336   -19234   -19102   -18931   -18717 
  -18469   -18186   -17864   -17504   -17104   -16669   -16217   -15739 
  -15229   -14712   -14183   -13626   -13049   -12468   -11896   -11313 
  -10702   -10087    -9487    -8889    -8274    -7654    -7047    -6454 
   -5883    -5364    -4920    -4568    -4324    -4164    -4066    -4036 
   -4087    -4205    -4382    -4619    -4923    -5287    -5698    -6158 
   -6670    -7222    -7796    -8359    -8901    -9423    -9919   -10390 
  -10828   -11244   -11651   -12031   -12380   -12719   -13043   -13335 
  -13583   -13782   -13925   -14014   -14061   -14053   -13975   -13838 
  -13656   -13433   -13180   -12910   -12637   -12380   -12147   -11946 
  -11782   -11647   -11527   -11429   -11346   -11267   -11191   -11126 
  -11075   -11032   -10970   -10889   -10794   -10677   -10532   -10362 
  -10181   -10004    -9842    -9695    -9563    -9447    -9348    -9277 
   -9238    -9223    -9216    -9219    -9231    -9236    -9240    -9267 
   -9309    -9362    -9433    -9516    -9587    -9644    -9690    -9732 
   -9776    -9817    -9844    -9868    -9883    -9886    -9887    -9879 
   -9859    -9842    -9834    -9819    -9794    -9765    -9745    -9721 
   -9661    -9570    -9456    -9309    -9134    -8937    -8721    -8487 
   -8241    -7994    -7743    -7480    -7218    -6952    -6679    -6393 
   -6089    -5780    -5472    -5163    -4854    -4568    -4314    -4082 
   -3867    -3684    -3526    -3391    -3291    -3240    -3241    -3298 
   -3420    -3615    -3878    -4220    -4650    -5150    -5706    -6309 
   -6948    -7623    -8319    -9022    -9737   -10467   -11206   -11954 
  -12712   -13477   -14243   -15003   -15751   -16483   -17188   -17861 
  -18516   -19140   -19718   -20252   -20731   -21153   -21511   -21805 
  -22023   -22164   -22218   -22188   -22079   -21887   -21616   -21278 
  -20869   -20382   -19822   -19193   -18507   -17774   -17000   -16198 
  -15387   -14571   -13771   -13005   -12280   -11608   -10998   -10459 
   -9996    -9605    -9289    -9054    -8884    -8754    -8648    -8560 
   -8486    -8413    -8337    -8266    -8182    -8081    -7948    -7792 
   -7619    -7435    -7240    -7038    -6832    -6613    -6389    -6165 
   -5942    -5729    -5535    -5366    -5212    -5063    -4934    -4828 
   -4735    -4665    -4626    -4617    -4645    -4710    -4819    -4989 
   -5216    -5505    -5875    -6319    -6828    -7406    -8046    -8742 
   -9479   -10246   -11047   -11884   -12744   -13630   -14534   -15423 
  -16274   -17076   -17814   -18463   -19016   -19469   -19805   -20007 
  -20074   -20015   -19827   -19529   -19133   -18652   -18095   -17464 
  -16773   -16032   -15242   -14409   -13562   -12706   -11836   -10974 
  -10134    -9319    -8533    -7792    -7109    -6493    -5933    -5421 
   -4968    -4588    -4289    -4074    -3944    -3906    -3947    -4059 
   -4241    -4486    -4789    -5163    -5595    -6054    -6520    -6995 
   -7473    -7940    -8382    -8775    -9107    -9377    -9575    -9703 
   -9775    -9779    -9705    -9575    -9393    -9147    -8845    -8506 
   -8143    -7756    -7348    -6926    -6500    -6076    -5664    -5266 
   -4903    -4592    -4327    -4114    -3975    -3908    -3921    -4043 
   -4253    -4531    -4877    -5282    -5748    -6274    -6856    -7491 
   -8154    -8827    -9518   -10215   -10902   -11577   -12221   -12825 
  -13358   -13806   -14175   -14462   -14677   -14823   -14902   -14925 
  -14905   -14843   -14751   -14640   -14524   -14405   -14292   -14195 
  -14102   -14004   -13914   -13829   -13738   -13647   -13531   -13378 
  -13200   -12988   -12744   -12476   -12167   -11823   -11449   -11044 
  -10636   -10253    -9900    -9566    -9246    -8955    -8684    -8417 
   -8160    -7928    -7713    -7495    -7246    -6949    -6616    -6250 
   -5848    -5425    -4982    -4511    -4041    -3572    -3109    -2688 
   -2308    -1973    -1709    -1503    -1341    -1227    -1159    -1139 
   -1163    -1247    -1390    -1576    -1811    -2114    -2471    -2870 
   -3317    -3821    -4359    -4915    -5463    -5994    -6511    -6997 
   -7442    -7851    -8229    -8583    -8920    -9255    -9591    -9923 
  -10255   -10579   -10889   -11176   -11439   -11691   -11925   -12127 
  -12306   -12451   -12553   -12625   -12660   -12656   -12631   -12592 
  -12552   -12519   -12492   -12484   -12511   -12579   -12680   -12815 
  -12985   -13193   -13427   -13687   -13963   -14229   -14501   -14777 
  -15033   -15287   -15534   -15751   -15943   -16102   -16209   -16264 
  -16264   -16190   -16051   -15847   -15564   -15209   -14806   -14354 
  -13856   -13325   -12772   -12205   -11626   -11039   -10454    -9875 
   -9315    -8787    -8298    -7835    -7402    -7005    -6644    -6305 
   -5989    -5703    -5443    -5208    -4997    -4808    -4649    -4522 
   -4430    -4382    -4365    -4387    -4455    -4575    -4757    -4984 
   -5254    -5576    -5923    -6284    -6666    -7056    -7443    -7840 
   -8233    -8610    -8965    -9292    -9599    -9894   -10164   -10427 
  -10693   -10947   -11196   -11449   -11696   -11954   -12235   -12505 
  -12748   -12974   -13177   -13352   -13502   -13620   -13691   -13726 
  -13722   -13668   -13570   -13428   -13252   -13054   -12826   -12567 
  -12285   -11980   -11659   -11317   -10945   -10565   -10172    -9759 
   -9352    -8951    -8546    -8166    -7830    -7515    -7222    -6966 
   -6751    -6581    -6455    -6384    -6347    -6331    -6347    -6400 
   -6482    -6579    -6678    -6793    -6921    -7036    -7141    -7254 
   -7364    -7482    -7616    -7735    -7859    -8016    -8195    -8404 
   -8641    -8904    -9211    -9560    -9942   -10357   -10795   -11268 
  -11766   -12254   -12730   -13197   -13637   -14042   -14412   -14747 
  -15054   -15337   -15606   -15859   -16090   -16313   -16524   -16721 
  -16908   -17070   -17205   -17328   -17428   -17512   -17586   -17632 
  -17656   -17671   -17670   -17651   -17613   -17552   -17467   -17365 
  -17240   -17090   -16912   -16710   -16464   -16159   -15807   -15417 
  -14983   -14546   -14112   -13680   -13263   -12874   -12511   -12170 
  -11848   -11551   -11288   -11055   -10831   -10608   -10385   -10153 
   -9913    -9670    -9408    -9117    -8823    -8538    -8240    -7924 
   -7609    -7298    -6982    -6655    -6313    -5967    -5621    -5266 
   -4905    -4549    -4200    -3882    -3619    -3404    -3234    -3125 
   -3098    -3159    -3306    -3547    -3874    -4279    -4747    -5243 
   -5767    -6322    -6886    -7468    -8063    -8652    -9219    -9760 
  -10288   -10791   -11246   -11662   -12060   -12436   -12766   -13049 
  -13294   -13522   -13740   -13940   -14123   -14293   -14458   -14640 
  -14840   -15044   -15256   -15465   -15662   -15838   -15981   -16100 
  -16206   -16299   -16378   -16431   -16457   -16457   -16438   -16405 
  -16362   -16295   -16213   -16137   -16058   -15955   -15840   -15735 
  -15641   -15539   -15417   -15282   -15153   -15024   -14899   -14780 
  -14646   -14496   -14338   -14145   -13903   -13618   -13270   -12862 
  -12393   -11844   -11237   -10580    -9882    -9170    -8436    -7670 
   -6918    -6197    -5501    -4847    -4220    -3640    -3152    -2735 
   -2386    -2118    -1922    -1822    -1803    -1863    -2029    -2290 
   -2647    -3095    -3603    -4170    -4788    -5437    -6123    -6836 
   -7539    -8222    -8874    -9478   -10019   -10508   -10953   -11353 
  -11705   -12008   -12266   -12479   -12644   -12779   -12888   -12946 
  -12970   -12968   -12920   -12830   -12699   -12545   -12399   -12275 
  -12164   -12066   -11998   -11977   -11994   -12058   -12175   -12348 
