Origin Time       2016/04/16 01:25:00
Lat.              32.753
Long.             130.762
Depth. (km)       12
Mag.              7.3
Station Code      TTR002
Station Lat.      35.4853
Station Long.     134.2198
Station Height(m) 7
Record Time       2016/04/16 01:26:25
Sampling Freq(Hz) 100Hz
Duration Time(s)  148
Dir.              N-S
Scale Factor      7845(gal)/8223790
Max. Acc. (gal)   4.538
Last Correction   2016/04/16 01:26:26
Memo.             
[...]
    2388     2477     2571     2662     2740     2811     2878     2944 
    3006     3060     3107     3146     3177     3204     3227     3238 
    3246     3249     3241     3231     3221     3202     3172     3140 
    3106     3073     3040     3003     2974     2951     2929     2907 
    2884     2870     2857     2841     2821     2799     2776     2748 
    2713     2673     2620     2556     2492     2420     2340     2250 
    2157     2070     1984     1900     1821     1736     1653     1582 
    1516     1441     1370     1308     1251     1190     1133     1081 
    1032      986      947      915      892      877      872      874 
     888      905      929      961      997     1039     1092     1152 
    1216     1281     1351     1418     1480     1537     1590     1640 
    1686     1729     1773     1818     1857     1888     1917     1948 
    1971     1980     1996     2012     2018     2022     2026     2026 
    2022     2018     2014     2006     2001     2004     2007     2010 
    2019     2031     2042     2057     2081     2102     2118     2133 
    2143     2144     2138     2119     2089     2056     2023     1989 
    1956     1921     1888     1850     1811     1779     1744     1699 
    1656     1618     1578     1534     1495     1457     1416     1375 
    1340     1306     1267     1230     1201     1170     1140     1117 
    1098     1086     1084     1084     1089     1102     1124     1147 
    1166     1183     1201     1208     1215     1223     1229     1237 
    1254     1267     1277     1296     1321     1343     1362     1382 
    1404     1422     1437     1457     1478     1490     1501     1513 
    1520     1521     1521     1521     1518     1509     1501     1498 
    1498     1490     1479     1472     1463     1457     1455     1445 
    1433     1428     1424     1418     1417     1418     1424     1437 
    1460     1489     1517     1553     1602     1652     1702     1755 
    1813     1865     1918     1979     2037     2093     2154     2219 
    2281     2349     2416     2478     2539     2602     2660     2713 
    2766     2821     2872     2920     2967     3013     3049     3080 
    3106     3126     3137     3137     3129     3109     3084     3053 
    3010     2953     2895     2837     2768     2693     2619     2542 
    2459     2377     2299     2219     2137     2057     1981     1907 
    1837     1772     1701     1625     1554     1485     1410     1333 
    1254     1171     1089     1011      929      847      769      691 
     616      549      480      407      337      274      216      164 
     117       75       43       17       -9      -40      -67      -91 
    -116     -139     -163     -191     -214     -232     -255     -280 
    -298     -310     -321     -324     -322     -319     -310     -291 
    -270     -246     -214     -174     -133      -91      -44        1 
      47       97      149      205      263      322      392      477 
     572      676      795      928     1069     1221     1389     1560 
    1733     1912     2095     2282     2469     2654     2844     3037 
    3229     3415     3596     3769     3928     4077     4218     4341 
    4441     4529     4606     4662     4696     4715     4720     4707 
    4683     4644     4580     4502     4413     4299     4174     4040 
    3890     3726     3558     3384     3198     3006     2809     2604 
    2393     2178     1961     1737     1507     1289     1080      868 
     666      484      321      180       56      -52     -137     -206 
    -266     -315     -351     -375     -383     -382     -370     -344 
    -301     -248     -180      -91        5      105      217      332 
     440      546      657      757      846      931     1011     1084 
    1151     1213     1267     1318     1367     1405     1433     1451 
    1464     1475     1479     1474     1466     1459     1451     1440 
    1422     1399     1374     1347     1320     1293     1263     1229 
    1198     1177     1154     1132     1111     1088     1067     1047 
    1019      989      966      947      929      920      913      911 
     916      931      947      967      993     1017     1038     1060 
    1081     1096     1107     1119     1128     1139     1150     1165 
    1179     1197     1224     1255     1291     1339     1391     1449 
    1516     1582     1638     1699     1760     1815     1871     1918 
    1954     1991     2030     2060     2085     2107     2128     2141 
    2144     2144     2137     2118     2096     2070     2042     2011 
    1975     1939     1904     1872     1836     1790     1737     1679 
    1614     1544     1466     1381     1301     1227     1154     1085 
    1034      993      951      922      911      905      909      928 
     953      982     1021     1069     1116     1162     1216     1271 
    1320     1370     1418     1463     1502     1535     1561     1579 
    1593     1606     1615     1621     1626     1634     1647     1664 
    1688     1721     1759     1802     1856     1918     1982     2052 
    2124     2199     2272     2342     2408     2473     2542     2608 
    2664     2714     2762     2801     2830     2851     2863     2860 
    2849     2839     2820     2794     2776     2764     2756     2748 
    2740     2740     2739     2736     2733     2721     2704     2683 
    2659     2629     2596     2558     2519     2485     2454     2423 
    2396     2380     2373     2373     2376     2382     2394     2405 
    2416     2428     2442     2457     2475     2501     2531     2567 
    2609     2647     2690     2739     2782     2821     2860     2893 
    2922     2955     2986     3014     3040     3069     3103     3138 
    3171     3194     3207     3210     3199     3176     3144     3099 
    3048     2994     2941     2884     2822     2763     2708     2635 
    2551     2471     2377     2262     2151     2049     1933     1814 
    1711     1622     1543     1471     1418     1391     1385     1385 
    1398     1439     1489     1533     1593     1679     1771     1852 
    1939     2053     2172     2274     2374     2485     2589     2675 
    2764     2860     2943     3017     3099     3183     3253     3314 
    3380     3446     3497     3542     3586     3615     3630     3638 
    3630     3604     3566     3511     3443     3373     3295     3202 
    3109     3019     2918     2809     2702     2593     2469     2335 
    2200     2057     1899     1740     1583     1420     1259     1105 
     950      799      664      540      425      318      221      143 
      74        4      -56     -101     -140     -182     -220     -252 
    -283     -313     -341     -365     -383     -403     -422     -437 
    -453     -475     -491     -511     -542     -576     -614     -656 
    -704     -758     -812     -866     -927     -989    -1048    -1116 
   -1179    -1227    -1267    -1304    -1323    -1325    -1321    -1310 
   -1286    -1246    -1196    -1139    -1073     -993     -901     -801 
    -688     -561     -425     -287     -137       22      189      357 
     529      702      876     1042     1208     1370     1525     1672 
    1806     1930     2058     2172     2263     2357     2451     2535 
    2612     2693     2767     2828     2887     2945     2994     3042 
    3094     3141     3184     3232     3279     3317     3348     3375 
    3391     3393     3384     3357     3321     3276     3219     3146 
    3065     2983     2894     2798     2700     2602     2497     2392 
    2292     2181     2061     1948     1837     1721     1609     1499 
    1387     1279     1183     1096     1013      938      870      811 
     761      715      675      641      611      581      560      544 
     526      513      506      511      521      537      553      577 
     604      631      660      691      724      766      816      866 
     915      973     1039     1104     1165     1228     1296     1359 
    1414     1467     1516     1552     1575     1591     1601     1599 
    1583     1556     1525     1490     1445     1390     1329     1263 
    1190     1115     1034      943      853      772      696      626 
     566      523      498      486      484      496      525      558 
     598      639      679      708      737      777      826      864 
     885      899      919      943      966      993     1020     1046 
    1070     1098     1128     1155     1183     1219     1251     1275 
    1300     1327     1343     1343     1339     1334     1320     1300 
    1282     1258     1237     1232     1225     1225     1240     1266 
    1300     1343     1383     1424     1475     1534     1586     1630 
    1679     1729     1773     1813     1849     1887     1918     1948 
    1980     2012     2042     2066     2081     2098     2116     2126 
    2130     2138     2146     2144     2141     2139     2139     2134 
    2126     2111     2091     2061     2012     1949     1877     1787 
    1682     1568     1448     1324     1202     1085      977      885 
     804      731      670      626      594      571      561      564 
     579      606      652      711      766      830      903      972 
    1039     1111     1177     1240     1305     1364     1421     1479 
    1540     1599     1657     1713     1767     1819     1869     1917 
    1956     1988     2014     2030     2039     2043     2038     2023 
    2007     1989     1966     1945     1922     1894     1863     1833 
    1799     1771     1749     1728     1711     1707     1703     1707 
    1722     1732     1746     1773     1802     1830     1865     1904 
    1945     1982     2020     2062     2101     2141     2181     2223 
    2269     2319     2367     2416     2461     2498     2543     2589 
    2627     2664     2701     2736     2782     2829     2857     2886 
    2928     2960     2972     2986     3005     3009     2999     2991 
    2978     2949     2914     2878     2832     2781     2732     2682 
    2632     2590     2562     2546     2536     2536     2546     2562 
    2581     2604     2627     2650     2673     2694     2714     2736 
    2755     2774     2797     2822     2848     2872     2894     2915 
    2932     2940     2948     2949     2943     2936     2928     2913 
    2895     2871     2837     2798     2751     2697     2635     2570 
    2502     2435     2366     2296     2227     2160     2091     2026 
    1971     1911     1848     1799     1761     1714     1665     1630 
    1598     1556     1517     1486     1453     1421     1397     1374 
    1351     1334     1318     1310     1314     1320     1324     1334 
    1348     1360     1378     1398     1416     1443     1482     1522 
    1568     1624     1690     1760     1837     1923     2015     2119 
    2231     2336     2439     2548     2658     2754     2847     2937 
    3014     3084     3154     3213     3273     3339     3397     3450 
    3500     3543     3581     3612     3634     3646     3649     3651 
    3653     3651     3645     3639     3634     3630     3623     3618 
    3609     3607     3605     3597     3588     3577     3566     3554 
    3538     3518     3497     3470     3435     3393     3341     3275 
    3199     3115     3030     2948     2866     2775     2686     2602 
    2528     2451     2370     2292     2211     2119     2031     1948 
    1857     1759     1665     1583     1509     1433     1366     1306 
    1248     1200     1158     1112     1073     1046     1023      999 
     973      953      943      949      962      977      993     1024 
    1065     1107     1154     1210     1270     1324     1383     1455 
    1528     1602     1686     1780     1878     1975     2077     2176 
    2263     2344     2419     2485     2550     2609     2660     2705 
    2749     2786     2818     2852     2882     2907     2936     2972 
    3013     3056     3099     3148     3194     3242     3292     3342 
    3391     3443     3495     3544     3599     3649     3686     3719 
    3748     3771     3793     3811     3817     3828     3846     3852 
    3851     3854     3865     3869     3869     3875     3879     3882 
    3890     3898     3909     3927     3948     3973     3996     4024 
    4055     4085     4109     4135     4155     4175     4197     4218 
    4233     4248     4266     4274     4278     4283     4287     4291 
    4298     4305     4313     4321     4329     4327     4314     4297 
    4279     4261     4240     4207     4175     4148     4116     4081 
    4050     4009     3958     3904     3840     3765     3685     3592 
    3488     3381     3272     3150     3022     2890     2752     2609 
    2459     2303     2143     1982     1817     1647     1474     1298 
    1124      946      761      581      409      230       52     -122 
    -306     -487     -666     -846    -1024    -1197    -1367    -1534 
   -1690    -1829    -1956    -2070    -2170    -2257    -2323    -2376 
   -2417    -2442    -2457    -2469    -2467    -2455    -2439    -2417 
   -2386    -2346    -2293    -2232    -2166    -2084    -1981    -1868 
   -1755    -1636    -1499    -1347    -1192    -1030     -853     -669 
    -480     -284      -82      129      349      566      791     1024 
    1262     1501     1744     1993     2242     2484     2732     2986 
    3225     3457     3690     3915     4129     4344     4545     4735 
    4923     5111     5292     5467     5632     5786     5926     6054 
    6173     6274     6355     6417     6459     6486     6498     6496 
    6480     6453     6420     6381     6335     6285     6226     6158 
    6091     6010     5915     5814     5699     5564     5414     5248 
    5060     4851     4633     4401     4149     3889     3624     3349 
    3068     2792     2509     2218     1937     1660     1381     1111 
     851      599      353      114     -114     -330     -540     -741 
    -924    -1101    -1269    -1417    -1544    -1661    -1765    -1850 
   -1922    -1980    -2025    -2061    -2081    -2085    -2089    -2088 
   -2084    -2070    -2047    -2022    -1987    -1933    -1867    -1784 
   -1682    -1561    -1426    -1270    -1096     -912     -715     -513 
    -306     -102       95      287      468      646      814      970 
    1125     1285     1443     1605     1769     1933     2098     2269 
    2438     2602     2764     2917     3063     3203     3330     3438 
    3538     3626     3696     3757     3811     3856     3892     3919 
    3948     3973     3989     4003     4014     4017     4016     4002 
    3979     3948     3910     3863     3807     3740     3658     3562 
    3457     3343     3225     3095     2960     2837     2725     2616 
    2517     2430     2355     2293     2239     2196     2158     2128 
    2110     2098     2093     2093     2100     2116     2135     2153 
    2174     2208     2251     2295     2335     2378     2421     2457 
    2485     2517     2544     2556     2565     2571     2567     2559 
    2546     2519     2482     2442     2396     2342     2285     2224 
    2158     2088     2018     1942     1852     1759     1667     1570 
    1472     1377     1275     1173     1073      977      882      788 
     695      606      521      440      359      282      216      153 
      94       39      -16      -67     -106     -141     -174     -205 
    -224     -222     -211     -202     -187     -156     -116      -72 
     -20       43      110      182      257      338      425      515 
     606      699      795      889      984     1069     1151     1235 
    1312     1377     1440     1501     1557     1613     1667     1718 
    1767     1811     1859     1908     1952     1992     2033     2079 
    2121     2157     2185     2214     2247     2280     2312     2342 
    2367     2400     2436     2474     2520     2563     2593     2620 
    2650     2669     2679     2697     2717     2727     2725     2720 
    2710     2697     2687     2674     2651     2627     2605     2573 
    2528     2485     2439     2380     2312     2242     2165     2073 
    1968     1857     1745     1629     1506     1378     1251     1128 
    1007      886      770      665      565      461      363      274 
     180       78      -16      -98     -191     -299     -413     -526 
    -635     -745     -868     -989    -1098    -1212    -1328    -1429 
   -1517    -1611    -1702    -1772    -1831    -1902    -1980    -2037 
   -2070    -2110    -2158    -2196    -2222    -2243    -2257    -2251 
   -2226    -2192    -2157    -2110    -2039    -1948    -1842    -1726 
   -1594    -1448    -1294    -1133     -972     -801     -619     -433 
    -241      -43      155      353      557      758      962     1175 
    1386     1587     1779     1960     2137     2307     2466     2613 
    2745     2863     2974     3059     3113     3150     3177     3184 
    3165     3126     3075     3006     2906     2787     2667     2538 
    2385     2207     2026     1849     1667     1476     1293     1109 
     918      733      562      403      251      106      -18     -124 
    -218     -301     -360     -395     -421     -422     -398     -364 
    -325     -272     -198     -112      -31       52      136      218 
     303      387      454      513      573      631      687      739 
     791      835      880      923      967     1009     1039     1069 
    1093     1107     1115     1119     1116     1113     1112     1104 
    1092     1080     1062     1038     1011      972      919      864 
     804      735      658      577      496      415      341      275 
     203      125       52      -13      -82     -155     -221     -278 
    -319     -352     -373     -376     -359     -319     -263     -193 
    -103       -1      109      240      387      532      687      858 
    1047     1247     1449     1651     1854     2066     2277     2482 
    2687     2879     3065     3248     3414     3562     3705     3836 
    3954     4059     4156     4238     4303     4355     4388     4403 
    4403     4386     4352     4306     4247     4178     4097     4005 
    3906     3793     3669     3541     3397     3241     3082     2913 
    2731     2543     2358     2172     1984     1796     1615     1441 
    1271     1105      942      780      623      475      325      183 
      52      -74     -193     -298     -391     -476     -550     -610 
    -662     -711     -749     -772     -788     -808     -826     -832 
    -828     -830     -834     -831     -831     -835     -834     -832 
    -835     -838     -838     -834     -826     -820     -808     -787 
    -766     -743     -711     -673     -634     -587     -540     -495 
    -442     -387     -336     -283     -229     -180     -125      -60 
       1       64      125      184      244      306      372      441 
     506      571      648      737      816      884      953     1030 
    1107     1183     1262     1341     1420     1497     1583     1680 
    1784     1898     2020     2143     2270     2403     2540     2685 
    2836     2983     3122     3258     3396     3534     3672     3807 
    3936     4055     4164     4271     4367     4441     4506     4567 
    4610     4641     4662     4668     4661     4646     4618     4572 
    4515     4453     4380     4288     4191     4085     3964     3842 
