Origin Time       2016/04/16 01:25:00
Lat.              32.753
Long.             130.762
Depth. (km)       12
Mag.              7.3
Station Code      TTR003
Station Lat.      35.3432
Station Long.     134.2075
Station Height(m) 85
Record Time       2016/04/16 01:27:11
Sampling Freq(Hz) 100Hz
Duration Time(s)  60
Dir.              N-S
Scale Factor      7845(gal)/8223790
Max. Acc. (gal)   1.900
Last Correction   2016/04/16 01:27:12
Memo.             
[...]
   -3230    -3244    -3264    -3294    -3329    -3360    -3388    -3419 
   -3439    -3450    -3462    -3474    -3483    -3487    -3492    -3488 
   -3468    -3435    -3392    -3336    -3280    -3226    -3177    -3142 
   -3126    -3123    -3130    -3152    -3184    -3225    -3264    -3300 
   -3343    -3381    -3411    -3440    -3472    -3496    -3510    -3511 
   -3511    -3507    -3497    -3487    -3474    -3459    -3440    -3415 
   -3387    -3357    -3326    -3299    -3281    -3272    -3279    -3300 
   -3330    -3369    -3416    -3462    -3501    -3530    -3555    -3574 
   -3582    -3576    -3557    -3530    -3492    -3442    -3384    -3330 
   -3281    -3238    -3210    -3200    -3202    -3211    -3222    -3232 
   -3246    -3257    -3260    -3265    -3275    -3289    -3311    -3338 
   -3373    -3414    -3450    -3481    -3511    -3541    -3558    -3570 
   -3588    -3604    -3612    -3620    -3634    -3642    -3636    -3623 
   -3601    -3568    -3534    -3496    -3457    -3433    -3427    -3422 
   -3422    -3433    -3446    -3459    -3476    -3496    -3516    -3532 
   -3544    -3549    -3544    -3532    -3511    -3483    -3449    -3419 
   -3388    -3354    -3329    -3314    -3303    -3295    -3296    -3308 
   -3330    -3360    -3397    -3445    -3496    -3543    -3585    -3619 
   -3643    -3653    -3653    -3642    -3627    -3607    -3582    -3557 
   -3535    -3518    -3496    -3473    -3456    -3443    -3430    -3412 
   -3397    -3385    -3372    -3361    -3353    -3355    -3368    -3381 
   -3399    -3426    -3454    -3481    -3510    -3538    -3561    -3573 
   -3574    -3566    -3547    -3518    -3480    -3440    -3404    -3373 
   -3345    -3322    -3304    -3288    -3275    -3261    -3252    -3249 
   -3241    -3229    -3231    -3246    -3265    -3292    -3331    -3381 
   -3431    -3474    -3514    -3543    -3558    -3555    -3538    -3511 
   -3480    -3440    -3395    -3348    -3296    -3246    -3191    -3141 
   -3111    -3098    -3090    -3095    -3121    -3156    -3194    -3234 
   -3276    -3317    -3360    -3404    -3454    -3511    -3574    -3634 
   -3692    -3742    -3782    -3801    -3793    -3761    -3711    -3632 
   -3532    -3429    -3325    -3226    -3141    -3071    -3021    -2992 
   -2982    -2984    -3001    -3026    -3052    -3080    -3113    -3149 
   -3186    -3222    -3260    -3294    -3317    -3334    -3339    -3343 
   -3350    -3357    -3361    -3362    -3366    -3368    -3362    -3352 
   -3341    -3333    -3335    -3353    -3381    -3416    -3450    -3472 
   -3483    -3484    -3465    -3434    -3410    -3392    -3375    -3366 
   -3376    -3396    -3426    -3456    -3477    -3495    -3504    -3495 
   -3470    -3446    -3418    -3387    -3364    -3350    -3348    -3360 
   -3380    -3404    -3434    -3468    -3496    -3520    -3547    -3574 
   -3591    -3597    -3601    -3603    -3593    -3580    -3570    -3561 
   -3550    -3538    -3520    -3500    -3480    -3453    -3420    -3391 
   -3366    -3349    -3342    -3343    -3355    -3380    -3410    -3440 
   -3474    -3505    -3530    -3550    -3569    -3581    -3581    -3572 
   -3557    -3541    -3524    -3510    -3499    -3497    -3496    -3489 
   -3478    -3464    -3443    -3412    -3375    -3343    -3316    -3284 
   -3260    -3248    -3241    -3245    -3260    -3280    -3310    -3345 
   -3383    -3422    -3462    -3497    -3528    -3553    -3572    -3591 
   -3603    -3611    -3618    -3624    -3630    -3630    -3623    -3613 
   -3596    -3570    -3539    -3507    -3472    -3430    -3392    -3364 
   -3341    -3325    -3316    -3319    -3329    -3341    -3353    -3365 
   -3377    -3385    -3397    -3416    -3442    -3474    -3510    -3542 
   -3573    -3600    -3613    -3611    -3596    -3578    -3549    -3511 
   -3477    -3449    -3416    -3380    -3350    -3330    -3314    -3310 
   -3319    -3341    -3379    -3429    -3474    -3516    -3553    -3577 
   -3586    -3580    -3562    -3534    -3487    -3434    -3387    -3339 
   -3287    -3240    -3204    -3171    -3137    -3109    -3087    -3076 
   -3078    -3090    -3118    -3161    -3213    -3267    -3325    -3387 
   -3440    -3488    -3526    -3550    -3563    -3563    -3544    -3516 
   -3483    -3443    -3404    -3375    -3357    -3354    -3361    -3380 
   -3411    -3445    -3476    -3503    -3528    -3554    -3574    -3584 
   -3586    -3586    -3576    -3551    -3524    -3495    -3459    -3423 
   -3392    -3366    -3349    -3336    -3322    -3310    -3304    -3306 
   -3307    -3321    -3345    -3372    -3402    -3442    -3484    -3523 
   -3555    -3582    -3604    -3622    -3627    -3622    -3612    -3597 
   -3569    -3532    -3495    -3457    -3419    -3384    -3360    -3348 
   -3349    -3358    -3380    -3412    -3456    -3500    -3546    -3586 
   -3626    -3655    -3672    -3681    -3681    -3665    -3634    -3600 
   -3570    -3542    -3519    -3503    -3496    -3500    -3507    -3511 
   -3526    -3546    -3562    -3584    -3609    -3634    -3661    -3690 
   -3716    -3736    -3750    -3750    -3736    -3713    -3686    -3647 
   -3600    -3549    -3499    -3447    -3393    -3338    -3287    -3242 
   -3206    -3177    -3168    -3179    -3200    -3234    -3280    -3334 
   -3395    -3457    -3514    -3570    -3627    -3682    -3727    -3757 
   -3781    -3789    -3782    -3769    -3750    -3724    -3686    -3634 
   -3574    -3505    -3427    -3339    -3260    -3194    -3138    -3100 
   -3090    -3096    -3109    -3125    -3146    -3169    -3187    -3199 
   -3213    -3231    -3260    -3296    -3334    -3372    -3407    -3438 
   -3466    -3496    -3528    -3561    -3588    -3612    -3631    -3639 
   -3636    -3618    -3582    -3539    -3477    -3396    -3312    -3235 
   -3160    -3090    -3038    -3005    -2984    -2974    -2979    -3002 
   -3040    -3088    -3149    -3217    -3287    -3353    -3406    -3442 
   -3468    -3477    -3468    -3450    -3427    -3391    -3343    -3289 
   -3234    -3173    -3105    -3028    -2951    -2878    -2810    -2752 
   -2710    -2690    -2691    -2714    -2766    -2843    -2933    -3033 
   -3132    -3221    -3296    -3360    -3410    -3449    -3477    -3497 
   -3511    -3518    -3516    -3503    -3474    -3433    -3381    -3326 
   -3268    -3211    -3167    -3132    -3092    -3055    -3034    -3026 
   -3028    -3046    -3083    -3129    -3180    -3241    -3303    -3364 
   -3423    -3472    -3510    -3544    -3574    -3589    -3592    -3589 
   -3580    -3562    -3543    -3524    -3505    -3489    -3468    -3440 
   -3412    -3380    -3345    -3316    -3298    -3292    -3304    -3329 
   -3365    -3418    -3470    -3520    -3574    -3624    -3663    -3690 
   -3708    -3719    -3721    -3711    -3684    -3647    -3601    -3549 
   -3492    -3434    -3372    -3311    -3248    -3186    -3134    -3096 
   -3064    -3044    -3052    -3082    -3123    -3183    -3260    -3349 
   -3442    -3537    -3624    -3704    -3773    -3825    -3863    -3886 
   -3886    -3863    -3820    -3757    -3677    -3581    -3478    -3373 
   -3275    -3187    -3111    -3051    -3013    -2995    -2990    -2997 
   -3018    -3057    -3106    -3165    -3240    -3319    -3400    -3480 
   -3561    -3640    -3713    -3775    -3827    -3869    -3893    -3901 
   -3890    -3863    -3820    -3751    -3662    -3568    -3478    -3396 
   -3329    -3279    -3244    -3221    -3208    -3208    -3226    -3262 
   -3314    -3380    -3459    -3542    -3618    -3684    -3738    -3780 
   -3808    -3820    -3825    -3827    -3819    -3800    -3773    -3736 
   -3684    -3622    -3549    -3473    -3399    -3333    -3276    -3231 
   -3207    -3204    -3213    -3226    -3248    -3276    -3303    -3329 
   -3352    -3365    -3373    -3377    -3383    -3391    -3397    -3400 
   -3397    -3395    -3388    -3379    -3361    -3343    -3322    -3296 
   -3268    -3235    -3199    -3163    -3132    -3107    -3092    -3098 
   -3117    -3144    -3183    -3230    -3276    -3322    -3366    -3407 
   -3439    -3468    -3492    -3511    -3520    -3520    -3511    -3491 
   -3457    -3411    -3357    -3299    -3245    -3198    -3164    -3144 
   -3140    -3146    -3153    -3163    -3175    -3190    -3207    -3232 
   -3271    -3317    -3369    -3429    -3491    -3551    -3603    -3640 
   -3666    -3676    -3673    -3658    -3634    -3612    -3588    -3555 
   -3527    -3503    -3476    -3451    -3433    -3422    -3423    -3429 
   -3435    -3445    -3454    -3461    -3464    -3468    -3476    -3485 
   -3492    -3503    -3518    -3542    -3573    -3611    -3658    -3711 
   -3761    -3801    -3832    -3852    -3847    -3817    -3770    -3709 
   -3642    -3572    -3503    -3443    -3400    -3364    -3330    -3303 
   -3279    -3258    -3242    -3226    -3213    -3206    -3199    -3199 
   -3211    -3237    -3269    -3311    -3368    -3434    -3500    -3562 
   -3620    -3678    -3731    -3773    -3804    -3831    -3838    -3824 
   -3801    -3770    -3728    -3690    -3661    -3636    -3620    -3613 
   -3611    -3608    -3615    -3630    -3649    -3670    -3703    -3742 
   -3784    -3823    -3861    -3893    -3920    -3932    -3937    -3937 
   -3935    -3921    -3901    -3880    -3855    -3819    -3775    -3728 
   -3677    -3624    -3574    -3530    -3485    -3446    -3414    -3379 
   -3353    -3339    -3333    -3333    -3339    -3354    -3369    -3388 
   -3416    -3453    -3495    -3539    -3589    -3649    -3708    -3762 
   -3817    -3870    -3910    -3937    -3956    -3959    -3944    -3912 
   -3863    -3801    -3736    -3673    -3609    -3550    -3500    -3457 
   -3414    -3379    -3355    -3343    -3348    -3375    -3427    -3495 
   -3573    -3653    -3730    -3802    -3867    -3917    -3956    -3993 
   -4017    -4025    -4024    -4017    -4005    -3987    -3970    -3955 
   -3948    -3944    -3944    -3942    -3944    -3951    -3954    -3951 
   -3958    -3970    -3983    -4008    -4050    -4104    -4159    -4213 
   -4260    -4299    -4333    -4356    -4371    -4386    -4396    -4402 
   -4405    -4410    -4414    -4413    -4405    -4393    -4382    -4365 
   -4342    -4320    -4301    -4284    -4270    -4252    -4233    -4220 
   -4207    -4192    -4178    -4167    -4159    -4152    -4149    -4159 
   -4182    -4202    -4215    -4223    -4222    -4205    -4178    -4153 
   -4125    -4102    -4090    -4088    -4104    -4129    -4159    -4194 
   -4225    -4247    -4245    -4228    -4202    -4170    -4135    -4101 
   -4068    -4036    -3997    -3946    -3883    -3805    -3719    -3632 
   -3551    -3481    -3426    -3381    -3343    -3314    -3284    -3245 
   -3203    -3165    -3127    -3088    -3053    -3024    -2999    -2975 
   -2949    -2921    -2898    -2884    -2874    -2868    -2872    -2880 
   -2887    -2893    -2896    -2894    -2886    -2870    -2844    -2816 
   -2779    -2727    -2664    -2602    -2535    -2461    -2392    -2335 
   -2289    -2250    -2215    -2187    -2154    -2116    -2074    -2029 
   -1984    -1939    -1896    -1861    -1842    -1838    -1849    -1875 
   -1917    -1972    -2038    -2111    -2189    -2273    -2363    -2444 
   -2521    -2597    -2663    -2717    -2764    -2805    -2839    -2872 
   -2910    -2953    -3003    -3063    -3122    -3176    -3225    -3260 
   -3277    -3281    -3277    -3262    -3234    -3199    -3156    -3106 
   -3052    -2991    -2928    -2863    -2803    -2752    -2720    -2705 
   -2702    -2710    -2728    -2748    -2764    -2772    -2775    -2776 
   -2783    -2801    -2829    -2872    -2937    -3011    -3086    -3160 
   -3230    -3289    -3333    -3360    -3377    -3391    -3395    -3392 
   -3381    -3364    -3331    -3283    -3222    -3153    -3079    -3007 
   -2945    -2889    -2843    -2802    -2755    -2695    -2625    -2542 
   -2442    -2340    -2245    -2161    -2085    -2030    -2000    -1987 
   -1987    -2004    -2043    -2100    -2166    -2243    -2330    -2417 
   -2497    -2569    -2636    -2702    -2767    -2836    -2911    -2991 
   -3075    -3156    -3235    -3311    -3376    -3429    -3468    -3489 
   -3497    -3492    -3476    -3446    -3411    -3376    -3342    -3312 
   -3289    -3275    -3269    -3268    -3276    -3302    -3335    -3373 
   -3415    -3453    -3483    -3499    -3497    -3481    -3443    -3383 
   -3303    -3206    -3100    -3001    -2906    -2822    -2759    -2724 
   -2710    -2724    -2771    -2844    -2934    -3037    -3148    -3260 
   -3362    -3454    -3532    -3593    -3634    -3657    -3670    -3681 
   -3693    -3711    -3738    -3778    -3817    -3850    -3878    -3905 
   -3923    -3939    -3954    -3962    -3978    -4000    -4016    -4040 
   -4069    -4095    -4118    -4139    -4156    -4167    -4168    -4167 
   -4170    -4187    -4220    -4270    -4344    -4444    -4548    -4645 
   -4737    -4811    -4850    -4854    -4831    -4791    -4746    -4703 
   -4669    -4660    -4675    -4702    -4734    -4769    -4799    -4820 
   -4830    -4833    -4831    -4834    -4843    -4861    -4891    -4934 
   -4981    -5034    -5092    -5151    -5206    -5251    -5285    -5309 
   -5313    -5292    -5251    -5189    -5097    -4982    -4858    -4730 
   -4603    -4491    -4403    -4345    -4321    -4327    -4364    -4422 
   -4492    -4572    -4657    -4741    -4826    -4914    -4996    -5073 
   -5142    -5200    -5246    -5275    -5289    -5298    -5302    -5298 
   -5282    -5256    -5217    -5162    -5093    -5019    -4942    -4873 
   -4810    -4762    -4741    -4738    -4750    -4783    -4831    -4899 
   -4974    -5050    -5131    -5211    -5275    -5327    -5366    -5390 
   -5393    -5374    -5332    -5273    -5197    -5098    -4982    -4852 
   -4714    -4571    -4430    -4295    -4178    -4082    -4006    -3955 
   -3929    -3924    -3936    -3964    -4012    -4074    -4143    -4210 
   -4270    -4314    -4338    -4330    -4291    -4228    -4143    -4032 
   -3908    -3789    -3667    -3541    -3418    -3300    -3173    -3044 
   -2910    -2763    -2612    -2466    -2316    -2176    -2058    -1958 
   -1883    -1838    -1822    -1833    -1871    -1933    -2018    -2123 
   -2245    -2369    -2494    -2614    -2717    -2797    -2848    -2876 
   -2882    -2863    -2822    -2771    -2712    -2644    -2581    -2529 
   -2493    -2477    -2482    -2506    -2552    -2612    -2674    -2740 
   -2817    -2891    -2960    -3028    -3090    -3146    -3198    -3245 
   -3284    -3322    -3357    -3380    -3400    -3416    -3411    -3387 
   -3355    -3319    -3279    -3240    -3213    -3203    -3204    -3226 
   -3268    -3322    -3384    -3454    -3524    -3592    -3657    -3704 
   -3731    -3743    -3738    -3711    -3666    -3601    -3523    -3435 
   -3341    -3246    -3152    -3064    -2980    -2894    -2818    -2759 
   -2714    -2683    -2674    -2687    -2721    -2768    -2825    -2889 
   -2956    -3024    -3095    -3169    -3248    -3331    -3414    -3495 
   -3572    -3628    -3661    -3672    -3659    -3619    -3559    -3492 
   -3424    -3361    -3300    -3242    -3188    -3138    -3082    -3021 
   -2961    -2901    -2841    -2790    -2749    -2721    -2701    -2686 
   -2677    -2668    -2658    -2636    -2602    -2565    -2527    -2481 
   -2432    -2388    -2347    -2313    -2288    -2277    -2286    -2307 
   -2338    -2384    -2432    -2482    -2528    -2569    -2612    -2663 
   -2717    -2783    -2870    -2976    -3090    -3198    -3295    -3380 
   -3440    -3476    -3491    -3487    -3473    -3461    -3445    -3424 
   -3415    -3410    -3403    -3397    -3387    -3372    -3352    -3319 
   -3280    -3232    -3176    -3109    -3034    -2963    -2902    -2851 
   -2818    -2817    -2840    -2878    -2926    -2983    -3041    -3092 
   -3137    -3176    -3213    -3248    -3275    -3300    -3329    -3346 
   -3357    -3365    -3364    -3357    -3342    -3319    -3296    -3277 
   -3253    -3234    -3226    -3222    -3223    -3226    -3230    -3244 
   -3264    -3284    -3308    -3333    -3352    -3361    -3357    -3348 
   -3331    -3307    -3280    -3258    -3240    -3222    -3207    -3190 
   -3171    -3153    -3130    -3109    -3095    -3088    -3083    -3076 
   -3069    -3059    -3040    -3011    -2984    -2957    -2926    -2903 
   -2889    -2882    -2890    -2906    -2925    -2945    -2967    -2990 
   -3014    -3036    -3065    -3105    -3145    -3183    -3219    -3245 
   -3260    -3260    -3241    -3206    -3156    -3088    -3017    -2938 
   -2851    -2751    -2644    -2527    -2393    -2241    -2079    -1921 
   -1772    -1645    -1551    -1485    -1447    -1431    -1429    -1435 
   -1448    -1463    -1483    -1514    -1563    -1632    -1719    -1823 
   -1942    -2070    -2204    -2336    -2463    -2593    -2713    -2813 
   -2901    -2975    -3024    -3052    -3061    -3052    -3026    -2986 
   -2930    -2868    -2801    -2731    -2658    -2593    -2539    -2492 
   -2461    -2448    -2447    -2457    -2467    -2473    -2470    -2461 
   -2442    -2424    -2415    -2415    -2420    -2432    -2447    -2459 
   -2465    -2461    -2450    -2435    -2409    -2367    -2311    -2238 
   -2146    -2043    -1937    -1836    -1748    -1682    -1645    -1640 
   -1663    -1702    -1752    -1811    -1873    -1937    -1992    -2037 
   -2076    -2110    -2126    -2126    -2128    -2126    -2123    -2126 
   -2146    -2176    -2215    -2267    -2323    -2380    -2436    -2493 
   -2550    -2605    -2656    -2702    -2748    -2795    -2836    -2870 
   -2896    -2906    -2896    -2862    -2794    -2694    -2570    -2420 
   -2254    -2083    -1923    -1791    -1694    -1634    -1621    -1649 
   -1709    -1791    -1892    -2007    -2128    -2253    -2384    -2519 
   -2648    -2759    -2849    -2915    -2955    -2971    -2971    -2963 
   -2955    -2952    -2957    -2975    -3002    -3036    -3071    -3107 
   -3150    -3199    -3245    -3289    -3341    -3395    -3445    -3491 
   -3539    -3597    -3659    -3713    -3759    -3793    -3805    -3782 
   -3724    -3639    -3532    -3407    -3271    -3132    -3002    -2879 
   -2763    -2664    -2590    -2543    -2525    -2535    -2570    -2631 
   -2701    -2775    -2855    -2930    -2999    -3057    -3102    -3136 
   -3159    -3160    -3144    -3117    -3071    -3009    -2943    -2867 
   -2786    -2704    -2628    -2558    -2500    -2452    -2417    -2392 
   -2376    -2370    -2367    -2359    -2350    -2335    -2315    -2295 
   -2274    -2263    -2272    -2293    -2326    -2370    -2416    -2446 
   -2457    -2448    -2415    -2358    -2293    -2222    -2143    -2068 
   -2011    -1969    -1944    -1935    -1939    -1949    -1973    -2006 
   -2034    -2064    -2110    -2163    -2227    -2312    -2416    -2533 
   -2662    -2795    -2933    -3069    -3194    -3306    -3400    -3472 
   -3514    -3532    -3530    -3510    -3474    -3427    -3369    -3311 
   -3256    -3199    -3142    -3090    -3037    -2992    -2956    -2926 
   -2914    -2925    -2953    -3002    -3080    -3188    -3314    -3449 
   -3592    -3738    -3869    -3978    -4071    -4145    -4189    -4199 
   -4189    -4158    -4109    -4050    -3987    -3931    -3894    -3875 
   -3878    -3905    -3951    -4016    -4091    -4159    -4228    -4297 
   -4338    -4357    -4364    -4353    -4321    -4270    -4202    -4121 
   -4028    -3916    -3794    -3673    -3543    -3412    -3299    -3199 
   -3111    -3046    -3003    -2972    -2953    -2947    -2948    -2956 
