Origin Time       2016/04/16 01:25:00
Lat.              32.753
Long.             130.762
Depth. (km)       12
Mag.              7.3
Station Code      TTR007
Station Lat.      35.2826
Station Long.     133.4876
Station Height(m) 155
Record Time       2016/04/16 01:26:53
Sampling Freq(Hz) 100Hz
Duration Time(s)  66
Dir.              N-S
Scale Factor      7845(gal)/8223790
Max. Acc. (gal)   2.168
Last Correction   2016/04/16 01:26:38
Memo.             
[...]
    1096     1101     1107     1102     1080     1039      977      890 
     789      672      548      429      318      218      129       65 
      29       20       32       67      129      214      319      437 
     550      652      734      793      837      870      897      918 
     923      911      880      832      761      660      540      417 
     291      176       93       43       28       51      103      178 
     257      336      413      492      571      641      700      751 
     789      820      846      864      876      877      857      820 
     773      718      665      619      575      530      487      433 
     368      303      241      183      147      133      129      133 
     148      170      193      216      236      246      248      255 
     271      289      318      357      400      449      499      545 
     576      592      594      575      540      503      460      425 
     403      394      399      425      468      514      557      588 
     611      639      673      718      778      853      929      993 
    1026     1026      992      923      830      730      630      540 
     469      419      394      390      400      421      438      451 
     467      481      504      548      610      687      777      864 
     942     1000     1030     1024      987      924      838      741 
     634      532      437      344      256      180      116       68 
      39       28       39       70      112      163      221      282 
     344      400      445      492      546      600      653      702 
     739      762      770      758      733      695      649      600 
     544      480      407      326      236      143       54      -29 
    -108     -168     -205     -220     -210     -170      -98       -2 
     112      243      375      506      637      764      874      972 
    1053     1107     1136     1142     1123     1077     1011      923 
     816      706      585      457      330      214      108       18 
     -43      -75      -82      -59       -5       65      153      253 
     351      445      550      661      773      889      999     1081 
    1133     1146     1113     1039      940      820      687      553 
     432      329      253      210      198      217      259      319 
     398      490      588      692      791      877      950     1009 
    1055     1089     1112     1121     1117     1097     1063     1012 
     949      877      810      754      712      676      648      630 
     614      599      594      598      606      619      637      656 
     673      688      697      704      710      712      711      708 
     700      680      650      612      565      518      476      445 
     427      413      398      388      378      369      368      372 
     379      388      399      410      421      440      468      495 
     522      545      558      562      566      568      569      575 
     579      573      553      522      483      438      396      367 
     340      315      295      270      240      212      191      175 
     172      176      178      182      190      197      205      229 
     261      295      337      380      419      464      515      572 
     637      711      781      830      859      873      855      811 
     745      657      560      463      365      274      201      148 
     116      112      139      183      244      317      400      488 
     566      639      708      774      838      899      951      985 
     996      980      928      846      745      635      533      453 
     399      373      378      409      464      537      623      715 
     815      920     1035     1154     1274     1401     1533     1652 
    1755     1841     1900     1926     1918     1875     1809     1725 
    1628     1532     1440     1355     1282     1221     1169     1125 
    1081     1039     1005      974      947      932      927      936 
     961      999     1046     1098     1158     1225     1287     1340 
    1382     1405     1410     1399     1370     1321     1264     1201 
    1132     1069     1016      976      949      943      965     1003 
    1053     1116     1178     1239     1301     1348     1381     1405 
    1422     1435     1437     1426     1405     1363     1297     1202 
    1081      947      801      641      483      346      230      133 
      68       39       44       83      152      253      378      518 
     666      805      928     1031     1102     1140     1152     1140 
    1113     1077     1030      959      864      739      585      402 
     198      -11     -211     -382     -511     -599     -641     -633 
    -583     -502     -398     -283     -172      -68       25      105 
     175      244      313      382      438      469      469      429 
     344      222       74      -97     -266     -425     -561     -664 
    -731     -766     -758     -711     -637     -540     -425     -298 
    -160      -22      108      229      337      425      493      531 
     540      511      437      329      197       43     -125     -283 
    -425     -553     -650     -708     -734     -728     -683     -604 
    -503     -386     -256     -118       28      186      355      525 
     699      866     1005     1104     1158     1163     1120     1039 
     931      799      662      537      422      321      244      180 
     120       64       10      -49     -110     -163     -202     -228 
    -230     -217     -191     -155     -117      -86      -59      -31 
       0       31       60       87      108      112      112      108 
     102       99      102      108      121      147      176      205 
     244      302      368      437      510      572      615      650 
     668      673      679      679      672      669      662      652 
     648      648      649      654      661      662      650      627 
     595      553      508      464      423      387      355      322 
     288      251      206      156      106       59        2      -62 
    -135     -212     -309     -419     -533     -652     -773     -884 
    -976    -1053    -1121    -1167    -1185    -1179    -1156    -1116 
   -1053     -981     -903     -823     -738     -653     -566     -475 
    -382     -294     -209     -125      -54        9       72      126 
     160      175      167      133       85       22      -43      -99 
    -143     -170     -163     -108      -16       94      232      392 
     545      691      826      939     1030     1096     1132     1142 
    1129     1107     1075     1035     1005      976      931      884 
     830      760      680      604      540      493      479      495 
     531      584      656      730      803      877      951     1016 
    1073     1124     1161     1181     1198     1205     1192     1171 
    1144     1105     1060     1015      970      927      893      880 
     886      918      978     1065     1179     1316     1453     1583 
    1707     1817     1910     1992     2066     2135     2192     2224 
    2226     2196     2138     2042     1904     1728     1513     1267 
    1000      723      456      216       13     -144     -251     -306 
    -315     -279     -203      -94       37      189      346      502 
     657      818      974     1111     1227     1318     1371     1379 
    1339     1260     1152     1030      908      793      684      588 
     506      450      419      409      421      456      510      583 
     677      784      892     1003     1105     1193     1259     1297 
    1301     1262     1185     1074      934      778      627      488 
     370      287      240      222      236      278      338      410 
     480      545      608      673      737      796      853      907 
     947      976      997     1009     1012     1009      994      965 
     931      888      830      769      719      679      656      657 
     675      707      764      838      928     1030     1125     1210 
    1287     1354     1402     1431     1440     1425     1382     1308 
    1213     1096      962      826      688      544      405      276 
     160       65        4      -20      -14        8       51      112 
     182      266      372      490      612      733      846      942 
    1016     1069     1092     1078     1035      962      855      727 
     589      445      311      194       82       -9      -68      -99 
    -102      -70       -5       87      199      318      440      569 
     707      853     1000     1143     1282     1404     1499     1559 
    1570     1524     1420     1266     1069      837      585      328 
      74     -153     -342     -495     -606     -679     -718     -726 
    -702     -648     -571     -476     -360     -225      -86       51 
     174      263      311      321      291      221      125       16 
     -95     -206     -307     -402     -492     -564     -610     -645 
    -664     -654     -623     -575     -504     -413     -309     -189 
     -47      114      289      469      638      780      889      957 
     974      950      896      814      712      603      484      364 
     256      155       58      -18      -65      -95     -109     -103 
     -87      -68      -39        0       37       68      102      136 
     168      198      229      249      259      271      283      288 
     298      313      328      340      348      351      348      340 
     334      337      344      359      376      394      413      440 
     481      532      587      642      704      762      811      859 
     913      965     1013     1053     1081     1092     1081     1046 
     982      900      811      712      616      535      456      383 
     319      253      183      106       14      -83     -183     -289 
    -396     -491     -573     -638     -683     -714     -733     -735 
    -724     -712     -699     -684     -668     -660     -669     -680 
    -685     -685     -675     -649     -610     -550     -475     -395 
    -317     -237     -160      -93      -32       27       85      149 
     228      311      394      468      511      513      486      433 
     357      268      178      109       54       14        2       10 
      29       47       47       28       -5      -47      -90     -116 
    -112      -85      -44        5       62      108      139      155 
     144      110       64        9      -47      -99     -137     -157 
    -156     -131      -98      -63      -23       18       67      121 
     182      248      319      396      476      562      652      737 
     812      874      923      955      972      980      982      987 
    1003     1023     1051     1092     1147     1212     1287     1371 
    1466     1557     1644     1736     1833     1930     2038     2157 
    2277     2377     2446     2479     2473     2427     2350     2249 
    2133     2010     1892     1777     1671     1582     1505     1431 
    1359     1294     1240     1200     1177     1170     1179     1205 
    1248     1298     1352     1404     1447     1478     1493     1483 
    1444     1385     1308     1215     1113     1012      911      818 
     737      660      594      557      552      564      595      650 
     707      766      841      918      994     1081     1173     1255 
    1328     1383     1408     1395     1347     1262     1142      996 
     846      704      579      487      430      405      405      425 
     459      488      521      561      608      672      757      855 
     959     1069     1171     1256     1313     1331     1306     1248 
    1156     1039      911      783      662      562      483      422 
     379      359      368      410      491      614      776      974 
    1204     1451     1701     1937     2151     2338     2481     2586 
    2663     2701     2697     2656     2571     2440     2269     2068 
    1840     1590     1337     1097      873      679      526      432 
     394      409      477      591      735      903     1085     1263 
    1440     1611     1767     1896     1999     2072     2107     2102 
    2053     1960     1829     1663     1468     1267     1081      918 
     792      706      668      672      708      776      862      954 
    1051     1150     1244     1344     1449     1556     1660     1763 
    1852     1923     1973     1985     1952     1873     1750     1591 
    1412     1227     1055      911      797      718      670      650 
     658      688      738      812      908     1015     1139     1287 
    1453     1630     1821     2015     2192     2346     2466     2550 
    2596     2610     2593     2551     2496     2428     2361     2308 
    2273     2246     2228     2211     2182     2142     2098     2042 
    1980     1935     1915     1915     1934     1971     2015     2060 
    2102     2137     2155     2166     2172     2166     2158     2157 
    2154     2155     2174     2204     2235     2269     2295     2307 
    2308     2293     2265     2223     2168     2101     2025     1938 
    1845     1748     1655     1560     1472     1405     1364     1343 
    1339     1351     1372     1401     1439     1489     1553     1632 
    1725     1817     1908     1998     2076     2143     2207     2265 
    2319     2371     2420     2465     2508     2550     2584     2609 
    2625     2639     2654     2673     2702     2740     2783     2825 
    2857     2879     2893     2890     2876     2860     2826     2775 
    2710     2636     2565     2489     2417     2351     2281     2209 
    2141     2066     1987     1900     1813     1715     1597     1470 
    1341     1205     1075      967      880      814      774      760 
     765      792      837      889      947     1015     1088     1169 
    1259     1350     1431     1503     1554     1582     1591     1584 
    1564     1533     1502     1466     1412     1337     1244     1135 
    1017      896      780      681      612      579      581      622 
     702      807      931     1065     1193     1310     1417     1507 
    1584     1657     1722     1781     1844     1891     1918     1922 
    1895     1837     1759     1664     1557     1440     1317     1202 
    1101     1013      950      919      913      923      943      972 
    1005     1036     1065     1105     1154     1216     1294     1379 
    1462     1539     1601     1636     1640     1611     1537     1425 
    1296     1148      992      838      692      549      411      279 
     149       23      -99     -220     -326     -409     -463     -483 
    -469     -419     -346     -268     -182      -93      -17       49 
     124      211      313      423      540      649      738      812 
     866      889      893      881      850      805      754      706 
     669      642      635      649      679      719      770      828 
     889      951     1026     1112     1197     1275     1340     1386 
    1412     1414     1391     1343     1273     1190     1097      992 
     877      764      648      533      422      307      193       79 
     -32     -147     -251     -334     -395     -433     -445     -437 
    -410     -363     -295     -212     -120      -20       75      156 
     221      274      313      332      336      330      309      276 
     232      175      106       21      -78     -178     -286     -396 
    -499     -591     -668     -719     -751     -769     -762     -733 
    -687     -619     -526     -417     -295     -168      -45       70 
     184      291      376      442      491      514      506      468 
     400      302      174       21     -151     -328     -498     -660 
    -805     -927    -1023    -1092    -1132    -1142    -1127    -1089 
   -1030     -947     -849     -735     -611     -487     -365     -249 
    -153      -91      -55      -37      -47      -82     -125     -189 
    -279     -379     -487     -607     -726     -832     -927    -1008 
   -1065    -1096    -1101    -1085    -1051     -999     -931     -853 
    -764     -664     -561     -456     -352     -252     -151      -60 
      17       85      129      152      148      118       54      -39 
    -151     -279     -415     -544     -664     -767     -855     -932 
    -996    -1044    -1086    -1113    -1123    -1112    -1081    -1032 
    -961     -864     -756     -639     -523     -414     -324     -256 
    -217     -199     -195     -202     -216     -232     -252     -272 
    -299     -334     -367     -400     -440     -481     -521     -557 
    -592     -637     -687     -739     -797     -857     -908     -951 
    -973     -965     -931     -873     -793     -700     -606     -506 
    -402     -301     -207     -128      -72      -45      -43      -58 
     -89     -131     -175     -225     -280     -326     -369     -413 
    -453     -486     -519     -558     -592     -621     -646     -661 
    -673     -683     -680     -673     -672     -676     -687     -702 
    -727     -757     -783     -804     -823     -830     -820     -795 
    -753     -702     -649     -592     -531     -475     -421     -364 
    -306     -244     -174     -101      -35       23       75      105 
     108       97       75       40        1      -36      -75     -114 
    -151     -189     -218     -240     -256     -271     -276     -268 
    -255     -237     -206     -159     -110      -67      -29       -2 
       4       -2      -16      -32      -40      -28        1       40 
      76      110      136      153      167      182      202      233 
     276      332      403      483      566      648      719      777 
     815      828      828      812      778      731      676      612 
     540      459      367      266      166       65      -27     -106 
    -167     -205     -214     -197     -148      -76        9      108 
     209      309      410      508      599      677      741      778 
     785      773      745      695      626      544      449      355 
     263      182      116       65       23      -13      -40      -68 
     -91      -99     -105     -105      -91      -72      -58      -52 
     -47      -47      -59      -71      -76      -82      -83      -82 
     -86      -90      -89      -95     -106     -121     -140     -155 
    -157     -148     -125      -93      -52       -9       25       58 
      95      135      174      224      275      314      346      372 
     388      396      398      386      364      325      263      180 
      82      -28     -148     -270     -396     -522     -639     -749 
    -846     -926     -987    -1030    -1053    -1058    -1043    -1004 
    -949     -888     -830     -770     -718     -675     -637     -607 
    -591     -576     -553     -537     -523     -511     -511     -519 
    -533     -557     -583     -612     -637     -654     -665     -664 
    -650     -630     -603     -564     -523     -480     -429     -373 
    -324     -278     -225     -171     -112      -49       23       99 
     175      252      318      373      421      457      481      492 
     492      484      472      460      449      446      460      483 
     503      529      553      568      576      579      572      553 
     544      544      553      577      612      654      706      761 
