Origin Time       2016/04/16 01:25:00
Lat.              32.753
Long.             130.762
Depth. (km)       12
Mag.              7.3
Station Code      TTR004
Station Lat.      35.4606
Station Long.     134.0548
Station Height(m) 50
Record Time       2016/04/16 01:26:29
Sampling Freq(Hz) 100Hz
Duration Time(s)  129
Dir.              N-S
Scale Factor      7845(gal)/8223790
Max. Acc. (gal)   4.067
Last Correction   2016/04/16 01:26:30
Memo.             
[...]
   13567    13635    13709    13788    13878    13973    14077    14188 
   14300    14409    14515    14611    14701    14787    14859    14924 
   14985    15031    15071    15102    15120    15128    15124    15106 
   15078    15030    14970    14898    14809    14714    14615    14506 
   14389    14270    14148    14022    13896    13770    13637    13506 
   13382    13257    13131    13014    12906    12804    12711    12630 
   12563    12507    12467    12442    12429    12432    12455    12488 
   12530    12588    12658    12734    12820    12916    13016    13117 
   13225    13338    13448    13562    13674    13782    13887    13990 
   14090    14187    14269    14346    14426    14490    14551    14613 
   14662    14701    14739    14767    14782    14790    14790    14787 
   14775    14757    14735    14704    14671    14636    14594    14550 
   14506    14461    14413    14369    14324    14273    14219    14165 
   14107    14049    13999    13956    13911    13876    13849    13817 
   13788    13763    13734    13706    13678    13649    13625    13603 
   13581    13555    13537    13522    13508    13494    13485    13475 
   13468    13466    13459    13455    13452    13446    13446    13446 
   13444    13450    13460    13468    13482    13501    13522    13552 
   13586    13621    13666    13721    13779    13842    13911    13977 
   14040    14099    14154    14204    14250    14288    14323    14354 
   14377    14386    14386    14377    14359    14335    14307    14278 
   14249    14214    14175    14133    14085    14037    13990    13941 
   13887    13834    13782    13725    13668    13614    13558    13500 
   13444    13397    13355    13320    13292    13269    13254    13251 
   13257    13267    13286    13313    13347    13389    13432    13481 
   13536    13593    13647    13705    13767    13822    13876    13932 
   13984    14034    14084    14129    14168    14204    14234    14257 
   14274    14285    14296    14304    14310    14315    14316    14314 
   14312    14314    14311    14305    14300    14291    14273    14249 
   14216    14179    14137    14089    14047    14011    13975    13941 
   13911    13891    13875    13864    13860    13863    13868    13883 
   13902    13918    13938    13963    13984    14010    14037    14061 
   14080    14098    14112    14125    14135    14141    14142    14143 
   14148    14152    14154    14156    14158    14158    14149    14135 
   14122    14108    14080    14047    14014    13976    13929    13882 
   13826    13761    13699    13635    13562    13485    13408    13335 
   13263    13192    13124    13063    13011    12966    12930    12900 
   12877    12861    12857    12862    12876    12907    12950    13000 
   13058    13124    13200    13284    13367    13452    13541    13630 
   13717    13801    13879    13953    14022    14087    14152    14212 
   14268    14319    14368    14411    14449    14481    14509    14531 
   14539    14544    14544    14536    14516    14488    14454    14419 
   14381    14345    14310    14273    14238    14206    14170    14134 
   14096    14053    14007    13957    13905    13855    13801    13747 
   13697    13651    13602    13562    13529    13495    13470    13452 
   13437    13427    13431    13446    13467    13498    13545    13598 
   13657    13721    13790    13855    13914    13973    14029    14076 
   14113    14146    14172    14185    14193    14203    14200    14193 
   14195    14189    14181    14175    14166    14160    14149    14135 
   14126    14116    14106    14098    14089    14084    14079    14076 
   14079    14080    14083    14088    14092    14094    14099    14100 
   14102    14103    14102    14100    14099    14099    14103    14104 
   14108    14119    14127    14130    14135    14139    14135    14129 
   14121    14107    14087    14064    14031    13994    13957    13918 
   13872    13825    13773    13725    13678    13629    13586    13551 
   13521    13497    13477    13463    13455    13450    13454    13463 
   13474    13495    13525    13559    13603    13653    13703    13761 
   13821    13875    13932    13987    14041    14092    14141    14185 
   14224    14260    14288    14312    14328    14339    14345    14342 
   14327    14300    14265    14226    14179    14119    14057    14000 
   13941    13879    13828    13778    13728    13686    13653    13625 
   13603    13587    13575    13564    13554    13545    13539    13529 
   13518    13510    13500    13485    13474    13470    13463    13456 
   13462    13474    13489    13506    13520    13539    13562    13576 
   13587    13595    13597    13595    13594    13582    13563    13540 
   13509    13471    13428    13383    13336    13286    13238    13194 
   13153    13117    13088    13065    13049    13035    13030    13034 
   13046    13068    13096    13139    13189    13248    13323    13404 
   13491    13586    13682    13782    13886    13992    14095    14193 
   14295    14396    14492    14586    14681    14762    14837    14908 
   14964    15013    15051    15075    15087    15086    15070    15051 
   15021    14980    14935    14883    14829    14773    14714    14654 
   14592    14529    14470    14412    14354    14296    14242    14193 
   14152    14111    14073    14046    14026    14007    13999    13999 
   14002    14006    14013    14021    14027    14025    14019    14014 
   14004    13988    13973    13950    13918    13884    13845    13798 
   13748    13697    13645    13594    13543    13489    13439    13389 
   13340    13296    13257    13225    13201    13189    13186    13186 
   13198    13224    13252    13290    13338    13390    13444    13501 
   13560    13620    13676    13737    13792    13846    13903    13952 
   13996    14047    14094    14134    14177    14214    14247    14281 
   14304    14321    14339    14347    14351    14353    14341    14324 
   14310    14288    14260    14233    14203    14166    14133    14106 
   14079    14049    14026    14011    14002    13996    14004    14018 
   14037    14065    14107    14154    14199    14251    14314    14373 
   14430    14492    14546    14594    14642    14681    14712    14737 
   14760    14779    14786    14783    14774    14754    14727    14694 
   14651    14601    14546    14481    14407    14328    14241    14142 
   14040    13933    13822    13711    13605    13498    13398    13302 
   13216    13142    13076    13019    12978    12945    12921    12915 
   12920    12938    12966    13004    13054    13109    13170    13238 
   13312    13386    13467    13544    13621    13706    13787    13871 
   13956    14033    14111    14188    14255    14319    14380    14430 
   14473    14500    14517    14523    14511    14490    14461    14415 
   14364    14303    14231    14165    14092    14013    13942    13871 
   13799    13740    13680    13628    13586    13554    13535    13524 
   13517    13525    13540    13559    13588    13620    13652    13697 
   13747    13795    13849    13903    13957    14013    14064    14116 
   14169    14212    14254    14292    14319    14342    14359    14364 
   14366    14364    14357    14345    14321    14295    14261    14215 
   14166    14115    14057    13998    13940    13884    13824    13763 
   13711    13660    13612    13568    13533    13505    13482    13466 
   13459    13454    13451    13456    13464    13478    13493    13509 
   13525    13537    13545    13555    13560    13558    13555    13549 
   13537    13525    13510    13495    13481    13464    13446    13427 
   13404    13379    13352    13327    13297    13269    13244    13225 
   13211    13201    13200    13208    13219    13235    13261    13289 
   13321    13360    13400    13439    13479    13517    13555    13595 
   13631    13670    13710    13745    13783    13824    13860    13892 
   13922    13946    13973    13996    14010    14023    14033    14033 
   14029    14022    14010    13991    13973    13954    13927    13898 
   13872    13841    13803    13772    13743    13717    13702    13694 
   13695    13705    13718    13740    13773    13817    13865    13915 
   13975    14037    14095    14153    14212    14269    14326    14378 
   14415    14443    14469    14476    14472    14459    14434    14399 
   14359    14305    14243    14177    14102    14026    13948    13861 
   13776    13690    13597    13506    13419    13331    13250    13176 
   13106    13043    12987    12933    12880    12833    12791    12745 
   12700    12661    12625    12592    12559    12526    12496    12468 
   12448    12432    12417    12409    12414    12425    12442    12476 
   12519    12569    12631    12704    12777    12861    12951    13042 
   13131    13220    13306    13390    13466    13532    13597    13649 
   13686    13720    13738    13738    13734    13720    13689    13652 
   13613    13562    13509    13460    13408    13362    13323    13284 
   13248    13219    13193    13178    13169    13161    13158    13163 
   13174    13185    13198    13220    13246    13267    13290    13319 
   13355    13396    13435    13478    13527    13575    13621    13666 
   13707    13745    13778    13805    13828    13844    13855    13859 
   13855    13844    13826    13805    13779    13744    13703    13666 
   13630    13595    13567    13543    13517    13493    13473    13451 
   13432    13406    13375    13347    13314    13277    13232    13185 
   13136    13090    13039    12991    12949    12908    12865    12826 
   12793    12760    12735    12718    12700    12692    12692    12694 
   12703    12721    12746    12779    12819    12868    12923    12992 
   13073    13159    13255    13365    13482    13606    13737    13872 
   14008    14148    14285    14426    14569    14704    14839    14972 
   15097    15213    15322    15426    15525    15610    15688    15761 
   15823    15876    15923    15959    15985    16004    16017    16019 
   16008    15988    15965    15934    15892    15847    15803    15751 
   15695    15643    15596    15546    15498    15452    15412    15377 
   15348    15321    15300    15282    15271    15261    15257    15260 
   15264    15272    15288    15307    15333    15365    15399    15439 
   15484    15526    15570    15615    15651    15685    15718    15736 
   15749    15757    15757    15750    15738    15720    15696    15669 
   15631    15585    15534    15471    15399    15323    15237    15138 
   15036    14922    14805    14683    14555    14422    14288    14153 
   14014    13875    13736    13601    13468    13342    13217    13101 
   12995    12891    12796    12717    12641    12573    12519    12471 
   12429    12406    12390    12382    12383    12394    12415    12447 
   12483    12526    12569    12614    12671    12727    12779    12837 
   12893    12953    13012    13070    13134    13190    13242    13296 
   13346    13390    13436    13481    13528    13576    13624    13678 
   13743    13809    13882    13964    14046    14130    14220    14319 
   14413    14504    14593    14677    14750    14820    14881    14928 
   14962    14982    14990    14986    14967    14937    14893    14835 
   14762    14673    14574    14466    14345    14214    14075    13922 
   13767    13606    13441    13278    13116    12958    12804    12660 
   12530    12411    12302    12208    12128    12060    12009    11973 
   11958    11959    11973    12002    12046    12097    12162    12236 
   12309    12391    12479    12564    12658    12756    12854    12957 
   13058    13154    13255    13347    13431    13513    13587    13652 
   13709    13761    13809    13846    13876    13905    13929    13942 
   13950    13956    13957    13952    13941    13933    13926    13917 
   13910    13911    13915    13918    13933    13957    13984    14021 
   14069    14126    14188    14260    14346    14440    14546    14665 
   14794    14931    15072    15221    15371    15522    15665    15807 
   15948    16081    16200    16317    16425    16515    16590    16652 
   16695    16708    16699    16669    16611    16524    16411    16272 
   16104    15911    15695    15454    15191    14913    14623    14318 
   14004    13691    13379    13068    12769    12490    12220    11967 
   11739    11535    11354    11195    11064    10968    10897    10856 
   10849    10866    10910    10986    11083    11202    11340    11493 
   11661    11838    12021    12208    12395    12580    12756    12927 
   13093    13250    13398    13541    13676    13802    13917    14026 
   14129    14211    14285    14354    14409    14447    14473    14485 
   14484    14469    14438    14395    14341    14276    14204    14126 
   14042    13948    13842    13734    13626    13510    13382    13252 
   13131    13005    12879    12761    12649    12541    12445    12363 
   12294    12221    12162    12117    12073    12033    12009    12002 
   12020    12044    12078    12136    12212    12294    12383    12479 
   12584    12698    12814    12931    13057    13185    13312    13444 
   13578    13710    13838    13963    14079    14188    14287    14374 
   14453    14513    14553    14575    14577    14554    14509    14439 
   14345    14230    14088    13925    13738    13529    13304    13065 
   12810    12550    12280    12005    11739    11477    11227    10991 
   10766    10558    10366    10193    10046     9921     9815     9738 
    9683     9647     9640     9668     9728     9819     9942    10091 
   10268    10473    10700    10951    11221    11503    11807    12125 
   12451    12788    13134    13478    13818    14146    14465    14766 
   15047    15314    15560    15773    15962    16128    16260    16364 
   16444    16491    16509    16503    16474    16424    16347    16241 
   16119    15971    15805    15628    15434    15229    15026    14823 
   14615    14403    14188    13977    13772    13574    13377    13181 
   12999    12825    12653    12491    12351    12224    12109    12017 
   11946    11894    11870    11875    11901    11952    12035    12143 
   12272    12422    12598    12792    13004    13234    13471    13720 
   13977    14226    14472    14712    14937    15151    15353    15537 
   15704    15859    15997    16108    16200    16271    16314    16332 
   16326    16301    16256    16183    16093    15997    15888    15762 
   15631    15498    15363    15226    15088    14955    14832    14710 
   14594    14490    14400    14319    14243    14177    14127    14083 
   14049    14029    14021    14025    14045    14080    14130    14199 
   14284    14380    14488    14608    14739    14885    15031    15173 
   15323    15475    15615    15749    15876    15986    16083    16163 
   16222    16266    16287    16285    16259    16212    16144    16055 
   15947    15822    15676    15518    15352    15172    14985    14782 
   14561    14334    14099    13855    13614    13386    13167    12938 
   12702    12503    12349    12191    12019    11867    11755    11666 
   11591    11538    11515    11514    11539    11597    11673    11769 
   11900    12050    12209    12384    12577    12781    12987    13193 
   13398    13602    13798    13983    14160    14330    14484    14619 
   14739    14846    14937    15003    15052    15087    15099    15095 
   15076    15040    14995    14940    14868    14793    14717    14635 
   14550    14465    14384    14307    14231    14161    14099    14046 
   14002    13965    13941    13934    13936    13941    13959    13984 
   14019    14062    14108    14158    14216    14274    14337    14401 
   14461    14526    14594    14654    14716    14782    14839    14891 
   14951    15005    15052    15099    15151    15194    15234    15280 
   15327    15371    15414    15457    15503    15552    15599    15647 
   15697    15746    15797    15854    15915    15981    16058    16141 
   16228    16314    16403    16497    16588    16675    16758    16833 
   16895    16945    16981    17007    17021    17023    17011    16987 
   16951    16912    16865    16806    16748    16686    16614    16548 
   16479    16402    16328    16256    16180    16106    16029    15954 
   15882    15811    15749    15700    15653    15601    15556    15526 
   15503    15475    15445    15414    15379    15346    15315    15275 
   15229    15184    15134    15082    15030    14980    14932    14878 
   14816    14755    14692    14620    14550    14478    14399    14314 
   14230    14142    14053    13961    13867    13775    13687    13598 
   13516    13437    13367    13316    13278    13252    13242    13246 
   13266    13304    13358    13433    13532    13649    13784    13938 
   14106    14284    14473    14670    14871    15075    15282    15483 
   15677    15861    16032    16187    16318    16421    16509    16573 
   16613    16627    16616    16583    16528    16445    16344    16228 
   16097    15954    15805    15647    15483    15315    15144    14979 
   14823    14669    14508    14349    14199    14061    13938    13832 
   13743    13671    13620    13587    13570    13576    13612    13670 
   13740    13829    13930    14044    14168    14298    14434    14571 
   14712    14856    15001    15130    15250    15357    15445    15518 
   15574    15615    15642    15646    15635    15615    15572    15513 
   15447    15354    15241    15117    14974    14809    14632    14440 
   14231    14013    13790    13562    13332    13111    12895    12685 
   12492    12309    12139    11992    11866    11758    11674    11618 
   11581    11570    11587    11628    11693    11780    11884    12008 
   12143    12289    12449    12622    12799    12982    13178    13378 
   13562    13728    13888    14034    14162    14288    14403    14496 
   14574    14635    14683    14717    14733    14743    14744    14736 
   14731    14720    14700    14681    14662    14635    14612    14593 
   14572    14559    14548    14539    14535    14535    14538    14544 
   14559    14580    14604    14635    14674    14720    14766    14820 
   14883    14944    15006    15071    15132    15187    15248    15304 
   15352    15394    15431    15469    15500    15525    15543    15556 
   15558    15549    15533    15515    15489    15457    15422    15373 
   15321    15267    15201    15125    15044    14958    14864    14769 
   14669    14567    14457    14339    14227    14108    13983    13857 
   13737    13618    13501    13386    13284    13189    13103    13034 
   12980    12938    12912    12904    12912    12939    12976    13024 
   13084    13155    13242    13338    13446    13564    13691    13826 
   13965    14107    14254    14400    14542    14686    14831    14972 
   15114    15253    15390    15523    15643    15749    15847    15928 
   15990    16033    16056    16059    16042    16001    15939    15854 
   15749    15620    15472    15303    15109    14895    14669    14426 
   14169    13914    13664    13420    13181    12954    12738    12523 
   12322    12139    11967    11812    11681    11570    11488    11430 
   11396    11391    11406    11443    11510    11595    11695    11817 
   11961    12120    12293    12480    12680    12887    13093    13298 
   13497    13686    13868    14041    14204    14357    14492    14611 
