Origin Time       2016/04/16 01:25:00
Lat.              32.753
Long.             130.762
Depth. (km)       12
Mag.              7.3
Station Code      TTR003
Station Lat.      35.3432
Station Long.     134.2075
Station Height(m) 85
Record Time       2016/04/16 01:27:11
Sampling Freq(Hz) 100Hz
Duration Time(s)  60
Dir.              E-W
Scale Factor      7845(gal)/8223790
Max. Acc. (gal)   1.677
Last Correction   2016/04/16 01:27:12
Memo.             
[...]
    3292     3269     3258     3253     3245     3241     3241     3242 
    3242     3241     3244     3244     3237     3226     3218     3218 
    3227     3248     3281     3330     3388     3450     3516     3581 
    3636     3680     3705     3716     3721     3716     3701     3682 
    3667     3653     3634     3619     3604     3586     3568     3549 
    3530     3519     3520     3527     3544     3573     3608     3645 
    3682     3719     3754     3786     3812     3831     3844     3852 
    3855     3855     3851     3846     3836     3816     3789     3766 
    3738     3711     3689     3669     3649     3628     3611     3599 
    3585     3568     3551     3537     3522     3505     3491     3476 
    3461     3440     3410     3375     3336     3287     3227     3157 
    3080     3006     2940     2880     2839     2817     2806     2808 
    2824     2839     2847     2852     2852     2849     2852     2859 
    2870     2886     2899     2903     2899     2891     2878     2857 
    2837     2814     2795     2786     2781     2775     2775     2776 
    2768     2755     2737     2714     2688     2669     2655     2644 
    2641     2643     2648     2660     2677     2700     2731     2767 
    2809     2857     2907     2957     3006     3056     3095     3125 
    3149     3157     3154     3149     3141     3134     3127     3122 
    3123     3125     3118     3107     3094     3071     3040     3014 
    2995     2979     2970     2967     2967     2971     2974     2978 
    2983     2994     3015     3045     3079     3123     3180     3242 
    3311     3385     3458     3530     3599     3657     3708     3748 
    3771     3776     3769     3742     3689     3615     3530     3429 
    3321     3211     3107     3013     2930     2863     2814     2790 
    2791     2814     2857     2920     3001     3094     3199     3304 
    3403     3489     3557     3597     3618     3620     3596     3550 
    3492     3424     3348     3272     3213     3164     3119     3092 
    3076     3057     3037     3021     3001     2975     2947     2918 
    2890     2860     2829     2801     2774     2752     2733     2721 
    2712     2710     2721     2736     2740     2748     2754     2749 
    2744     2747     2754     2759     2767     2778     2789     2795 
    2802     2811     2825     2843     2867     2891     2918     2947 
    2978     3005     3021     3028     3028     3022     3010     2995 
    2983     2967     2953     2952     2956     2967     2988     3022 
    3067     3115     3160     3202     3249     3302     3353     3397 
    3437     3474     3511     3539     3563     3586     3603     3618 
    3634     3661     3696     3738     3784     3828     3874     3913 
    3943     3963     3978     3989     3998     4008     4023     4036 
    4044     4051     4052     4040     4023     4003     3982     3967 
    3960     3955     3954     3948     3936     3919     3892     3861 
    3832     3809     3797     3792     3797     3824     3865     3909 
    3962     4021     4077     4126     4170     4202     4225     4245 
    4258     4270     4282     4295     4314     4333     4349     4359 
    4363     4357     4344     4321     4287     4248     4205     4158 
    4104     4044     3984     3927     3871     3827     3800     3789 
    3797     3828     3886     3959     4029     4094     4153     4197 
    4220     4220     4200     4162     4110     4055     4003     3969 
    3956     3962     3990     4036     4093     4159     4237     4320 
    4402     4482     4552     4611     4658     4684     4685     4672 
    4649     4612     4561     4511     4467     4425     4392     4369 
    4355     4349     4352     4360     4376     4398     4415     4429 
    4433     4421     4401     4371     4336     4303     4271     4243 
    4217     4192     4172     4152     4131     4109     4097     4088 
    4081     4081     4085     4083     4081     4071     4058     4036 
    4005     3967     3927     3879     3834     3790     3753     3719 
    3699     3685     3680     3680     3682     3685     3690     3693 
    3703     3719     3735     3747     3761     3780     3781     3771 
    3766     3753     3730     3703     3669     3630     3586     3530 
    3472     3414     3346     3279     3208     3133     3055     2970 
    2879     2789     2713     2654     2606     2575     2562     2565 
    2581     2608     2646     2685     2721     2755     2786     2811 
    2835     2856     2878     2899     2917     2929     2940     2949 
    2948     2941     2926     2905     2878     2844     2810     2771 
    2731     2695     2667     2635     2609     2596     2579     2563 
    2552     2533     2512     2492     2465     2431     2397     2362 
    2332     2317     2315     2324     2347     2380     2415     2450 
    2490     2529     2563     2594     2624     2651     2674     2697 
    2714     2731     2745     2755     2755     2754     2752     2740 
    2721     2695     2662     2625     2584     2543     2509     2482 
    2457     2442     2444     2461     2494     2535     2581     2632 
    2678     2714     2747     2774     2803     2839     2878     2925 
    2988     3065     3144     3218     3295     3364     3414     3445 
    3453     3438     3402     3339     3260     3173     3080     2988 
    2906     2830     2759     2697     2643     2600     2559     2524 
    2506     2497     2496     2505     2517     2539     2574     2614 
    2658     2705     2758     2808     2855     2902     2949     2988 
    3017     3040     3063     3082     3092     3107     3129     3152 
    3168     3180     3192     3198     3190     3171     3153     3133 
    3106     3086     3071     3063     3061     3061     3060     3061 
    3061     3056     3049     3045     3037     3022     3013     3010 
    3007     3009     3010     3010     3018     3026     3030     3037 
    3049     3060     3067     3069     3071     3067     3051     3033 
    3010     2979     2955     2936     2918     2906     2903     2899 
    2891     2889     2895     2907     2918     2934     2957     2983 
    3009     3033     3055     3069     3080     3090     3096     3103 
    3113     3117     3121     3119     3106     3087     3071     3048 
    3025     3009     2995     2986     2983     2984     2988     2997 
    3003     3006     3007     3007     3009     3005     2998     2990 
    2976     2955     2918     2870     2820     2759     2685     2602 
    2512     2413     2313     2215     2126     2052     1985     1939 
    1912     1904     1910     1930     1965     2011     2069     2135 
    2207     2281     2357     2430     2497     2556     2604     2635 
    2648     2648     2647     2648     2647     2644     2646     2647 
    2640     2635     2623     2600     2574     2546     2519     2494 
    2479     2470     2454     2425     2394     2355     2300     2250 
    2207     2165     2135     2123     2126     2147     2182     2228 
    2282     2342     2407     2474     2543     2608     2664     2705 
    2733     2745     2740     2721     2693     2650     2601     2555 
    2505     2450     2394     2338     2274     2211     2151     2097 
    2050     2016     1998     1987     1984     1992     2011     2041 
    2079     2121     2165     2205     2238     2259     2270     2273 
    2269     2262     2259     2262     2266     2273     2284     2297 
    2311     2316     2316     2313     2312     2304     2290     2276 
    2263     2255     2257     2267     2293     2334     2380     2431 
    2484     2531     2573     2608     2636     2660     2685     2716 
    2756     2803     2859     2921     2984     3042     3094     3137 
    3165     3184     3194     3196     3187     3171     3148     3118 
    3084     3044     2998     2943     2880     2816     2758     2706 
    2668     2650     2651     2664     2686     2712     2740     2767 
    2790     2805     2813     2821     2832     2847     2866     2889 
    2910     2929     2941     2945     2943     2936     2928     2918 
    2905     2896     2889     2875     2867     2860     2852     2848 
    2849     2849     2849     2849     2844     2835     2822     2799 
    2768     2735     2694     2644     2596     2546     2502     2466 
    2436     2427     2442     2471     2516     2571     2627     2681 
    2731     2763     2781     2795     2798     2790     2782     2766 
    2739     2710     2683     2656     2635     2620     2616     2623 
    2636     2656     2681     2708     2740     2779     2824     2876 
    2936     3001     3065     3129     3188     3242     3284     3314 
    3329     3331     3315     3291     3253     3192     3125     3061 
    2988     2911     2843     2781     2720     2671     2636     2610 
    2597     2604     2628     2666     2716     2778     2844     2910 
    2976     3032     3078     3122     3154     3179     3207     3230 
    3242     3256     3272     3284     3303     3329     3353     3381 
    3412     3435     3456     3474     3481     3478     3468     3451 
    3429     3403     3375     3348     3322     3302     3281     3256 
    3231     3207     3173     3140     3109     3079     3061     3060 
    3071     3090     3109     3130     3149     3153     3141     3118 
    3084     3036     2982     2921     2859     2803     2755     2713 
    2688     2681     2690     2721     2767     2830     2903     2972 
    3036     3095     3141     3173     3194     3204     3210     3217 
    3227     3242     3262     3292     3326     3353     3379     3404 
    3423     3435     3440     3439     3427     3404     3375     3345 
    3311     3277     3250     3231     3217     3206     3200     3194 
    3188     3183     3176     3164     3161     3165     3164     3157 
    3148     3136     3122     3109     3105     3109     3111     3113 
    3113     3109     3100     3090     3083     3083     3082     3079 
    3078     3075     3063     3041     3007     2965     2915     2868 
    2822     2779     2748     2721     2697     2686     2679     2678 
    2686     2694     2698     2702     2702     2697     2697     2702 
    2714     2736     2759     2787     2813     2839     2863     2879 
    2889     2903     2915     2925     2943     2965     2988     3018 
    3052     3086     3127     3172     3213     3253     3280     3287 
    3284     3276     3256     3230     3206     3183     3161     3141 
    3123     3106     3095     3090     3095     3109     3130     3159 
    3186     3207     3226     3238     3246     3252     3254     3262 
    3275     3281     3289     3296     3291     3281     3273     3258 
    3241     3225     3208     3198     3194     3198     3218     3250 
    3296     3357     3426     3507     3605     3719     3844     3975 
    4106     4233     4348     4445     4526     4591     4635     4661 
    4669     4664     4639     4603     4549     4480     4403     4318 
    4236     4163     4094     4035     3990     3956     3931     3917 
    3920     3935     3962     4003     4054     4107     4163     4215 
    4258     4291     4324     4352     4364     4371     4372     4360 
    4341     4311     4278     4240     4197     4156     4120     4091 
    4068     4050     4041     4045     4052     4064     4086     4106 
    4126     4144     4149     4140     4122     4095     4059     4017 
    3982     3950     3915     3878     3844     3807     3762     3711 
    3655     3597     3544     3500     3472     3464     3472     3489 
    3514     3539     3565     3585     3601     3620     3643     3665 
    3684     3699     3704     3700     3692     3676     3653     3627 
    3597     3572     3557     3550     3555     3572     3592     3624 
    3661     3696     3735     3774     3801     3820     3832     3838 
    3842     3847     3848     3847     3838     3819     3792     3755 
    3712     3665     3612     3561     3523     3491     3469     3468 
    3487     3522     3574     3643     3727     3820     3906     3989 
    4063     4122     4164     4192     4209     4213     4205     4191 
    4176     4163     4147     4136     4131     4124     4120     4113 
    4104     4090     4069     4041     4009     3973     3936     3908 
    3896     3904     3936     3990     4058     4131     4212     4288 
    4349     4399     4434     4450     4457     4457     4446     4428 
    4399     4369     4341     4313     4282     4248     4212     4170 
    4118     4066     4012     3958     3906     3863     3823     3782 
    3743     3709     3677     3643     3615     3595     3574     3563 
    3565     3578     3605     3650     3711     3780     3851     3925 
    3991     4041     4074     4090     4086     4067     4036     4000 
    3958     3915     3867     3819     3770     3721     3678     3639 
    3607     3585     3573     3569     3574     3586     3608     3642 
    3681     3735     3804     3878     3959     4043     4121     4182 
    4225     4248     4256     4248     4230     4200     4166     4131 
    4099     4072     4054     4043     4036     4035     4035     4039 
    4045     4054     4063     4071     4083     4102     4120     4140 
    4166     4187     4205     4210     4202     4187     4163     4129 
    4095     4059     4020     3989     3970     3960     3969     3993 
    4031     4085     4152     4232     4321     4411     4504     4600 
    4691     4774     4847     4905     4953     4985     5003     5009 
    5004     4985     4959     4928     4888     4835     4777     4714 
    4641     4572     4515     4463     4415     4378     4344     4307 
    4263     4212     4155     4091     4025     3963     3906     3863 
    3839     3827     3817     3817     3821     3825     3828     3828 
    3831     3828     3832     3842     3856     3878     3910     3950 
    3989     4028     4063     4090     4106     4107     4099     4081 
    4044     4000     3951     3892     3825     3759     3692     3623 
    3562     3511     3474     3451     3439     3438     3450     3466 
    3483     3499     3515     3530     3541     3551     3562     3569 
    3576     3582     3585     3589     3596     3597     3592     3588 
    3581     3569     3554     3546     3543     3542     3546     3555 
    3566     3576     3581     3584     3586     3588     3585     3581 
    3576     3565     3549     3527     3503     3473     3442     3412 
    3376     3342     3319     3298     3281     3281     3287     3298 
    3314     3335     3358     3381     3412     3445     3480     3518 
    3544     3562     3573     3572     3555     3527     3487     3440 
    3393     3346     3302     3264     3235     3211     3186     3169 
    3163     3163     3167     3179     3196     3213     3231     3249 
    3267     3280     3298     3312     3326     3345     3360     3369 
    3381     3388     3391     3395     3395     3385     3369     3352 
    3325     3296     3265     3231     3199     3175     3153     3130 
    3109     3092     3071     3052     3030     3011     3001     2994 
    2994     3003     3018     3040     3064     3087     3103     3109 
    3100     3079     3046     3006     2964     2921     2878     2841 
    2810     2782     2758     2740     2733     2733     2740     2758 
    2779     2805     2832     2860     2893     2928     2956     2979 
    2999     3011     3011     2998     2971     2930     2878     2821 
    2763     2710     2664     2633     2619     2620     2636     2667 
    2709     2749     2783     2810     2824     2822     2810     2795 
    2775     2749     2721     2700     2673     2648     2625     2596 
    2565     2535     2500     2461     2419     2370     2323     2280 
    2235     2192     2166     2151     2139     2138     2141     2142 
    2139     2128     2118     2114     2115     2119     2134     2155 
    2181     2212     2246     2280     2313     2346     2373     2396 
    2411     2417     2413     2400     2389     2380     2374     2384 
    2413     2455     2502     2558     2616     2669     2720     2759 
    2792     2816     2825     2821     2818     2817     2814     2816 
    2824     2837     2853     2871     2893     2911     2933     2959 
    2979     2997     3015     3032     3041     3042     3034     3017 
    2992     2960     2928     2901     2876     2852     2836     2828 
    2824     2826     2836     2844     2856     2871     2884     2895 
    2907     2917     2921     2926     2925     2920     2914     2902 
    2884     2868     2849     2830     2814     2798     2781     2764 
    2751     2735     2714     2693     2673     2652     2633     2616 
    2601     2590     2581     2574     2571     2567     2565     2570 
    2573     2571     2569     2559     2548     2536     2524     2505 
    2478     2448     2416     2380     2344     2315     2290     2280 
    2282     2292     2316     2353     2392     2434     2475     2509 
    2538     2565     2589     2600     2601     2598     2587     2567 
    2544     2517     2484     2452     2427     2403     2381     2370 
    2374     2385     2397     2416     2442     2465     2482     2492 
    2494     2490     2478     2461     2444     2421     2397     2381 
    2370     2363     2369     2381     2398     2421     2455     2496 
    2538     2581     2629     2677     2721     2762     2792     2820 
    2840     2851     2855     2857     2860     2859     2851     2844 
    2832     2814     2798     2781     2764     2754     2745     2737 
    2737     2748     2758     2766     2783     2803     2821     2839 
    2863     2889     2903     2918     2934     2949     2965     2976 
    2983     2990     2995     2995     2999     3005     3006     3007 
    3015     3026     3038     3057     3079     3102     3130     3164 
    3192     3218     3250     3279     3295     3310     3327     3336 
    3335     3326     3307     3280     3254     3234     3213     3199 
    3192     3186     3179     3176     3175     3172     3175     3186 
    3204     3231     3265     3306     3349     3388     3422     3446 
    3464     3470     3469     3461     3446     3434     3426     3414 
    3403     3402     3403     3403     3411     3423     3435     3450 
    3470     3492     3510     3522     3538     3553     3557     3554 
    3546     3527     3497     3465     3434     3400     3368     3343 
    3323     3307     3296     3292     3287     3283     3281     3281 
    3276     3277     3287     3298     3307     3322     3341     3361 
    3379     3395     3410     3418     3419     3416     3406     3385 
    3362     3339     3310     3275     3241     3207     3173     3145 
    3125     3107     3095     3090     3095     3105     3121     3141 
    3163     3183     3203     3221     3235     3248     3252     3252 
    3256     3257     3257     3264     3276     3291     3306     3323 
    3338     3352     3364     3376     3385     3395     3400     3406 
    3406     3407     3419     3429     3433     3445     3461     3476 
    3488     3503     3515     3522     3523     3523     3530     3537 
    3541     3547     3554     3557     3557     3557     3558     3561 
    3559     3555     3549     3535     3520     3505     3487     3468 
