Origin Time       2016/04/16 01:25:00
Lat.              32.753
Long.             130.762
Depth. (km)       12
Mag.              7.3
Station Code      TYM005
Station Lat.      36.7824
Station Long.     137.0803
Station Height(m) 2
Record Time       2016/04/16 01:29:15
Sampling Freq(Hz) 100Hz
Duration Time(s)  60
Dir.              E-W
Scale Factor      3920(gal)/6182761
Max. Acc. (gal)   2.436
Last Correction   2016/04/16 01:29:17
Memo.             
[...]
    -999     -975     -948     -917     -889     -866     -839     -811 
    -786     -761     -736     -713     -696     -679     -660     -642 
    -624     -600     -576     -557     -542     -526     -516     -507 
    -494     -479     -465     -449     -435     -426     -420     -413 
    -402     -389     -383     -378     -371     -361     -350     -338 
    -328     -319     -309     -301     -294     -284     -267     -255 
    -249     -243     -240     -239     -239     -240     -239     -238 
    -238     -236     -234     -236     -236     -233     -235     -243 
    -241     -235     -236     -242     -242     -240     -244     -246 
    -241     -239     -239     -237     -240     -245     -246     -253 
    -261     -259     -256     -258     -261     -261     -264     -277 
    -294     -302     -311     -325     -337     -343     -347     -355 
    -369     -382     -391     -399     -404     -408     -413     -419 
    -430     -444     -453     -464     -477     -483     -490     -507 
    -525     -544     -569     -594     -614     -633     -653     -678 
    -705     -732     -757     -784     -808     -830     -856     -882 
    -907     -936     -967     -992    -1019    -1046    -1072    -1104 
   -1133    -1157    -1185    -1219    -1252    -1284    -1314    -1344 
   -1374    -1404    -1438    -1473    -1507    -1540    -1571    -1603 
   -1635    -1670    -1707    -1742    -1778    -1814    -1851    -1891 
   -1927    -1956    -1986    -2016    -2048    -2086    -2123    -2155 
   -2188    -2220    -2251    -2285    -2321    -2355    -2388    -2422 
   -2454    -2487    -2523    -2558    -2592    -2632    -2675    -2716 
   -2756    -2799    -2838    -2873    -2912    -2954    -2992    -3031 
   -3073    -3114    -3150    -3186    -3219    -3253    -3291    -3331 
   -3367    -3401    -3438    -3478    -3515    -3547    -3579    -3614 
   -3646    -3676    -3704    -3732    -3759    -3783    -3806    -3833 
   -3863    -3890    -3911    -3933    -3959    -3984    -4010    -4034 
   -4049    -4064    -4084    -4100    -4113    -4125    -4137    -4147 
   -4154    -4160    -4168    -4173    -4174    -4173    -4171    -4172 
   -4176    -4177    -4173    -4167    -4164    -4159    -4151    -4144 
   -4135    -4122    -4110    -4097    -4082    -4065    -4047    -4028 
   -4009    -3987    -3963    -3938    -3914    -3892    -3867    -3840 
   -3817    -3792    -3760    -3729    -3700    -3667    -3634    -3601 
   -3566    -3531    -3500    -3470    -3437    -3397    -3357    -3323 
   -3287    -3248    -3214    -3182    -3141    -3099    -3059    -3015 
   -2973    -2933    -2897    -2864    -2829    -2793    -2759    -2719 
   -2680    -2649    -2620    -2590    -2559    -2526    -2490    -2454 
   -2418    -2388    -2363    -2338    -2314    -2289    -2263    -2235 
   -2207    -2181    -2159    -2139    -2121    -2101    -2082    -2062 
   -2038    -2017    -2004    -1991    -1975    -1962    -1950    -1938 
   -1928    -1918    -1906    -1898    -1892    -1885    -1879    -1868 
   -1858    -1852    -1849    -1846    -1836    -1821    -1812    -1802 
   -1788    -1777    -1771    -1765    -1763    -1767    -1767    -1764 
   -1762    -1761    -1760    -1763    -1767    -1767    -1766    -1773 
   -1781    -1784    -1792    -1802    -1808    -1814    -1825    -1839 
   -1851    -1863    -1883    -1904    -1920    -1938    -1962    -1984 
   -2006    -2030    -2056    -2085    -2108    -2133    -2169    -2207 
   -2237    -2268    -2305    -2343    -2378    -2412    -2445    -2480 
   -2522    -2563    -2602    -2641    -2682    -2719    -2750    -2783 
   -2823    -2863    -2895    -2924    -2958    -2990    -3023    -3057 
   -3087    -3117    -3149    -3176    -3196    -3219    -3242    -3261 
   -3283    -3312    -3334    -3348    -3367    -3388    -3403    -3418 
   -3436    -3448    -3452    -3461    -3472    -3484    -3498    -3513 
   -3521    -3524    -3533    -3544    -3549    -3553    -3562    -3571 
   -3582    -3599    -3611    -3622    -3640    -3658    -3669    -3678 
   -3689    -3698    -3707    -3720    -3737    -3749    -3761    -3776 
   -3789    -3805    -3828    -3852    -3874    -3896    -3912    -3928 
   -3949    -3972    -4000    -4030    -4052    -4070    -4088    -4105 
   -4124    -4143    -4163    -4181    -4196    -4209    -4224    -4243 
   -4267    -4288    -4303    -4316    -4334    -4355    -4377    -4397 
   -4416    -4436    -4450    -4464    -4483    -4500    -4516    -4533 
   -4545    -4557    -4574    -4591    -4605    -4619    -4632    -4646 
   -4660    -4676    -4692    -4701    -4703    -4711    -4719    -4726 
   -4738    -4748    -4754    -4765    -4776    -4775    -4770    -4772 
   -4774    -4770    -4768    -4768    -4764    -4758    -4750    -4739 
   -4727    -4716    -4706    -4691    -4668    -4650    -4639    -4626 
   -4607    -4583    -4555    -4531    -4505    -4470    -4430    -4392 
   -4359    -4327    -4288    -4242    -4195    -4146    -4097    -4055 
   -4011    -3956    -3902    -3852    -3795    -3736    -3684    -3634 
   -3576    -3510    -3447    -3385    -3317    -3253    -3196    -3137 
   -3072    -3006    -2944    -2883    -2818    -2755    -2695    -2631 
   -2565    -2501    -2436    -2370    -2306    -2240    -2172    -2108 
   -2049    -1987    -1927    -1872    -1815    -1756    -1701    -1647 
   -1592    -1537    -1488    -1443    -1400    -1358    -1312    -1267 
   -1230    -1196    -1164    -1135    -1103    -1071    -1042    -1014 
    -992     -974     -956     -943     -932     -915     -903     -903 
    -901     -890     -887     -891     -893     -898     -905     -913 
    -924     -939     -958     -976     -989    -1004    -1023    -1044 
   -1070    -1094    -1117    -1146    -1174    -1203    -1235    -1262 
   -1288    -1317    -1347    -1375    -1404    -1437    -1469    -1501 
   -1531    -1554    -1576    -1600    -1620    -1636    -1654    -1675 
   -1693    -1705    -1720    -1738    -1750    -1762    -1777    -1786 
   -1792    -1799    -1801    -1796    -1796    -1801    -1802    -1795 
   -1783    -1774    -1766    -1757    -1746    -1727    -1707    -1694 
   -1679    -1660    -1638    -1613    -1591    -1575    -1556    -1529 
   -1504    -1480    -1453    -1424    -1395    -1361    -1331    -1305 
   -1278    -1251    -1224    -1199    -1176    -1148    -1117    -1090 
   -1070    -1051    -1031    -1010     -988     -968     -949     -925 
    -901     -878     -858     -843     -830     -819     -806     -790 
    -775     -767     -763     -758     -751     -743     -735     -733 
    -736     -735     -731     -726     -726     -732     -738     -743 
    -749     -755     -761     -766     -773     -784     -798     -808 
    -818     -830     -843     -856     -869     -881     -899     -921 
    -942     -960     -979    -1000    -1019    -1040    -1057    -1069 
   -1082    -1096    -1110    -1125    -1148    -1172    -1192    -1209 
   -1225    -1242    -1258    -1279    -1300    -1318    -1340    -1365 
   -1386    -1405    -1422    -1437    -1453    -1474    -1496    -1511 
   -1523    -1541    -1562    -1579    -1595    -1613    -1635    -1658 
   -1676    -1691    -1706    -1722    -1737    -1750    -1767    -1785 
   -1799    -1812    -1827    -1842    -1855    -1868    -1883    -1898 
   -1912    -1928    -1947    -1967    -1982    -1996    -2012    -2026 
   -2036    -2047    -2060    -2071    -2078    -2087    -2096    -2102 
   -2109    -2119    -2125    -2132    -2142    -2148    -2151    -2157 
   -2161    -2162    -2164    -2167    -2173    -2177    -2175    -2176 
   -2177    -2176    -2178    -2177    -2173    -2168    -2161    -2150 
   -2138    -2122    -2106    -2093    -2082    -2070    -2054    -2035 
   -2016    -1990    -1962    -1939    -1916    -1890    -1867    -1843 
   -1817    -1790    -1765    -1740    -1710    -1677    -1646    -1612 
   -1576    -1547    -1515    -1479    -1444    -1411    -1379    -1347 
   -1314    -1276    -1239    -1209    -1180    -1147    -1112    -1079 
   -1049    -1021     -989     -955     -922     -889     -858     -830 
    -804     -778     -753     -733     -715     -697     -678     -658 
    -645     -638     -629     -618     -608     -598     -592     -592 
    -590     -591     -598     -603     -608     -612     -612     -617 
    -631     -646     -664     -682     -702     -724     -743     -768 
    -799     -822     -840     -863     -888     -913     -943     -970 
    -995    -1025    -1058    -1088    -1123    -1165    -1205    -1237 
   -1271    -1308    -1342    -1375    -1418    -1462    -1495    -1529 
   -1570    -1610    -1644    -1682    -1723    -1759    -1796    -1839 
   -1883    -1924    -1962    -2001    -2042    -2082    -2119    -2158 
   -2201    -2243    -2283    -2319    -2350    -2381    -2413    -2448 
   -2484    -2519    -2559    -2600    -2634    -2667    -2702    -2737 
   -2775    -2811    -2839    -2864    -2895    -2923    -2950    -2980 
   -3011    -3037    -3058    -3080    -3103    -3126    -3146    -3161 
   -3174    -3195    -3213    -3221    -3231    -3240    -3244    -3245 
   -3246    -3245    -3242    -3239    -3241    -3242    -3236    -3230 
   -3230    -3225    -3214    -3205    -3192    -3168    -3142    -3120 
   -3101    -3081    -3063    -3044    -3023    -2998    -2968    -2941 
   -2916    -2893    -2872    -2845    -2819    -2794    -2764    -2737 
   -2717    -2694    -2666    -2641    -2613    -2581    -2558    -2543 
   -2521    -2495    -2475    -2457    -2439    -2418    -2397    -2389 
   -2388    -2373    -2349    -2330    -2320    -2310    -2296    -2287 
   -2282    -2275    -2269    -2267    -2267    -2264    -2258    -2254 
   -2257    -2265    -2269    -2268    -2268    -2277    -2293    -2306 
   -2313    -2319    -2331    -2347    -2361    -2367    -2370    -2379 
   -2396    -2410    -2422    -2437    -2449    -2458    -2476    -2499 
   -2514    -2526    -2539    -2548    -2557    -2570    -2580    -2589 
   -2599    -2610    -2620    -2628    -2633    -2638    -2638    -2638 
   -2643    -2646    -2646    -2649    -2652    -2655    -2660    -2663 
   -2658    -2648    -2640    -2636    -2627    -2615    -2603    -2592 
   -2586    -2584    -2579    -2566    -2549    -2531    -2510    -2491 
   -2478    -2469    -2462    -2454    -2441    -2423    -2402    -2384 
   -2373    -2367    -2357    -2343    -2327    -2306    -2287    -2274 
   -2264    -2252    -2242    -2230    -2214    -2192    -2175    -2168 
   -2160    -2149    -2140    -2129    -2116    -2107    -2097    -2091 
   -2096    -2100    -2090    -2079    -2077    -2071    -2062    -2060 
   -2063    -2063    -2065    -2065    -2063    -2063    -2070    -2076 
   -2084    -2095    -2108    -2118    -2122    -2132    -2147    -2157 
   -2168    -2181    -2193    -2205    -2216    -2228    -2242    -2256 
   -2277    -2298    -2318    -2342    -2366    -2386    -2405    -2428 
   -2456    -2486    -2510    -2531    -2553    -2572    -2590    -2613 
   -2635    -2657    -2691    -2727    -2752    -2777    -2806    -2835 
   -2861    -2886    -2912    -2940    -2969    -2999    -3025    -3048 
   -3074    -3103    -3129    -3153    -3175    -3198    -3220    -3241 
   -3267    -3293    -3311    -3329    -3354    -3374    -3386    -3403 
   -3421    -3437    -3457    -3481    -3499    -3517    -3539    -3559 
   -3574    -3593    -3612    -3624    -3635    -3646    -3659    -3674 
   -3690    -3704    -3716    -3725    -3737    -3748    -3758    -3771 
   -3786    -3798    -3807    -3818    -3825    -3829    -3841    -3858 
   -3872    -3880    -3882    -3884    -3889    -3901    -3917    -3930 
   -3942    -3953    -3962    -3971    -3985    -4000    -4015    -4031 
   -4045    -4055    -4066    -4082    -4099    -4115    -4125    -4132 
   -4146    -4161    -4171    -4184    -4202    -4220    -4237    -4254 
   -4268    -4279    -4291    -4308    -4324    -4338    -4353    -4369 
   -4385    -4401    -4415    -4428    -4441    -4452    -4462    -4468 
   -4473    -4484    -4497    -4509    -4522    -4530    -4528    -4527 
   -4528    -4528    -4522    -4518    -4521    -4520    -4517    -4519 
   -4513    -4498    -4490    -4485    -4475    -4463    -4451    -4439 
   -4429    -4419    -4403    -4381    -4361    -4341    -4319    -4300 
   -4287    -4268    -4246    -4227    -4205    -4179    -4155    -4130 
   -4103    -4075    -4045    -4017    -3991    -3965    -3942    -3917 
   -3887    -3859    -3834    -3807    -3780    -3753    -3725    -3698 
   -3674    -3652    -3628    -3603    -3577    -3548    -3520    -3498 
   -3479    -3457    -3431    -3405    -3379    -3352    -3324    -3299 
   -3277    -3252    -3223    -3198    -3179    -3161    -3137    -3113 
   -3090    -3061    -3032    -3007    -2976    -2944    -2917    -2890 
   -2858    -2822    -2785    -2749    -2718    -2687    -2648    -2604 
   -2565    -2522    -2471    -2425    -2380    -2329    -2277    -2229 
   -2175    -2117    -2058    -2000    -1938    -1869    -1794    -1719 
   -1647    -1583    -1519    -1448    -1376    -1301    -1222    -1145 
   -1070     -992     -912     -834     -753     -666     -583     -506 
    -426     -340     -251     -164      -84       -6       68      141 
     217      298      379      453      523      589      650      717 
     791      858      914      962     1008     1060     1116     1168 
    1213     1249     1279     1312     1349     1383     1411     1435 
    1456     1468     1475     1479     1481     1482     1477     1463 
    1442     1421     1404     1380     1355     1330     1297     1260 
    1224     1185     1147     1106     1059     1006      945      879 
     815      752      685      618      552      479      406      332 
     255      174       91        9      -72     -157     -245     -332 
    -421     -513     -603     -695     -789     -882     -974    -1065 
   -1157    -1250    -1339    -1423    -1509    -1602    -1692    -1776 
   -1865    -1956    -2042    -2132    -2223    -2306    -2386    -2469 
   -2551    -2627    -2700    -2773    -2843    -2912    -2980    -3045 
   -3110    -3172    -3230    -3286    -3341    -3395    -3448    -3497 
   -3538    -3575    -3614    -3655    -3698    -3733    -3753    -3772 
   -3800    -3823    -3833    -3843    -3861    -3877    -3887    -3891 
   -3893    -3895    -3894    -3890    -3892    -3887    -3872    -3858 
   -3843    -3826    -3810    -3792    -3770    -3748    -3729    -3710 
   -3685    -3655    -3626    -3592    -3555    -3522    -3493    -3462 
   -3429    -3393    -3350    -3308    -3271    -3236    -3198    -3154 
   -3112    -3074    -3037    -3002    -2969    -2934    -2899    -2863 
   -2823    -2785    -2753    -2721    -2685    -2645    -2608    -2577 
   -2547    -2513    -2476    -2442    -2410    -2378    -2344    -2308 
   -2281    -2258    -2224    -2190    -2164    -2141    -2120    -2099 
   -2070    -2040    -2012    -1985    -1960    -1938    -1915    -1897 
   -1876    -1853    -1838    -1822    -1800    -1781    -1766    -1748 
   -1729    -1710    -1692    -1681    -1673    -1661    -1644    -1624 
   -1610    -1602    -1593    -1581    -1569    -1549    -1528    -1514 
   -1503    -1492    -1485    -1480    -1474    -1461    -1444    -1430 
   -1417    -1409    -1407    -1406    -1398    -1388    -1377    -1361 
   -1346    -1341    -1334    -1321    -1310    -1297    -1286    -1286 
   -1284    -1275    -1265    -1253    -1241    -1231    -1225    -1225 
   -1227    -1220    -1214    -1214    -1214    -1215    -1216    -1211 
   -1207    -1206    -1208    -1212    -1212    -1212    -1210    -1208 
   -1211    -1219    -1224    -1227    -1233    -1243    -1252    -1261 
   -1280    -1302    -1314    -1322    -1335    -1349    -1364    -1387 
   -1410    -1428    -1445    -1467    -1488    -1505    -1518    -1537 
   -1562    -1582    -1605    -1629    -1643    -1657    -1681    -1705 
   -1727    -1751    -1774    -1795    -1812    -1826    -1843    -1860 
   -1875    -1892    -1915    -1941    -1966    -1986    -2003    -2020 
   -2035    -2054    -2077    -2096    -2109    -2125    -2143    -2155 
   -2162    -2174    -2190    -2207    -2225    -2241    -2257    -2271 
   -2288    -2310    -2328    -2342    -2362    -2383    -2398    -2416 
   -2437    -2456    -2480    -2504    -2520    -2533    -2549    -2569 
   -2592    -2608    -2620    -2639    -2662    -2685    -2711    -2733 
   -2748    -2760    -2780    -2802    -2820    -2840    -2863    -2885 
   -2904    -2925    -2950    -2973    -2997    -3021    -3038    -3052 
   -3070    -3093    -3115    -3133    -3149    -3170    -3194    -3215 
   -3234    -3253    -3268    -3279    -3293    -3312    -3329    -3344 
   -3357    -3372    -3390    -3407    -3420    -3426    -3426    -3427 
   -3437    -3452    -3463    -3475    -3485    -3489    -3489    -3492 
   -3499    -3503    -3507    -3516    -3524    -3520    -3510    -3507 
   -3514    -3519    -3516    -3510    -3500    -3489    -3485    -3485 
   -3480    -3469    -3453    -3441    -3438    -3435    -3426    -3411 
   -3392    -3374    -3353    -3334    -3321    -3310    -3293    -3274 
   -3252    -3227    -3207    -3189    -3167    -3144    -3121    -3100 
   -3081    -3057    -3036    -3018    -2998    -2977    -2953    -2924 
   -2898    -2873    -2842    -2809    -2777    -2750    -2726    -2698 
   -2669    -2641    -2611    -2586    -2569    -2547    -2515    -2487 
   -2461    -2435    -2408    -2381    -2351    -2321    -2295    -2268 
   -2235    -2202    -2180    -2160    -2136    -2115    -2097    -2076 
   -2050    -2024    -2002    -1984    -1968    -1954    -1937    -1914 
   -1894    -1876    -1856    -1841    -1830    -1815    -1797    -1779 
   -1764    -1749    -1734    -1723    -1711    -1694    -1677    -1662 
   -1644    -1623    -1608    -1601    -1594    -1582    -1572    -1562 
   -1552    -1550    -1550    -1541    -1529    -1518    -1511    -1501 
   -1486    -1471    -1461    -1459    -1461    -1459    -1451    -1441 
   -1436    -1434    -1434    -1436    -1438    -1437    -1434    -1439 
   -1446    -1451    -1458    -1467    -1472    -1480    -1493    -1504 
   -1516    -1536    -1555    -1567    -1581    -1603    -1631    -1657 
   -1678    -1698    -1722    -1756    -1790    -1812    -1834    -1865 
   -1893    -1918    -1948    -1981    -2013    -2049    -2090    -2130 
   -2169    -2209    -2255    -2298    -2332    -2366    -2409    -2456 
   -2504    -2552    -2596    -2640    -2689    -2739    -2784    -2824 
   -2867    -2915    -2963    -3006    -3054    -3106    -3155    -3204 
   -3249    -3286    -3323    -3365    -3408    -3455    -3502    -3544 
   -3583    -3626    -3669    -3706    -3736    -3770    -3803    -3834 
   -3864    -3902    -3942    -3973    -3996    -4023    -4046    -4065 
   -4086    -4111    -4135    -4155    -4169    -4178    -4182    -4192 
   -4208    -4219    -4221    -4224    -4224    -4214    -4208    -4208 
   -4198    -4177    -4152    -4136    -4132    -4124    -4102    -4075 
   -4046    -4014    -3982    -3953    -3930    -3904    -3870    -3835 
   -3801    -3761    -3716    -3676    -3635    -3581    -3523    -3469 
   -3417    -3369    -3327    -3285    -3233    -3181    -3135    -3088 
   -3034    -2979    -2930    -2881    -2827    -2773    -2718    -2661 
