Origin Time       2016/04/16 01:25:00
Lat.              32.753
Long.             130.762
Depth. (km)       12
Mag.              7.3
Station Code      TYM002
Station Lat.      36.8660
Station Long.     136.9747
Station Height(m) 3
Record Time       2016/04/16 01:28:36
Sampling Freq(Hz) 100Hz
Duration Time(s)  112
Dir.              N-S
Scale Factor      3920(gal)/6182761
Max. Acc. (gal)   3.214
Last Correction   2016/04/16 01:28:37
Memo.             
[...]
   19139    19081    19017    18956    18893    18825    18755    18683 
   18612    18543    18469    18389    18313    18240    18159    18081 
   18004    17919    17839    17764    17686    17605    17528    17451 
   17371    17296    17222    17144    17073    17006    16937    16872 
   16807    16742    16680    16625    16570    16510    16459    16412 
   16359    16312    16270    16229    16189    16150    16117    16080 
   16044    16023    15996    15965    15946    15926    15905    15895 
   15888    15880    15871    15870    15874    15873    15878    15889 
   15905    15926    15949    15975    16005    16039    16081    16122 
   16166    16218    16274    16338    16403    16469    16540    16606 
   16682    16768    16845    16927    17015    17098    17188    17281 
   17368    17454    17544    17639    17728    17816    17909    17997 
   18083    18171    18255    18334    18416    18502    18578    18648 
   18724    18796    18861    18926    18990    19053    19111    19170 
   19228    19280    19329    19369    19411    19459    19496    19526 
   19562    19594    19622    19648    19673    19692    19706    19726 
   19739    19742    19752    19758    19759    19767    19767    19761 
   19758    19752    19740    19728    19717    19703    19682    19666 
   19650    19626    19603    19580    19556    19533    19504    19474 
   19446    19416    19384    19353    19323    19287    19249    19212 
   19173    19134    19095    19055    19017    18975    18930    18888 
   18844    18802    18762    18713    18668    18627    18583    18537 
   18491    18448    18401    18356    18317    18269    18226    18187 
   18134    18093    18061    18016    17974    17939    17901    17863 
   17830    17801    17767    17732    17711    17685    17650    17628 
   17605    17579    17563    17545    17523    17506    17496    17485 
   17467    17457    17451    17440    17433    17430    17422    17418 
   17418    17416    17412    17409    17408    17408    17408    17409 
   17409    17406    17407    17410    17408    17405    17405    17408 
   17410    17413    17414    17415    17422    17429    17432    17431 
   17429    17434    17441    17442    17444    17445    17444    17450 
   17447    17439    17439    17434    17430    17431    17420    17405 
   17398    17392    17380    17365    17352    17337    17317    17308 
   17298    17271    17250    17235    17217    17202    17187    17171 
   17156    17144    17138    17132    17120    17115    17116    17112 
   17110    17117    17120    17125    17141    17154    17162    17178 
   17199    17218    17236    17254    17276    17299    17327    17353 
   17374    17406    17440    17469    17501    17533    17567    17601 
   17637    17679    17714    17751    17797    17838    17883    17931 
   17973    18019    18066    18116    18163    18208    18261    18313 
   18362    18416    18462    18505    18556    18605    18652    18701 
   18752    18804    18853    18897    18939    18987    19034    19075 
   19120    19161    19199    19241    19278    19313    19349    19381 
   19413    19441    19467    19495    19510    19524    19543    19548 
   19554    19561    19556    19555    19551    19533    19520    19506 
   19475    19445    19423    19392    19352    19319    19283    19235 
   19192    19152    19100    19049    19005    18954    18899    18851 
   18802    18740    18682    18632    18572    18504    18445    18386 
   18320    18256    18199    18138    18075    18016    17955    17890 
   17827    17764    17699    17636    17570    17503    17438    17370 
   17300    17231    17162    17096    17029    16957    16891    16828 
   16763    16700    16636    16568    16502    16436    16369    16304 
   16240    16177    16117    16057    15998    15940    15885    15834 
   15784    15736    15689    15640    15595    15556    15516    15477 
   15437    15404    15380    15351    15325    15306    15278    15262 
   15259    15243    15230    15229    15226    15225    15229    15236 
   15245    15257    15276    15297    15319    15348    15379    15412 
   15455    15500    15542    15592    15651    15706    15763    15829 
   15899    15970    16043    16119    16199    16278    16356    16442 
   16528    16607    16693    16782    16865    16949    17035    17120 
   17204    17284    17363    17438    17511    17591    17659    17721 
   17794    17861    17916    17978    18038    18087    18135    18186 
   18231    18269    18309    18350    18382    18415    18450    18471 
   18493    18518    18533    18546    18557    18562    18566    18572 
   18572    18565    18555    18548    18534    18514    18500    18479 
   18449    18425    18399    18365    18328    18290    18251    18213 
   18173    18129    18082    18035    17990    17941    17888    17836 
   17785    17729    17672    17620    17562    17505    17454    17394 
   17336    17286    17227    17170    17121    17067    17012    16963 
   16913    16864    16815    16771    16730    16681    16641    16608 
   16563    16527    16502    16467    16438    16415    16389    16368 
   16350    16332    16318    16305    16298    16291    16287    16291 
   16288    16286    16296    16300    16303    16314    16323    16334 
   16349    16365    16381    16398    16415    16429    16446    16466 
   16483    16504    16522    16537    16555    16571    16585    16601 
   16615    16628    16639    16647    16654    16657    16659    16664 
   16661    16656    16653    16649    16642    16633    16621    16609 
   16598    16588    16571    16553    16538    16522    16503    16483 
   16465    16443    16423    16410    16389    16363    16349    16327 
   16300    16288    16271    16246    16226    16210    16189    16167 
   16154    16136    16112    16101    16087    16064    16049    16035 
   16019    16005    15984    15967    15953    15937    15922    15904 
   15887    15871    15858    15846    15831    15821    15812    15801 
   15793    15784    15775    15776    15776    15773    15775    15780 
   15786    15797    15815    15832    15841    15864    15894    15916 
   15945    15983    16017    16054    16100    16148    16196    16245 
   16300    16357    16414    16475    16537    16598    16666    16733 
   16797    16867    16941    17011    17085    17159    17232    17311 
   17392    17472    17550    17626    17707    17790    17870    17950 
   18032    18112    18194    18279    18360    18439    18520    18602 
   18681    18758    18836    18914    18989    19063    19135    19204 
   19272    19341    19406    19469    19532    19593    19655    19715 
   19768    19820    19870    19918    19965    20005    20044    20088 
   20118    20142    20173    20196    20213    20231    20244    20252 
   20260    20265    20265    20262    20259    20250    20232    20216 
   20201    20183    20160    20133    20108    20078    20043    20015 
   19978    19939    19904    19861    19818    19779    19734    19689 
   19645    19601    19554    19505    19463    19417    19365    19321 
   19275    19230    19186    19141    19103    19063    19021    18984 
   18946    18912    18880    18845    18820    18794    18768    18749 
   18728    18711    18696    18682    18680    18673    18665    18672 
   18673    18673    18684    18692    18698    18712    18732    18746 
   18761    18785    18802    18821    18850    18873    18895    18925 
   18956    18986    19017    19054    19085    19110    19145    19179 
   19203    19233    19266    19290    19315    19345    19373    19395 
   19420    19446    19464    19483    19505    19523    19535    19545 
   19557    19566    19568    19571    19567    19564    19565    19551 
   19540    19528    19504    19487    19467    19435    19405    19368 
   19331    19300    19258    19212    19167    19116    19065    19013 
   18952    18889    18828    18765    18701    18632    18555    18480 
   18405    18325    18247    18163    18072    17989    17901    17807 
   17719    17625    17528    17437    17343    17243    17147    17053 
   16957    16860    16765    16669    16573    16482    16388    16292 
   16200    16109    16018    15931    15842    15750    15663    15579 
   15495    15413    15329    15245    15170    15096    15021    14947 
   14874    14809    14750    14686    14618    14556    14502    14450 
   14392    14340    14293    14248    14207    14165    14121    14085 
   14055    14023    13992    13969    13947    13924    13910    13902 
   13890    13883    13882    13884    13888    13898    13914    13925 
   13943    13974    13999    14025    14060    14098    14143    14191 
   14238    14287    14344    14411    14473    14536    14609    14679 
   14757    14842    14923    15009    15096    15187    15285    15383 
   15482    15585    15692    15799    15906    16021    16138    16248 
   16365    16486    16604    16726    16842    16958    17082    17198 
   17316    17437    17548    17666    17784    17891    18005    18118 
   18220    18326    18428    18522    18620    18710    18791    18881 
   18960    19027    19103    19170    19227    19286    19340    19391 
   19437    19482    19527    19553    19585    19625    19645    19664 
   19692    19708    19721    19737    19750    19755    19759    19768 
   19770    19764    19764    19759    19753    19753    19748    19735 
   19725    19719    19712    19698    19685    19671    19657    19647 
   19632    19613    19595    19576    19559    19542    19525    19503 
   19477    19460    19440    19410    19388    19363    19330    19304 
   19277    19248    19215    19182    19152    19117    19081    19048 
   19010    18972    18938    18900    18857    18818    18783    18744 
   18699    18659    18618    18575    18535    18493    18451    18410 
   18370    18334    18296    18257    18221    18185    18151    18118 
   18084    18051    18022    17996    17966    17939    17919    17890 
   17869    17857    17831    17809    17797    17781    17771    17763 
   17745    17735    17734    17728    17720    17718    17718    17713 
   17718    17728    17725    17726    17738    17744    17750    17760 
   17766    17774    17790    17806    17812    17821    17839    17849 
   17858    17872    17880    17888    17902    17914    17919    17929 
   17941    17946    17953    17962    17961    17959    17960    17956 
   17954    17948    17937    17928    17915    17900    17885    17865 
   17848    17830    17807    17784    17759    17735    17713    17687 
   17662    17635    17610    17587    17558    17532    17506    17477 
   17457    17436    17407    17383    17362    17343    17324    17304 
   17288    17271    17255    17242    17230    17218    17207    17200 
   17198    17196    17199    17203    17203    17208    17219    17231 
   17241    17255    17275    17295    17314    17339    17362    17387 
   17416    17446    17475    17505    17537    17570    17602    17639 
   17672    17700    17738    17778    17812    17852    17889    17920 
   17959    17998    18033    18071    18111    18151    18190    18230 
   18270    18309    18346    18389    18433    18468    18506    18552 
   18590    18625    18661    18694    18733    18768    18800    18839 
   18868    18899    18939    18970    19001    19035    19058    19088 
   19124    19146    19167    19195    19221    19246    19274    19297 
   19316    19341    19371    19391    19407    19431    19454    19475 
   19500    19519    19535    19560    19582    19601    19629    19650 
   19663    19684    19712    19731    19743    19762    19785    19800 
   19818    19833    19842    19853    19864    19878    19886    19888 
   19902    19910    19906    19908    19904    19901    19904    19898 
   19890    19881    19869    19863    19851    19836    19828    19814 
   19800    19786    19770    19754    19732    19710    19692    19670 
   19644    19615    19590    19569    19540    19509    19480    19454 
   19430    19399    19365    19335    19302    19267    19235    19202 
   19160    19119    19086    19041    18992    18955    18906    18852 
   18808    18754    18695    18644    18589    18531    18469    18408 
   18351    18286    18228    18171    18100    18036    17981    17912 
   17846    17788    17722    17655    17592    17533    17467    17397 
   17337    17277    17208    17145    17079    17013    16955    16889 
   16820    16760    16697    16635    16575    16516    16460    16401 
   16347    16297    16245    16198    16151    16105    16066    16024 
   15985    15950    15916    15888    15856    15827    15808    15784 
   15763    15752    15739    15729    15725    15720    15721    15725 
   15731    15738    15750    15770    15787    15808    15839    15867 
   15900    15939    15977    16023    16073    16124    16182    16245 
   16312    16380    16456    16540    16621    16708    16804    16895 
   16995    17105    17211    17319    17434    17552    17669    17788 
   17912    18037    18167    18302    18435    18573    18709    18846 
   18993    19135    19276    19421    19560    19705    19851    19990 
   20135    20280    20420    20558    20699    20838    20970    21103 
   21236    21359    21484    21606    21717    21829    21938    22037 
   22132    22224    22310    22391    22467    22539    22603    22664 
   22720    22758    22794    22833    22859    22877    22897    22904 
   22901    22901    22897    22882    22862    22841    22818    22786 
   22752    22717    22672    22629    22587    22537    22485    22430 
   22374    22320    22260    22197    22137    22071    22008    21949 
   21880    21813    21749    21679    21611    21547    21477    21408 
   21344    21276    21206    21142    21079    21010    20945    20881 
   20813    20742    20679    20616    20542    20471    20406    20336 
   20269    20202    20126    20056    19988    19914    19838    19763 
   19689    19613    19534    19460    19382    19298    19214    19131 
   19048    18960    18877    18793    18702    18619    18535    18438 
   18347    18262    18166    18070    17983    17892    17794    17703 
   17612    17514    17426    17337    17243    17160    17073    16978 
   16891    16805    16722    16641    16558    16484    16412    16335 
   16264    16199    16132    16071    16016    15958    15905    15863 
   15818    15772    15736    15706    15674    15648    15632    15615 
   15596    15591    15590    15583    15585    15595    15603    15618 
   15640    15659    15681    15711    15746    15776    15812    15857 
   15894    15930    15979    16021    16059    16108    16153    16189 
   16233    16280    16318    16358    16400    16438    16479    16518 
   16554    16590    16623    16657    16688    16709    16735    16762 
   16781    16802    16820    16834    16845    16856    16867    16870 
   16871    16875    16867    16856    16850    16834    16810    16793 
   16770    16740    16713    16682    16646    16607    16569    16531 
   16487    16439    16397    16351    16300    16255    16204    16149 
   16101    16048    15995    15944    15888    15836    15784    15726 
   15680    15632    15576    15532    15487    15434    15394    15356 
   15309    15268    15229    15189    15156    15128    15100    15073 
   15050    15036    15024    15008    14997    14995    14997    15001 
   15010    15021    15037    15058    15085    15110    15140    15178 
   15211    15253    15305    15346    15391    15451    15507    15566 
   15632    15699    15764    15835    15916    15993    16065    16149 
   16236    16322    16413    16504    16595    16688    16788    16887 
   16978    17079    17188    17288    17388    17488    17591    17698 
   17803    17913    18016    18115    18224    18323    18415    18522 
   18620    18707    18807    18903    18986    19071    19160    19241 
   19313    19391    19466    19531    19601    19670    19727    19777 
   19833    19886    19927    19970    20014    20042    20074    20108 
   20124    20140    20161    20174    20180    20186    20186    20177 
   20173    20168    20148    20125    20109    20084    20051    20018 
   19987    19949    19907    19870    19827    19773    19724    19677 
   19618    19562    19510    19447    19382    19327    19264    19190 
   19121    19053    18979    18906    18836    18762    18682    18605 
   18530    18451    18368    18289    18208    18123    18044    17964 
   17878    17798    17719    17636    17556    17478    17401    17324 
   17247    17175    17104    17028    16959    16891    16821    16758 
   16697    16634    16576    16524    16475    16423    16377    16336 
   16291    16253    16221    16185    16159    16142    16123    16109 
   16099    16088    16080    16079    16088    16093    16099    16121 
   16136    16153    16185    16212    16239    16279    16318    16357 
   16401    16448    16498    16553    16608    16660    16720    16785 
   16847    16913    16984    17053    17126    17203    17279    17354 
   17429    17507    17582    17658    17734    17807    17883    17957 
   18029    18101    18168    18233    18300    18364    18422    18477 
   18534    18586    18628    18674    18716    18747    18782    18812 
   18831    18849    18867    18879    18885    18888    18888    18879 
   18871    18859    18836    18813    18788    18756    18727    18696 
   18659    18614    18564    18520    18470    18407    18351    18294 
   18230    18166    18098    18026    17952    17877    17803    17723 
   17640    17562    17481    17398    17316    17232    17148    17066 
   16982    16898    16812    16727    16646    16562    16478    16397 
   16314    16236    16162    16080    15999    15928    15855    15784 
   15718    15650    15584    15526    15469    15411    15356    15305 
   15257    15211    15166    15125    15087    15049    15015    14988 
   14957    14927    14909    14891    14871    14861    14848    14833 
   14829    14828    14824    14825    14830    14836    14844    14850 
   14858    14869    14881    14899    14917    14928    14947    14974 
   14992    15012    15039    15060    15082    15114    15143    15165 
   15192    15226    15255    15283    15323    15354    15376    15417 
   15457    15483    15521    15558    15588    15628    15668    15702 
   15738    15777    15821    15857    15890    15935    15976    16015 
   16060    16106    16148    16189    16238    16288    16334    16383 
   16435    16485    16538    16592    16646    16698    16749    16803 
   16852    16905    16966    17017    17070    17127    17177    17229 
   17281    17329    17381    17430    17480    17528    17576    17629 
   17672    17711    17760    17806    17847    17889    17932    17972 
   18010    18054    18096    18130    18173    18212    18247    18291 
   18327    18360    18399    18432    18468    18505    18536    18571 
   18601    18634    18672    18704    18736    18768    18799    18830 
   18859    18887    18910    18932    18965    18990    19006    19030 
   19049    19062    19080    19096    19109    19117    19125    19133 
   19139    19140    19137    19135    19134    19126    19117    19106 
   19088    19074    19061    19039    19016    18994    18969    18941 
