Origin Time       2016/04/16 01:25:00
Lat.              32.753
Long.             130.762
Depth. (km)       12
Mag.              7.3
Station Code      TYM002
Station Lat.      36.8660
Station Long.     136.9747
Station Height(m) 3
Record Time       2016/04/16 01:28:36
Sampling Freq(Hz) 100Hz
Duration Time(s)  112
Dir.              E-W
Scale Factor      3920(gal)/6182761
Max. Acc. (gal)   2.993
Last Correction   2016/04/16 01:28:37
Memo.             
[...]
    2826     2923     3019     3115     3212     3307     3401     3499 
    3599     3695     3795     3894     3992     4094     4189     4280 
    4377     4476     4572     4666     4758     4852     4945     5037 
    5129     5217     5302     5384     5463     5544     5623     5695 
    5766     5840     5912     5977     6040     6103     6163     6223 
    6279     6327     6374     6422     6470     6516     6556     6590 
    6629     6665     6700     6739     6767     6789     6818     6844 
    6867     6891     6906     6922     6940     6950     6961     6972 
    6974     6977     6981     6975     6966     6958     6945     6927 
    6904     6877     6849     6818     6781     6742     6697     6650 
    6602     6548     6490     6430     6364     6299     6230     6156 
    6083     6001     5916     5834     5747     5659     5569     5472 
    5377     5283     5182     5080     4980     4874     4767     4663 
    4554     4445     4337     4226     4117     4007     3893     3782 
    3668     3552     3439     3321     3203     3091     2976     2861 
    2747     2632     2518     2404     2289     2177     2067     1958 
    1852     1747     1642     1536     1430     1330     1235     1141 
    1049      958      872      791      711      633      561      494 
     430      367      305      254      208      165      127       92 
      62       37       14       -4      -16      -27      -37      -39 
     -37      -32      -24      -16        2       23       40       61 
      84      110      141      174      207      243      279      317 
     357      396      441      485      523      567      614      655 
     705      761      809      857      907      949      997     1050 
    1101     1154     1206     1259     1313     1364     1414     1467 
    1519     1567     1615     1669     1724     1773     1822     1874 
    1922     1968     2016     2063     2107     2149     2192     2238 
    2280     2318     2360     2402     2439     2479     2516     2549 
    2587     2622     2653     2689     2721     2750     2780     2806 
    2833     2858     2879     2901     2924     2945     2966     2982 
    2999     3012     3021     3035     3046     3051     3060     3066 
    3070     3076     3074     3072     3078     3080     3081     3087 
    3088     3091     3097     3098     3099     3105     3110     3118 
    3124     3129     3139     3150     3158     3167     3178     3189 
    3198     3211     3229     3243     3255     3270     3285     3301 
    3320     3335     3348     3367     3385     3401     3421     3440 
    3459     3482     3503     3526     3549     3571     3597     3625 
    3651     3681     3711     3741     3774     3805     3837     3872 
    3907     3943     3981     4018     4057     4099     4140     4184 
    4230     4275     4322     4372     4425     4476     4522     4574 
    4628     4678     4732     4786     4837     4895     4954     5009 
    5066     5122     5179     5237     5292     5352     5413     5471 
    5528     5585     5641     5697     5755     5814     5869     5922 
    5975     6028     6079     6131     6181     6225     6273     6319 
    6359     6401     6437     6468     6501     6530     6553     6575 
    6593     6608     6622     6630     6637     6642     6640     6638 
    6634     6624     6613     6594     6574     6555     6527     6496 
    6465     6428     6389     6347     6299     6252     6201     6145 
    6088     6025     5959     5894     5823     5751     5676     5594 
    5515     5432     5344     5255     5161     5066     4973     4873 
    4772     4676     4573     4467     4365     4259     4152     4053 
    3945     3835     3734     3627     3520     3417     3312     3210 
    3105     3000     2905     2807     2707     2612     2521     2432 
    2344     2257     2173     2088     2008     1933     1858     1786 
    1718     1648     1580     1522     1466     1407     1352     1304 
    1257     1213     1175     1138     1102     1074     1048     1026 
    1012      999      991      988      986      987      993     1005 
    1021     1042     1064     1088     1123     1161     1199     1242 
    1289     1338     1391     1451     1513     1576     1646     1723 
    1795     1870     1952     2034     2118     2206     2293     2383 
    2476     2572     2670     2766     2864     2966     3065     3165 
    3269     3369     3469     3573     3675     3779     3881     3980 
    4082     4180     4274     4369     4459     4547     4637     4724 
    4803     4880     4954     5023     5092     5154     5207     5263 
    5313     5356     5398     5433     5462     5493     5517     5533 
    5546     5555     5558     5560     5558     5551     5538     5522 
    5504     5483     5456     5426     5392     5352     5314     5273 
    5226     5178     5125     5066     5006     4942     4873     4803 
    4733     4661     4582     4503     4427     4345     4261     4182 
    4098     4011     3934     3857     3773     3691     3615     3540 
    3462     3387     3316     3245     3178     3115     3053     2993 
    2933     2871     2814     2764     2714     2663     2615     2569 
    2522     2476     2436     2404     2367     2330     2299     2267 
    2237     2212     2192     2173     2151     2133     2119     2105 
    2092     2081     2072     2066     2062     2058     2059     2059 
    2060     2066     2068     2072     2086     2099     2111     2123 
    2132     2149     2172     2191     2211     2234     2259     2288 
    2317     2342     2371     2407     2441     2476     2513     2547 
    2580     2617     2654     2691     2728     2766     2802     2833 
    2871     2911     2944     2980     3017     3050     3084     3120 
    3153     3183     3214     3244     3271     3303     3336     3365 
    3395     3429     3461     3490     3524     3554     3582     3613 
    3643     3671     3703     3735     3767     3800     3832     3867 
    3901     3934     3966     3997     4027     4061     4094     4125 
    4157     4186     4214     4246     4276     4300     4323     4349 
    4374     4393     4410     4433     4453     4470     4484     4493 
    4503     4514     4516     4519     4522     4514     4502     4492 
    4478     4458     4438     4420     4397     4366     4337     4309 
    4273     4233     4195     4154     4110     4066     4016     3968 
    3920     3869     3818     3763     3712     3662     3605     3554 
    3505     3448     3398     3350     3301     3256     3208     3160 
    3116     3069     3025     2987     2942     2899     2864     2827 
    2789     2752     2718     2687     2659     2632     2608     2580 
    2555     2536     2515     2493     2478     2464     2448     2437 
    2425     2414     2409     2405     2403     2404     2400     2397 
    2397     2400     2408     2413     2416     2421     2428     2439 
    2450     2458     2469     2482     2493     2509     2524     2533 
    2544     2561     2580     2601     2614     2623     2641     2658 
    2670     2685     2699     2712     2725     2738     2750     2758 
    2764     2772     2776     2778     2785     2789     2789     2789 
    2788     2789     2789     2786     2784     2780     2772     2765 
    2757     2745     2738     2730     2716     2706     2697     2685 
    2674     2663     2652     2641     2631     2622     2614     2608 
    2603     2599     2594     2589     2588     2592     2597     2600 
    2606     2614     2625     2639     2654     2668     2687     2709 
    2731     2753     2778     2806     2832     2860     2894     2924 
    2955     2993     3029     3062     3102     3142     3179     3219 
    3260     3302     3345     3388     3431     3477     3522     3564 
    3607     3648     3688     3732     3773     3812     3853     3892 
    3934     3976     4013     4053     4096     4131     4166     4205 
    4243     4280     4319     4357     4396     4438     4478     4517 
    4557     4598     4638     4680     4725     4768     4811     4854 
    4894     4939     4987     5025     5065     5107     5143     5181 
    5216     5249     5285     5315     5343     5368     5390     5416 
    5440     5455     5472     5486     5493     5504     5514     5517 
    5518     5519     5520     5517     5510     5507     5505     5498 
    5493     5487     5476     5469     5463     5453     5443     5435 
    5425     5416     5408     5402     5396     5385     5380     5378 
    5372     5367     5362     5354     5352     5350     5346     5342 
    5338     5336     5336     5335     5334     5335     5333     5333 
    5336     5338     5339     5342     5342     5344     5348     5351 
    5356     5359     5359     5361     5358     5357     5362     5360 
    5357     5356     5347     5343     5340     5325     5317     5306 
    5285     5271     5254     5230     5212     5189     5159     5129 
    5097     5061     5024     4983     4942     4897     4850     4806 
    4761     4710     4660     4609     4558     4509     4458     4406 
    4354     4303     4252     4198     4143     4093     4043     3987 
    3933     3881     3829     3775     3723     3671     3617     3563 
    3512     3459     3407     3353     3298     3245     3193     3139 
    3086     3034     2980     2927     2874     2822     2771     2717 
    2664     2615     2567     2518     2470     2419     2369     2320 
    2271     2225     2181     2132     2084     2042     1998     1952 
    1908     1864     1820     1778     1741     1701     1659     1623 
    1586     1548     1517     1489     1457     1430     1408     1385 
    1365     1345     1325     1310     1296     1283     1275     1264 
    1257     1256     1251     1248     1249     1249     1251     1254 
    1258     1265     1274     1282     1296     1310     1320     1337 
    1356     1374     1395     1419     1445     1473     1500     1530 
    1564     1597     1633     1668     1704     1743     1778     1816 
    1856     1893     1934     1976     2017     2059     2098     2134 
    2175     2218     2258     2296     2335     2377     2416     2453 
    2493     2531     2569     2609     2647     2687     2730     2771 
    2812     2857     2899     2937     2980     3025     3067     3111 
    3156     3196     3233     3274     3314     3353     3391     3428 
    3465     3498     3528     3558     3588     3617     3642     3663 
    3686     3711     3732     3751     3769     3788     3809     3827 
    3847     3864     3876     3891     3904     3915     3926     3933 
    3942     3949     3950     3957     3962     3962     3967     3968 
    3963     3963     3960     3954     3949     3945     3938     3930 
    3925     3921     3914     3904     3893     3884     3876     3865 
    3850     3834     3822     3809     3794     3777     3759     3742 
    3727     3709     3690     3671     3657     3640     3617     3596 
    3577     3559     3539     3518     3499     3479     3457     3437 
    3417     3397     3380     3362     3345     3329     3310     3291 
    3272     3257     3246     3228     3205     3194     3183     3165 
    3151     3135     3122     3117     3106     3097     3089     3081 
    3075     3070     3067     3060     3057     3062     3060     3057 
    3061     3061     3063     3065     3063     3069     3073     3072 
    3077     3080     3084     3094     3097     3099     3105     3110 
    3115     3119     3118     3121     3123     3123     3125     3119 
    3110     3108     3102     3092     3083     3071     3058     3045 
    3029     3014     2995     2971     2952     2931     2903     2877 
    2854     2828     2801     2776     2746     2716     2691     2666 
    2641     2617     2593     2569     2546     2527     2508     2489 
    2474     2462     2451     2441     2433     2429     2424     2419 
    2421     2425     2426     2436     2448     2457     2474     2493 
    2511     2533     2557     2587     2618     2647     2683     2720 
    2757     2803     2852     2895     2947     3006     3058     3116 
    3182     3246     3310     3376     3450     3527     3598     3676 
    3756     3834     3921     4007     4089     4178     4266     4354 
    4447     4536     4623     4716     4807     4901     4993     5076 
    5167     5264     5351     5433     5517     5603     5687     5764 
    5843     5920     5989     6058     6125     6186     6244     6300 
    6349     6395     6442     6482     6518     6552     6582     6607 
    6629     6646     6659     6668     6672     6673     6672     6665 
    6658     6647     6627     6605     6582     6555     6526     6491 
    6454     6413     6368     6327     6282     6226     6171     6115 
    6054     5993     5926     5854     5782     5706     5628     5541 
    5453     5366     5269     5171     5074     4968     4861     4750 
    4631     4515     4394     4267     4141     4012     3876     3741 
    3602     3462     3322     3178     3031     2885     2736     2583 
    2433     2286     2135     1983     1834     1684     1534     1387 
    1243     1099      957      817      681      547      415      288 
     164       45      -69     -178     -284     -380     -471     -562 
    -646     -723     -799     -867     -927     -986    -1038    -1081 
   -1122    -1159    -1191    -1216    -1236    -1255    -1266    -1268 
   -1272    -1266    -1256    -1245    -1224    -1200    -1175    -1140 
   -1101    -1060    -1014     -965     -909     -845     -782     -713 
    -640     -564     -480     -393     -307     -214     -117      -17 
      88      193      300      415      532      651      772      889 
    1015     1150     1277     1405     1537     1668     1801     1932 
    2059     2190     2318     2441     2569     2691     2807     2926 
    3044     3156     3265     3367     3466     3567     3664     3756 
    3846     3930     4008     4085     4160     4228     4292     4356 
    4418     4473     4519     4563     4607     4644     4671     4700 
    4731     4749     4764     4781     4791     4798     4802     4803 
    4802     4793     4782     4774     4761     4745     4729     4712 
    4695     4676     4646     4619     4595     4566     4538     4513 
    4482     4451     4420     4391     4364     4333     4300     4272 
    4244     4218     4191     4160     4132     4108     4085     4063 
    4037     4012     3996     3976     3957     3946     3928     3911 
    3902     3890     3880     3872     3863     3862     3855     3845 
    3844     3841     3833     3834     3836     3833     3834     3832 
    3829     3830     3828     3824     3821     3815     3812     3807 
    3798     3794     3784     3770     3759     3745     3730     3715 
    3697     3683     3666     3644     3624     3606     3586     3564 
    3537     3513     3494     3473     3451     3430     3408     3387 
    3365     3343     3324     3307     3287     3267     3250     3233 
    3217     3202     3185     3169     3155     3143     3128     3112 
    3102     3093     3077     3066     3058     3050     3044     3035 
    3025     3020     3014     3010     3006     3001     3001     2999 
    2993     2993     2994     2990     2991     2995     2994     2991 
    2992     2992     2990     2988     2991     2991     2987     2987 
    2988     2987     2990     2988     2984     2987     2988     2984 
    2983     2981     2979     2979     2978     2977     2977     2974 
    2972     2966     2959     2955     2948     2937     2930     2918 
    2901     2891     2878     2862     2847     2828     2806     2785 
    2761     2739     2712     2685     2664     2636     2604     2578 
    2548     2518     2490     2461     2433     2402     2372     2348 
    2319     2285     2259     2236     2213     2191     2163     2141 
    2126     2104     2084     2067     2048     2037     2031     2017 
    2008     2001     1995     1996     1997     2000     2010     2021 
    2034     2049     2066     2087     2112     2139     2169     2201 
    2238     2274     2314     2362     2409     2453     2503     2558 
    2613     2671     2730     2789     2854     2921     2986     3054 
    3125     3194     3264     3336     3412     3486     3560     3638 
    3713     3789     3870     3946     4021     4104     4184     4258 
    4334     4411     4485     4559     4630     4703     4775     4842 
    4912     4980     5037     5099     5160     5209     5260     5310 
    5347     5385     5424     5456     5484     5509     5532     5546 
    5556     5566     5570     5569     5565     5554     5542     5528 
    5509     5483     5456     5429     5394     5356     5320     5277 
    5228     5182     5131     5076     5021     4963     4901     4839 
    4774     4710     4649     4582     4509     4440     4375     4303 
    4231     4161     4090     4018     3947     3875     3804     3736 
    3671     3608     3544     3481     3422     3364     3308     3256 
    3204     3155     3110     3064     3023     2987     2954     2927 
    2900     2873     2853     2833     2815     2805     2796     2789 
    2789     2788     2790     2796     2802     2814     2826     2838 
    2857     2878     2896     2916     2937     2963     2991     3018 
    3045     3072     3096     3120     3147     3173     3200     3225 
    3248     3274     3296     3320     3348     3371     3392     3415 
    3431     3448     3468     3482     3497     3512     3520     3532 
    3546     3549     3554     3564     3567     3570     3570     3569 
    3569     3565     3560     3558     3555     3550     3544     3535 
    3530     3523     3516     3514     3508     3499     3495     3491 
    3488     3487     3487     3485     3484     3484     3486     3494 
    3500     3505     3514     3531     3542     3554     3570     3586 
    3605     3628     3651     3676     3701     3728     3758     3787 
    3816     3852     3890     3924     3960     3996     4036     4081 
    4124     4167     4214     4257     4300     4349     4395     4442 
    4496     4548     4600     4653     4701     4753     4810     4861 
    4910     4960     5011     5062     5111     5159     5207     5251 
    5295     5337     5375     5412     5450     5482     5512     5539 
    5563     5585     5605     5623     5638     5648     5655     5663 
    5668     5666     5663     5657     5645     5634     5619     5597 
    5577     5561     5541     5516     5487     5456     5427     5396 
    5365     5333     5299     5263     5225     5187     5153     5119 
    5085     5052     5018     4987     4956     4923     4894     4866 
    4835     4808     4784     4759     4732     4707     4687     4668 
    4649     4634     4620     4604     4591     4577     4561     4549 
    4537     4524     4511     4499     4489     4479     4467     4454 
    4441     4426     4414     4402     4384     4370     4358     4342 
    4327     4312     4296     4282     4263     4246     4234     4217 
    4199     4184     4164     4145     4126     4103     4082     4060 
    4039     4021     3997     3974     3956     3931     3908     3888 
    3862     3840     3822     3799     3779     3760     3738     3718 
