Origin Time       2016/04/16 01:25:00
Lat.              32.753
Long.             130.762
Depth. (km)       12
Mag.              7.3
Station Code      TYM005
Station Lat.      36.7824
Station Long.     137.0803
Station Height(m) 2
Record Time       2016/04/16 01:29:15
Sampling Freq(Hz) 100Hz
Duration Time(s)  60
Dir.              N-S
Scale Factor      3920(gal)/6182761
Max. Acc. (gal)   1.543
Last Correction   2016/04/16 01:29:17
Memo.             
[...]
     384      365      348      333      321      307      291      274 
     258      246      231      213      203      203      204      195 
     169      140      128      126      122      118      105       84 
      72       69       65       63       60       54       44       35 
      28       21       10        9       13       11        8        5 
       0       -1        1       -1       -5       -5        1        7 
      12       13       12        9        8        9       10        8 
       5        4        4        0       -8      -19      -29      -34 
     -43      -58      -69      -79      -90      -94     -100     -113 
    -128     -148     -171     -193     -215     -230     -246     -273 
    -305     -336     -365     -386     -409     -443     -480     -517 
    -554     -587     -617     -646     -675     -701     -723     -747 
    -781     -816     -845     -873     -905     -938     -968     -998 
   -1027    -1054    -1077    -1097    -1118    -1140    -1163    -1187 
   -1204    -1211    -1214    -1220    -1230    -1244    -1256    -1260 
   -1259    -1254    -1243    -1234    -1228    -1221    -1212    -1192 
   -1167    -1144    -1120    -1102    -1086    -1063    -1030     -993 
    -957     -923     -888     -857     -828     -789     -745     -706 
    -667     -625     -583     -542     -497     -452     -408     -367 
    -327     -282     -237     -195     -152     -106      -58      -11 
      34       75      116      159      199      238      281      323 
     360      396      435      476      518      552      584      616 
     643      669      698      727      760      795      820      840 
     861      880      897      915      929      943      958      970 
     983      999     1022     1043     1057     1071     1084     1093 
    1098     1101     1106     1110     1112     1119     1127     1128 
    1129     1136     1142     1143     1145     1150     1151     1149 
    1149     1153     1154     1150     1144     1137     1125     1114 
    1110     1108     1104     1096     1089     1084     1075     1064 
    1056     1045     1031     1020     1011     1004     1000      995 
     989      986      983      977      971      965      962      963 
     962      959      960      964      961      957      959      962 
     962      964      966      963      960      965      971      975 
     980      988      992      995      998      996      990      983 
     980      982      988      995      999      999      994      986 
     980      974      967      963      960      957      955      952 
     943      928      916      904      888      871      853      836 
     822      803      781      758      729      699      676      652 
     622      595      571      542      510      484      457      428 
     398      366      328      290      255      221      185      144 
     103       67       37        6      -30      -69     -111     -156 
    -198     -233     -263     -292     -324     -363     -402     -439 
    -483     -527     -566     -604     -642     -678     -714     -750 
    -786     -827     -865     -893     -925     -959     -985    -1017 
   -1056    -1087    -1108    -1133    -1165    -1196    -1224    -1248 
   -1266    -1280    -1300    -1324    -1342    -1357    -1377    -1399 
   -1414    -1423    -1435    -1453    -1468    -1478    -1491    -1509 
   -1524    -1534    -1551    -1568    -1576    -1580    -1586    -1591 
   -1598    -1609    -1623    -1631    -1635    -1644    -1650    -1651 
   -1654    -1658    -1660    -1662    -1664    -1663    -1663    -1662 
   -1657    -1653    -1651    -1644    -1631    -1621    -1614    -1605 
   -1600    -1596    -1580    -1553    -1531    -1521    -1515    -1500 
   -1474    -1444    -1416    -1397    -1381    -1358    -1330    -1304 
   -1278    -1252    -1230    -1197    -1153    -1122    -1104    -1089 
   -1071    -1034     -979     -932     -907     -902     -899     -864 
    -803     -755     -731     -718     -704     -678     -644     -609 
    -575     -541     -518     -500     -475     -448     -426     -411 
    -399     -377     -341     -314     -307     -311     -313     -300 
    -272     -244     -238     -249     -255     -250     -234     -210 
    -195     -197     -208     -219     -216     -198     -187     -193 
    -199     -204     -209     -208     -207     -206     -206     -214 
    -223     -225     -224     -234     -255     -269     -266     -260 
    -263     -278     -299     -318     -331     -342     -349     -357 
    -371     -384     -393     -404     -421     -435     -439     -445 
    -456     -469     -489     -510     -524     -527     -523     -529 
    -546     -561     -570     -577     -582     -592     -599     -595 
    -588     -585     -586     -595     -605     -601     -583     -569 
    -570     -581     -584     -570     -545     -523     -516     -519 
    -517     -501     -481     -464     -442     -417     -396     -373 
    -344     -321     -303     -285     -263     -233     -199     -172 
    -153     -131     -101      -65      -29        2       27       54 
      85      118      151      184      216      252      289      322 
     353      384      412      438      469      501      527      549 
     572      604      643      675      698      718      743      771 
     798      824      848      871      893      912      937      966 
     982      993     1016     1040     1055     1068     1086     1106 
    1125     1138     1146     1152     1158     1164     1172     1182 
    1189     1193     1194     1194     1197     1197     1190     1180 
    1170     1161     1155     1147     1131     1112     1098     1085 
    1068     1045     1020      993      965      939      919      902 
     882      855      822      790      762      737      709      675 
     642      611      576      537      500      465      433      406 
     382      355      322      281      242      208      175      149 
     129      104       80       53       14      -22      -47      -68 
     -87     -103     -122     -140     -154     -173     -195     -215 
    -232     -244     -252     -262     -275     -287     -298     -307 
    -312     -315     -317     -318     -322     -330     -338     -343 
    -345     -347     -351     -355     -355     -354     -355     -360 
    -367     -372     -375     -373     -366     -360     -359     -360 
    -363     -363     -360     -357     -351     -344     -346     -344 
    -329     -316     -308     -301     -296     -288     -275     -258 
    -241     -229     -219     -204     -188     -168     -145     -125 
    -108      -90      -71      -57      -40      -14       10       27 
      53       87      119      150      178      203      229      258 
     289      321      355      391      421      448      481      515 
     547      582      614      638      668      704      740      774 
     806      831      860      891      913      939      974     1004 
    1026     1047     1069     1094     1118     1143     1169     1184 
    1195     1211     1226     1241     1258     1271     1285     1304 
    1321     1335     1347     1353     1356     1359     1361     1360 
    1363     1369     1374     1376     1376     1378     1378     1370 
    1358     1355     1353     1344     1337     1334     1332     1329 
    1316     1295     1279     1263     1246     1230     1209     1187 
    1170     1151     1132     1115     1093     1070     1043     1014 
     989      965      943      925      904      879      857      830 
     801      778      756      734      715      693      667      642 
     620      598      579      558      532      515      502      478 
     452      428      397      372      357      342      325      301 
     274      251      227      204      186      164      141      119 
      96       76       59       38       17        0      -18      -36 
     -54      -73      -91     -108     -124     -138     -150     -166 
    -184     -201     -214     -225     -237     -248     -259     -272 
    -284     -294     -303     -311     -314     -314     -314     -322 
    -331     -333     -332     -333     -331     -330     -327     -320 
    -312     -301     -290     -281     -270     -256     -242     -231 
    -216     -191     -166     -144     -123     -102      -76      -54 
     -37      -10       26       55       80      106      128      152 
     183      211      239      268      291      312      331      351 
     377      403      422      440      458      475      492      510 
     528      546      561      574      590      601      606      610 
     614      620      629      639      647      653      656      659 
     659      654      654      659      662      659      652      641 
     627      614      604      594      586      578      567      554 
     543      532      521      513      503      489      476      461 
     447      435      418      398      385      375      361      349 
     337      319      299      282      271      262      255      248 
     241      235      225      206      188      178      168      160 
     156      149      132      111       95       83       69       58 
      49       34       16        0      -16      -29      -41      -56 
     -73      -89     -103     -123     -147     -166     -182     -202 
    -226     -247     -266     -283     -304     -329     -359     -386 
    -408     -430     -455     -480     -505     -528     -553     -585 
    -615     -643     -674     -711     -749     -780     -814     -854 
    -889     -923     -968    -1013    -1049    -1086    -1127    -1169 
   -1212    -1255    -1294    -1338    -1384    -1424    -1462    -1504 
   -1540    -1575    -1619    -1665    -1705    -1743    -1781    -1819 
   -1857    -1892    -1925    -1957    -1988    -2017    -2045    -2069 
   -2093    -2119    -2148    -2175    -2198    -2215    -2229    -2245 
   -2261    -2272    -2282    -2299    -2316    -2326    -2333    -2338 
   -2340    -2340    -2340    -2336    -2324    -2312    -2306    -2298 
   -2281    -2258    -2239    -2226    -2208    -2185    -2161    -2139 
   -2114    -2089    -2062    -2035    -2003    -1967    -1935    -1905 
   -1869    -1832    -1800    -1769    -1732    -1696    -1658    -1615 
   -1576    -1541    -1500    -1462    -1428    -1391    -1352    -1314 
   -1276    -1237    -1195    -1152    -1111    -1069    -1029     -991 
    -950     -912     -878     -837     -791     -751     -718     -681 
    -643     -604     -568     -537     -502     -462     -425     -394 
    -364     -330     -299     -275     -252     -227     -205     -182 
    -157     -138     -119      -96      -78      -66      -49      -28 
      -6        8       17       28       39       47       63       78 
      84       90      101      110      117      120      125      134 
     136      132      134      142      142      135      131      124 
     111      101       95       85       72       59       49       40 
      26       13        3       -9      -23      -39      -56      -74 
     -93     -106     -118     -134     -154     -174     -194     -217 
    -239     -254     -270     -290     -309     -322     -334     -348 
    -361     -373     -387     -404     -419     -431     -442     -456 
    -469     -473     -481     -500     -515     -519     -527     -545 
    -554     -555     -564     -573     -576     -579     -583     -590 
    -598     -598     -599     -605     -609     -616     -624     -620 
    -614     -610     -601     -596     -599     -599     -598     -600 
    -598     -597     -599     -596     -590     -584     -575     -566 
    -561     -553     -545     -544     -541     -534     -530     -527 
    -519     -509     -497     -485     -474     -466     -460     -453 
    -446     -440     -430     -420     -417     -413     -405     -391 
    -369     -352     -338     -321     -303     -285     -265     -247 
    -229     -205     -185     -170     -144     -113      -87      -59 
     -32      -13        7       29       52       79      112      147 
     175      199      220      242      265      290      318      344 
     364      386      416      440      462      488      511      532 
     555      576      598      619      639      661      681      696 
     713      728      736      744      756      768      778      785 
     788      790      796      800      803      808      809      807 
     805      801      795      788      781      772      761      751 
     741      732      723      713      707      704      695      683 
     673      667      659      648      637      630      628      628 
     626      628      633      633      633      640      644      649 
     660      667      677      693      702      715      735      750 
     770      798      824      846      870      894      925      963 
     998     1027     1061     1098     1133     1167     1205     1249 
    1296     1338     1378     1419     1463     1508     1549     1586 
    1624     1667     1711     1751     1786     1825     1865     1899 
    1935     1971     2002     2031     2060     2086     2113     2141 
    2169     2196     2221     2243     2265     2288     2305     2321 
    2342     2361     2376     2394     2407     2413     2419     2427 
    2433     2439     2444     2445     2445     2446     2447     2449 
    2452     2453     2452     2447     2435     2423     2419     2418 
    2414     2408     2402     2390     2373     2360     2348     2331 
    2315     2303     2286     2262     2240     2221     2202     2186 
    2167     2142     2119     2095     2066     2038     2012     1984 
    1955     1925     1893     1861     1829     1798     1771     1745 
    1711     1671     1632     1596     1564     1533     1502     1469 
    1431     1388     1347     1305     1262     1222     1183     1138 
    1093     1052     1013      975      935      894      852      806 
     761      718      674      632      593      557      516      474 
     438      403      366      328      286      247      209      170 
     142      118       89       58       27       -6      -37      -66 
     -92     -116     -143     -170     -191     -208     -224     -243 
    -261     -275     -287     -298     -309     -319     -327     -338 
    -350     -356     -357     -359     -357     -349     -344     -341 
    -333     -320     -307     -298     -284     -260     -234     -216 
    -201     -182     -163     -145     -125      -98      -69      -42 
     -15       15       48       78      106      138      173      204 
     233      261      289      321      355      387      416      447 
     480      513      545      579      617      654      687      718 
     747      777      808      830      851      884      919      945 
     965      984     1006     1033     1058     1080     1096     1106 
    1115     1128     1139     1150     1159     1161     1161     1162 
    1162     1159     1159     1153     1141     1130     1121     1109 
    1096     1084     1071     1053     1024      997      979      959 
     934      909      879      851      828      803      771      737 
     701      663      631      600      560      521      484      444 
     402      363      323      277      228      179      135       94 
      57       26      -14      -57      -97     -142     -187     -224 
    -262     -306     -347     -385     -419     -453     -487     -520 
    -554     -589     -626     -662     -689     -715     -743     -769 
    -795     -823     -846     -867     -892     -919     -946     -969 
    -986    -1004    -1026    -1048    -1070    -1089    -1106    -1121 
   -1136    -1150    -1165    -1181    -1191    -1193    -1195    -1199 
   -1204    -1213    -1219    -1218    -1215    -1215    -1220    -1224 
   -1220    -1214    -1206    -1196    -1189    -1181    -1171    -1163 
   -1151    -1131    -1112    -1094    -1073    -1057    -1037    -1007 
    -981     -960     -936     -912     -886     -857     -830     -809 
    -788     -759     -727     -697     -667     -636     -604     -574 
    -547     -520     -493     -465     -435     -403     -370     -340 
    -312     -283     -253     -225     -197     -166     -138     -119 
    -101      -81      -61      -42      -21       -1       14       22 
      29       37       45       53       58       56       58       63 
      60       52       42       32       18        1      -11      -26 
     -47      -68      -91     -120     -142     -157     -177     -206 
    -234     -260     -290     -328     -364     -396     -427     -461 
    -498     -532     -566     -606     -648     -684     -715     -750 
    -787     -823     -862     -905     -944     -980    -1019    -1059 
   -1094    -1129    -1170    -1210    -1248    -1288    -1324    -1352 
   -1379    -1409    -1439    -1471    -1500    -1525    -1549    -1571 
   -1591    -1615    -1638    -1657    -1675    -1689    -1696    -1705 
   -1717    -1724    -1734    -1747    -1754    -1759    -1768    -1773 
   -1776    -1779    -1782    -1783    -1776    -1769    -1770    -1774 
   -1772    -1762    -1756    -1756    -1752    -1739    -1720    -1704 
   -1689    -1670    -1656    -1646    -1631    -1614    -1594    -1572 
   -1549    -1522    -1496    -1478    -1459    -1433    -1401    -1366 
   -1333    -1307    -1282    -1253    -1226    -1199    -1166    -1130 
   -1096    -1066    -1036    -1006     -983     -961     -928     -888 
    -852     -819     -789     -760     -729     -692     -655     -628 
    -606     -581     -554     -525     -495     -466     -434     -400 
    -372     -347     -322     -304     -285     -256     -224     -196 
    -169     -141     -120     -105      -88      -70      -52      -33 
     -13        7       22       30       43       60       74       85 
      94      102      110      118      127      136      145      154 
     159      161      167      172      175      174      171      169 
     166      163      167      170      164      154      149      145 
     137      130      125      121      118      117      114      109 
     103       98       90       77       65       61       58       52 
      42       30       19       11        6        3       -2       -9 
     -23      -38      -43      -45      -56      -69      -77      -85 
     -88      -85      -89      -95      -97      -99     -101     -100 
     -99      -97      -92      -86      -83      -83      -80      -81 
     -84      -76      -67      -67      -64      -52      -46      -47 
     -44      -38      -37      -35      -30      -30      -32      -29 
     -28      -27      -21      -16      -15      -15      -13      -13 
     -11       -5        1        3        5        7        5        6 
      10       12       10        8        7        6        6        6 
       3        3        5        6        0       -7       -8      -10 
     -16      -14      -11      -16      -21      -21      -25      -32 
     -35      -39      -45      -52      -54      -53      -55      -60 
     -64      -69      -79      -85      -84      -85      -87      -86 
     -86      -86      -82      -80      -81      -79      -80      -85 
