Origin Time       2016/04/16 01:25:00
Lat.              32.753
Long.             130.762
Depth. (km)       12
Mag.              7.3
Station Code      WKY008
Station Lat.      33.7289
Station Long.     135.3772
Station Height(m) 4
Record Time       2016/04/16 01:26:59
Sampling Freq(Hz) 100Hz
Duration Time(s)  101
Dir.              N-S
Scale Factor      7845(gal)/8223790
Max. Acc. (gal)   3.202
Last Correction   2016/04/16 01:27:01
Memo.             
[...]
   -7562    -7535    -7500    -7476    -7443    -7426    -7414    -7357 
   -7312    -7325    -7319    -7277    -7254    -7253    -7260    -7248 
   -7214    -7198    -7203    -7207    -7188    -7155    -7141    -7136 
   -7125    -7103    -7061    -7044    -7049    -7020    -6990    -6982 
   -6956    -6949    -6959    -6937    -6930    -6979    -7025    -7028 
   -7036    -7092    -7168    -7215    -7246    -7304    -7392    -7457 
   -7493    -7545    -7611    -7678    -7732    -7778    -7835    -7885 
   -7921    -7956    -7986    -8017    -8039    -8031    -8009    -7998 
   -7996    -7990    -7960    -7929    -7921    -7909    -7874    -7820 
   -7773    -7744    -7699    -7636    -7595    -7569    -7537    -7496 
   -7464    -7447    -7426    -7376    -7337    -7322    -7288    -7242 
   -7203    -7164    -7137    -7126    -7106    -7056    -7005    -7009 
   -7015    -6968    -6940    -6945    -6939    -6922    -6906    -6909 
   -6925    -6922    -6914    -6902    -6889    -6899    -6906    -6886 
   -6868    -6874    -6909    -6918    -6905    -6934    -6966    -6961 
   -6983    -7021    -7036    -7056    -7084    -7088    -7089    -7121 
   -7146    -7141    -7155    -7194    -7214    -7229    -7264    -7292 
   -7317    -7352    -7360    -7344    -7358    -7375    -7366    -7366 
   -7376    -7368    -7352    -7353    -7352    -7315    -7279    -7264 
   -7242    -7202    -7164    -7132    -7098    -7067    -7032    -6990 
   -6971    -6967    -6947    -6947    -6979    -6993    -7007    -7041 
   -7049    -7056    -7064    -7045    -7028    -7023    -7020    -7015 
   -7013    -7032    -7053    -7047    -7048    -7063    -7068    -7084 
   -7094    -7079    -7087    -7126    -7119    -7075    -7056    -7063 
   -7065    -7033    -6980    -6960    -6970    -6964    -6936    -6937 
   -6980    -7003    -7005    -7026    -7072    -7121    -7169    -7223 
   -7276    -7338    -7404    -7434    -7462    -7519    -7557    -7585 
   -7619    -7636    -7665    -7717    -7735    -7719    -7717    -7744 
   -7767    -7751    -7734    -7744    -7738    -7704    -7662    -7619 
   -7574    -7515    -7447    -7381    -7321    -7280    -7254    -7196 
   -7134    -7134    -7125    -7044    -6995    -7002    -6979    -6944 
   -6930    -6912    -6910    -6937    -6949    -6949    -6972    -7014 
   -7037    -7045    -7061    -7094    -7134    -7159    -7173    -7225 
   -7288    -7318    -7318    -7342    -7416    -7472    -7465    -7461 
   -7493    -7527    -7541    -7547    -7569    -7599    -7638    -7685 
   -7709    -7720    -7769    -7819    -7823    -7834    -7874    -7893 
   -7901    -7893    -7862    -7877    -7903    -7873    -7855    -7878 
   -7884    -7865    -7827    -7794    -7788    -7763    -7720    -7705 
   -7690    -7666    -7652    -7619    -7584    -7574    -7547    -7515 
   -7519    -7518    -7492    -7482    -7473    -7433    -7404    -7408 
   -7376    -7295    -7236    -7203    -7159    -7111    -7059    -7013 
   -7002    -6993    -6949    -6918    -6913    -6907    -6902    -6893 
   -6891    -6901    -6899    -6902    -6907    -6903    -6928    -6968 
   -6968    -6978    -7029    -7069    -7092    -7101    -7111    -7155 
   -7186    -7184    -7200    -7236    -7269    -7288    -7294    -7296 
   -7304    -7288    -7250    -7236    -7222    -7203    -7196    -7165 
   -7136    -7136    -7119    -7075    -7030    -6998    -6964    -6924 
   -6898    -6876    -6844    -6833    -6841    -6825    -6802    -6805 
   -6805    -6789    -6786    -6789    -6782    -6793    -6810    -6806 
   -6810    -6828    -6832    -6829    -6837    -6855    -6859    -6851 
   -6870    -6891    -6883    -6876    -6891    -6926    -6975    -7002 
   -7022    -7082    -7145    -7177    -7217    -7276    -7319    -7358 
   -7404    -7420    -7410    -7426    -7456    -7449    -7430    -7429 
   -7419    -7404    -7396    -7385    -7385    -7406    -7415    -7410 
   -7416    -7444    -7450    -7422    -7398    -7385    -7380    -7358 
   -7322    -7298    -7276    -7236    -7175    -7106    -7044    -6994 
   -6957    -6898    -6826    -6814    -6828    -6785    -6725    -6717 
   -6737    -6744    -6739    -6748    -6790    -6837    -6845    -6856 
   -6905    -6928    -6924    -6948    -6968    -6978    -7021    -7072 
   -7101    -7140    -7207    -7263    -7304    -7345    -7371    -7416 
   -7482    -7514    -7535    -7589    -7645    -7682    -7709    -7736 
   -7782    -7812    -7797    -7780    -7773    -7755    -7709    -7649 
   -7619    -7596    -7557    -7555    -7569    -7558    -7562    -7564 
   -7519    -7482    -7477    -7450    -7375    -7317    -7300    -7273 
   -7219    -7164    -7125    -7087    -7025    -6955    -6906    -6872 
   -6848    -6832    -6822    -6836    -6866    -6885    -6902    -6928 
   -6960    -6999    -7040    -7076    -7123    -7186    -7263    -7344 
   -7402    -7450    -7518    -7576    -7599    -7622    -7662    -7684 
   -7682    -7684    -7693    -7704    -7720    -7722    -7707    -7713 
   -7722    -7703    -7701    -7727    -7738    -7742    -7773    -7808 
   -7819    -7848    -7882    -7869    -7858    -7857    -7834    -7798 
   -7739    -7682    -7654    -7584    -7489    -7453    -7425    -7365 
   -7338    -7331    -7310    -7315    -7344    -7344    -7340    -7369 
   -7403    -7423    -7443    -7454    -7461    -7472    -7472    -7453 
   -7438    -7438    -7431    -7411    -7422    -7472    -7515    -7534 
   -7561    -7612    -7655    -7670    -7666    -7674    -7709    -7715 
   -7680    -7670    -7669    -7639    -7619    -7603    -7570    -7546 
   -7527    -7508    -7462    -7391    -7352    -7331    -7275    -7207 
   -7157    -7121    -7086    -7036    -6997    -6990    -6976    -6937 
   -6901    -6885    -6866    -6821    -6782    -6763    -6736    -6709 
   -6689    -6666    -6659    -6670    -6673    -6671    -6678    -6710 
   -6766    -6795    -6799    -6853    -6941    -6994    -7044    -7111 
   -7179    -7263    -7330    -7376    -7452    -7520    -7557    -7595 
   -7630    -7663    -7684    -7676    -7677    -7697    -7674    -7634 
   -7632    -7616    -7581    -7589    -7612    -7614    -7628    -7657 
   -7682    -7678    -7663    -7661    -7649    -7618    -7586    -7555 
   -7527    -7515    -7499    -7470    -7460    -7469    -7462    -7437 
   -7418    -7406    -7392    -7389    -7383    -7348    -7325    -7340 
   -7350    -7333    -7340    -7389    -7429    -7443    -7458    -7489 
   -7522    -7522    -7510    -7492    -7476    -7469    -7427    -7372 
   -7356    -7325    -7263    -7219    -7192    -7179    -7172    -7148 
   -7123    -7140    -7159    -7150    -7142    -7146    -7163    -7182 
   -7167    -7134    -7129    -7142    -7138    -7118    -7110    -7123 
   -7141    -7167    -7187    -7195    -7227    -7272    -7284    -7299 
   -7340    -7378    -7403    -7415    -7427    -7464    -7500    -7520 
   -7539    -7565    -7595    -7614    -7611    -7605    -7603    -7597 
   -7584    -7553    -7526    -7515    -7485    -7446    -7423    -7393 
   -7356    -7330    -7321    -7318    -7302    -7271    -7250    -7272 
   -7288    -7257    -7229    -7241    -7242    -7222    -7209    -7200 
   -7198    -7194    -7188    -7173    -7144    -7136    -7148    -7130 
   -7101    -7109    -7118    -7115    -7142    -7177    -7196    -7233 
   -7271    -7287    -7310    -7335    -7340    -7340    -7345    -7340 
   -7315    -7287    -7279    -7260    -7230    -7217    -7187    -7146 
   -7142    -7144    -7121    -7096    -7086    -7088    -7107    -7121 
   -7115    -7119    -7141    -7156    -7144    -7114    -7106    -7121 
   -7118    -7102    -7103    -7134    -7156    -7142    -7127    -7126 
   -7121    -7105    -7065    -7033    -7037    -7007    -6956    -6957 
   -6959    -6929    -6916    -6906    -6902    -6913    -6930    -6956 
   -6979    -6997    -7041    -7109    -7148    -7168    -7217    -7257 
   -7249    -7231    -7229    -7221    -7194    -7150    -7106    -7078 
   -7059    -7020    -6959    -6891    -6835    -6791    -6733    -6654 
   -6577    -6512    -6455    -6400    -6330    -6257    -6207    -6170 
   -6114    -6041    -6002    -5994    -5968    -5940    -5934    -5956 
   -5981    -5991    -6010    -6048    -6075    -6107    -6143    -6177 
   -6201    -6212    -6234    -6273    -6312    -6334    -6338    -6355 
   -6396    -6419    -6439    -6480    -6501    -6516    -6559    -6596 
   -6615    -6648    -6690    -6720    -6744    -6779    -6821    -6851 
   -6871    -6902    -6934    -6956    -6987    -7022    -7060    -7125 
   -7175    -7198    -7254    -7325    -7380    -7438    -7484    -7526 
   -7577    -7619    -7666    -7700    -7712    -7753    -7799    -7801 
   -7788    -7798    -7825    -7836    -7805    -7784    -7794    -7798 
   -7789    -7774    -7761    -7780    -7809    -7815    -7827    -7851 
   -7878    -7916    -7912    -7886    -7916    -7933    -7901    -7901 
   -7915    -7908    -7913    -7911    -7916    -7952    -7969    -7960 
   -7967    -7985    -7992    -7990    -7987    -7996    -8007    -8012 
   -8012    -8007    -8004    -8028    -8051    -8032    -8017    -8040 
   -8048    -8032    -8014    -7998    -7997    -8001    -7985    -7969 
   -7969    -7959    -7946    -7935    -7927    -7917    -7889    -7869 
   -7869    -7842    -7799    -7771    -7750    -7734    -7723    -7713 
   -7705    -7711    -7723    -7723    -7720    -7723    -7707    -7670 
   -7630    -7586    -7553    -7523    -7458    -7389    -7353    -7333 
   -7296    -7248    -7231    -7230    -7203    -7183    -7183    -7167 
   -7130    -7115    -7126    -7117    -7088    -7076    -7089    -7113 
   -7114    -7111    -7137    -7150    -7140    -7148    -7145    -7132 
   -7152    -7163    -7146    -7159    -7192    -7214    -7226    -7234 
   -7253    -7276    -7269    -7238    -7231    -7245    -7230    -7188 
   -7168    -7175    -7164    -7130    -7094    -7068    -7037    -6990 
   -6925    -6853    -6799    -6741    -6669    -6615    -6562    -6500 
   -6450    -6405    -6365    -6316    -6273    -6273    -6274    -6239 
   -6228    -6257    -6261    -6242    -6252    -6281    -6297    -6300 
   -6299    -6327    -6378    -6404    -6407    -6436    -6485    -6524 
   -6562    -6617    -6675    -6736    -6801    -6866    -6926    -6993 
   -7078    -7146    -7190    -7252    -7325    -7381    -7430    -7462 
   -7499    -7548    -7581    -7591    -7591    -7600    -7618    -7601 
   -7581    -7578    -7553    -7523    -7492    -7443    -7411    -7388 
   -7338    -7294    -7261    -7229    -7194    -7141    -7091    -7060 
   -7023    -6967    -6910    -6872    -6852    -6817    -6747    -6700 
   -6687    -6658    -6624    -6615    -6609    -6613    -6619    -6619 
   -6660    -6718    -6744    -6787    -6864    -6932    -6980    -7036 
   -7111    -7184    -7248    -7330    -7419    -7496    -7580    -7670 
   -7749    -7823    -7913    -8007    -8098    -8194    -8289    -8387 
   -8499    -8606    -8702    -8792    -8888    -8986    -9055    -9094 
   -9136    -9185    -9213    -9209    -9201    -9202    -9190    -9155 
   -9117    -9082    -9040    -8991    -8928    -8847    -8770    -8704 
   -8623    -8533    -8434    -8324    -8237    -8156    -8040    -7933 
   -7857    -7766    -7641    -7526    -7442    -7340    -7223    -7130 
   -7032    -6932    -6845    -6744    -6648    -6577    -6496    -6409 
   -6334    -6277    -6223    -6168    -6135    -6115    -6084    -6057 
   -6049    -6031    -6033    -6061    -6057    -6042    -6064    -6073 
   -6056    -6054    -6070    -6075    -6050    -6029    -6021    -6006 
   -5984    -5968    -5957    -5953    -5944    -5930    -5930    -5940 
   -5944    -5952    -5972    -5994    -6014    -6058    -6115    -6151 
   -6197    -6268    -6332    -6396    -6474    -6548    -6596    -6660 
   -6762    -6828    -6864    -6919    -6983    -7042    -7080    -7113 
   -7177    -7245    -7288    -7335    -7402    -7485    -7565    -7631 
   -7696    -7763    -7830    -7897    -7954    -7993    -8039    -8095 
   -8141    -8175    -8199    -8230    -8270    -8268    -8253    -8279 
   -8286    -8252    -8247    -8243    -8202    -8177    -8147    -8078 
   -8028    -7974    -7892    -7813    -7753    -7699    -7627    -7542 
   -7487    -7430    -7371    -7329    -7253    -7172    -7126    -7061 
   -6963    -6863    -6764    -6685    -6596    -6453    -6308    -6222 
   -6142    -6011    -5868    -5773    -5714    -5630    -5518    -5436 
   -5400    -5352    -5296    -5262    -5231    -5204    -5192    -5162 
   -5131    -5116    -5098    -5085    -5077    -5065    -5078    -5119 
   -5131    -5117    -5148    -5204    -5216    -5212    -5235    -5286 
   -5343    -5379    -5416    -5483    -5566    -5648    -5722    -5796 
   -5898    -6011    -6115    -6216    -6320    -6451    -6586    -6697 
   -6809    -6925    -7036    -7157    -7256    -7329    -7411    -7491 
   -7553    -7599    -7614    -7622    -7638    -7638    -7614    -7569 
   -7510    -7447    -7368    -7254    -7138    -7015    -6860    -6701 
   -6534    -6347    -6172    -5991    -5787    -5598    -5433    -5255 
   -5054    -4881    -4758    -4627    -4491    -4414    -4352    -4283 
   -4243    -4232    -4232    -4245    -4280    -4345    -4434    -4548 
   -4687    -4846    -5027    -5228    -5459    -5709    -5958    -6218 
   -6492    -6771    -7068    -7368    -7649    -7948    -8260    -8540 
   -8814    -9084    -9335    -9570    -9776    -9968   -10146   -10284 
  -10408   -10504   -10550   -10580   -10601   -10584   -10544   -10494 
  -10422   -10327   -10218   -10098    -9977    -9850    -9705    -9560 
   -9436    -9315    -9177    -9049    -8953    -8876    -8787    -8691 
   -8623    -8586    -8540    -8486    -8453    -8440    -8428    -8421 
   -8397    -8374    -8372    -8375    -8378    -8372    -8359    -8367 
   -8385    -8398    -8408    -8418    -8437    -8479    -8499    -8474 
   -8483    -8517    -8510    -8486    -8482    -8484    -8477    -8453 
   -8431    -8424    -8401    -8380    -8371    -8352    -8330    -8316 
   -8301    -8280    -8239    -8214    -8203    -8144    -8077    -8050 
   -8012    -7946    -7874    -7816    -7773    -7700    -7619    -7584 
   -7545    -7484    -7427    -7377    -7331    -7272    -7198    -7117 
   -7015    -6916    -6833    -6725    -6601    -6490    -6378    -6269 
   -6180    -6091    -5984    -5884    -5813    -5737    -5651    -5590 
   -5540    -5467    -5412    -5382    -5356    -5343    -5333    -5327 
   -5336    -5375    -5416    -5433    -5478    -5562    -5632    -5687 
   -5759    -5844    -5923    -5989    -6058    -6134    -6208    -6285 
   -6351    -6399    -6460    -6538    -6589    -6628    -6677    -6725 
   -6782    -6829    -6835    -6847    -6891    -6926    -6925    -6903 
   -6909    -6928    -6914    -6883    -6848    -6831    -6820    -6767 
   -6704    -6673    -6631    -6577    -6525    -6470    -6413    -6361 
   -6312    -6255    -6193    -6153    -6115    -6062    -6030    -6016 
   -5995    -5979    -5958    -5937    -5946    -5961    -5961    -5975 
   -6012    -6072    -6119    -6160    -6234    -6326    -6404    -6478 
   -6561    -6650    -6724    -6787    -6853    -6912    -6957    -6997 
   -7033    -7069    -7103    -7132    -7173    -7221    -7249    -7281 
   -7338    -7371    -7384    -7411    -7431    -7430    -7429    -7410 
   -7375    -7346    -7307    -7238    -7168    -7119    -7048    -6933 
   -6848    -6802    -6724    -6623    -6538    -6455    -6373    -6290 
   -6196    -6108    -6046    -5998    -5953    -5914    -5898    -5914 
   -5935    -5940    -5961    -6023    -6093    -6148    -6214    -6304 
   -6408    -6504    -6594    -6701    -6828    -6951    -7063    -7172 
   -7287    -7406    -7530    -7645    -7749    -7851    -7969    -8086 
   -8179    -8274    -8390    -8502    -8600    -8695    -8793    -8907 
   -9011    -9078    -9157    -9278    -9381    -9432    -9487    -9571 
   -9651    -9695    -9717    -9774    -9837    -9845    -9847    -9884 
   -9911    -9904    -9891    -9880    -9869    -9837    -9780    -9718 
   -9661    -9596    -9533    -9487    -9417    -9312    -9235    -9184 
   -9120    -9032    -8941    -8865    -8780    -8684    -8594    -8496 
   -8394    -8284    -8155    -8021    -7902    -7776    -7616    -7458 
   -7334    -7188    -7010    -6864    -6728    -6556    -6404    -6285 
   -6161    -6033    -5923    -5833    -5775    -5733    -5679    -5634 
   -5622    -5633    -5645    -5648    -5660    -5717    -5776    -5814 
   -5877    -5971    -6061    -6153    -6264    -6389    -6513    -6627 
   -6754    -6894    -7029    -7155    -7271    -7377    -7484    -7599 
   -7699    -7758    -7811    -7886    -7939    -7952    -7969    -7977 
   -7969    -7955    -7916    -7854    -7797    -7717    -7589    -7457 
   -7340    -7198    -7041    -6898    -6744    -6577    -6426    -6277 
   -6135    -6008    -5864    -5734    -5648    -5562    -5471    -5408 
   -5358    -5321    -5313    -5314    -5313    -5329    -5377    -5445 
   -5509    -5572    -5655    -5751    -5856    -5961    -6054    -6143 
   -6252    -6378    -6470    -6527    -6613    -6729    -6813    -6871 
   -6934    -6995    -7056    -7109    -7129    -7149    -7187    -7217 
   -7241    -7248    -7245    -7276    -7294    -7276    -7281    -7302 
   -7306    -7300    -7307    -7349    -7380    -7396    -7446    -7495 
   -7515    -7546    -7588    -7619    -7654    -7693    -7719    -7727 
   -7742    -7770    -7782    -7789    -7805    -7823    -7836    -7857 
   -7886    -7917    -7962    -8021    -8077    -8131    -8195    -8267 
   -8347    -8418    -8472    -8545    -8615    -8648    -8699    -8772 
   -8811    -8830    -8854    -8891    -8939    -8969    -8968    -8981 
   -9018    -9035    -9038    -9053    -9055    -9057    -9067    -9065 
   -9053    -9049    -9040    -8997    -8927    -8877    -8838    -8761 
   -8657    -8557    -8467    -8378    -8266    -8131    -8012    -7919 
   -7807    -7685    -7586    -7488    -7398    -7310    -7218    -7138 
   -7064    -7010    -6970    -6910    -6881    -6880    -6852    -6836 
   -6848    -6867    -6901    -6928    -6956    -7020    -7089    -7142 
   -7203    -7281    -7346    -7402    -7473    -7541    -7581    -7630 
   -7709    -7780    -7813    -7862    -7927    -7973    -8023    -8064 
   -8102    -8160    -8203    -8233    -8279    -8301    -8319    -8355 
   -8371    -8380    -8398    -8401    -8385    -8371    -8361    -8355 
   -8316    -8248    -8201    -8164    -8114    -8044    -7967    -7908 
   -7869    -7823    -7759    -7695    -7638    -7605    -7581    -7533 
   -7492    -7507    -7507    -7479    -7484    -7519    -7550    -7574 
   -7593    -7619    -7665    -7719    -7770    -7808    -7846    -7903 
   -7967    -8010    -8043    -8097    -8159    -8186    -8186    -8208 
   -8237    -8222    -8186    -8185    -8185    -8135    -8075    -8035 
   -8005    -7977    -7936    -7878    -7816    -7758    -7703    -7642 
   -7562    -7489    -7437    -7366    -7275    -7198    -7136    -7079 
   -7017    -6933    -6881    -6878    -6867    -6837    -6840    -6886 
   -6943    -6984    -7045    -7129    -7202    -7275    -7365    -7454 
   -7543    -7647    -7751    -7846    -7929    -8019    -8113    -8186 
   -8248    -8326    -8401    -8441    -8456    -8490    -8523    -8526 
