Origin Time       2016/04/16 01:25:00
Lat.              32.753
Long.             130.762
Depth. (km)       12
Mag.              7.3
Station Code      WKY006
Station Lat.      33.8908
Station Long.     135.1524
Station Height(m) 3
Record Time       2016/04/16 01:26:30
Sampling Freq(Hz) 100Hz
Duration Time(s)  106
Dir.              N-S
Scale Factor      7845(gal)/8223790
Max. Acc. (gal)   2.637
Last Correction   2016/04/16 01:26:30
Memo.             
[...]
   -8125    -8102    -7979    -7958    -7964    -7848    -7785    -7781 
   -7632    -7485    -7468    -7350    -7172    -7156    -7113    -6955 
   -6936    -6964    -6856    -6837    -6944    -6930    -6925    -7084 
   -7192    -7229    -7388    -7546    -7589    -7712    -7889    -7935 
   -7990    -8147    -8191    -8158    -8251    -8307    -8226    -8252 
   -8318    -8224    -8191    -8267    -8199    -8136    -8218    -8201 
   -8116    -8190    -8233    -8122    -8113    -8172    -8078    -7993 
   -8012    -7912    -7753    -7722    -7631    -7419    -7339    -7319 
   -7183    -7144    -7218    -7167    -7132    -7227    -7233    -7196 
   -7307    -7392    -7349    -7404    -7542    -7561    -7589    -7732 
   -7794    -7804    -7924    -7971    -7916    -8002    -8091    -8020 
   -8040    -8148    -8113    -8078    -8149    -8114    -8028    -8064 
   -8039    -7890    -7855    -7851    -7697    -7605    -7631    -7538 
   -7431    -7473    -7435    -7296    -7298    -7302    -7146    -7092 
   -7160    -7078    -6994    -7098    -7137    -7089    -7207    -7322 
   -7300    -7399    -7553    -7550    -7596    -7756    -7784    -7776 
   -7894    -7939    -7913    -8017    -8105    -8058    -8087    -8182 
   -8129    -8073    -8135    -8097    -7983    -7993    -7967    -7844 
   -7846    -7878    -7782    -7756    -7819    -7743    -7657    -7697 
   -7655    -7535    -7543    -7553    -7456    -7449    -7519    -7473 
   -7450    -7535    -7515    -7446    -7497    -7503    -7406    -7419 
   -7474    -7408    -7415    -7535    -7550    -7560    -7695    -7765 
   -7776    -7920    -8047    -8021    -8071    -8177    -8128    -8087 
   -8156    -8101    -7982    -8001    -7966    -7819    -7781    -7763 
   -7627    -7570    -7611    -7528    -7438    -7477    -7438    -7337 
   -7378    -7398    -7321    -7380    -7473    -7423    -7442    -7573 
   -7578    -7561    -7684    -7744    -7705    -7784    -7865    -7799 
   -7819    -7936    -7905    -7862    -7963    -7973    -7888    -7939 
   -7969    -7869    -7884    -7956    -7881    -7850    -7931    -7881 
   -7786    -7838    -7832    -7712    -7716    -7738    -7627    -7623 
   -7708    -7645    -7619    -7744    -7749    -7684    -7758    -7782 
   -7693    -7723    -7785    -7723    -7722    -7817    -7796    -7766 
   -7884    -7915    -7840    -7897    -7950    -7863    -7857    -7894 
   -7792    -7735    -7804    -7767    -7685    -7742    -7761    -7673 
   -7690    -7738    -7654    -7618    -7672    -7618    -7550    -7608 
   -7593    -7507    -7558    -7600    -7510    -7514    -7580    -7506 
   -7469    -7555    -7514    -7416    -7477    -7493    -7387    -7403 
   -7470    -7411    -7431    -7545    -7527    -7510    -7635    -7661 
   -7591    -7650    -7709    -7643    -7657    -7716    -7639    -7611 
   -7699    -7655    -7568    -7636    -7657    -7569    -7595    -7631 
   -7546    -7562    -7662    -7608    -7565    -7669    -7669    -7581 
   -7634    -7662    -7572    -7591    -7652    -7581    -7570    -7674 
   -7663    -7618    -7730    -7804    -7766    -7842    -7946    -7920 
   -7960    -8078    -8063    -8047    -8170    -8225    -8202    -8286 
   -8340    -8289    -8329    -8380    -8281    -8244    -8295    -8210 
   -8128    -8170    -8117    -8006    -8028    -8017    -7885    -7852 
   -7859    -7726    -7646    -7680    -7581    -7454    -7495    -7493 
   -7387    -7414    -7469    -7383    -7366    -7456    -7426    -7395 
   -7507    -7548    -7506    -7593    -7685    -7643    -7688    -7782 
   -7723    -7716    -7815    -7761    -7685    -7780    -7803    -7727 
   -7792    -7860    -7798    -7832    -7954    -7939    -7931    -8071 
   -8124    -8089    -8202    -8302    -8248    -8299    -8404    -8332 
   -8268    -8324    -8253    -8127    -8139    -8101    -7954    -7919 
   -7905    -7769    -7689    -7677    -7543    -7420    -7431    -7364 
   -7238    -7248    -7231    -7115    -7121    -7156    -7042    -6995 
   -7065    -7028    -6980    -7059    -7059    -6995    -7092    -7192 
   -7156    -7225    -7371    -7352    -7360    -7510    -7537    -7510 
   -7665    -7782    -7759    -7865    -8031    -8029    -8064    -8210 
   -8199    -8131    -8199    -8182    -8056    -8071    -8078    -7936 
   -7884    -7909    -7798    -7716    -7759    -7708    -7619    -7676 
   -7682    -7586    -7627    -7713    -7670    -7704    -7842    -7852 
   -7862    -7997    -8039    -8002    -8104    -8175    -8101    -8129 
   -8233    -8172    -8132    -8224    -8174    -8077    -8162    -8162 
   -8021    -8035    -8073    -7931    -7851    -7870    -7743    -7596 
   -7580    -7482    -7298    -7253    -7215    -7051    -6984    -7015 
   -6922    -6851    -6910    -6885    -6810    -6879    -6932    -6894 
   -6983    -7123    -7130    -7196    -7368    -7415    -7460    -7627 
   -7696    -7704    -7852    -7966    -7954    -8050    -8197    -8199 
   -8239    -8372    -8371    -8328    -8421    -8437    -8337    -8375 
   -8433    -8328    -8293    -8352    -8263    -8163    -8179    -8085 
   -7928    -7919    -7870    -7711    -7689    -7704    -7569    -7515 
   -7573    -7488    -7393    -7442    -7418    -7314    -7344    -7385 
   -7318    -7338    -7430    -7381    -7340    -7430    -7419    -7339 
   -7399    -7419    -7333    -7388    -7476    -7411    -7422    -7533 
   -7495    -7453    -7564    -7577    -7495    -7542    -7572    -7489 
   -7510    -7576    -7493    -7454    -7555    -7542    -7461    -7527 
   -7566    -7492    -7533    -7614    -7555    -7576    -7722    -7734 
   -7713    -7834    -7886    -7848    -7913    -7964    -7902    -7931 
   -8007    -7935    -7875    -7946    -7919    -7830    -7875    -7886 
   -7789    -7804    -7830    -7711    -7670    -7723    -7645    -7570 
   -7624    -7600    -7534    -7599    -7639    -7586    -7636    -7719 
   -7674    -7677    -7776    -7761    -7727    -7832    -7873    -7827 
   -7909    -7983    -7936    -7978    -8068    -8019    -7993    -8073 
   -8024    -7906    -7927    -7913    -7797    -7792    -7811    -7716 
   -7712    -7780    -7697    -7628    -7713    -7715    -7635    -7696 
   -7753    -7701    -7771    -7890    -7846    -7847    -7977    -7973 
   -7906    -7993    -8031    -7933    -7963    -8040    -7967    -7959 
   -8047    -7992    -7943    -8048    -8054    -7977    -8054    -8117 
   -8044    -8071    -8155    -8083    -8054    -8151    -8110    -8007 
   -8048    -8032    -7901    -7888    -7894    -7774    -7726    -7769 
   -7696    -7614    -7657    -7645    -7555    -7586    -7619    -7543 
   -7561    -7639    -7581    -7561    -7655    -7646    -7601    -7696 
   -7735    -7682    -7770    -7855    -7777    -7782    -7893    -7865 
   -7823    -7920    -7943    -7897    -7971    -8019    -7943    -7962 
   -8040    -7971    -7923    -7985    -7925    -7823    -7863    -7835 
   -7685    -7662    -7661    -7501    -7403    -7395    -7250    -7123 
   -7140    -7044    -6901    -6925    -6919    -6812    -6837    -6907 
   -6847    -6848    -6956    -6955    -6937    -7071    -7152    -7127 
   -7229    -7356    -7337    -7378    -7501    -7503    -7510    -7619 
   -7638    -7611    -7720    -7792    -7734    -7777    -7882    -7848 
   -7825    -7894    -7857    -7792    -7847    -7817    -7685    -7688 
   -7704    -7586    -7533    -7550    -7452    -7372    -7393    -7317 
   -7222    -7273    -7283    -7209    -7252    -7318    -7271    -7296 
   -7415    -7434    -7453    -7576    -7623    -7614    -7723    -7803 
   -7746    -7781    -7893    -7875    -7877    -7983    -7983    -7951 
   -8040    -8058    -7983    -8037    -8097    -8010    -7982    -8054 
   -8016    -7955    -8016    -8004    -7920    -7969    -7994    -7886 
   -7881    -7952    -7890    -7850    -7925    -7901    -7838    -7923 
   -7974    -7908    -7964    -8059    -8004    -7996    -8077    -8028 
   -7967    -8031    -8016    -7925    -7973    -8024    -7946    -7952 
   -8032    -7974    -7935    -8024    -8021    -7969    -8055    -8105 
   -8047    -8090    -8158    -8101    -8098    -8182    -8144    -8091 
   -8163    -8154    -8056    -8090    -8118    -8027    -8037    -8094 
   -8001    -7959    -8031    -7969    -7881    -7940    -7931    -7812 
   -7816    -7850    -7740    -7695    -7756    -7688    -7609    -7682 
   -7668    -7560    -7593    -7619    -7531    -7542    -7597    -7527 
   -7519    -7614    -7593    -7548    -7636    -7673    -7622    -7684 
   -7756    -7707    -7753    -7885    -7870    -7875    -8023    -8066 
   -8040    -8164    -8245    -8193    -8257    -8364    -8301    -8280 
   -8387    -8356    -8267    -8340    -8364    -8267    -8299    -8364 
   -8281    -8263    -8336    -8274    -8195    -8235    -8187    -8064 
   -8068    -8052    -7924    -7894    -7906    -7773    -7696    -7747 
   -7685    -7592    -7626    -7586    -7470    -7489    -7508    -7410 
   -7398    -7456    -7406    -7368    -7411    -7366    -7288    -7337 
   -7335    -7215    -7221    -7280    -7192    -7164    -7258    -7242 
   -7217    -7339    -7387    -7349    -7469    -7601    -7592    -7663 
   -7812    -7816    -7821    -7942    -7956    -7908    -7981    -8007 
   -7933    -7959    -7996    -7901    -7865    -7929    -7885    -7816 
   -7848    -7807    -7703    -7717    -7684    -7527    -7503    -7539 
   -7414    -7319    -7360    -7302    -7213    -7277    -7288    -7200 
   -7269    -7357    -7279    -7284    -7404    -7372    -7322    -7439 
   -7484    -7438    -7538    -7631    -7581    -7638    -7754    -7711 
   -7688    -7801    -7834    -7808    -7890    -7943    -7913    -7981 
   -8048    -7974    -7967    -8043    -7987    -7924    -7971    -7927 
   -7827    -7858    -7843    -7711    -7685    -7682    -7523    -7423 
   -7433    -7311    -7179    -7198    -7149    -7041    -7084    -7121 
   -7042    -7072    -7175    -7132    -7098    -7184    -7177    -7125 
   -7203    -7234    -7152    -7202    -7290    -7218    -7198    -7285 
   -7241    -7164    -7218    -7194    -7079    -7101    -7125    -7021 
   -7011    -7083    -7036    -7013    -7102    -7094    -7038    -7123 
   -7183    -7126    -7164    -7242    -7213    -7238    -7357    -7372 
   -7375    -7500    -7574    -7574    -7677    -7763    -7735    -7786 
   -7889    -7859    -7857    -7969    -7977    -7947    -8066    -8129 
   -8081    -8162    -8267    -8226    -8248    -8345    -8307    -8279 
   -8376    -8356    -8274    -8340    -8363    -8255    -8259    -8302 
   -8194    -8128    -8168    -8078    -7950    -7971    -7946    -7809 
   -7781    -7782    -7666    -7627    -7661    -7553    -7468    -7524 
   -7481    -7361    -7396    -7414    -7300    -7304    -7360    -7272 
   -7236    -7310    -7264    -7194    -7264    -7276    -7218    -7298 
   -7398    -7387    -7458    -7605    -7624    -7650    -7797    -7847 
   -7838    -7963    -8060    -8051    -8148    -8281    -8286    -8345 
   -8494    -8513    -8522    -8669    -8733    -8694    -8775    -8865 
   -8830    -8860    -8946    -8904    -8874    -8972    -8982    -8923 
   -8991    -9032    -8980    -9030    -9085    -9019    -9040    -9153 
   -9144    -9132    -9246    -9288    -9259    -9337    -9383    -9317 
   -9352    -9420    -9342    -9298    -9359    -9306    -9211    -9238 
   -9215    -9111    -9119    -9116    -8972    -8922    -8955    -8843 
   -8742    -8781    -8738    -8638    -8676    -8692    -8600    -8612 
   -8681    -8622    -8598    -8680    -8652    -8592    -8664    -8680 
   -8607    -8650    -8700    -8625    -8621    -8676    -8588    -8507 
   -8540    -8447    -8263    -8206    -8136    -7940    -7827    -7763 
   -7581    -7452    -7418    -7264    -7103    -7080    -6987    -6814 
   -6793    -6779    -6643    -6606    -6654    -6577    -6529    -6605 
   -6588    -6546    -6671    -6754    -6706    -6775    -6897    -6885 
   -6921    -7044    -7055    -7069    -7221    -7287    -7272    -7404 
   -7542    -7550    -7645    -7797    -7799    -7824    -7969    -7978 
   -7917    -8000    -8025    -7927    -7935    -7960    -7850    -7807 
   -7865    -7809    -7742    -7796    -7789    -7709    -7744    -7777 
   -7689    -7707    -7809    -7759    -7727    -7842    -7846    -7777 
   -7846    -7878    -7804    -7843    -7909    -7844    -7848    -7942 
   -7902    -7852    -7931    -7924    -7855    -7925    -7940    -7816 
   -7798    -7804    -7657    -7568    -7569    -7427    -7257    -7238 
   -7160    -6984    -6940    -6912    -6755    -6713    -6782    -6696 
   -6631    -6732    -6725    -6635    -6693    -6733    -6635    -6635 
   -6704    -6621    -6548    -6569    -6471    -6334    -6315    -6230 
   -6061    -6018    -5983    -5834    -5771    -5796    -5724    -5670 
   -5730    -5733    -5719    -5849    -5971    -6006    -6160    -6359 
   -6440    -6569    -6781    -6875    -6951    -7130    -7213    -7207 
   -7333    -7433    -7388    -7443    -7569    -7550    -7551    -7665 
   -7665    -7611    -7677    -7674    -7558    -7557    -7572    -7442 
   -7380    -7400    -7294    -7186    -7190    -7094    -6919    -6870 
   -6799    -6604    -6528    -6535    -6404    -6319    -6376    -6327 
   -6243    -6313    -6332    -6251    -6307    -6407    -6388    -6447 
   -6613    -6673    -6741    -6949    -7089    -7186    -7430    -7661 
   -7789    -8027    -8311    -8467    -8668    -8957    -9139    -9309 
   -9583    -9765    -9856   -10042   -10208   -10242   -10331   -10457 
  -10435   -10415   -10478   -10417   -10301   -10299   -10212   -10007 
   -9926    -9856    -9629    -9454    -9382    -9204    -9016    -8942 
   -8800    -8594    -8526    -8461    -8276    -8205    -8226    -8124 
   -8060    -8121    -8085    -8028    -8128    -8172    -8102    -8175 
   -8293    -8257    -8283    -8421    -8431    -8418    -8537    -8568 
   -8530    -8626    -8699    -8664    -8733    -8846    -8826    -8843 
   -8980    -8997    -8962    -9070    -9126    -9071    -9124    -9173 
   -9059    -9024    -9081    -8974    -8846    -8858    -8791    -8638 
   -8599    -8532    -8352    -8281    -8256    -8094    -7990    -8014 
   -7927    -7817    -7858    -7848    -7746    -7761    -7788    -7700 
   -7696    -7753    -7674    -7616    -7674    -7626    -7507    -7523 
   -7515    -7377    -7333    -7322    -7171    -7072    -7059    -6925 
   -6798    -6810    -6752    -6621    -6623    -6635    -6548    -6546 
   -6608    -6561    -6547    -6646    -6633    -6569    -6642    -6660 
   -6566    -6596    -6652    -6577    -6569    -6642    -6586    -6547 
   -6640    -6644    -6579    -6652    -6724    -6690    -6756    -6876 
   -6881    -6936    -7080    -7087    -7061    -7176    -7210    -7126 
   -7149    -7167    -7041    -6978    -6975    -6840    -6720    -6729 
   -6650    -6502    -6492    -6473    -6343    -6319    -6361    -6278 
   -6242    -6323    -6301    -6257    -6345    -6366    -6301    -6343 
   -6380    -6293    -6270    -6308    -6231    -6166    -6219    -6207 
   -6161    -6262    -6355    -6349    -6462    -6631    -6675    -6777 
   -6979    -7056    -7102    -7275    -7380    -7381    -7489    -7591 
   -7551    -7580    -7666    -7607    -7565    -7643    -7616    -7531 
   -7578    -7577    -7469    -7484    -7537    -7447    -7406    -7482 
   -7439    -7366    -7446    -7453    -7361    -7434    -7510    -7433 
   -7472    -7611    -7608    -7636    -7808    -7882    -7912    -8106 
   -8268    -8317    -8500    -8734    -8816    -8949    -9167    -9243 
   -9294    -9468    -9543    -9505    -9595    -9686    -9618    -9614 
   -9682    -9598    -9524    -9566    -9481    -9340    -9352    -9322 
   -9162    -9094    -9071    -8929    -8838    -8842    -8733    -8618 
   -8648    -8607    -8484    -8487    -8476    -8351    -8330    -8375 
   -8281    -8220    -8281    -8236    -8143    -8198    -8215    -8116 
   -8136    -8203    -8148    -8141    -8217    -8176    -8137    -8233 
   -8241    -8159    -8224    -8284    -8212    -8241    -8337    -8289 
   -8268    -8355    -8311    -8213    -8252    -8237    -8104    -8082 
   -8090    -7969    -7900    -7889    -7755    -7647    -7655    -7539 
   -7340    -7277    -7203    -7006    -6886    -6824    -6648    -6516 
   -6504    -6384    -6228    -6219    -6165    -6033    -6039    -6058 
   -5958    -5968    -6089    -6091    -6118    -6296    -6389    -6416 
   -6588    -6733    -6744    -6841    -6967    -6949    -6979    -7094 
   -7064    -7017    -7123    -7157    -7080    -7130    -7188    -7107 
   -7102    -7159    -7068    -6995    -7059    -7021    -6902    -6930 
   -6955    -6858    -6848    -6880    -6799    -6787    -6868    -6822 
   -6781    -6897    -6956    -6952    -7075    -7182    -7195    -7310 
   -7469    -7508    -7580    -7735    -7774    -7773    -7894    -7962 
   -7917    -7967    -8032    -7964    -7947    -8006    -7928    -7823 
   -7854    -7816    -7677    -7669    -7668    -7533    -7484    -7504 
   -7396    -7317    -7352    -7284    -7192    -7245    -7250    -7168 
   -7198    -7242    -7187    -7221    -7333    -7319    -7318    -7457 
   -7526    -7522    -7652    -7789    -7808    -7911    -8077    -8104 
   -8163    -8357    -8436    -8446    -8606    -8727    -8719    -8799 
   -8896    -8856    -8851    -8899    -8802    -8683    -8679    -8579 
   -8382    -8305    -8209    -7989    -7869    -7792    -7560    -7372 
   -7314    -7132    -6918    -6866    -6767    -6569    -6504    -6473 
   -6330    -6261    -6272    -6168    -6091    -6153    -6115    -6012 
   -6073    -6114    -6035    -6093    -6216    -6199    -6250    -6417 
   -6448    -6460    -6637    -6739    -6731    -6852    -6983    -6982 
   -7072    -7230    -7231    -7256    -7416    -7461    -7437    -7548 
   -7618    -7568    -7622    -7711    -7654    -7638    -7716    -7669 
   -7611    -7700    -7703    -7612    -7663    -7713    -7630    -7641 
   -7735    -7689    -7666    -7789    -7808    -7766    -7881    -7943 
   -7859    -7906    -7996    -7917    -7896    -7971    -7913    -7847 
   -7913    -7884    -7759    -7763    -7761    -7626    -7576    -7596 
   -7480    -7392    -7427    -7352    -7233    -7268    -7249    -7118 
   -7114    -7123    -6999    -6975    -7037    -6951    -6886    -6983 
   -6994    -6930    -7014    -7092    -7037    -7082    -7198    -7171 
   -7163    -7272    -7260    -7198    -7288    -7311    -7186    -7184 
   -7217    -7079    -6993    -7001    -6862    -6727    -6744    -6666 
   -6501    -6505    -6520    -6394    -6374    -6439    -6356    -6312 
   -6408    -6385    -6318    -6421    -6473    -6394    -6447    -6536 
   -6485    -6497    -6601    -6583    -6566    -6694    -6744    -6709 
   -6810    -6917    -6897    -6967    -7088    -7056    -7051    -7167 
   -7172    -7114    -7186    -7210    -7122    -7160    -7230    -7153 
   -7142    -7234    -7210    -7183    -7284    -7304    -7256    -7358 
   -7465    -7435    -7487    -7607    -7596    -7627    -7767    -7776 
   -7758    -7897    -7986    -7971    -8090    -8256    -8290    -8391 
   -8596    -8664    -8716    -8908    -8997    -8980    -9093    -9184 
   -9130    -9170    -9254    -9178    -9142    -9220    -9174    -9090 
   -9153    -9169    -9093    -9151    -9238    -9200    -9243    -9373 
   -9378    -9388    -9506    -9520    -9454    -9504    -9497    -9355 
