Origin Time       2016/04/16 01:25:00
Lat.              32.753
Long.             130.762
Depth. (km)       12
Mag.              7.3
Station Code      WKY011
Station Lat.      33.5947
Station Long.     135.9460
Station Height(m) 10
Record Time       2016/04/16 01:27:43
Sampling Freq(Hz) 100Hz
Duration Time(s)  60
Dir.              N-S
Scale Factor      7845(gal)/8223790
Max. Acc. (gal)   1.353
Last Correction   2016/04/16 01:27:43
Memo.             
    3523     3537     3551     3566     3580     3591     3601     3613 
    3622     3630     3638     3645     3649     3657     3665     3673 
    3678     3686     3694     3700     3707     3713     3717     3723 
    3730     3734     3736     3742     3746     3750     3753     3753 
    3751     3750     3747     3740     3734     3731     3726     3716 
    3709     3703     3694     3689     3689     3685     3681     3681 
    3680     3676     3674     3673     3672     3672     3674     3676 
    3676     3674     3676     3677     3673     3667     3666     3662 
    3653     3650     3649     3643     3639     3634     3634     3632 
    3634     3632     3628     3627     3630     3630     3626     3622 
    3619     3618     3613     3609     3607     3601     3596     3591 
    3586     3582     3577     3570     3565     3562     3555     3549 
    3543     3539     3535     3532     3530     3526     3518     3511 
    3508     3499     3487     3477     3465     3450     3435     3423 
    3407     3396     3381     3366     3357     3346     3331     3321 
    3315     3310     3304     3302     3303     3304     3304     3306 
    3312     3316     3319     3325     3333     3338     3348     3355 
    3362     3369     3380     3388     3399     3407     3415     3424 
    3433     3440     3447     3454     3464     3472     3477     3487 
    3497     3501     3508     3520     3527     3530     3534     3537 
    3538     3537     3534     3534     3534     3530     3524     3519 
    3518     3515     3514     3511     3511     3515     3516     3520 
    3526     3530     3530     3538     3547     3551     3557     3569 
    3577     3582     3591     3600     3609     3618     3627     3634 
    3642     3646     3655     3665     3670     3673     3678     3681 
    3682     3688     3690     3689     3690     3693     3692     3689 
    3688     3682     3672     3663     3653     3639     3623     3603 
    3580     3561     3539     3516     3496     3473     3453     3438 
    3420     3403     3391     3379     3364     3354     3352     3346 
    3338     3339     3342     3345     3346     3348     3350     3354 
    3358     3362     3364     3369     3373     3375     3380     3388 
    3393     3402     3410     3415     3423     3434     3443     3449 
    3458     3470     3477     3481     3492     3504     3511     3518 
    3524     3530     3538     3544     3553     3559     3565     3570 
    3577     3582     3586     3591     3595     3600     3605     3609 
    3613     3615     3618     3619     3623     3626     3626     3631 
    3634     3632     3634     3636     3636     3631     3627     3626 
    3624     3622     3619     3618     3618     3618     3615     3612 
    3611     3608     3604     3603     3601     3600     3600     3601 
    3604     3608     3611     3613     3619     3622     3626     3630 
    3634     3636     3640     3639     3636     3634     3632     3632 
    3632     3630     3628     3628     3628     3628     3630     3628 
    3628     3630     3628     3628     3628     3626     3623     3620 
    3615     3612     3608     3604     3600     3592     3585     3584 
    3581     3573     3563     3555     3550     3543     3535     3530 
    3526     3518     3511     3508     3504     3501     3500     3497 
    3495     3499     3501     3505     3511     3515     3523     3534 
    3539     3544     3558     3569     3576     3584     3593     3604 
    3611     3613     3619     3623     3623     3623     3624     3627 
    3631     3634     3636     3640     3647     3655     3659     3666 
    3674     3681     3689     3699     3703     3708     3715     3724 
    3730     3734     3738     3743     3747     3750     3750     3748 
    3748     3744     3738     3736     3730     3719     3711     3697 
    3682     3667     3653     3639     3626     3611     3596     3582 
    3569     3555     3549     3542     3534     3527     3523     3520 
    3515     3511     3514     3514     3514     3516     3519     3523 
    3526     3528     3534     3538     3539     3543     3546     3547 
    3547     3544     3542     3541     3538     3534     3530     3526 
    3520     3516     3511     3510     3505     3504     3503     3500 
    3499     3501     3503     3504     3510     3511     3514     3518 
    3522     3526     3530     3532     3537     3542     3544     3542 
    3541     3542     3539     3537     3537     3534     3530     3530 
    3527     3524     3522     3520     3523     3528     3532     3541 
    3550     3558     3566     3576     3585     3596     3608     3618 
    3627     3642     3653     3661     3673     3688     3701     3713 
    3726     3738     3753     3766     3778     3788     3798     3808 
    3816     3820     3824     3827     3828     3831     3831     3827 
    3821     3816     3807     3797     3788     3774     3759     3744 
    3726     3705     3686     3672     3653     3630     3611     3593 
    3576     3561     3546     3532     3520     3511     3503     3499 
    3495     3492     3495     3497     3500     3503     3510     3518 
    3524     3532     3541     3547     3554     3559     3563     3570 
    3577     3585     3593     3601     3607     3609     3609     3612 
    3612     3607     3599     3589     3582     3574     3562     3550 
    3535     3519     3507     3492     3477     3457     3439     3422 
    3404     3388     3372     3354     3341     3329     3314     3302 
    3289     3275     3262     3253     3241     3226     3213     3202 
    3190     3179     3172     3167     3163     3161     3164     3173 
    3180     3188     3202     3219     3231     3248     3269     3284 
    3302     3321     3341     3358     3375     3393     3410     3423 
    3435     3451     3462     3468     3473     3478     3483     3483 
    3477     3472     3468     3458     3447     3438     3429     3415 
    3399     3384     3368     3350     3331     3311     3288     3265 
    3242     3218     3194     3172     3150     3130     3109     3090 
    3073     3060     3044     3028     3014     3005     2997     2986 
    2976     2970     2961     2955     2948     2938     2930     2924 
    2917     2911     2910     2909     2906     2905     2910     2917 
    2922     2934     2951     2967     2991     3014     3038     3065 
    3096     3129     3163     3198     3240     3280     3321     3362 
    3407     3451     3492     3537     3578     3618     3657     3693 
    3728     3757     3784     3808     3832     3851     3865     3874 
    3880     3885     3886     3886     3880     3875     3871     3867 
    3861     3855     3850     3846     3842     3838     3831     3827 
    3827     3820     3815     3812     3807     3798     3796     3794 
    3792     3789     3786     3785     3784     3782     3784     3788 
    3792     3794     3801     3808     3813     3821     3834     3847 
    3858     3870     3883     3898     3910     3923     3936     3950 
    3960     3971     3983     3993     4003     4016     4027     4035 
    4040     4047     4054     4059     4060     4059     4063     4064 
    4062     4060     4058     4055     4051     4043     4036     4033 
    4027     4017     4013     4006     3997     3990     3986     3979 
    3971     3965     3964     3959     3954     3951     3951     3950 
    3947     3944     3943     3942     3939     3935     3929     3925 
    3919     3912     3906     3902     3896     3888     3880     3877 
    3873     3867     3863     3863     3861     3856     3856     3855 
    3852     3854     3855     3855     3855     3858     3859     3861 
    3865     3869     3875     3879     3879     3879     3878     3878 
    3879     3879     3878     3877     3877     3878     3875     3875 
    3878     3877     3873     3870     3866     3859     3854     3846 
    3836     3828     3819     3804     3789     3775     3761     3744 
    3724     3707     3688     3663     3640     3620     3596     3572 
    3554     3538     3523     3514     3505     3500     3499     3504 
    3511     3516     3523     3530     3543     3558     3569     3580 
    3596     3608     3620     3634     3645     3653     3666     3676 
    3682     3694     3703     3707     3711     3717     3724     3728 
    3734     3738     3743     3747     3754     3757     3761     3765 
    3771     3774     3773     3773     3775     3773     3766     3761 
    3754     3746     3734     3719     3707     3693     3678     3662 
    3647     3632     3619     3608     3596     3585     3580     3574 
    3569     3566     3565     3563     3562     3563     3568     3572 
    3578     3585     3593     3604     3612     3619     3630     3643 
    3651     3659     3672     3682     3689     3697     3705     3711 
    3715     3717     3719     3716     3709     3701     3692     3681 
    3666     3650     3632     3615     3591     3562     3537     3505 
    3470     3435     3397     3357     3315     3275     3234     3192 
    3150     3109     3071     3033     3001     2965     2930     2902 
    2876     2849     2828     2810     2795     2785     2778     2775 
    2775     2781     2791     2806     2824     2844     2866     2890 
    2917     2944     2974     3005     3032     3059     3088     3115 
    3140     3167     3194     3219     3245     3271     3294     3317 
    3342     3365     3388     3410     3431     3454     3477     3500 
    3520     3539     3559     3577     3593     3609     3626     3640 
    3651     3663     3676     3684     3694     3705     3711     3713 
    3723     3728     3728     3730     3732     3734     3731     3730 
    3727     3726     3723     3717     3711     3704     3700     3693 
    3685     3678     3673     3662     3653     3647     3636     3627 
    3623     3615     3607     3603     3596     3589     3582     3576 
    3570     3563     3555     3546     3538     3527     3518     3507 
    3495     3485     3476     3466     3459     3458     3457     3454 
    3457     3462     3466     3476     3485     3495     3510     3526 
    3538     3557     3578     3597     3615     3636     3658     3677 
    3696     3715     3730     3742     3757     3767     3776     3785 
    3790     3792     3792     3788     3782     3775     3767     3755 
    3738     3721     3705     3688     3670     3651     3631     3609 
    3588     3568     3546     3523     3503     3481     3456     3430 
    3406     3377     3348     3321     3289     3257     3227     3199 
    3171     3141     3114     3092     3071     3051     3034     3021 
    3009     3003     2999     2997     3001     3006     3013     3022 
    3036     3049     3065     3084     3105     3125     3148     3172 
    3199     3227     3258     3289     3323     3355     3388     3424 
    3456     3487     3523     3555     3578     3605     3636     3661 
    3682     3708     3730     3746     3763     3780     3790     3800 
    3808     3815     3821     3828     3835     3839     3842     3848 
    3855     3861     3867     3871     3879     3889     3894     3901 
    3909     3917     3925     3929     3935     3943     3950     3958 
    3964     3970     3978     3984     3989     3993     3998     4005 
    4008     4008     4012     4014     4014     4014     4014     4010 
    4008     4006     4002     3997     3991     3984     3982     3978 
    3970     3963     3959     3954     3947     3944     3939     3929 
    3921     3919     3915     3912     3910     3909     3910     3913 
    3916     3921     3931     3940     3947     3958     3969     3977 
    3986     3998     4010     4023     4033     4044     4052     4060 
    4068     4072     4074     4078     4086     4090     4088     4090 
    4094     4097     4098     4101     4106     4107     4109     4112 
    4114     4116     4113     4110     4110     4105     4099     4098 
    4090     4079     4069     4059     4048     4036     4021     4003 
    3986     3971     3951     3936     3921     3904     3885     3869 
    3851     3835     3820     3804     3788     3770     3753     3734 
    3713     3693     3673     3653     3632     3612     3592     3573 
    3557     3539     3523     3510     3500     3492     3485     3483 
    3481     3480     3481     3485     3491     3492     3499     3507 
    3514     3519     3530     3542     3549     3559     3573     3588 
    3604     3623     3642     3661     3682     3703     3724     3747 
    3767     3785     3804     3824     3840     3856     3871     3883 
    3894     3904     3916     3925     3931     3936     3944     3948 
    3951     3954     3951     3951     3947     3939     3928     3915 
    3898     3882     3865     3840     3816     3792     3765     3738 
    3711     3682     3653     3624     3591     3555     3526     3492 
    3453     3412     3380     3341     3296     3258     3218     3173 
    3133     3094     3049     3005     2961     2917     2874     2829 
    2783     2737     2693     2644     2598     2555     2512     2473 
    2435     2396     2361     2328     2300     2277     2254     2231 
    2214     2200     2187     2177     2170     2161     2154     2149 
    2143     2137     2134     2134     2133     2130     2135     2139 
    2144     2155     2170     2184     2201     2227     2251     2276 
    2309     2343     2377     2415     2454     2492     2529     2569 
    2609     2650     2691     2733     2775     2818     2862     2906 
    2953     2998     3044     3090     3136     3179     3222     3264 
    3303     3342     3379     3414     3447     3481     3510     3538 
    3566     3591     3615     3642     3665     3688     3712     3736 
    3759     3782     3807     3828     3851     3873     3893     3915 
    3936     3954     3973     3993     4010     4024     4040     4055 
    4069     4085     4098     4110     4121     4133     4145     4151 
    4156     4164     4170     4175     4180     4182     4182     4182 
    4183     4183     4182     4176     4168     4159     4151     4140 
    4129     4116     4097     4079     4062     4039     4016     3994 
    3970     3947     3920     3890     3863     3838     3809     3780 
    3750     3719     3689     3658     3624     3592     3561     3530 
    3500     3466     3438     3411     3383     3354     3329     3304 
    3280     3254     3232     3215     3192     3171     3153     3136 
    3117     3100     3086     3071     3056     3044     3030     3019 
    3011     3001     2991     2984     2978     2970     2964     2957 
    2952     2949     2945     2943     2944     2949     2953     2959 
    2967     2983     3003     3019     3037     3064     3092     3119 
    3152     3186     3218     3250     3287     3319     3353     3388 
    3423     3457     3492     3524     3553     3585     3615     3636 
    3658     3685     3703     3717     3736     3750     3761     3770 
    3776     3784     3788     3788     3789     3789     3786     3784 
    3778     3775     3769     3759     3755     3751     3742     3734 
    3728     3723     3716     3711     3708     3705     3701     3701 
    3703     3703     3704     3704     3707     3709     3713     3717 
    3721     3723     3727     3730     3730     3730     3728     3726 
    3724     3726     3719     3713     3712     3709     3701     3699 
    3696     3689     3685     3684     3681     3680     3680     3677 
    3678     3681     3681     3681     3680     3676     3674     3673 
    3669     3661     3650     3640     3631     3623     3612     3601 
    3589     3577     3565     3555     3543     3530     3518     3504 
    3492     3478     3464     3445     3422     3402     3377     3352 
    3327     3300     3272     3245     3217     3186     3156     3126 
    3096     3067     3038     3010     2982     2955     2930     2906 
    2879     2855     2835     2814     2792     2772     2755     2737 
    2720     2708     2695     2683     2675     2667     2660     2655 
    2654     2654     2652     2654     2658     2662     2666     2671 
    2679     2687     2695     2708     2718     2732     2749     2764 
    2779     2797     2813     2832     2853     2872     2895     2920 
    2943     2967     2994     3022     3051     3078     3109     3142 
    3175     3208     3242     3276     3312     3350     3385     3419 
    3454     3488     3522     3554     3584     3608     3630     3650 
    3666     3677     3682     3685     3682     3678     3669     3655 
    3640     3622     3603     3582     3561     3542     3520     3496 
    3481     3466     3447     3433     3422     3412     3406     3400 
    3393     3392     3393     3396     3403     3412     3419     3429 
    3445     3461     3472     3484     3501     3519     3532     3541 
    3554     3568     3576     3581     3591     3599     3603     3608 
    3615     3620     3623     3626     3632     3638     3640     3643 
    3647     3649     3651     3653     3651     3650     3650     3646 
    3638     3632     3626     3613     3601     3595     3582     3568 
    3553     3541     3528     3515     3504     3492     3477     3465 
    3454     3443     3431     3422     3411     3399     3388     3377 
    3368     3360     3350     3342     3339     3333     3326     3321 
    3315     3312     3307     3299     3295     3289     3281     3272 
    3264     3254     3242     3230     3221     3210     3194     3179 
    3165     3149     3132     3111     3090     3075     3056     3036 
    3017     2997     2975     2959     2943     2924     2906     2890 
    2875     2859     2844     2835     2822     2809     2795     2786 
    2779     2768     2759     2751     2743     2737     2736     2731 
    2727     2727     2724     2721     2721     2720     2720     2721 
    2724     2724     2721     2721     2721     2724     2727     2728 
    2729     2733     2739     2747     2754     2762     2771     2782 
    2794     2809     2826     2844     2860     2878     2899     2920 
    2938     2961     2986     3011     3037     3063     3088     3115 
    3145     3175     3203     3235     3268     3302     3336     3369 
    3402     3438     3476     3510     3543     3577     3611     3645 
    3676     3704     3732     3759     3784     3809     3831     3847 
    3869     3890     3904     3923     3946     3960     3977     3994 
    4009     4024     4036     4048     4058     4067     4074     4081 
    4085     4086     4087     4087     4083     4078     4074     4066 
    4058     4050     4040     4031     4020     4006     3993     3981 
    3965     3951     3939     3924     3908     3894     3882     3870 
    3855     3842     3831     3819     3812     3805     3796     3786 
    3782     3778     3773     3769     3767     3767     3766     3767 
    3771     3776     3781     3786     3793     3800     3809     3817 
    3824     3831     3836     3840     3846     3850     3850     3848 
    3850     3850     3844     3838     3832     3828     3820     3811 
    3802     3792     3778     3766     3754     3740     3726     3712 
    3699     3686     3672     3658     3647     3634     3622     3609 
    3597     3586     3577     3568     3558     3550     3546     3543 
