Origin Time       2016/04/16 01:25:00
Lat.              32.753
Long.             130.762
Depth. (km)       12
Mag.              7.3
Station Code      WKY002
Station Lat.      34.2755
Station Long.     135.4305
Station Height(m) 59
Record Time       2016/04/16 01:27:23
Sampling Freq(Hz) 100Hz
Duration Time(s)  84
Dir.              E-W
Scale Factor      7845(gal)/8223790
Max. Acc. (gal)   2.186
Last Correction   2016/04/16 01:27:24
Memo.             
[...]
   -2203    -2177    -2162    -2135    -2119    -2116    -2101    -2092 
   -2098    -2100    -2100    -2114    -2128    -2138    -2161    -2192 
   -2215    -2245    -2282    -2312    -2344    -2393    -2431    -2463 
   -2513    -2563    -2596    -2641    -2694    -2727    -2759    -2808 
   -2839    -2866    -2906    -2926    -2933    -2960    -2979    -2978 
   -2986    -2992    -2986    -2991    -3003    -2995    -2990    -2998 
   -2994    -2983    -2984    -2976    -2955    -2941    -2932    -2914 
   -2901    -2895    -2879    -2870    -2870    -2856    -2843    -2848 
   -2852    -2851    -2862    -2876    -2882    -2896    -2915    -2925 
   -2932    -2949    -2957    -2960    -2972    -2978    -2967    -2970 
   -2972    -2956    -2943    -2934    -2917    -2905    -2901    -2886 
   -2870    -2866    -2857    -2841    -2833    -2824    -2802    -2791 
   -2778    -2754    -2732    -2708    -2678    -2652    -2629    -2602 
   -2571    -2552    -2535    -2506    -2490    -2479    -2459    -2450 
   -2450    -2436    -2421    -2424    -2420    -2404    -2405    -2409 
   -2398    -2403    -2415    -2413    -2419    -2438    -2440    -2438 
   -2454    -2459    -2454    -2463    -2461    -2448    -2450    -2452 
   -2440    -2432    -2434    -2425    -2416    -2420    -2415    -2393 
   -2388    -2381    -2353    -2336    -2328    -2304    -2288    -2285 
   -2263    -2238    -2236    -2231    -2215    -2215    -2219    -2218 
   -2227    -2242    -2249    -2265    -2289    -2305    -2323    -2354 
   -2377    -2392    -2416    -2438    -2448    -2471    -2494    -2508 
   -2533    -2565    -2592    -2617    -2651    -2683    -2718    -2759 
   -2795    -2828    -2871    -2914    -2945    -2982    -3025    -3052 
   -3073    -3106    -3121    -3126    -3145    -3154    -3154    -3161 
   -3168    -3161    -3153    -3148    -3133    -3119    -3107    -3090 
   -3073    -3068    -3060    -3046    -3040    -3034    -3026    -3024 
   -3029    -3028    -3026    -3040    -3044    -3042    -3061    -3076 
   -3078    -3094    -3109    -3109    -3123    -3136    -3138    -3149 
   -3160    -3156    -3152    -3159    -3153    -3130    -3119    -3106 
   -3073    -3051    -3029    -2990    -2956    -2929    -2889    -2852 
   -2829    -2797    -2759    -2736    -2710    -2679    -2659    -2639 
   -2608    -2584    -2570    -2543    -2517    -2505    -2484    -2450 
   -2428    -2404    -2366    -2343    -2326    -2292    -2262    -2245 
   -2215    -2192    -2184    -2172    -2161    -2166    -2168    -2165 
   -2180    -2196    -2201    -2222    -2250    -2259    -2280    -2319 
   -2338    -2351    -2384    -2411    -2425    -2451    -2481    -2497 
   -2521    -2552    -2565    -2581    -2608    -2623    -2628    -2646 
   -2662    -2666    -2677    -2694    -2700    -2708    -2727    -2733 
   -2743    -2770    -2789    -2808    -2844    -2874    -2898    -2933 
   -2965    -2991    -3019    -3055    -3086    -3115    -3149    -3172 
   -3194    -3226    -3249    -3267    -3287    -3303    -3311    -3323 
   -3330    -3321    -3314    -3306    -3283    -3260    -3245    -3215 
   -3176    -3142    -3099    -3045    -2999    -2953    -2894    -2843 
   -2798    -2739    -2683    -2647    -2600    -2550    -2517    -2477 
   -2430    -2401    -2374    -2335    -2309    -2297    -2277    -2255 
   -2247    -2243    -2234    -2236    -2245    -2239    -2242    -2250 
   -2246    -2249    -2263    -2266    -2269    -2285    -2295    -2301 
   -2327    -2353    -2365    -2385    -2411    -2424    -2446    -2475 
   -2490    -2512    -2543    -2554    -2570    -2604    -2627    -2646 
   -2678    -2702    -2716    -2739    -2764    -2774    -2785    -2806 
   -2810    -2810    -2829    -2841    -2840    -2852    -2863    -2866 
   -2880    -2896    -2894    -2895    -2914    -2924    -2926    -2943 
   -2952    -2951    -2963    -2975    -2972    -2978    -2992    -2991 
   -2992    -3005    -3001    -2990    -2997    -2997    -2980    -2975 
   -2964    -2937    -2922    -2920    -2894    -2868    -2855    -2835 
   -2818    -2813    -2799    -2778    -2770    -2768    -2752    -2740 
   -2737    -2720    -2706    -2712    -2701    -2687    -2691    -2687 
   -2681    -2682    -2681    -2675    -2678    -2683    -2685    -2697 
   -2714    -2720    -2731    -2751    -2763    -2774    -2786    -2786 
   -2785    -2791    -2795    -2789    -2790    -2792    -2778    -2758 
   -2744    -2727    -2704    -2685    -2659    -2624    -2597    -2569 
   -2524    -2493    -2465    -2419    -2380    -2355    -2319    -2278 
   -2254    -2226    -2185    -2155    -2130    -2098    -2074    -2057 
   -2025    -1996    -1984    -1958    -1929    -1922    -1908    -1885 
   -1876    -1864    -1844    -1837    -1831    -1810    -1798    -1798 
   -1786    -1776    -1783    -1781    -1777    -1790    -1799    -1806 
   -1829    -1850    -1864    -1894    -1935    -1971    -2012    -2072 
   -2133    -2193    -2270    -2347    -2417    -2500    -2587    -2659 
   -2735    -2817    -2890    -2960    -3033    -3096    -3159    -3227 
   -3287    -3336    -3397    -3462    -3510    -3561    -3620    -3667 
   -3715    -3778    -3828    -3877    -3942    -4001    -4045    -4099 
   -4156    -4195    -4233    -4279    -4311    -4340    -4374    -4392 
   -4399    -4418    -4429    -4422    -4421    -4418    -4399    -4380 
   -4363    -4329    -4288    -4255    -4210    -4153    -4105    -4050 
   -3979    -3920    -3859    -3782    -3712    -3646    -3573    -3501 
   -3434    -3365    -3302    -3245    -3187    -3121    -3060    -3006 
   -2938    -2870    -2814    -2751    -2679    -2617    -2546    -2473 
   -2413    -2351    -2277    -2214    -2153    -2081    -2016    -1956 
   -1888    -1826    -1775    -1715    -1657    -1610    -1563    -1518 
   -1491    -1468    -1443    -1435    -1439    -1437    -1445    -1470 
   -1490    -1514    -1554    -1591    -1625    -1677    -1734    -1786 
   -1849    -1921    -1985    -2060    -2143    -2222    -2300    -2390 
   -2477    -2560    -2658    -2747    -2822    -2911    -3002    -3071 
   -3148    -3231    -3298    -3360    -3435    -3496    -3542    -3597 
   -3642    -3667    -3711    -3755    -3771    -3796    -3834    -3848 
   -3865    -3894    -3908    -3916    -3936    -3944    -3942    -3947 
   -3947    -3936    -3924    -3915    -3896    -3873    -3855    -3824 
   -3789    -3761    -3724    -3677    -3634    -3581    -3518    -3462 
   -3407    -3342    -3280    -3222    -3157    -3092    -3040    -2982 
   -2920    -2874    -2826    -2774    -2731    -2694    -2656    -2624 
   -2600    -2573    -2542    -2525    -2504    -2474    -2457    -2439 
   -2407    -2384    -2369    -2335    -2300    -2281    -2251    -2214 
   -2199    -2181    -2154    -2139    -2126    -2107    -2100    -2097 
   -2092    -2095    -2107    -2111    -2120    -2134    -2142    -2150 
   -2162    -2174    -2181    -2192    -2205    -2214    -2226    -2249 
   -2265    -2284    -2312    -2338    -2365    -2397    -2425    -2448 
   -2475    -2502    -2519    -2536    -2560    -2574    -2584    -2604 
   -2613    -2610    -2614    -2614    -2600    -2592    -2586    -2565 
   -2544    -2529    -2496    -2459    -2436    -2398    -2353    -2319 
   -2284    -2235    -2201    -2170    -2130    -2095    -2068    -2031 
   -1996    -1973    -1948    -1917    -1896    -1878    -1856    -1846 
   -1850    -1846    -1849    -1868    -1883    -1898    -1922    -1942 
   -1958    -1987    -2016    -2034    -2065    -2107    -2142    -2182 
   -2231    -2269    -2309    -2362    -2407    -2448    -2508    -2562 
   -2604    -2659    -2714    -2756    -2806    -2856    -2887    -2920 
   -2960    -2983    -3002    -3034    -3053    -3061    -3079    -3094 
   -3094    -3099    -3102    -3088    -3080    -3083    -3073    -3057 
   -3056    -3051    -3042    -3045    -3048    -3045    -3052    -3057 
   -3053    -3056    -3067    -3068    -3061    -3063    -3056    -3036 
   -3025    -3006    -2972    -2943    -2910    -2866    -2816    -2763 
   -2694    -2620    -2556    -2482    -2397    -2319    -2242    -2154 
   -2079    -2016    -1935    -1858    -1804    -1734    -1657    -1603 
   -1545    -1479    -1431    -1387    -1337    -1302    -1278    -1254 
   -1248    -1251    -1251    -1266    -1301    -1336    -1372    -1435 
   -1512    -1583    -1663    -1759    -1852    -1945    -2053    -2161 
   -2273    -2396    -2517    -2632    -2758    -2882    -2999    -3121 
   -3242    -3353    -3470    -3591    -3696    -3798    -3905    -4001 
   -4091    -4187    -4276    -4356    -4441    -4517    -4573    -4629 
   -4681    -4715    -4742    -4769    -4781    -4781    -4780    -4768 
   -4750    -4739    -4725    -4695    -4675    -4666    -4646    -4629 
   -4629    -4622    -4612    -4614    -4615    -4614    -4622    -4625 
   -4621    -4625    -4629    -4619    -4614    -4611    -4596    -4581 
   -4573    -4557    -4531    -4514    -4494    -4467    -4446    -4423 
   -4393    -4368    -4348    -4322    -4298    -4278    -4252    -4223 
   -4207    -4186    -4151    -4122    -4094    -4055    -4016    -3982 
   -3935    -3882    -3834    -3784    -3727    -3677    -3626    -3569 
   -3518    -3470    -3416    -3368    -3329    -3280    -3232    -3194 
   -3150    -3102    -3068    -3030    -2983    -2947    -2914    -2868 
   -2825    -2789    -2744    -2698    -2662    -2623    -2574    -2531 
   -2493    -2440    -2392    -2350    -2293    -2235    -2192    -2141 
   -2085    -2043    -2001    -1954    -1922    -1894    -1863    -1848 
   -1841    -1829    -1831    -1841    -1842    -1852    -1871    -1880 
   -1883    -1896    -1904    -1900    -1903    -1896    -1872    -1854 
   -1838    -1802    -1764    -1737    -1699    -1653    -1620    -1586 
   -1549    -1524    -1503    -1485    -1476    -1480    -1482    -1491 
   -1517    -1543    -1567    -1606    -1651    -1684    -1729    -1783 
   -1823    -1867    -1914    -1952    -1993    -2038    -2069    -2096 
   -2126    -2141    -2143    -2155    -2160    -2146    -2134    -2119 
   -2091    -2061    -2029    -1987    -1946    -1907    -1863    -1821 
   -1786    -1749    -1709    -1680    -1663    -1638    -1625    -1628 
   -1626    -1632    -1661    -1687    -1718    -1771    -1826    -1885 
   -1956    -2034    -2107    -2182    -2269    -2347    -2416    -2494 
   -2565    -2623    -2686    -2743    -2779    -2824    -2868    -2893 
   -2917    -2947    -2960    -2967    -2979    -2983    -2979    -2986 
   -2992    -2986    -2988    -2995    -2990    -2992    -3001    -3001 
   -3005    -3017    -3021    -3024    -3034    -3044    -3053    -3071 
   -3090    -3098    -3109    -3129    -3142    -3153    -3169    -3184 
   -3194    -3206    -3213    -3217    -3221    -3218    -3203    -3194 
   -3179    -3149    -3119    -3094    -3056    -3015    -2984    -2949 
   -2906    -2870    -2837    -2798    -2756    -2721    -2691    -2655 
   -2624    -2594    -2565    -2544    -2519    -2490    -2471    -2450 
   -2424    -2407    -2393    -2374    -2361    -2361    -2359    -2357 
   -2370    -2390    -2413    -2448    -2492    -2533    -2590    -2659 
   -2721    -2794    -2879    -2957    -3038    -3130    -3217    -3300 
   -3388    -3476    -3553    -3628    -3703    -3766    -3831    -3894 
   -3943    -3987    -4033    -4063    -4083    -4104    -4110    -4102 
   -4090    -4072    -4035    -3989    -3943    -3879    -3805    -3736 
   -3650    -3550    -3456    -3353    -3241    -3137    -3030    -2917 
   -2805    -2697    -2587    -2482    -2384    -2290    -2199    -2118 
   -2045    -1972    -1911    -1864    -1814    -1775    -1749    -1718 
   -1690    -1676    -1655    -1636    -1636    -1632    -1626    -1638 
   -1649    -1652    -1671    -1699    -1717    -1736    -1764    -1783 
   -1804    -1833    -1856    -1876    -1906    -1934    -1960    -1989 
   -2026    -2050    -2077    -2120    -2151    -2178    -2222    -2258 
   -2292    -2338    -2381    -2413    -2461    -2516    -2550    -2581 
   -2627    -2666    -2695    -2729    -2762    -2789    -2818    -2847 
   -2871    -2896    -2925    -2947    -2970    -3001    -3026    -3049 
   -3083    -3111    -3136    -3175    -3210    -3235    -3269    -3308 
   -3334    -3360    -3392    -3416    -3437    -3459    -3474    -3489 
   -3510    -3518    -3522    -3534    -3546    -3551    -3559    -3568 
   -3568    -3566    -3570    -3569    -3557    -3549    -3532    -3507 
   -3487    -3462    -3418    -3384    -3355    -3310    -3262    -3219 
   -3167    -3109    -3057    -3003    -2943    -2882    -2817    -2740 
   -2668    -2597    -2509    -2425    -2355    -2265    -2170    -2089 
   -1995    -1902    -1826    -1745    -1656    -1576    -1497    -1410 
   -1333    -1273    -1200    -1123    -1071    -1016     -955     -920 
    -893     -862     -847     -847     -842     -843     -862     -876 
    -892     -931     -976    -1008    -1053    -1102    -1142    -1194 
   -1252    -1302    -1363    -1431    -1486    -1537    -1595    -1651 
   -1702    -1765    -1833    -1888    -1945    -2010    -2060    -2101 
   -2158    -2209    -2259    -2323    -2374    -2413    -2467    -2527 
   -2581    -2651    -2729    -2803    -2886    -2986    -3083    -3175 
   -3284    -3396    -3503    -3619    -3731    -3831    -3935    -4040 
   -4137    -4233    -4327    -4414    -4492    -4567    -4633    -4693 
   -4752    -4804    -4843    -4882    -4923    -4949    -4970    -4997 
   -5009    -5012    -5019    -5016    -5004    -4992    -4974    -4946 
   -4915    -4880    -4841    -4803    -4760    -4703    -4645    -4581 
   -4502    -4425    -4351    -4266    -4174    -4087    -3994    -3890 
   -3788    -3688    -3578    -3472    -3368    -3252    -3136    -3025 
   -2906    -2787    -2681    -2571    -2455    -2351    -2253    -2143 
   -2041    -1956    -1869    -1788    -1732    -1672    -1613    -1574 
   -1545    -1520    -1512    -1514    -1513    -1525    -1552    -1572 
   -1594    -1630    -1660    -1686    -1722    -1748    -1760    -1787 
   -1815    -1826    -1842    -1861    -1876    -1904    -1953    -1985 
   -2003    -2033    -2070    -2107    -2160    -2214    -2253    -2300 
   -2358    -2411    -2467    -2524    -2569    -2617    -2677    -2725 
   -2766    -2813    -2857    -2895    -2936    -2975    -3001    -3022 
   -3055    -3079    -3088    -3103    -3114    -3105    -3103    -3102 
   -3079    -3059    -3046    -3024    -3001    -2980    -2944    -2907 
   -2882    -2856    -2818    -2787    -2759    -2729    -2700    -2674 
   -2635    -2598    -2583    -2570    -2546    -2533    -2517    -2496 
   -2490    -2489    -2474    -2466    -2465    -2452    -2442    -2436 
   -2411    -2384    -2370    -2346    -2307    -2266    -2215    -2153 
   -2101    -2053    -1989    -1923    -1864    -1800    -1738    -1687 
   -1637    -1586    -1548    -1518    -1485    -1460    -1445    -1428 
   -1422    -1429    -1426    -1431    -1457    -1482    -1507    -1543 
   -1582    -1615    -1653    -1703    -1750    -1795    -1838    -1877 
   -1919    -1961    -1987    -2014    -2046    -2070    -2091    -2120 
   -2144    -2154    -2168    -2187    -2193    -2199    -2214    -2215 
   -2209    -2207    -2201    -2182    -2169    -2160    -2144    -2135 
   -2126    -2116    -2107    -2107    -2104    -2107    -2124    -2141 
   -2158    -2184    -2211    -2238    -2277    -2317    -2357    -2404 
   -2457    -2498    -2540    -2596    -2647    -2693    -2749    -2803 
   -2844    -2889    -2936    -2972    -3002    -3041    -3075    -3100 
   -3136    -3167    -3186    -3208    -3235    -3256    -3277    -3304 
   -3327    -3346    -3369    -3384    -3400    -3427    -3443    -3453 
   -3472    -3485    -3484    -3492    -3501    -3495    -3484    -3470 
   -3446    -3415    -3384    -3343    -3288    -3237    -3183    -3117 
   -3049    -2979    -2895    -2818    -2743    -2652    -2563    -2484 
   -2400    -2311    -2234    -2160    -2079    -2011    -1949    -1877 
   -1817    -1769    -1715    -1664    -1628    -1587    -1549    -1526 
   -1503    -1479    -1467    -1459    -1445    -1443    -1448    -1443 
   -1440    -1452    -1455    -1457    -1474    -1483    -1486    -1502 
   -1520    -1524    -1537    -1563    -1579    -1597    -1629    -1658 
   -1682    -1725    -1769    -1803    -1850    -1904    -1948    -2003 
   -2068    -2124    -2185    -2251    -2315    -2377    -2448    -2521 
   -2587    -2659    -2733    -2798    -2867    -2938    -2998    -3063 
   -3129    -3177    -3225    -3280    -3321    -3353    -3393    -3427 
   -3451    -3484    -3518    -3538    -3557    -3585    -3603    -3619 
   -3647    -3662    -3674    -3704    -3726    -3732    -3755    -3782 
   -3792    -3811    -3835    -3847    -3861    -3880    -3892    -3894 
   -3898    -3901    -3894    -3886    -3878    -3861    -3844    -3828 
   -3801    -3770    -3740    -3704    -3663    -3622    -3570    -3511 
   -3458    -3402    -3331    -3262    -3196    -3118    -3041    -2971 
   -2889    -2805    -2733    -2658    -2575    -2502    -2430    -2353 
   -2288    -2230    -2161    -2098    -2050    -1999    -1949    -1910 
   -1867    -1823    -1799    -1775    -1742    -1732    -1722    -1701 
   -1696    -1703    -1709    -1726    -1757    -1781    -1809    -1852 
   -1896    -1933    -1982    -2037    -2084    -2139    -2203    -2250 
   -2301    -2366    -2424    -2475    -2540    -2602    -2655    -2717 
   -2782    -2832    -2889    -2953    -3011    -3068    -3129    -3186 
   -3238    -3294    -3349    -3395    -3437    -3484    -3527    -3561 
   -3599    -3634    -3658    -3692    -3719    -3742    -3780    -3812 
   -3834    -3865    -3894    -3906    -3924    -3947    -3951    -3951 
   -3959    -3956    -3937    -3923    -3906    -3875    -3842    -3817 
   -3775    -3726    -3682    -3630    -3573    -3522    -3461    -3399 
   -3343    -3280    -3211    -3149    -3088    -3019    -2960    -2909 
   -2844    -2782    -2732    -2671    -2610    -2558    -2500    -2438 
   -2386    -2338    -2280    -2227    -2184    -2135    -2091    -2061 
   -2030    -1995    -1972    -1956    -1935    -1926    -1923    -1918 
   -1921    -1935    -1942    -1953    -1972    -1984    -1993    -2010 
   -2022    -2031    -2042    -2053    -2058    -2064    -2070    -2072 
   -2076    -2088    -2089    -2092    -2107    -2114    -2114    -2130 
   -2144    -2144    -2155    -2174    -2180    -2185    -2203    -2212 
   -2219    -2238    -2250    -2255    -2273    -2290    -2297    -2317 
   -2343    -2350    -2362    -2393    -2411    -2421    -2450    -2474 
   -2486    -2513    -2538    -2548    -2567    -2594    -2606    -2616 
   -2635    -2647    -2654    -2677    -2695    -2701    -2720    -2748 
   -2768    -2792    -2822    -2843    -2872    -2915    -2951    -2986 
   -3029    -3069    -3105    -3153    -3202    -3237    -3280    -3329 
   -3364    -3402    -3446    -3477    -3505    -3542    -3563    -3581 
   -3604    -3618    -3624    -3634    -3643    -3640    -3642    -3647 
   -3640    -3630    -3632    -3622    -3601    -3595    -3577    -3549 
   -3534    -3515    -3484    -3464    -3447    -3418    -3388    -3368 
   -3341    -3312    -3294    -3271    -3240    -3219    -3202    -3172 
   -3157    -3152    -3127    -3109    -3102    -3086    -3071    -3065 
