Origin Time       2016/04/16 01:25:00
Lat.              32.753
Long.             130.762
Depth. (km)       12
Mag.              7.3
Station Code      WKY004
Station Lat.      34.0841
Station Long.     135.4309
Station Height(m) 231
Record Time       2016/04/16 01:27:23
Sampling Freq(Hz) 100Hz
Duration Time(s)  60
Dir.              E-W
Scale Factor      7845(gal)/8223790
Max. Acc. (gal)   1.067
Last Correction   2016/04/16 01:27:24
Memo.             
[...]
    4342     4332     4322     4320     4311     4299     4293     4284 
    4282     4286     4286     4291     4301     4298     4298     4306 
    4314     4320     4334     4356     4374     4388     4407     4429 
    4442     4450     4464     4483     4502     4519     4535     4554 
    4576     4600     4619     4633     4653     4680     4695     4710 
    4741     4756     4765     4791     4808     4814     4830     4847 
    4854     4865     4877     4887     4896     4900     4908     4922 
    4923     4931     4953     4956     4958     4973     4984     4993 
    5011     5027     5047     5062     5073     5092     5107     5112 
    5131     5151     5155     5163     5174     5169     5164     5167 
    5159     5150     5147     5144     5146     5152     5162     5173 
    5181     5190     5206     5223     5232     5243     5262     5277 
    5285     5297     5308     5312     5319     5329     5341     5358 
    5375     5389     5398     5410     5420     5431     5443     5448 
    5456     5463     5467     5472     5475     5470     5468     5472 
    5474     5472     5472     5472     5471     5470     5464     5458 
    5451     5436     5421     5408     5381     5358     5344     5316 
    5285     5263     5228     5189     5159     5121     5078     5044 
    5011     4973     4931     4889     4852     4818     4779     4746 
    4719     4687     4658     4637     4606     4576     4552     4527 
    4496     4471     4455     4433     4407     4392     4379     4359 
    4344     4330     4320     4310     4299     4299     4302     4295 
    4305     4320     4320     4330     4348     4352     4364     4386 
    4395     4407     4423     4440     4459     4472     4487     4513 
    4527     4541     4564     4573     4576     4592     4602     4600 
    4603     4608     4618     4623     4626     4630     4635     4641 
    4648     4653     4661     4672     4685     4700     4710     4725 
    4747     4765     4777     4793     4808     4820     4835     4846 
    4850     4860     4870     4874     4885     4892     4889     4891 
    4888     4878     4876     4872     4864     4862     4860     4850 
    4842     4838     4830     4822     4814     4807     4803     4796 
    4785     4779     4773     4762     4760     4762     4753     4750 
    4754     4746     4739     4739     4731     4719     4712     4710 
    4702     4693     4688     4684     4675     4662     4648     4631 
    4611     4592     4571     4545     4525     4507     4490     4473 
    4459     4446     4431     4417     4410     4401     4388     4379 
    4374     4367     4359     4345     4337     4325     4311     4301 
    4294     4286     4284     4282     4274     4274     4276     4271 
    4268     4271     4271     4275     4271     4266     4275     4276 
    4278     4288     4298     4306     4325     4341     4353     4376 
    4401     4414     4433     4461     4483     4502     4530     4546 
    4557     4572     4579     4581     4591     4596     4598     4606 
    4615     4622     4633     4642     4648     4654     4664     4669 
    4673     4679     4681     4683     4688     4695     4696     4688 
    4683     4684     4676     4669     4673     4669     4661     4664 
    4671     4668     4662     4660     4650     4639     4637     4629 
    4621     4619     4611     4606     4606     4602     4606     4610 
    4604     4612     4623     4623     4630     4646     4657     4662 
    4669     4680     4688     4692     4702     4710     4714     4710 
    4714     4710     4693     4689     4689     4669     4658     4656 
    4639     4625     4621     4606     4590     4581     4567     4558 
    4550     4535     4531     4527     4515     4514     4521     4517 
    4517     4527     4531     4534     4542     4546     4545     4553 
    4557     4557     4564     4565     4567     4579     4579     4577 
    4591     4594     4591     4596     4599     4598     4604     4606 
    4606     4606     4610     4612     4612     4606     4603     4602 
    4585     4579     4579     4567     4560     4561     4558     4556 
    4554     4556     4558     4556     4553     4549     4542     4537 
    4537     4534     4526     4522     4519     4511     4499     4491 
    4487     4476     4461     4457     4449     4440     4438     4434 
    4428     4429     4425     4417     4415     4411     4405     4401 
    4393     4388     4387     4382     4371     4364     4349     4333 
    4327     4313     4293     4287     4276     4248     4233     4228 
    4207     4190     4180     4171     4159     4149     4140     4135 
    4129     4129     4132     4136     4139     4145     4149     4148 
    4152     4158     4159     4170     4178     4178     4182     4187 
    4190     4197     4195     4194     4195     4189     4182     4182 
    4182     4174     4171     4176     4172     4168     4172     4174 
    4168     4166     4159     4162     4172     4178     4180     4191 
    4192     4187     4195     4197     4197     4205     4210     4212 
    4214     4215     4215     4215     4213     4214     4218     4218 
    4217     4214     4207     4202     4197     4192     4185     4175 
    4164     4153     4140     4135     4131     4121     4118     4117 
    4106     4101     4104     4105     4102     4099     4104     4110 
    4113     4114     4124     4135     4144     4156     4168     4182 
    4197     4209     4220     4233     4251     4266     4280     4297 
    4315     4333     4348     4368     4387     4403     4417     4436 
    4453     4464     4482     4499     4514     4534     4553     4565 
    4579     4590     4600     4612     4619     4634     4648     4646 
    4656     4675     4676     4679     4691     4696     4698     4700 
    4699     4696     4693     4689     4684     4673     4668     4665 
    4657     4652     4648     4637     4633     4630     4625     4625 
    4622     4615     4612     4608     4606     4603     4595     4596 
    4599     4596     4598     4600     4596     4602     4606     4603 
    4604     4610     4610     4611     4618     4623     4625     4627 
    4634     4639     4641     4650     4661     4665     4669     4677 
    4684     4683     4687     4699     4704     4708     4719     4723 
    4725     4737     4742     4742     4747     4753     4757     4760 
    4764     4779     4781     4774     4783     4787     4781     4792 
    4801     4800     4803     4803     4797     4796     4797     4801 
    4799     4791     4787     4780     4770     4762     4752     4741 
    4726     4710     4702     4684     4662     4657     4646     4627 
    4619     4610     4595     4587     4579     4567     4560     4556 
    4548     4542     4540     4531     4527     4521     4515     4521 
    4517     4507     4510     4511     4504     4506     4507     4504 
    4511     4525     4533     4541     4554     4567     4577     4594 
    4608     4625     4644     4654     4666     4687     4703     4712 
    4725     4734     4742     4746     4750     4757     4761     4764 
    4766     4766     4761     4756     4756     4747     4735     4735 
    4730     4710     4704     4702     4681     4668     4660     4642 
    4631     4621     4606     4595     4576     4561     4549     4529 
    4514     4504     4487     4471     4457     4441     4426     4415 
    4401     4386     4372     4357     4345     4333     4324     4317 
    4314     4310     4306     4305     4306     4305     4303     4313 
    4314     4311     4322     4326     4321     4326     4332     4332 
    4342     4351     4355     4365     4372     4378     4390     4396 
    4401     4415     4422     4428     4441     4449     4457     4471 
    4477     4486     4502     4511     4518     4531     4541     4549 
    4563     4568     4575     4585     4596     4603     4611     4623 
    4626     4626     4637     4642     4646     4658     4671     4677 
    4685     4693     4700     4706     4710     4722     4727     4730 
    4742     4747     4743     4753     4758     4750     4752     4757 
    4753     4752     4757     4760     4758     4761     4764     4768 
    4769     4768     4769     4766     4757     4757     4757     4746 
    4739     4741     4731     4720     4715     4708     4692     4679 
    4672     4661     4652     4645     4641     4633     4621     4612 
    4606     4591     4575     4568     4558     4541     4534     4523 
    4504     4499     4495     4480     4468     4461     4448     4434 
    4422     4411     4405     4386     4367     4360     4345     4322 
    4307     4289     4268     4252     4237     4215     4199     4187 
    4170     4155     4145     4135     4121     4110     4098     4088 
    4079     4067     4062     4055     4047     4041     4035     4029 
    4028     4024     4020     4027     4033     4035     4045     4055 
    4062     4071     4083     4095     4112     4124     4135     4147 
    4158     4168     4178     4190     4200     4213     4225     4233 
    4243     4255     4260     4271     4286     4291     4306     4326 
    4332     4342     4360     4369     4372     4386     4398     4396 
    4405     4415     4414     4418     4431     4441     4446     4455 
    4464     4477     4483     4488     4504     4517     4525     4540 
    4553     4558     4564     4573     4581     4587     4592     4599 
    4606     4614     4623     4634     4639     4645     4648     4646 
    4649     4654     4654     4649     4650     4650     4646     4642 
    4639     4637     4631     4630     4626     4622     4617     4611 
    4606     4599     4591     4584     4577     4568     4561     4556 
    4550     4540     4531     4527     4519     4513     4506     4498 
    4491     4483     4473     4469     4457     4442     4440     4433 
    4422     4418     4411     4399     4390     4378     4364     4353 
    4338     4324     4311     4294     4278     4271     4260     4241 
    4228     4220     4205     4191     4180     4167     4152     4140 
    4128     4118     4112     4104     4093     4086     4082     4077 
    4069     4063     4062     4062     4054     4050     4055     4050 
    4050     4058     4055     4055     4064     4063     4060     4068 
    4074     4079     4083     4088     4095     4097     4097     4106 
    4110     4107     4116     4124     4121     4125     4136     4137 
    4140     4151     4153     4158     4170     4178     4182     4190 
    4202     4213     4223     4228     4236     4251     4261     4266 
    4276     4287     4289     4295     4303     4305     4305     4307 
    4306     4305     4305     4303     4306     4303     4294     4293 
    4291     4282     4276     4274     4261     4251     4245     4233 
    4223     4213     4202     4192     4175     4162     4158     4145 
    4131     4125     4117     4104     4094     4091     4088     4082 
    4081     4079     4072     4071     4074     4071     4071     4074 
    4072     4074     4074     4072     4072     4074     4072     4072 
    4069     4066     4069     4072     4068     4068     4069     4064 
    4063     4064     4063     4062     4062     4064     4067     4064 
    4066     4077     4078     4078     4085     4088     4091     4101 
    4106     4107     4114     4122     4128     4136     4144     4151 
    4164     4174     4180     4191     4200     4207     4220     4233 
    4243     4263     4282     4297     4315     4330     4341     4360 
    4382     4395     4411     4430     4445     4461     4480     4495 
    4515     4541     4558     4579     4610     4626     4642     4668 
    4680     4695     4718     4734     4750     4773     4797     4812 
    4826     4842     4858     4872     4891     4907     4922     4938 
    4951     4965     4980     4993     5004     5013     5022     5027 
    5038     5047     5054     5059     5066     5073     5082     5086 
    5093     5100     5100     5103     5109     5104     5104     5116 
    5115     5107     5116     5120     5113     5112     5115     5115 
    5117     5115     5113     5116     5115     5113     5120     5120 
    5113     5117     5121     5119     5119     5117     5112     5112 
    5113     5115     5116     5109     5105     5107     5101     5097 
    5097     5092     5085     5086     5085     5074     5070     5067 
    5059     5055     5053     5046     5039     5031     5024     5024 
    5019     5011     5015     5009     5003     5008     5009     5009 
    5013     5011     5011     5017     5019     5020     5024     5023 
    5020     5017     5020     5022     5020     5022     5024     5024 
    5026     5024     5027     5031     5027     5035     5044     5042 
    5046     5055     5055     5057     5069     5071     5076     5085 
    5088     5093     5107     5107     5113     5125     5127     5131 
    5146     5152     5157     5164     5175     5184     5185     5192 
    5202     5204     5204     5213     5219     5219     5225     5238 
    5239     5243     5260     5273     5279     5296     5310     5314 
    5325     5343     5352     5362     5377     5391     5401     5412 
    5424     5436     5443     5454     5466     5474     5481     5499 
    5514     5522     5532     5544     5557     5570     5580     5598 
    5611     5618     5629     5641     5649     5660     5667     5667 
    5671     5679     5687     5689     5694     5698     5697     5697 
    5702     5702     5701     5699     5698     5697     5692     5686 
    5687     5684     5674     5672     5672     5665     5663     5664 
    5664     5664     5663     5663     5663     5659     5659     5660 
    5659     5661     5665     5668     5670     5668     5670     5674 
    5671     5668     5668     5664     5661     5659     5653     5649 
    5651     5649     5641     5633     5632     5625     5614     5611 
    5616     5609     5601     5601     5599     5590     5590     5595 
    5590     5584     5584     5582     5578     5576     5575     5575 
    5575     5574     5571     5568     5567     5567     5567     5566 
    5566     5562     5555     5552     5552     5544     5533     5529 
    5519     5502     5493     5487     5475     5459     5443     5429 
    5416     5398     5385     5375     5355     5332     5321     5302 
    5277     5262     5244     5220     5204     5185     5164     5150 
    5131     5111     5096     5077     5059     5046     5027     5008 
    4989     4970     4951     4932     4912     4895     4873     4852 
    4838     4816     4795     4777     4760     4735     4714     4698 
    4680     4654     4638     4627     4606     4588     4576     4560 
    4548     4538     4526     4514     4504     4495     4488     4482 
    4472     4464     4457     4453     4449     4446     4441     4437 
    4430     4426     4423     4418     4415     4417     4410     4405 
    4406     4402     4396     4399     4401     4399     4398     4395 
    4393     4392     4388     4384     4382     4382     4379     4368 
    4367     4368     4359     4355     4356     4349     4347     4348 
    4349     4347     4345     4347     4349     4345     4345     4351 
    4349     4351     4355     4353     4356     4357     4355     4355 
    4355     4357     4360     4359     4360     4357     4353     4356 
    4353     4352     4351     4341     4333     4333     4326     4322 
    4321     4314     4303     4298     4291     4283     4276     4271 
    4266     4263     4256     4252     4251     4243     4233     4232 
    4228     4220     4214     4210     4205     4202     4197     4189 
    4187     4183     4176     4178     4171     4162     4163     4159 
    4153     4159     4158     4149     4158     4159     4149     4156 
    4162     4159     4159     4159     4158     4158     4152     4148 
    4151     4151     4145     4144     4143     4136     4131     4126 
    4120     4116     4114     4106     4099     4094     4083     4077 
    4072     4067     4059     4051     4047     4044     4031     4021 
    4020     4009     3994     3987     3981     3971     3963     3959 
    3955     3944     3935     3932     3924     3915     3913     3908 
    3894     3892     3890     3882     3878     3871     3863     3859 
    3854     3851     3851     3844     3842     3842     3836     3834 
    3834     3834     3834     3831     3828     3831     3828     3825 
    3824     3817     3813     3815     3812     3808     3805     3801 
    3798     3793     3782     3781     3780     3769     3766     3765 
    3757     3748     3746     3746     3735     3724     3723     3713 
    3705     3705     3700     3693     3693     3690     3685     3678 
    3674     3674     3672     3665     3662     3665     3661     3658 
    3662     3658     3653     3661     3659     3657     3663     3666 
    3667     3676     3682     3689     3697     3701     3707     3717 
    3721     3728     3743     3751     3757     3771     3776     3784 
    3800     3811     3816     3828     3842     3848     3858     3869 
    3877     3886     3894     3902     3910     3919     3924     3932 
    3940     3948     3958     3965     3975     3987     4001     4009 
    4020     4035     4044     4054     4066     4077     4086     4098 
    4113     4126     4140     4151     4159     4170     4178     4187 
    4202     4214     4223     4237     4247     4252     4260     4266 
    4276     4286     4289     4301     4311     4315     4324     4332 
    4333     4333     4337     4338     4341     4344     4344     4340 
    4341     4342     4340     4338     4338     4336     4334     4332 
    4329     4329     4326     4322     4324     4322     4315     4318 
    4322     4317     4315     4321     4320     4314     4314     4318 
    4317     4313     4315     4317     4314     4317     4324     4324 
    4321     4325     4324     4322     4327     4332     4333     4333 
    4332     4334     4334     4334     4337     4336     4334     4336 
    4337     4338     4336     4337     4341     4338     4342     4351 
    4345     4342     4348     4348     4348     4351     4353     4355 
    4359     4364     4369     4375     4379     4383     4392     4398 
    4403     4417     4425     4426     4436     4450     4461     4472 
    4484     4495     4510     4526     4538     4556     4571     4580 
    4598     4612     4626     4646     4661     4672     4689     4706 
    4715     4729     4743     4753     4766     4783     4791     4799 
    4807     4811     4818     4826     4831     4842     4843     4843 
    4860     4869     4864     4870     4884     4885     4885     4892 
    4899     4901     4905     4912     4920     4923     4928     4936 
    4942     4942     4946     4955     4962     4969     4981     4985 
    4984     4997     5008     5009     5019     5027     5030     5040 
    5046     5053     5067     5070     5074     5093     5098     5097 
    5115     5124     5121     5134     5142     5144     5151     5159 
    5163     5166     5173     5181     5184     5188     5193     5194 
    5197     5201     5208     5217     5220     5220     5224     5228 
    5228     5231     5238     5240     5246     5251     5252     5258 
    5263     5266     5268     5273     5278     5285     5290     5296 
