Origin Time       2016/04/16 01:25:00
Lat.              32.753
Long.             130.762
Depth. (km)       12
Mag.              7.3
Station Code      WKY008
Station Lat.      33.7289
Station Long.     135.3772
Station Height(m) 4
Record Time       2016/04/16 01:26:59
Sampling Freq(Hz) 100Hz
Duration Time(s)  101
Dir.              E-W
Scale Factor      7845(gal)/8223790
Max. Acc. (gal)   2.739
Last Correction   2016/04/16 01:27:01
Memo.             
[...]
   -5164    -5209    -5220    -5212    -5238    -5265    -5254    -5242 
   -5258    -5278    -5283    -5283    -5279    -5271    -5262    -5248 
   -5231    -5211    -5200    -5205    -5212    -5189    -5169    -5184 
   -5161    -5093    -5067    -5054    -4993    -4941    -4901    -4845 
   -4795    -4753    -4710    -4677    -4660    -4649    -4619    -4587 
   -4571    -4549    -4530    -4517    -4504    -4506    -4509    -4492 
   -4495    -4542    -4567    -4575    -4627    -4683    -4719    -4776 
   -4828    -4865    -4918    -4981    -5027    -5088    -5162    -5220 
   -5270    -5329    -5387    -5429    -5470    -5521    -5568    -5613 
   -5659    -5686    -5697    -5709    -5729    -5741    -5738    -5734 
   -5722    -5692    -5676    -5672    -5626    -5552    -5518    -5495 
   -5425    -5362    -5335    -5271    -5201    -5179    -5142    -5080 
   -5047    -5016    -4955    -4891    -4834    -4772    -4710    -4639 
   -4575    -4544    -4510    -4463    -4438    -4414    -4392    -4402 
   -4407    -4398    -4401    -4414    -4426    -4449    -4476    -4502 
   -4546    -4610    -4671    -4730    -4796    -4872    -4954    -5036 
   -5108    -5164    -5227    -5289    -5332    -5375    -5436    -5481 
   -5502    -5535    -5567    -5579    -5575    -5544    -5502    -5486 
   -5476    -5436    -5375    -5332    -5308    -5256    -5174    -5101 
   -5036    -4966    -4888    -4806    -4737    -4668    -4580    -4491 
   -4407    -4324    -4256    -4195    -4156    -4140    -4105    -4097 
   -4125    -4121    -4124    -4163    -4182    -4187    -4209    -4236 
   -4274    -4332    -4392    -4453    -4518    -4583    -4648    -4716 
   -4770    -4811    -4857    -4909    -4966    -5023    -5100    -5192 
   -5256    -5320    -5410    -5495    -5568    -5645    -5717    -5788 
   -5864    -5914    -5923    -5930    -5933    -5913    -5877    -5841 
   -5803    -5753    -5699    -5667    -5641    -5590    -5557    -5545 
   -5490    -5425    -5379    -5294    -5192    -5125    -5074    -5003 
   -4932    -4888    -4849    -4792    -4738    -4707    -4687    -4664 
   -4642    -4631    -4612    -4565    -4523    -4498    -4464    -4431 
   -4413    -4413    -4438    -4459    -4473    -4511    -4550    -4573 
   -4603    -4633    -4637    -4639    -4646    -4658    -4672    -4684 
   -4706    -4731    -4761    -4803    -4845    -4876    -4895    -4897 
   -4903    -4901    -4873    -4852    -4862    -4843    -4811    -4816 
   -4810    -4773    -4772    -4784    -4770    -4770    -4793    -4785 
   -4765    -4779    -4796    -4797    -4792    -4788    -4797    -4806 
   -4799    -4803    -4799    -4765    -4760    -4795    -4787    -4748 
   -4754    -4761    -4735    -4722    -4734    -4753    -4754    -4754 
   -4789    -4845    -4892    -4907    -4907    -4934    -4966    -4974 
   -4959    -4935    -4911    -4904    -4907    -4893    -4865    -4862 
   -4876    -4872    -4852    -4847    -4854    -4845    -4827    -4824 
   -4811    -4777    -4742    -4702    -4646    -4592    -4552    -4513 
   -4469    -4450    -4461    -4461    -4442    -4422    -4415    -4421 
   -4402    -4360    -4338    -4334    -4330    -4325    -4332    -4371 
   -4411    -4433    -4480    -4545    -4591    -4645    -4703    -4757 
   -4818    -4868    -4901    -4943    -4982    -5003    -5016    -5035 
   -5053    -5066    -5073    -5077    -5082    -5073    -5044    -5036 
   -5040    -5016    -4992    -4980    -4955    -4935    -4931    -4938 
   -4947    -4959    -4982    -5012    -5016    -5000    -5007    -5020 
   -5000    -4974    -4970    -4965    -4955    -4951    -4938    -4928 
   -4918    -4880    -4845    -4837    -4816    -4780    -4743    -4712 
   -4672    -4621    -4579    -4540    -4488    -4453    -4431    -4399 
   -4382    -4398    -4398    -4380    -4390    -4403    -4401    -4410 
   -4411    -4415    -4446    -4464    -4475    -4502    -4541    -4577 
   -4603    -4633    -4656    -4641    -4626    -4646    -4656    -4648 
   -4649    -4661    -4668    -4652    -4644    -4664    -4673    -4676 
   -4703    -4727    -4747    -4783    -4796    -4791    -4799    -4799 
   -4788    -4781    -4777    -4773    -4760    -4761    -4799    -4826 
   -4841    -4872    -4895    -4905    -4918    -4918    -4920    -4928 
   -4918    -4907    -4904    -4880    -4833    -4803    -4784    -4739 
   -4687    -4668    -4656    -4612    -4572    -4550    -4529    -4518 
   -4514    -4495    -4472    -4467    -4471    -4477    -4477    -4471 
   -4472    -4479    -4482    -4496    -4515    -4519    -4525    -4552 
   -4580    -4591    -4608    -4653    -4681    -4693    -4738    -4783 
   -4814    -4862    -4904    -4928    -4968    -5022    -5073    -5112 
   -5143    -5186    -5243    -5279    -5301    -5333    -5375    -5414 
   -5435    -5460    -5502    -5526    -5528    -5544    -5576    -5585 
   -5579    -5575    -5562    -5547    -5526    -5509    -5516    -5505 
   -5493    -5494    -5471    -5437    -5408    -5379    -5354    -5305 
   -5263    -5246    -5206    -5151    -5125    -5108    -5084    -5078 
   -5090    -5111    -5135    -5154    -5184    -5233    -5267    -5285 
   -5314    -5343    -5355    -5381    -5417    -5441    -5470    -5524 
   -5589    -5641    -5682    -5726    -5755    -5772    -5805    -5821 
   -5823    -5845    -5868    -5886    -5894    -5886    -5872    -5844 
   -5798    -5753    -5702    -5645    -5590    -5519    -5454    -5408 
   -5355    -5289    -5232    -5179    -5117    -5069    -5017    -4945 
   -4870    -4808    -4754    -4699    -4650    -4610    -4567    -4523 
   -4484    -4452    -4425    -4380    -4318    -4288    -4279    -4243 
   -4199    -4175    -4153    -4129    -4101    -4081    -4088    -4097 
   -4098    -4121    -4158    -4191    -4222    -4263    -4314    -4352 
   -4378    -4410    -4445    -4473    -4509    -4546    -4568    -4606 
   -4679    -4738    -4769    -4826    -4891    -4923    -4959    -5015 
   -5058    -5080    -5107    -5155    -5194    -5205    -5227    -5268 
   -5296    -5309    -5333    -5362    -5395    -5432    -5441    -5448 
   -5489    -5510    -5493    -5490    -5508    -5505    -5489    -5486 
   -5476    -5460    -5443    -5418    -5394    -5363    -5314    -5267 
   -5235    -5197    -5130    -5065    -5023    -4974    -4899    -4820 
   -4742    -4652    -4565    -4492    -4398    -4282    -4197    -4139 
   -4071    -4001    -3956    -3932    -3912    -3902    -3910    -3917 
   -3932    -3964    -3997    -4031    -4088    -4151    -4200    -4275 
   -4376    -4464    -4567    -4693    -4814    -4930    -5055    -5178 
   -5316    -5464    -5585    -5698    -5823    -5948    -6066    -6162 
   -6246    -6347    -6442    -6511    -6571    -6619    -6647    -6666 
   -6678    -6678    -6664    -6650    -6604    -6519    -6450    -6384 
   -6278    -6168    -6073    -5983    -5859    -5713    -5605    -5494 
   -5339    -5198    -5074    -4930    -4785    -4654    -4526    -4391 
   -4255    -4132    -4020    -3912    -3811    -3705    -3604    -3530 
   -3477    -3410    -3341    -3292    -3252    -3225    -3213    -3199 
   -3194    -3213    -3242    -3272    -3306    -3362    -3440    -3516 
   -3588    -3665    -3765    -3874    -3969    -4055    -4159    -4274 
   -4374    -4452    -4533    -4631    -4715    -4784    -4860    -4930 
   -4988    -5036    -5078    -5123    -5169    -5209    -5235    -5256 
   -5286    -5305    -5286    -5248    -5227    -5205    -5169    -5140 
   -5111    -5058    -4997    -4946    -4904    -4865    -4812    -4752 
   -4710    -4696    -4688    -4666    -4639    -4642    -4669    -4683 
   -4693    -4727    -4764    -4787    -4826    -4881    -4930    -4989 
   -5059    -5107    -5154    -5235    -5298    -5314    -5348    -5412 
   -5454    -5471    -5497    -5529    -5555    -5585    -5610    -5599 
   -5579    -5582    -5580    -5547    -5516    -5495    -5452    -5408 
   -5364    -5301    -5238    -5185    -5120    -5053    -4999    -4945 
   -4874    -4803    -4754    -4710    -4654    -4602    -4546    -4507 
   -4494    -4456    -4410    -4407    -4410    -4386    -4382    -4417 
   -4440    -4445    -4482    -4537    -4568    -4614    -4684    -4741 
   -4797    -4872    -4928    -4972    -5036    -5103    -5152    -5197 
   -5231    -5281    -5347    -5394    -5431    -5471    -5522    -5579 
   -5630    -5674    -5711    -5748    -5788    -5825    -5848    -5856 
   -5859    -5872    -5876    -5842    -5814    -5814    -5791    -5740 
   -5713    -5703    -5665    -5609    -5568    -5529    -5463    -5397 
   -5339    -5255    -5152    -5063    -4981    -4874    -4761    -4657 
   -4556    -4464    -4390    -4318    -4248    -4187    -4155    -4135 
   -4107    -4106    -4118    -4125    -4153    -4182    -4189    -4200 
   -4220    -4233    -4243    -4232    -4203    -4189    -4178    -4152 
   -4136    -4133    -4140    -4171    -4191    -4214    -4278    -4326 
   -4356    -4423    -4515    -4598    -4680    -4768    -4862    -4942 
   -5016    -5112    -5192    -5240    -5312    -5401    -5463    -5524 
   -5595    -5656    -5718    -5788    -5848    -5892    -5944    -5987 
   -6012    -6033    -6043    -6038    -6025    -6000    -5968    -5929 
   -5877    -5819    -5760    -5705    -5664    -5633    -5593    -5548 
   -5510    -5474    -5451    -5421    -5367    -5333    -5324    -5283 
   -5224    -5196    -5189    -5152    -5112    -5111    -5086    -5047 
   -5049    -5032    -4977    -4947    -4942    -4922    -4897    -4900 
   -4918    -4922    -4928    -4963    -5007    -5043    -5089    -5139 
   -5184    -5231    -5273    -5319    -5377    -5410    -5424    -5458 
   -5494    -5513    -5528    -5543    -5549    -5556    -5585    -5616 
   -5613    -5605    -5610    -5611    -5607    -5583    -5545    -5518 
   -5502    -5462    -5413    -5390    -5358    -5319    -5297    -5262 
   -5221    -5189    -5131    -5067    -5023    -4976    -4911    -4855 
   -4819    -4776    -4725    -4681    -4633    -4565    -4504    -4440 
   -4355    -4275    -4189    -4087    -4003    -3931    -3836    -3743 
   -3672    -3599    -3515    -3447    -3404    -3373    -3350    -3342 
   -3346    -3352    -3365    -3383    -3387    -3395    -3429    -3474 
   -3518    -3544    -3593    -3682    -3754    -3811    -3897    -3993 
   -4066    -4153    -4274    -4368    -4442    -4554    -4681    -4788 
   -4897    -5003    -5104    -5212    -5314    -5402    -5478    -5547 
   -5610    -5679    -5745    -5780    -5809    -5875    -5929    -5950 
   -5984    -6027    -6049    -6069    -6110    -6133    -6120    -6123 
   -6129    -6096    -6054    -6025    -5981    -5902    -5821    -5745 
   -5655    -5564    -5475    -5366    -5254    -5138    -5015    -4889 
   -4757    -4619    -4473    -4329    -4205    -4093    -3963    -3846 
   -3753    -3662    -3592    -3524    -3449    -3395    -3358    -3319 
   -3295    -3300    -3319    -3315    -3315    -3366    -3424    -3456 
   -3503    -3563    -3615    -3689    -3775    -3842    -3909    -3984 
   -4055    -4132    -4203    -4263    -4333    -4407    -4456    -4502 
   -4568    -4622    -4649    -4665    -4700    -4731    -4726    -4725 
   -4746    -4761    -4765    -4764    -4765    -4770    -4760    -4743 
   -4750    -4737    -4693    -4683    -4685    -4633    -4571    -4549 
   -4542    -4509    -4469    -4452    -4434    -4418    -4413    -4403 
   -4398    -4402    -4396    -4401    -4417    -4426    -4436    -4457 
   -4477    -4499    -4522    -4530    -4549    -4577    -4592    -4608 
   -4630    -4641    -4645    -4644    -4637    -4634    -4641    -4634 
   -4623    -4641    -4642    -4630    -4642    -4639    -4611    -4603 
   -4592    -4542    -4495    -4479    -4446    -4390    -4364    -4359 
   -4327    -4306    -4311    -4301    -4298    -4314    -4330    -4360 
   -4402    -4449    -4515    -4594    -4669    -4754    -4872    -5007 
   -5125    -5254    -5401    -5548    -5697    -5833    -5957    -6088 
   -6214    -6327    -6443    -6555    -6648    -6727    -6809    -6891 
   -6947    -6985    -7030    -7036    -7003    -6988    -6970    -6902 
   -6809    -6729    -6648    -6529    -6389    -6264    -6122    -5952 
   -5791    -5632    -5445    -5271    -5107    -4928    -4777    -4654 
   -4506    -4353    -4238    -4143    -4033    -3923    -3842    -3782 
   -3719    -3667    -3631    -3615    -3623    -3619    -3627    -3673 
   -3735    -3797    -3855    -3920    -4017    -4131    -4218    -4315 
   -4456    -4592    -4715    -4861    -5013    -5157    -5302    -5443 
   -5574    -5719    -5871    -5996    -6100    -6193    -6281    -6365 
   -6427    -6474    -6527    -6561    -6555    -6555    -6561    -6534 
   -6484    -6417    -6349    -6276    -6174    -6050    -5922    -5784 
   -5621    -5458    -5314    -5166    -4999    -4845    -4719    -4591 
   -4445    -4317    -4213    -4104    -3982    -3890    -3816    -3724 
   -3643    -3601    -3580    -3549    -3527    -3534    -3542    -3562 
   -3627    -3693    -3747    -3835    -3950    -4074    -4207    -4337 
   -4480    -4638    -4789    -4947    -5108    -5244    -5393    -5563 
   -5698    -5803    -5926    -6050    -6146    -6230    -6301    -6355 
   -6403    -6423    -6415    -6427    -6430    -6384    -6331    -6273 
   -6173    -6062    -5949    -5792    -5622    -5467    -5301    -5115 
   -4930    -4747    -4553    -4349    -4155    -3958    -3757    -3568 
   -3376    -3187    -3025    -2882    -2733    -2584    -2463    -2365 
   -2269    -2187    -2128    -2081    -2049    -2041    -2039    -2041 
   -2077    -2149    -2223    -2300    -2389    -2504    -2640    -2770 
   -2901    -3051    -3196    -3336    -3492    -3657    -3804    -3931 
   -4069    -4233    -4387    -4519    -4656    -4799    -4938    -5070 
   -5196    -5308    -5432    -5563    -5667    -5760    -5863    -5957 
   -6054    -6147    -6242    -6346    -6444    -6554    -6658    -6731 
   -6831    -6956    -7049    -7127    -7206    -7284    -7368    -7427 
   -7460    -7501    -7542    -7581    -7618    -7607    -7599    -7619 
   -7597    -7550    -7524    -7492    -7442    -7377    -7302    -7238 
   -7167    -7061    -6934    -6812    -6694    -6544    -6353    -6173 
   -6030    -5864    -5664    -5475    -5312    -5146    -4974    -4801 
   -4629    -4473    -4332    -4159    -3987    -3877    -3757    -3593 
   -3477    -3399    -3289    -3196    -3157    -3119    -3068    -3041 
   -3049    -3076    -3107    -3140    -3199    -3265    -3311    -3375 
   -3469    -3565    -3642    -3711    -3804    -3912    -4006    -4109 
   -4220    -4313    -4402    -4519    -4622    -4702    -4799    -4888 
   -4950    -5013    -5078    -5136    -5189    -5235    -5266    -5273 
   -5267    -5255    -5247    -5224    -5159    -5093    -5054    -5004 
   -4942    -4882    -4819    -4761    -4704    -4631    -4567    -4514 
   -4423    -4324    -4245    -4156    -4071    -3990    -3871    -3767 
   -3715    -3646    -3568    -3524    -3503    -3483    -3468    -3487 
   -3523    -3551    -3612    -3700    -3763    -3842    -3951    -4058 
   -4164    -4282    -4405    -4522    -4629    -4746    -4878    -5012 
   -5124    -5221    -5329    -5422    -5503    -5602    -5689    -5752 
   -5821    -5896    -5957    -5991    -6027    -6084    -6127    -6151 
   -6177    -6188    -6183    -6185    -6184    -6162    -6134    -6110 
   -6083    -6057    -6023    -5968    -5922    -5902    -5869    -5818 
   -5771    -5729    -5688    -5656    -5621    -5578    -5536    -5486 
   -5435    -5389    -5335    -5273    -5212    -5147    -5098    -5057 
   -4989    -4923    -4889    -4842    -4770    -4729    -4707    -4650 
   -4591    -4573    -4537    -4477    -4461    -4438    -4376    -4345 
   -4337    -4314    -4278    -4243    -4237    -4230    -4205    -4218 
   -4247    -4240    -4248    -4307    -4363    -4405    -4450    -4504 
   -4577    -4656    -4727    -4814    -4914    -5016    -5120    -5213 
   -5312    -5412    -5493    -5566    -5647    -5725    -5786    -5836 
   -5884    -5927    -5968    -6006    -6023    -6029    -6043    -6050 
   -6033    -6003    -5976    -5958    -5934    -5888    -5830    -5783 
   -5740    -5682    -5610    -5549    -5497    -5425    -5339    -5281 
   -5235    -5169    -5092    -5036    -4996    -4951    -4909    -4881 
   -4850    -4818    -4796    -4773    -4747    -4727    -4699    -4673 
   -4664    -4637    -4600    -4594    -4587    -4572    -4580    -4583 
   -4572    -4576    -4595    -4603    -4600    -4600    -4591    -4576 
   -4568    -4565    -4556    -4535    -4518    -4514    -4511    -4515 
   -4522    -4517    -4511    -4517    -4526    -4537    -4548    -4554 
   -4577    -4617    -4638    -4648    -4689    -4746    -4774    -4806 
   -4855    -4881    -4905    -4954    -4968    -4968    -4988    -4978 
   -4958    -4963    -4949    -4904    -4855    -4819    -4781    -4706 
   -4622    -4561    -4500    -4418    -4321    -4245    -4202    -4148 
   -4062    -4000    -3975    -3937    -3899    -3894    -3889    -3892 
   -3920    -3937    -3967    -4029    -4067    -4107    -4194    -4274 
   -4344    -4434    -4542    -4666    -4784    -4901    -5038    -5166 
   -5287    -5425    -5564    -5691    -5795    -5898    -6026    -6138 
   -6231    -6349    -6453    -6528    -6616    -6713    -6789    -6856 
   -6917    -6959    -6990    -7023    -7052    -7053    -7029    -7015 
   -7001    -6959    -6918    -6868    -6779    -6677    -6582    -6471 
   -6339    -6203    -6060    -5902    -5740    -5594    -5436    -5259 
   -5100    -4945    -4781    -4615    -4450    -4305    -4159    -3998 
   -3852    -3728    -3595    -3468    -3377    -3292    -3198    -3138 
   -3103    -3057    -3028    -3029    -3034    -3056    -3117    -3183 
   -3248    -3349    -3472    -3591    -3724    -3874    -4028    -4191 
   -4367    -4530    -4687    -4866    -5039    -5182    -5328    -5487 
   -5628    -5740    -5830    -5921    -6027    -6110    -6150    -6186 
   -6239    -6265    -6246    -6232    -6214    -6154    -6079    -6006 
   -5923    -5822    -5714    -5610    -5493    -5371    -5266    -5136 
   -4989    -4872    -4739    -4581    -4450    -4329    -4189    -4064 
   -3960    -3836    -3727    -3658    -3576    -3476    -3411    -3384 
   -3335    -3273    -3246    -3237    -3229    -3230    -3241    -3260 
   -3280    -3325    -3388    -3426    -3470    -3565    -3645    -3682 
   -3747    -3832    -3885    -3932    -4001    -4055    -4098    -4152 
   -4197    -4233    -4276    -4315    -4349    -4363    -4364    -4382 
   -4386    -4368    -4360    -4352    -4326    -4306    -4297    -4287 
   -4271    -4256    -4258    -4275    -4276    -4279    -4302    -4325 
   -4329    -4329    -4348    -4359    -4352    -4382    -4414    -4409 
   -4409    -4431    -4460    -4487    -4502    -4522    -4545    -4568 
   -4592    -4618    -4654    -4699    -4729    -4776    -4854    -4926 
   -4989    -5066    -5155    -5244    -5328    -5410    -5498    -5594 
   -5678    -5751    -5842    -5921    -5972    -6035    -6108    -6148 
   -6192    -6251    -6280    -6292    -6326    -6349    -6332    -6318 
   -6315    -6296    -6266    -6255    -6238    -6188    -6142    -6127 
   -6102    -6042    -5980    -5930    -5881    -5822    -5746    -5674 
   -5622    -5567    -5499    -5439    -5390    -5351    -5320    -5279 
