Origin Time       2016/04/16 01:25:00
Lat.              32.753
Long.             130.762
Depth. (km)       12
Mag.              7.3
Station Code      WKY004
Station Lat.      34.0841
Station Long.     135.4309
Station Height(m) 231
Record Time       2016/04/16 01:27:23
Sampling Freq(Hz) 100Hz
Duration Time(s)  60
Dir.              N-S
Scale Factor      7845(gal)/8223790
Max. Acc. (gal)   2.066
Last Correction   2016/04/16 01:27:24
Memo.             
[...]
  -20814   -20822   -20822   -20823   -20833   -20838   -20842   -20853 
  -20861   -20865   -20872   -20876   -20876   -20873   -20872   -20876 
  -20879   -20883   -20898   -20906   -20904   -20907   -20908   -20906 
  -20907   -20908   -20910   -20910   -20902   -20896   -20888   -20876 
  -20869   -20865   -20862   -20866   -20869   -20861   -20852   -20841 
  -20827   -20808   -20790   -20777   -20771   -20764   -20763   -20764 
  -20761   -20764   -20775   -20787   -20799   -20808   -20815   -20822 
  -20826   -20823   -20826   -20837   -20837   -20838   -20839   -20834 
  -20842   -20853   -20856   -20864   -20868   -20868   -20872   -20868 
  -20865   -20873   -20881   -20891   -20906   -20914   -20916   -20920 
  -20926   -20929   -20935   -20943   -20949   -20957   -20962   -20960 
  -20960   -20961   -20958   -20962   -20966   -20973   -20985   -20988 
  -20985   -20983   -20974   -20962   -20954   -20945   -20933   -20926 
  -20922   -20915   -20912   -20916   -20922   -20926   -20926   -20920 
  -20912   -20906   -20902   -20899   -20899   -20892   -20881   -20866 
  -20844   -20818   -20796   -20779   -20765   -20754   -20741   -20734 
  -20734   -20722   -20710   -20710   -20706   -20698   -20698   -20702 
  -20696   -20690   -20687   -20675   -20659   -20648   -20645   -20641 
  -20634   -20638   -20642   -20640   -20648   -20659   -20673   -20684 
  -20694   -20707   -20713   -20718   -20731   -20740   -20749   -20761 
  -20764   -20768   -20775   -20776   -20785   -20795   -20798   -20804 
  -20808   -20811   -20822   -20834   -20845   -20854   -20869   -20883 
  -20888   -20898   -20910   -20918   -20926   -20929   -20933   -20939 
  -20938   -20938   -20946   -20943   -20937   -20934   -20923   -20911 
  -20906   -20885   -20860   -20848   -20838   -20827   -20818   -20815 
  -20822   -20826   -20817   -20811   -20814   -20815   -20823   -20841 
  -20861   -20879   -20895   -20910   -20923   -20929   -20927   -20931 
  -20937   -20934   -20930   -20927   -20927   -20930   -20933   -20934 
  -20935   -20937   -20935   -20930   -20929   -20923   -20911   -20904 
  -20902   -20895   -20889   -20889   -20896   -20902   -20902   -20898 
  -20895   -20891   -20884   -20877   -20873   -20871   -20868   -20861 
  -20850   -20849   -20849   -20845   -20850   -20861   -20864   -20866 
  -20868   -20862   -20858   -20856   -20853   -20850   -20850   -20853 
  -20852   -20852   -20845   -20839   -20841   -20839   -20844   -20861 
  -20873   -20879   -20888   -20898   -20907   -20914   -20923   -20931 
  -20933   -20939   -20946   -20949   -20952   -20954   -20956   -20953 
  -20945   -20937   -20925   -20916   -20915   -20915   -20914   -20918 
  -20919   -20915   -20911   -20916   -20927   -20927   -20929   -20938 
  -20943   -20945   -20947   -20952   -20950   -20943   -20939   -20939 
  -20938   -20937   -20939   -20937   -20931   -20935   -20939   -20938 
  -20941   -20946   -20947   -20950   -20954   -20958   -20958   -20954 
  -20956   -20956   -20950   -20946   -20946   -20945   -20942   -20943 
  -20941   -20941   -20950   -20957   -20961   -20965   -20960   -20953 
  -20939   -20922   -20918   -20926   -20929   -20933   -20941   -20939 
  -20930   -20927   -20927   -20929   -20929   -20926   -20929   -20937 
  -20934   -20937   -20946   -20945   -20939   -20941   -20942   -20941 
  -20942   -20950   -20954   -20958   -20972   -20985   -20995   -21011 
  -21024   -21034   -21042   -21049   -21054   -21057   -21065   -21075 
  -21077   -21080   -21089   -21092   -21085   -21087   -21089   -21082 
  -21077   -21073   -21065   -21052   -21042   -21033   -21016   -20996 
  -20979   -20964   -20945   -20923   -20911   -20900   -20884   -20872 
  -20861   -20846   -20841   -20838   -20831   -20826   -20814   -20802 
  -20788   -20771   -20763   -20757   -20741   -20725   -20710   -20691 
  -20682   -20679   -20673   -20667   -20665   -20656   -20644   -20645 
  -20649   -20655   -20668   -20683   -20695   -20706   -20722   -20741 
  -20757   -20771   -20781   -20791   -20803   -20808   -20806   -20808 
  -20819   -20825   -20830   -20839   -20845   -20848   -20853   -20857 
  -20861   -20873   -20885   -20895   -20902   -20906   -20916   -20933 
  -20939   -20953   -20972   -20983   -20997   -21014   -21024   -21034 
  -21042   -21046   -21050   -21051   -21052   -21051   -21043   -21034 
  -21018   -20993   -20974   -20965   -20960   -20946   -20933   -20930 
  -20925   -20908   -20899   -20895   -20887   -20881   -20877   -20872 
  -20866   -20857   -20846   -20839   -20827   -20817   -20815   -20811 
  -20807   -20806   -20800   -20795   -20792   -20779   -20765   -20763 
  -20765   -20764   -20767   -20775   -20781   -20780   -20771   -20767 
  -20768   -20760   -20750   -20750   -20744   -20734   -20729   -20725 
  -20725   -20725   -20731   -20741   -20742   -20741   -20738   -20730 
  -20727   -20725   -20718   -20714   -20706   -20694   -20684   -20668 
  -20655   -20641   -20622   -20614   -20611   -20609   -20610   -20610 
  -20605   -20602   -20593   -20586   -20586   -20582   -20575   -20590 
  -20610   -20618   -20628   -20638   -20640   -20636   -20645   -20665 
  -20684   -20711   -20741   -20760   -20781   -20807   -20825   -20845 
  -20872   -20898   -20920   -20939   -20953   -20960   -20961   -20956 
  -20950   -20943   -20938   -20942   -20937   -20918   -20906   -20892 
  -20875   -20864   -20857   -20849   -20842   -20837   -20826   -20822 
  -20821   -20814   -20811   -20811   -20802   -20799   -20798   -20791 
  -20795   -20803   -20807   -20817   -20833   -20844   -20857   -20875 
  -20889   -20907   -20930   -20949   -20968   -20991   -21006   -21016 
  -21026   -21031   -21041   -21051   -21058   -21062   -21070   -21078 
  -21082   -21088   -21089   -21088   -21087   -21085   -21087   -21088 
  -21095   -21108   -21118   -21118   -21128   -21132   -21127   -21124 
  -21128   -21132   -21128   -21123   -21126   -21124   -21115   -21111 
  -21105   -21091   -21081   -21081   -21080   -21078   -21077   -21077 
  -21084   -21081   -21074   -21074   -21078   -21082   -21087   -21089 
  -21095   -21099   -21099   -21097   -21099   -21091   -21084   -21077 
  -21064   -21050   -21038   -21023   -21014   -21004   -20992   -20986 
  -20983   -20976   -20973   -20965   -20954   -20952   -20949   -20938 
  -20933   -20930   -20918   -20911   -20906   -20891   -20888   -20898 
  -20892   -20883   -20884   -20881   -20872   -20875   -20891   -20906 
  -20923   -20938   -20946   -20950   -20950   -20956   -20968   -20974 
  -20983   -20996   -21003   -21007   -21015   -21018   -21014   -21019 
  -21027   -21024   -21027   -21034   -21026   -21014   -21000   -20974 
  -20942   -20911   -20879   -20844   -20808   -20777   -20749   -20723 
  -20702   -20683   -20656   -20623   -20592   -20559   -20526   -20506 
  -20482   -20456   -20437   -20414   -20389   -20371   -20363   -20355 
  -20348   -20344   -20329   -20309   -20308   -20314   -20321   -20336 
  -20358   -20375   -20389   -20395   -20401   -20405   -20409   -20418 
  -20428   -20430   -20433   -20434   -20426   -20422   -20422   -20417 
  -20410   -20409   -20407   -20406   -20407   -20414   -20428   -20447 
  -20467   -20490   -20521   -20547   -20567   -20592   -20614   -20632 
  -20657   -20684   -20709   -20738   -20764   -20780   -20799   -20822 
  -20844   -20871   -20900   -20933   -20966   -21001   -21038   -21078 
  -21116   -21143   -21172   -21203   -21227   -21254   -21274   -21285 
  -21298   -21316   -21331   -21350   -21378   -21398   -21415   -21431 
  -21448   -21466   -21483   -21506   -21532   -21552   -21571   -21589 
  -21602   -21617   -21632   -21643   -21655   -21663   -21666   -21672 
  -21683   -21693   -21694   -21697   -21701   -21697   -21689   -21686 
  -21682   -21676   -21671   -21659   -21645   -21633   -21614   -21602 
  -21591   -21570   -21547   -21525   -21500   -21473   -21452   -21432 
  -21412   -21393   -21369   -21340   -21323   -21309   -21296   -21288 
  -21278   -21262   -21247   -21230   -21211   -21193   -21174   -21157 
  -21142   -21118   -21087   -21058   -21028   -20996   -20965   -20931 
  -20891   -20848   -20800   -20749   -20709   -20673   -20630   -20592 
  -20561   -20520   -20482   -20449   -20418   -20395   -20372   -20352 
  -20340   -20326   -20305   -20285   -20264   -20240   -20220   -20202 
  -20183   -20164   -20148   -20139   -20132   -20128   -20121   -20115 
  -20106   -20101   -20097   -20094   -20090   -20086   -20079   -20074 
  -20071   -20073   -20079   -20081   -20085   -20088   -20083   -20083 
  -20096   -20113   -20128   -20139   -20151   -20164   -20179   -20193 
  -20212   -20239   -20263   -20281   -20299   -20317   -20331   -20348 
  -20366   -20386   -20407   -20429   -20455   -20483   -20511   -20541 
  -20565   -20592   -20623   -20645   -20664   -20682   -20692   -20702 
  -20709   -20713   -20713   -20714   -20714   -20709   -20710   -20714 
  -20714   -20717   -20729   -20744   -20765   -20791   -20814   -20841 
  -20871   -20903   -20934   -20965   -20992   -21023   -21057   -21091 
  -21128   -21166   -21201   -21239   -21276   -21307   -21339   -21371 
  -21394   -21417   -21445   -21478   -21509   -21537   -21563   -21590 
  -21617   -21641   -21663   -21685   -21703   -21713   -21721   -21724 
  -21725   -21733   -21739   -21741   -21748   -21752   -21752   -21748 
  -21751   -21759   -21768   -21778   -21783   -21791   -21799   -21794 
  -21784   -21770   -21743   -21720   -21695   -21666   -21649   -21639 
  -21617   -21598   -21591   -21582   -21574   -21571   -21573   -21575 
  -21581   -21590   -21595   -21597   -21595   -21593   -21587   -21579 
  -21575   -21574   -21567   -21560   -21558   -21548   -21531   -21521 
  -21509   -21487   -21466   -21445   -21423   -21400   -21377   -21361 
  -21346   -21327   -21313   -21311   -21300   -21286   -21278   -21267 
  -21250   -21236   -21219   -21204   -21203   -21197   -21182   -21172 
  -21161   -21147   -21135   -21123   -21108   -21095   -21081   -21058 
  -21033   -21004   -20984   -20965   -20941   -20918   -20899   -20881 
  -20865   -20844   -20822   -20802   -20784   -20767   -20754   -20748 
  -20742   -20729   -20718   -20709   -20692   -20679   -20679   -20679 
  -20676   -20672   -20659   -20645   -20628   -20606   -20583   -20559 
  -20529   -20491   -20449   -20405   -20364   -20326   -20283   -20243 
  -20206   -20167   -20128   -20093   -20056   -20017   -19986   -19959 
  -19924   -19893   -19872   -19854   -19843   -19836   -19835   -19840 
  -19843   -19845   -19857   -19869   -19881   -19900   -19913   -19923 
  -19936   -19939   -19936   -19944   -19944   -19938   -19934   -19919 
  -19909   -19905   -19886   -19870   -19861   -19843   -19827   -19812 
  -19800   -19797   -19791   -19776   -19761   -19745   -19722   -19689 
  -19662   -19639   -19614   -19595   -19579   -19560   -19549   -19545 
  -19545   -19550   -19557   -19560   -19570   -19585   -19595   -19607 
  -19622   -19629   -19638   -19650   -19656   -19665   -19677   -19685 
  -19699   -19715   -19727   -19749   -19782   -19808   -19834   -19865 
  -19893   -19924   -19958   -19997   -20042   -20089   -20133   -20185 
  -20240   -20290   -20345   -20402   -20452   -20499   -20552   -20599 
  -20641   -20691   -20740   -20779   -20814   -20848   -20872   -20898 
  -20931   -20962   -20988   -21015   -21046   -21078   -21112   -21153 
  -21196   -21242   -21296   -21354   -21412   -21475   -21546   -21613 
  -21674   -21737   -21805   -21864   -21924   -21986   -22042   -22095 
  -22150   -22200   -22242   -22276   -22302   -22322   -22334   -22331 
  -22320   -22299   -22268   -22230   -22179   -22119   -22064   -21996 
  -21914   -21845   -21783   -21706   -21631   -21563   -21490   -21423 
  -21366   -21307   -21250   -21208   -21165   -21118   -21075   -21033 
  -20993   -20957   -20915   -20869   -20823   -20775   -20725   -20677 
  -20629   -20591   -20552   -20511   -20478   -20447   -20414   -20390 
  -20364   -20336   -20313   -20297   -20282   -20264   -20254   -20251 
  -20245   -20250   -20260   -20272   -20291   -20313   -20339   -20360 
  -20378   -20405   -20436   -20466   -20495   -20530   -20572   -20610 
  -20645   -20683   -20719   -20756   -20785   -20810   -20834   -20858 
  -20873   -20891   -20907   -20920   -20930   -20938   -20945   -20954 
  -20970   -20985   -20997   -21018   -21039   -21058   -21085   -21116 
  -21145   -21177   -21211   -21250   -21297   -21340   -21384   -21432 
  -21477   -21519   -21558   -21594   -21629   -21662   -21691   -21712 
  -21729   -21755   -21774   -21790   -21809   -21829   -21848   -21865 
  -21882   -21903   -21924   -21944   -21967   -21988   -22002   -22015 
  -22036   -22053   -22067   -22087   -22108   -22125   -22137   -22153 
  -22165   -22172   -22173   -22173   -22176   -22173   -22162   -22150 
  -22131   -22111   -22083   -22044   -22007   -21975   -21936   -21887 
  -21828   -21763   -21699   -21629   -21547   -21467   -21392   -21304 
  -21217   -21135   -21050   -20969   -20891   -20807   -20727   -20652 
  -20574   -20491   -20406   -20326   -20252   -20169   -20082   -20005 
  -19931   -19858   -19789   -19723   -19661   -19608   -19548   -19480 
  -19426   -19377   -19321   -19265   -19219   -19176   -19126   -19079 
  -19039   -19003   -18982   -18960   -18933   -18918   -18909   -18895 
  -18886   -18878   -18867   -18856   -18847   -18836   -18829   -18827 
  -18809   -18790   -18782   -18771   -18754   -18738   -18723   -18713 
  -18701   -18684   -18677   -18679   -18681   -18685   -18696   -18708 
  -18728   -18752   -18779   -18817   -18862   -18904   -18947   -18995 
  -19047   -19101   -19153   -19206   -19263   -19317   -19367   -19415 
  -19461   -19496   -19534   -19573   -19603   -19633   -19665   -19685 
  -19708   -19734   -19754   -19776   -19795   -19812   -19835   -19858 
  -19881   -19909   -19944   -19978   -20015   -20058   -20105   -20154 
  -20213   -20271   -20332   -20393   -20453   -20518   -20590   -20653 
  -20721   -20790   -20852   -20918   -20992   -21060   -21124   -21190 
  -21246   -21293   -21348   -21398   -21440   -21482   -21521   -21551 
  -21579   -21608   -21631   -21649   -21671   -21693   -21706   -21718 
  -21743   -21767   -21790   -21818   -21849   -21876   -21897   -21922 
  -21957   -21990   -22021   -22059   -22095   -22119   -22140   -22160 
  -22181   -22195   -22199   -22210   -22222   -22222   -22219   -22222 
  -22221   -22211   -22206   -22199   -22188   -22177   -22158   -22140 
  -22123   -22096   -22063   -22026   -21983   -21932   -21879   -21832 
  -21782   -21717   -21649   -21591   -21524   -21443   -21366   -21304 
  -21235   -21163   -21101   -21026   -20949   -20893   -20834   -20772 
  -20713   -20656   -20598   -20547   -20495   -20440   -20398   -20363 
  -20320   -20279   -20252   -20227   -20202   -20191   -20179   -20163 
  -20162   -20167   -20166   -20167   -20173   -20182   -20193   -20204 
  -20214   -20229   -20243   -20254   -20266   -20279   -20295   -20308 
  -20314   -20328   -20343   -20349   -20356   -20368   -20371   -20368 
  -20364   -20355   -20349   -20343   -20332   -20328   -20325   -20316 
  -20309   -20302   -20289   -20281   -20279   -20272   -20263   -20259 
  -20256   -20250   -20237   -20224   -20209   -20197   -20186   -20175 
  -20167   -20154   -20136   -20119   -20101   -20082   -20066   -20051 
  -20032   -20013   -20004   -19994   -19981   -19963   -19946   -19932 
  -19912   -19890   -19874   -19858   -19838   -19819   -19801   -19789 
  -19780   -19777   -19776   -19769   -19768   -19768   -19761   -19764 
  -19769   -19773   -19781   -19788   -19803   -19820   -19830   -19845 
  -19872   -19893   -19915   -19947   -19978   -20007   -20043   -20075 
  -20102   -20140   -20175   -20208   -20247   -20286   -20324   -20356 
  -20386   -20428   -20470   -20506   -20547   -20587   -20621   -20649 
  -20673   -20698   -20721   -20745   -20765   -20787   -20811   -20829 
  -20844   -20865   -20887   -20899   -20912   -20926   -20934   -20945 
  -20954   -20965   -20980   -20988   -20995   -21008   -21023   -21028 
  -21039   -21057   -21072   -21082   -21099   -21116   -21128   -21139 
  -21150   -21159   -21168   -21173   -21180   -21184   -21182   -21188 
  -21192   -21190   -21197   -21204   -21212   -21220   -21227   -21232 
  -21242   -21250   -21253   -21263   -21276   -21281   -21288   -21293 
  -21292   -21290   -21288   -21276   -21266   -21258   -21240   -21227 
  -21217   -21203   -21190   -21181   -21166   -21157   -21150   -21139 
  -21143   -21145   -21135   -21132   -21134   -21131   -21131   -21132 
  -21130   -21131   -21136   -21136   -21132   -21131   -21131   -21130 
  -21128   -21126   -21118   -21115   -21104   -21089   -21080   -21062 
  -21035   -21015   -20993   -20968   -20942   -20915   -20891   -20866 
  -20839   -20811   -20783   -20752   -20717   -20684   -20657   -20628 
  -20605   -20586   -20563   -20538   -20522   -20506   -20493   -20482 
  -20471   -20460   -20451   -20440   -20432   -20425   -20418   -20414 
  -20412   -20407   -20410   -20413   -20410   -20409   -20413   -20413 
  -20410   -20409   -20407   -20409   -20413   -20416   -20421   -20434 
  -20448   -20464   -20488   -20511   -20541   -20575   -20603   -20630 
  -20657   -20682   -20707   -20738   -20767   -20796   -20837   -20865 
  -20891   -20933   -20969   -21003   -21047   -21093   -21136   -21180 
  -21222   -21263   -21304   -21342   -21378   -21409   -21435   -21458 
  -21479   -21498   -21514   -21533   -21546   -21550   -21558   -21554 
  -21540   -21536   -21525   -21498   -21477   -21454   -21424   -21400 
  -21369   -21331   -21303   -21277   -21247   -21220   -21196   -21176 
  -21154   -21128   -21103   -21075   -21046   -21019   -20993   -20965 
  -20937   -20910   -20885   -20865   -20849   -20834   -20815   -20803 
  -20795   -20784   -20772   -20768   -20768   -20757   -20745   -20742 
  -20731   -20717   -20706   -20694   -20683   -20675   -20659   -20649 
  -20645   -20636   -20628   -20621   -20617   -20617   -20613   -20607 
  -20609   -20613   -20617   -20629   -20641   -20653   -20668   -20687 
  -20699   -20710   -20722   -20733   -20745   -20756   -20771   -20790 
  -20806   -20827   -20856   -20879   -20904   -20934   -20954   -20966 
  -20985   -20999   -21007   -21015   -21024   -21029   -21033   -21039 
  -21042   -21043   -21045   -21037   -21031   -21029   -21018   -21004 
  -20988   -20964   -20945   -20929   -20906   -20883   -20865   -20841 
  -20810   -20787   -20764   -20729   -20699   -20679   -20656   -20641 
  -20630   -20615   -20602   -20584   -20565   -20560   -20556   -20549 
  -20549   -20550   -20545   -20536   -20532   -20529   -20527   -20529 
  -20534   -20534   -20530   -20525   -20522   -20521   -20518   -20520 
  -20521   -20521   -20525   -20527   -20525   -20518   -20514   -20514 
  -20514   -20509   -20506   -20513   -20520   -20524   -20534   -20547 
  -20560   -20582   -20607   -20629   -20652   -20684   -20718   -20745 
  -20773   -20807   -20846   -20885   -20927   -20974   -21022   -21070 
  -21118   -21161   -21203   -21247   -21288   -21325   -21362   -21389 
  -21412   -21438   -21462   -21485   -21511   -21541   -21567   -21594 
  -21625   -21647   -21668   -21695   -21726   -21756   -21782   -21811 
  -21847   -21878   -21904   -21934   -21957   -21976   -22000   -22026 
