Origin Time       2016/04/16 01:25:00
Lat.              32.753
Long.             130.762
Depth. (km)       12
Mag.              7.3
Station Code      WKY001
Station Lat.      34.2288
Station Long.     135.1694
Station Height(m) 8
Record Time       2016/04/16 01:27:15
Sampling Freq(Hz) 100Hz
Duration Time(s)  87
Dir.              N-S
Scale Factor      7845(gal)/8223790
Max. Acc. (gal)   2.933
Last Correction   2016/04/16 01:27:00
Memo.             
[...]
   -6793    -6763    -6739    -6720    -6705    -6670    -6628    -6620 
   -6635    -6644    -6621    -6589    -6597    -6635    -6642    -6627 
   -6620    -6635    -6685    -6743    -6777    -6772    -6729    -6708 
   -6744    -6805    -6839    -6852    -6879    -6921    -6972    -7029 
   -7076    -7102    -7117    -7134    -7155    -7180    -7213    -7234 
   -7229    -7226    -7233    -7230    -7236    -7252    -7249    -7244 
   -7248    -7245    -7217    -7172    -7145    -7144    -7141    -7137 
   -7130    -7102    -7053    -7005    -6975    -6959    -6919    -6863 
   -6840    -6848    -6847    -6805    -6764    -6777    -6806    -6815 
   -6818    -6804    -6787    -6828    -6890    -6912    -6916    -6941 
   -6979    -7005    -7020    -7038    -7068    -7101    -7132    -7165 
   -7203    -7254    -7296    -7327    -7362    -7372    -7350    -7361 
   -7402    -7384    -7312    -7283    -7307    -7312    -7242    -7130 
   -7065    -7064    -7045    -6987    -6956    -6941    -6886    -6845 
   -6860    -6883    -6880    -6874    -6886    -6916    -6919    -6889 
   -6879    -6909    -6922    -6910    -6921    -6966    -6993    -6999 
   -7048    -7130    -7163    -7141    -7163    -7229    -7242    -7249 
   -7326    -7393    -7381    -7353    -7391    -7488    -7528    -7466 
   -7441    -7533    -7643    -7657    -7584    -7510    -7496    -7514 
   -7520    -7496    -7450    -7429    -7438    -7423    -7384    -7337 
   -7295    -7310    -7333    -7280    -7198    -7169    -7183    -7175 
   -7098    -7006    -6971    -6951    -6895    -6851    -6856    -6868 
   -6851    -6814    -6779    -6764    -6789    -6825    -6837    -6840 
   -6840    -6824    -6817    -6817    -6793    -6752    -6732    -6731 
   -6679    -6577    -6527    -6556    -6546    -6462    -6408    -6389 
   -6335    -6288    -6293    -6293    -6272    -6290    -6304    -6251 
   -6200    -6219    -6276    -6313    -6355    -6439    -6517    -6516 
   -6507    -6569    -6621    -6612    -6652    -6777    -6880    -6902 
   -6894    -6933    -7005    -7041    -7084    -7177    -7252    -7299 
   -7335    -7310    -7256    -7273    -7338    -7352    -7312    -7271 
   -7256    -7256    -7221    -7142    -7087    -7092    -7125    -7110 
   -7053    -7014    -6967    -6913    -6941    -7022    -7048    -7018 
   -6983    -6913    -6832    -6837    -6895    -6922    -6947    -6955 
   -6886    -6813    -6802    -6826    -6848    -6878    -6916    -6932 
   -6903    -6872    -6870    -6886    -6928    -6980    -7014    -7030 
   -7047    -7055    -7045    -7041    -7036    -7028    -7061    -7121 
   -7132    -7092    -7049    -7034    -7041    -7042    -7020    -6983 
   -6964    -6970    -6972    -6961    -6951    -6940    -6926    -6934 
   -6957    -6944    -6907    -6903    -6921    -6932    -6925    -6918 
   -6943    -6978    -6990    -7021    -7075    -7107    -7146    -7226 
   -7290    -7306    -7318    -7361    -7422    -7473    -7510    -7534 
   -7531    -7522    -7520    -7515    -7515    -7515    -7497    -7482 
   -7484    -7476    -7444    -7400    -7358    -7327    -7299    -7273 
   -7245    -7202    -7180    -7187    -7168    -7132    -7107    -7072 
   -7044    -7048    -7045    -6998    -6961    -6982    -6990    -6944 
   -6883    -6858    -6866    -6862    -6817    -6777    -6789    -6815 
   -6818    -6835    -6879    -6886    -6863    -6870    -6901    -6929 
   -6955    -6960    -6940    -6930    -6957    -7010    -7030    -7015 
   -7042    -7107    -7132    -7134    -7160    -7190    -7187    -7187 
   -7238    -7302    -7291    -7210    -7160    -7206    -7256    -7206 
   -7119    -7080    -7056    -7040    -7023    -6967    -6926    -6966 
   -6978    -6925    -6925    -6980    -7009    -7007    -6972    -6930 
   -6956    -7007    -7002    -7009    -7056    -7053    -7025    -7055 
   -7079    -7065    -7071    -7071    -7038    -7028    -7030    -7029 
   -7028    -6980    -6926    -6937    -6951    -6934    -6936    -6928 
   -6918    -6948    -6963    -6960    -7001    -7044    -7032    -7001 
   -7011    -7053    -7064    -7037    -7017    -7011    -7032    -7049 
   -7038    -7045    -7080    -7102    -7091    -7055    -7041    -7079 
   -7080    -7023    -7014    -7033    -7009    -6985    -6974    -6928 
   -6885    -6876    -6889    -6895    -6874    -6853    -6863    -6856 
   -6832    -6848    -6860    -6833    -6852    -6921    -6941    -6928 
   -6934    -6957    -6988    -7009    -7028    -7063    -7078    -7061 
   -7045    -7041    -7055    -7072    -7064    -7059    -7071    -7067 
   -7078    -7115    -7099    -7036    -7018    -7040    -7051    -7045 
   -7006    -6952    -6951    -6967    -6925    -6853    -6815    -6798 
   -6771    -6752    -6747    -6741    -6739    -6724    -6691    -6689 
   -6711    -6724    -6748    -6760    -6748    -6779    -6839    -6841 
   -6815    -6832    -6870    -6895    -6914    -6929    -6947    -6970 
   -6994    -7021    -7048    -7074    -7088    -7078    -7080    -7125 
   -7155    -7156    -7180    -7206    -7200    -7188    -7173    -7159 
   -7168    -7198    -7215    -7210    -7188    -7171    -7155    -7136 
   -7121    -7105    -7101    -7110    -7094    -7052    -7030    -7061 
   -7083    -7051    -7037    -7071    -7098    -7092    -7088    -7110 
   -7137    -7153    -7160    -7157    -7153    -7179    -7213    -7218 
   -7240    -7299    -7331    -7321    -7330    -7377    -7425    -7442 
   -7450    -7473    -7493    -7482    -7462    -7465    -7466    -7457 
   -7443    -7396    -7333    -7310    -7294    -7241    -7198    -7173 
   -7130    -7087    -7056    -7005    -6933    -6876    -6833    -6801 
   -6785    -6744    -6675    -6658    -6689    -6685    -6655    -6660 
   -6687    -6700    -6711    -6758    -6791    -6787    -6810    -6858 
   -6855    -6831    -6844    -6870    -6860    -6836    -6841    -6847 
   -6835    -6844    -6867    -6871    -6860    -6853    -6867    -6881 
   -6879    -6897    -6949    -6975    -6951    -6947    -6987    -6995 
   -6983    -7036    -7101    -7075    -7030    -7061    -7092    -7068 
   -7063    -7076    -7060    -7045    -7032    -7001    -6982    -6982 
   -6972    -6945    -6933    -6949    -6949    -6907    -6880    -6886 
   -6876    -6856    -6851    -6843    -6813    -6789    -6775    -6744 
   -6714    -6698    -6683    -6669    -6640    -6602    -6579    -6579 
   -6581    -6575    -6581    -6581    -6542    -6512    -6543    -6598 
   -6631    -6635    -6644    -6648    -6648    -6678    -6747    -6799 
   -6817    -6840    -6874    -6919    -6980    -7037    -7096    -7148 
   -7160    -7152    -7156    -7167    -7187    -7234    -7264    -7218 
   -7142    -7110    -7118    -7129    -7114    -7083    -7049    -7006 
   -6983    -6978    -6948    -6929    -6926    -6891    -6860    -6844 
   -6813    -6786    -6759    -6728    -6708    -6683    -6635    -6577 
   -6540    -6540    -6540    -6513    -6504    -6528    -6556    -6566 
   -6561    -6583    -6659    -6721    -6725    -6744    -6831    -6919 
   -6956    -6971    -7026    -7105    -7127    -7129    -7187    -7277 
   -7334    -7348    -7349    -7376    -7402    -7402    -7411    -7441 
   -7435    -7387    -7362    -7383    -7385    -7349    -7318    -7323 
   -7350    -7377    -7402    -7411    -7425    -7479    -7543    -7580 
   -7612    -7666    -7722    -7761    -7809    -7858    -7893    -7923 
   -7944    -7956    -7973    -7982    -7982    -7990    -7997    -7981 
   -7952    -7933    -7919    -7908    -7901    -7890    -7874    -7874 
   -7905    -7955    -8014    -8081    -8132    -8182    -8259    -8355 
   -8461    -8573    -8667    -8746    -8824    -8884    -8949    -9035 
   -9092    -9093    -9107    -9147    -9135    -9069    -9004    -8939 
   -8876    -8822    -8733    -8581    -8441    -8370    -8286    -8152 
   -8035    -7925    -7798    -7705    -7641    -7550    -7450    -7365 
   -7299    -7267    -7231    -7164    -7114    -7092    -7061    -7028 
   -6995    -6956    -6937    -6932    -6907    -6876    -6862    -6852 
   -6836    -6826    -6825    -6822    -6836    -6881    -6922    -6932 
   -6939    -6968    -7001    -7023    -7044    -7068    -7092    -7103 
   -7103    -7109    -7118    -7126    -7127    -7105    -7056    -7010 
   -6976    -6937    -6895    -6852    -6798    -6744    -6687    -6632 
   -6608    -6583    -6539    -6490    -6454    -6438    -6421    -6382 
   -6342    -6326    -6319    -6285    -6252    -6261    -6280    -6265 
   -6243    -6247    -6259    -6242    -6219    -6223    -6230    -6216 
   -6200    -6207    -6216    -6199    -6168    -6139    -6115    -6100 
   -6083    -6044    -6004    -5976    -5950    -5921    -5910    -5931 
   -5948    -5938    -5952    -6012    -6069    -6115    -6184    -6270 
   -6342    -6392    -6440    -6511    -6574    -6593    -6619    -6667 
   -6693    -6697    -6690    -6670    -6642    -6615    -6586    -6538 
   -6474    -6420    -6358    -6272    -6170    -6068    -5980    -5913 
   -5836    -5742    -5655    -5571    -5494    -5443    -5402    -5339 
   -5278    -5248    -5216    -5159    -5128    -5134    -5134    -5101 
   -5065    -5057    -5090    -5140    -5173    -5200    -5246    -5297 
   -5356    -5425    -5479    -5521    -5580    -5653    -5725    -5798 
   -5881    -5953    -6006    -6076    -6150    -6205    -6261    -6339 
   -6420    -6486    -6544    -6601    -6646    -6671    -6691    -6708 
   -6718    -6729    -6737    -6723    -6700    -6689    -6678    -6651 
   -6627    -6609    -6581    -6556    -6558    -6561    -6547    -6544 
   -6579    -6639    -6690    -6729    -6774    -6845    -6922    -6974 
   -7045    -7157    -7238    -7291    -7372    -7469    -7562    -7680 
   -7807    -7903    -7978    -8052    -8135    -8215    -8289    -8355 
   -8403    -8441    -8483    -8538    -8590    -8617    -8641    -8684 
   -8727    -8764    -8818    -8896    -8969    -9018    -9057    -9108 
   -9167    -9213    -9250    -9296    -9339    -9363    -9370    -9374 
   -9390    -9398    -9369    -9328    -9306    -9282    -9227    -9161 
   -9111    -9050    -8949    -8835    -8735    -8655    -8579    -8476 
   -8341    -8220    -8125    -8043    -7964    -7881    -7770    -7646 
   -7542    -7457    -7375    -7281    -7182    -7084    -6984    -6878 
   -6795    -6747    -6685    -6589    -6484    -6403    -6356    -6334 
   -6308    -6258    -6214    -6192    -6170    -6166    -6186    -6188 
   -6177    -6180    -6180    -6185    -6203    -6210    -6214    -6235 
   -6257    -6257    -6249    -6262    -6281    -6266    -6214    -6157 
   -6114    -6076    -6022    -5940    -5852    -5768    -5684    -5597 
   -5503    -5422    -5366    -5324    -5285    -5266    -5287    -5324 
   -5344    -5377    -5441    -5508    -5560    -5628    -5719    -5809 
   -5879    -5940    -6018    -6115    -6200    -6266    -6326    -6380 
   -6421    -6444    -6450    -6457    -6454    -6427    -6394    -6369 
   -6343    -6311    -6277    -6243    -6214    -6200    -6197    -6216 
   -6249    -6268    -6290    -6356    -6436    -6484    -6525    -6590 
   -6667    -6739    -6797    -6841    -6891    -6963    -7040    -7092 
   -7121    -7168    -7231    -7269    -7276    -7272    -7252    -7227 
   -7210    -7172    -7119    -7068    -6998    -6925    -6885    -6844 
   -6781    -6728    -6701    -6681    -6650    -6625    -6616    -6594 
   -6561    -6524    -6460    -6389    -6346    -6312    -6265    -6199 
   -6133    -6091    -6042    -5968    -5942    -5945    -5911    -5884 
   -5900    -5919    -5931    -5956    -5995    -6046    -6110    -6191 
   -6289    -6396    -6521    -6678    -6828    -6963    -7130    -7315 
   -7479    -7632    -7785    -7929    -8075    -8212    -8311    -8387 
   -8464    -8529    -8553    -8552    -8557    -8553    -8510    -8447 
   -8388    -8319    -8233    -8132    -8035    -7943    -7846    -7742 
   -7646    -7555    -7457    -7365    -7290    -7223    -7157    -7096 
   -7053    -7026    -7002    -6988    -6987    -6998    -7017    -7023 
   -7025    -7049    -7087    -7114    -7141    -7183    -7242    -7306 
   -7356    -7404    -7472    -7533    -7580    -7643    -7717    -7781 
   -7827    -7869    -7915    -7962    -7992    -8010    -8033    -8040 
   -8027    -8004    -7990    -7963    -7912    -7865    -7811    -7735 
   -7662    -7600    -7523    -7431    -7340    -7248    -7146    -7048 
   -6949    -6860    -6794    -6717    -6609    -6525    -6484    -6436 
   -6373    -6320    -6280    -6243    -6210    -6168    -6127    -6096 
   -6058    -6003    -5940    -5892    -5850    -5784    -5714    -5668 
   -5620    -5557    -5526    -5525    -5509    -5486    -5491    -5532 
   -5590    -5641    -5691    -5773    -5881    -5984    -6088    -6212 
   -6353    -6478    -6578    -6683    -6813    -6939    -7040    -7126 
   -7206    -7264    -7307    -7348    -7375    -7402    -7431    -7426 
   -7396    -7388    -7402    -7396    -7372    -7345    -7321    -7306 
   -7287    -7248    -7218    -7207    -7169    -7113    -7080    -7060 
   -7029    -7001    -6985    -6972    -6940    -6894    -6862    -6856 
   -6843    -6797    -6763    -6741    -6687    -6631    -6600    -6561 
   -6498    -6439    -6396    -6350    -6282    -6219    -6186    -6131 
   -6034    -5962    -5927    -5879    -5817    -5760    -5707    -5655 
   -5597    -5537    -5490    -5432    -5335    -5238    -5173    -5098 
   -4996    -4911    -4835    -4726    -4611    -4527    -4440    -4338 
   -4261    -4195    -4109    -4031    -3984    -3955    -3923    -3896 
   -3902    -3925    -3932    -3955    -4014    -4072    -4129    -4203 
   -4270    -4320    -4399    -4509    -4603    -4685    -4780    -4887 
   -4988    -5077    -5171    -5277    -5371    -5462    -5562    -5660 
   -5749    -5837    -5908    -5967    -6027    -6083    -6115    -6135 
   -6161    -6180    -6170    -6142    -6110    -6076    -6050    -6025 
   -5983    -5927    -5883    -5850    -5819    -5790    -5760    -5740 
   -5740    -5757    -5792    -5830    -5875    -5949    -6043    -6133 
   -6230    -6339    -6462    -6598    -6735    -6870    -7017    -7180 
   -7349    -7531    -7717    -7884    -8046    -8203    -8355    -8525 
   -8700    -8843    -8961    -9078    -9200    -9296    -9367    -9451 
   -9530    -9572    -9603    -9641    -9670    -9686    -9684    -9667 
   -9653    -9643    -9607    -9555    -9510    -9474    -9414    -9329 
   -9259    -9202    -9131    -9051    -8972    -8892    -8811    -8729 
   -8649    -8565    -8487    -8426    -8364    -8290    -8212    -8137 
   -8075    -8023    -7963    -7909    -7871    -7832    -7798    -7770 
   -7746    -7720    -7690    -7673    -7655    -7627    -7609    -7593 
   -7562    -7534    -7519    -7503    -7481    -7465    -7442    -7408 
   -7395    -7391    -7376    -7361    -7345    -7321    -7296    -7281 
   -7271    -7244    -7200    -7160    -7122    -7079    -7029    -6956 
   -6878    -6829    -6787    -6728    -6673    -6635    -6592    -6547 
   -6528    -6517    -6497    -6480    -6470    -6462    -6450    -6430 
   -6411    -6408    -6411    -6403    -6396    -6405    -6415    -6407 
   -6404    -6417    -6409    -6374    -6355    -6347    -6315    -6265 
   -6214    -6162    -6110    -6061    -6002    -5940    -5877    -5814 
   -5756    -5705    -5655    -5602    -5548    -5498    -5454    -5412 
   -5377    -5341    -5293    -5266    -5255    -5225    -5192    -5184 
   -5204    -5233    -5267    -5312    -5366    -5427    -5499    -5578 
   -5663    -5755    -5838    -5911    -6011    -6120    -6205    -6289 
   -6388    -6481    -6571    -6663    -6744    -6825    -6910    -6988 
   -7060    -7136    -7198    -7231    -7250    -7273    -7292    -7284 
   -7249    -7203    -7155    -7103    -7034    -6947    -6872    -6815 
   -6737    -6635    -6540    -6459    -6386    -6300    -6197    -6103 
   -6026    -5957    -5886    -5822    -5780    -5741    -5697    -5675 
   -5682    -5691    -5698    -5722    -5760    -5791    -5840    -5908 
   -5975    -6056    -6145    -6219    -6315    -6431    -6540    -6654 
   -6782    -6905    -7011    -7126    -7258    -7383    -7493    -7600 
   -7699    -7785    -7882    -7979    -8054    -8108    -8154    -8203 
   -8248    -8279    -8298    -8326    -8333    -8301    -8270    -8257 
   -8221    -8148    -8075    -8009    -7931    -7827    -7716    -7612 
   -7510    -7398    -7287    -7198    -7129    -7059    -6990    -6944 
   -6919    -6889    -6848    -6829    -6841    -6859    -6867    -6883 
   -6917    -6949    -6972    -7018    -7087    -7146    -7196    -7249 
   -7314    -7384    -7438    -7473    -7508    -7548    -7572    -7581 
   -7597    -7609    -7584    -7539    -7520    -7507    -7472    -7427 
   -7383    -7334    -7298    -7258    -7207    -7168    -7132    -7079 
   -7042    -7033    -6997    -6956    -6960    -6971    -6960    -6951 
   -6949    -6961    -6994    -7029    -7063    -7082    -7096    -7134 
   -7177    -7206    -7234    -7244    -7241    -7269    -7311    -7321 
   -7321    -7333    -7358    -7411    -7487    -7531    -7558    -7616 
   -7688    -7754    -7827    -7903    -7979    -8067    -8149    -8218 
   -8306    -8407    -8490    -8559    -8637    -8719    -8806    -8895 
   -8955    -8986    -9035    -9096    -9134    -9163    -9189    -9180 
   -9146    -9134    -9155    -9161    -9132    -9090    -9059    -9047 
   -9035    -9005    -8947    -8885    -8851    -8823    -8775    -8708 
   -8622    -8540    -8476    -8401    -8298    -8186    -8081    -7981 
   -7871    -7732    -7584    -7453    -7325    -7187    -7036    -6868 
   -6709    -6571    -6427    -6276    -6141    -6026    -5917    -5817 
   -5721    -5634    -5564    -5506    -5463    -5435    -5408    -5383 
   -5385    -5408    -5416    -5412    -5437    -5499    -5568    -5629 
   -5691    -5765    -5854    -5950    -6037    -6120    -6224    -6332 
   -6415    -6501    -6606    -6698    -6770    -6856    -6941    -7009 
   -7069    -7121    -7155    -7195    -7236    -7245    -7229    -7234 
   -7240    -7203    -7144    -7091    -7042    -6971    -6875    -6782 
   -6704    -6610    -6496    -6388    -6305    -6210    -6087    -5988 
   -5929    -5877    -5809    -5738    -5711    -5725    -5726    -5725 
   -5752    -5805    -5867    -5934    -6006    -6100    -6228    -6354 
   -6458    -6592    -6751    -6874    -6983    -7123    -7272    -7403 
   -7520    -7626    -7744    -7865    -7950    -8024    -8125    -8215 
   -8279    -8340    -8404    -8464    -8505    -8533    -8572    -8600 
   -8600    -8598    -8600    -8592    -8567    -8520    -8460    -8413 
   -8372    -8301    -8197    -8086    -7985    -7879    -7751    -7619 
   -7501    -7375    -7230    -7084    -6947    -6820    -6696    -6564 
   -6438    -6313    -6196    -6104    -6037    -5980    -5923    -5873 
   -5848    -5863    -5902    -5940    -5976    -6039    -6129    -6224 
   -6336    -6473    -6609    -6743    -6891    -7047    -7198    -7348 
   -7496    -7646    -7773    -7888    -8009    -8122    -8212    -8272 
   -8305    -8336    -8374    -8383    -8361    -8333    -8299    -8255 
   -8194    -8127    -8051    -7966    -7890    -7824    -7738    -7634 
   -7542    -7443    -7334    -7233    -7121    -6990    -6874    -6764 
   -6643    -6536    -6442    -6338    -6251    -6196    -6143    -6103 
