Origin Time       2016/04/16 01:25:00
Lat.              32.753
Long.             130.762
Depth. (km)       12
Mag.              7.3
Station Code      WKY013
Station Lat.      34.2160
Station Long.     135.5860
Station Height(m) 823
Record Time       2016/04/16 01:27:28
Sampling Freq(Hz) 100Hz
Duration Time(s)  60
Dir.              N-S
Scale Factor      7845(gal)/8223790
Max. Acc. (gal)   1.645
Last Correction   2016/04/16 01:27:29
Memo.             
[...]
   24344    24347    24347    24347    24349    24354    24363    24372 
   24381    24391    24400    24406    24410    24409    24405    24403 
   24402    24395    24393    24395    24400    24408    24417    24425 
   24432    24439    24443    24447    24448    24448    24445    24443 
   24443    24441    24437    24435    24432    24428    24424    24425 
   24426    24425    24425    24430    24435    24433    24429    24428 
   24425    24420    24416    24413    24414    24416    24420    24424 
   24426    24426    24422    24420    24424    24424    24422    24426 
   24433    24437    24445    24448    24447    24447    24440    24430 
   24425    24418    24412    24408    24402    24397    24395    24387 
   24376    24370    24363    24354    24352    24354    24349    24348 
   24347    24343    24340    24340    24336    24336    24345    24349 
   24354    24363    24368    24367    24366    24364    24366    24367 
   24366    24367    24372    24376    24385    24393    24397    24397 
   24402    24403    24405    24406    24406    24403    24400    24397 
   24397    24395    24395    24395    24397    24397    24397    24400 
   24400    24399    24394    24389    24382    24376    24374    24374 
   24368    24363    24363    24363    24362    24360    24359    24359 
   24363    24366    24367    24372    24376    24377    24379    24382 
   24385    24389    24390    24389    24386    24385    24385    24383 
   24386    24391    24397    24403    24406    24413    24416    24412 
   24408    24406    24399    24397    24397    24399    24400    24405 
   24408    24410    24412    24409    24408    24406    24408    24412 
   24416    24418    24420    24420    24416    24410    24406    24402 
   24397    24399    24406    24410    24414    24420    24425    24428 
   24428    24430    24430    24428    24420    24420    24418    24416 
   24416    24417    24417    24418    24416    24406    24397    24395 
   24393    24386    24385    24387    24389    24387    24387    24390 
   24391    24391    24395    24400    24405    24408    24408    24408 
   24406    24400    24399    24399    24399    24402    24406    24412 
   24420    24430    24436    24443    24452    24457    24459    24462 
   24466    24468    24463    24457    24455    24447    24439    24440 
   24441    24440    24440    24440    24439    24441    24441    24443 
   24449    24453    24457    24462    24463    24463    24462    24460 
   24459    24457    24456    24457    24460    24462    24463    24470 
   24471    24468    24467    24467    24467    24466    24470    24474 
   24474    24474    24475    24475    24478    24478    24475    24476 
   24476    24474    24475    24472    24468    24467    24468    24468 
   24468    24466    24463    24462    24459    24457    24463    24470 
   24475    24483    24494    24502    24505    24506    24509    24509 
   24506    24502    24498    24494    24486    24476    24471    24463 
   24460    24457    24455    24451    24451    24448    24441    24436 
   24430    24424    24420    24418    24410    24408    24409    24410 
   24414    24424    24432    24436    24441    24441    24436    24436 
   24435    24433    24433    24429    24425    24422    24414    24410 
   24408    24402    24397    24397    24391    24385    24383    24382 
   24376    24375    24376    24375    24374    24376    24377    24377 
   24376    24374    24370    24367    24364    24358    24354    24351 
   24344    24337    24334    24332    24328    24324    24320    24318 
   24318    24320    24325    24329    24328    24325    24322    24320 
   24317    24314    24313    24308    24304    24301    24298    24297 
   24297    24294    24290    24287    24285    24278    24274    24270 
   24267    24264    24264    24267    24270    24270    24271    24278 
   24286    24288    24290    24294    24297    24298    24302    24309 
   24313    24316    24322    24329    24332    24334    24337    24336 
   24332    24328    24321    24313    24304    24297    24290    24282 
   24275    24271    24267    24263    24258    24255    24255    24252 
   24255    24259    24260    24263    24267    24268    24267    24267 
   24267    24266    24263    24262    24263    24266    24264    24263 
   24266    24268    24271    24271    24273    24279    24283    24287 
   24290    24294    24295    24295    24295    24295    24295    24297 
   24295    24298    24304    24308    24309    24311    24314    24316 
   24316    24317    24320    24324    24324    24325    24327    24325 
   24322    24320    24324    24332    24334    24336    24344    24351 
   24356    24363    24367    24370    24374    24376    24376    24377 
   24376    24376    24381    24379    24379    24381    24376    24371 
   24370    24366    24360    24359    24354    24349    24347    24345 
   24343    24341    24343    24343    24345    24352    24354    24359 
   24367    24371    24372    24377    24379    24381    24385    24382 
   24377    24375    24370    24368    24367    24364    24360    24358 
   24352    24347    24341    24334    24327    24320    24311    24300 
   24288    24282    24275    24266    24256    24250    24248    24245 
   24243    24245    24247    24244    24241    24237    24236    24236 
   24236    24239    24241    24247    24254    24259    24263    24268 
   24268    24266    24267    24271    24273    24274    24278    24282 
   24285    24290    24294    24300    24306    24313    24320    24327 
   24331    24329    24328    24329    24327    24325    24328    24333 
   24334    24334    24336    24334    24334    24337    24336    24336 
   24341    24348    24351    24354    24358    24360    24363    24364 
   24362    24360    24359    24354    24356    24358    24359    24364 
   24370    24371    24374    24377    24376    24375    24377    24383 
   24387    24391    24399    24406    24412    24416    24417    24417 
   24418    24420    24420    24422    24424    24424    24425    24430 
   24429    24428    24429    24428    24426    24429    24429    24429 
   24432    24432    24430    24432    24433    24440    24443    24445 
   24448    24451    24453    24456    24460    24462    24463    24468 
   24471    24472    24474    24476    24479    24483    24483    24483 
   24484    24486    24486    24494    24494    24494    24499    24499 
   24501    24506    24507    24507    24511    24516    24517    24518 
   24520    24520    24517    24513    24509    24507    24509    24507 
   24505    24503    24497    24490    24493    24493    24490    24486 
   24489    24491    24493    24491    24491    24494    24495    24501 
   24507    24509    24513    24514    24516    24516    24516    24514 
   24516    24518    24521    24522    24522    24522    24520    24516 
   24513    24507    24503    24503    24499    24495    24490    24483 
   24480    24480    24475    24471    24467    24463    24466    24467 
   24463    24460    24457    24451    24443    24439    24433    24428 
   24425    24424    24420    24418    24413    24405    24397    24391 
   24379    24368    24360    24354    24349    24348    24344    24337 
   24329    24320    24311    24308    24305    24304    24304    24306 
   24306    24306    24304    24297    24290    24281    24270    24260 
   24256    24252    24251    24251    24254    24258    24262    24264 
   24270    24278    24282    24287    24294    24295    24298    24304 
   24306    24309    24311    24313    24316    24320    24321    24322 
   24322    24320    24317    24316    24313    24310    24311    24308 
   24308    24310    24309    24308    24310    24310    24310    24311 
   24314    24316    24317    24314    24311    24309    24308    24300 
   24290    24286    24283    24277    24273    24271    24271    24271 
   24270    24270    24271    24270    24263    24262    24263    24260 
   24258    24259    24258    24259    24266    24271    24275    24283 
   24287    24290    24297    24298    24298    24301    24305    24305 
   24302    24302    24302    24302    24301    24298    24294    24290 
   24281    24273    24268    24263    24260    24256    24252    24248 
   24240    24232    24225    24220    24217    24213    24209    24212 
   24217    24220    24221    24227    24229    24228    24229    24229 
   24228    24231    24235    24240    24250    24259    24266    24273 
   24283    24294    24302    24311    24324    24336    24349    24362 
   24372    24382    24391    24397    24400    24406    24413    24416 
   24416    24416    24417    24417    24414    24414    24418    24417 
   24416    24420    24420    24422    24426    24432    24436    24441 
   24448    24452    24457    24466    24472    24478    24486    24495 
   24503    24509    24511    24516    24517    24517    24522    24522 
   24520    24517    24511    24502    24493    24486    24479    24474 
   24471    24462    24451    24445    24439    24429    24422    24417 
   24409    24399    24390    24379    24366    24354    24347    24340 
   24333    24329    24322    24316    24310    24305    24301    24300 
   24302    24305    24305    24304    24305    24306    24310    24311 
   24310    24311    24317    24321    24327    24329    24334    24339 
   24343    24347    24352    24352    24351    24349    24347    24341 
   24339    24336    24331    24322    24318    24316    24310    24309 
   24314    24314    24309    24305    24300    24291    24285    24278 
   24270    24263    24255    24244    24235    24227    24220    24212 
   24205    24204    24198    24190    24183    24177    24169    24159 
   24154    24147    24140    24138    24131    24121    24117    24113 
   24105    24100    24090    24079    24073    24069    24063    24061 
   24061    24061    24065    24070    24078    24084    24090    24097 
   24102    24106    24108    24109    24109    24109    24109    24111 
   24112    24115    24120    24128    24136    24146    24159    24170 
   24181    24190    24200    24209    24219    24223    24223    24223 
   24227    24229    24229    24233    24241    24244    24244    24247 
   24247    24247    24248    24247    24244    24241    24243    24243 
   24240    24245    24251    24252    24255    24262    24268    24279 
   24294    24308    24318    24331    24341    24349    24359    24370 
   24382    24394    24403    24416    24426    24433    24440    24445 
   24448    24453    24462    24467    24470    24474    24479    24480 
   24479    24483    24489    24494    24501    24511    24521    24528 
   24534    24538    24541    24547    24551    24556    24563    24567 
   24571    24578    24588    24592    24597    24605    24611    24618 
   24630    24640    24646    24653    24659    24663    24664    24663 
   24663    24664    24664    24669    24672    24673    24680    24687 
   24696    24707    24714    24725    24740    24750    24761    24779 
   24793    24807    24822    24834    24845    24859    24875    24888 
   24902    24916    24926    24933    24939    24942    24943    24943 
   24942    24942    24943    24941    24937    24934    24929    24921 
   24912    24902    24885    24871    24856    24835    24813    24792 
   24769    24741    24715    24692    24668    24645    24625    24605 
   24584    24559    24534    24509    24483    24455    24429    24402 
   24374    24345    24317    24286    24254    24223    24192    24163 
   24136    24108    24079    24055    24034    24011    23990    23971 
   23951    23930    23908    23889    23872    23858    23843    23831 
   23820    23809    23801    23795    23785    23777    23768    23755 
   23743    23731    23720    23711    23704    23696    23687    23679 
   23677    23673    23669    23669    23669    23668    23666    23666 
   23668    23669    23674    23680    23685    23695    23704    23714 
   23727    23742    23755    23765    23778    23796    23814    23832 
   23852    23872    23890    23909    23930    23951    23971    23988 
   24007    24027    24048    24069    24092    24113    24135    24155 
   24177    24196    24213    24229    24243    24254    24267    24282 
   24293    24304    24316    24324    24332    24341    24349    24358 
   24370    24385    24399    24414    24426    24439    24453    24472 
   24489    24506    24522    24538    24559    24578    24594    24609 
   24624    24638    24649    24653    24656    24659    24660    24661 
   24660    24651    24637    24626    24610    24584    24560    24541 
   24517    24490    24463    24436    24408    24377    24344    24311 
   24282    24250    24223    24201    24179    24162    24143    24125 
   24113    24098    24081    24069    24058    24044    24035    24024 
   24016    24011    24004    23997    23994    23994    23993    23996 
   24004    24013    24020    24032    24048    24061    24073    24090 
   24106    24123    24146    24167    24189    24213    24240    24263 
   24285    24306    24327    24347    24366    24387    24412    24435 
   24455    24478    24505    24529    24552    24580    24613    24645 
   24679    24713    24752    24792    24827    24864    24900    24935 
   24975    25015    25054    25092    25128    25165    25201    25239 
   25277    25316    25355    25398    25444    25488    25528    25573 
   25617    25659    25702    25747    25789    25829    25872    25917 
   25952    25984    26013    26040    26059    26072    26083    26095 
   26103    26107    26111    26114    26113    26110    26109    26103 
   26096    26091    26079    26063    26048    26033    26013    25992 
   25968    25942    25917    25886    25856    25828    25797    25763 
   25731    25698    25659    25617    25571    25521    25469    25415 
   25361    25307    25247    25189    25131    25069    25003    24934 
   24867    24798    24726    24655    24583    24507    24435    24363 
   24290    24220    24147    24070    23997    23927    23854    23782 
   23712    23645    23579    23508    23436    23368    23304    23240 
   23178    23122    23070    23018    22972    22928    22886    22850 
   22817    22788    22763    22746    22734    22727    22725    22728 
   22729    22735    22743    22754    22771    22789    22804    22827 
   22855    22879    22906    22936    22958    22981    23008    23033 
   23062    23090    23121    23155    23187    23220    23255    23290 
   23323    23355    23388    23422    23456    23492    23529    23565 
   23599    23633    23670    23708    23746    23788    23829    23872 
   23918    23971    24020    24069    24120    24170    24220    24271 
   24321    24372    24428    24479    24528    24582    24634    24684 
   24734    24780    24823    24867    24908    24949    24993    25031 
   25062    25097    25132    25163    25193    25220    25243    25269 
   25294    25311    25327    25346    25363    25377    25390    25404 
   25415    25424    25435    25444    25450    25452    25456    25462 
   25466    25466    25469    25469    25463    25452    25440    25425 
   25409    25389    25366    25343    25317    25290    25262    25232 
   25203    25170    25137    25107    25073    25034    25000    24966 
   24933    24898    24862    24826    24791    24759    24726    24692 
   24660    24628    24597    24568    24541    24516    24489    24462 
   24441    24418    24394    24370    24347    24322    24298    24273 
   24250    24231    24210    24189    24171    24154    24136    24121 
   24105    24090    24077    24066    24055    24043    24032    24024 
   24019    24017    24016    24019    24023    24031    24044    24061 
   24079    24104    24132    24162    24196    24235    24271    24308 
   24349    24391    24429    24468    24505    24537    24570    24601 
   24628    24653    24680    24706    24729    24745    24760    24776 
   24787    24791    24792    24791    24784    24773    24764    24756 
   24746    24737    24732    24727    24719    24711    24702    24691 
   24679    24667    24651    24638    24625    24606    24590    24579 
   24563    24544    24532    24520    24503    24490    24476    24459 
   24441    24425    24403    24381    24362    24344    24321    24301 
   24282    24262    24241    24224    24208    24193    24178    24163 
   24152    24148    24142    24133    24129    24125    24119    24116 
   24113    24111    24112    24115    24117    24123    24129    24135 
   24139    24148    24159    24171    24186    24198    24216    24239 
   24256    24278    24306    24331    24352    24381    24413    24443 
   24470    24498    24526    24551    24572    24595    24618    24634 
   24648    24660    24672    24683    24692    24698    24703    24709 
   24713    24715    24722    24727    24732    24733    24733    24737 
   24738    24740    24742    24741    24740    24742    24746    24746 
   24750    24757    24761    24764    24769    24775    24780    24787 
   24793    24798    24804    24813    24819    24823    24825    24829 
   24831    24833    24833    24830    24830    24831    24829    24827 
   24827    24825    24822    24822    24822    24823    24827    24834 
   24841    24850    24861    24868    24876    24891    24902    24915 
   24933    24950    24968    24991    25014    25037    25058    25080 
   25104    25128    25151    25176    25203    25228    25252    25277 
   25304    25327    25346    25363    25380    25394    25407    25417 
   25425    25427    25431    25435    25435    25435    25435    25436 
   25440    25440    25438    25435    25429    25417    25404    25392 
   25377    25363    25351    25336    25318    25300    25281    25261 
   25238    25213    25188    25159    25132    25110    25083    25053 
   25026    24999    24966    24938    24914    24888    24857    24826 
   24799    24775    24746    24717    24692    24664    24630    24603 
   24582    24559    24540    24520    24502    24486    24475    24460 
   24451    24447    24441    24435    24430    24429    24428    24424 
   24420    24418    24417    24414    24416    24420    24422    24424 
   24428    24432    24436    24443    24449    24453    24463    24472 
   24479    24486    24494    24501    24506    24509    24516    24517 
   24518    24524    24526    24529    24533    24538    24545    24555 
   24561    24571    24582    24594    24606    24617    24626    24636 
   24642    24649    24657    24667    24673    24682    24691    24700 
   24711    24722    24730    24738    24746    24750    24752    24753 
   24752    24749    24745    24737    24726    24713    24694    24676 
   24659    24636    24610    24587    24564    24538    24511    24490 
   24466    24439    24413    24387    24363    24337    24309    24282 
   24258    24231    24202    24175    24146    24116    24088    24057 
   24025    23996    23965    23932    23901    23870    23838    23803 
   23766    23728    23691    23649    23606    23565    23525    23484 
   23442    23404    23368    23329    23294    23261    23230    23202 
   23171    23143    23120    23098    23076    23062    23047    23033 
   23028    23028    23032    23039    23047    23056    23071    23089 
   23107    23126    23149    23170    23195    23226    23260    23296 
   23334    23373    23415    23461    23508    23557    23608    23660 
