Origin Time       2016/04/16 01:25:00
Lat.              32.753
Long.             130.762
Depth. (km)       12
Mag.              7.3
Station Code      WKY009
Station Lat.      33.7209
Station Long.     135.9813
Station Height(m) 9
Record Time       2016/04/16 01:27:36
Sampling Freq(Hz) 100Hz
Duration Time(s)  60
Dir.              N-S
Scale Factor      7845(gal)/8223790
Max. Acc. (gal)   1.188
Last Correction   2016/04/16 01:27:37
Memo.             
[...]
   -4200    -4225    -4228    -4194    -4189    -4205    -4178    -4139 
   -4129    -4117    -4094    -4098    -4105    -4069    -4054    -4074 
   -4069    -4060    -4079    -4086    -4086    -4104    -4120    -4124 
   -4137    -4159    -4164    -4148    -4140    -4152    -4155    -4148 
   -4158    -4158    -4143    -4149    -4159    -4148    -4147    -4158 
   -4136    -4110    -4124    -4132    -4095    -4068    -4055    -4027 
   -4016    -4035    -4028    -4006    -4016    -4036    -4032    -4032 
   -4055    -4058    -4060    -4093    -4102    -4088    -4102    -4125 
   -4124    -4120    -4131    -4126    -4110    -4118    -4125    -4104 
   -4098    -4116    -4102    -4083    -4109    -4131    -4124    -4136 
   -4152    -4143    -4148    -4176    -4178    -4163    -4182    -4207 
   -4195    -4192    -4222    -4243    -4236    -4230    -4233    -4233 
   -4243    -4258    -4248    -4243    -4260    -4260    -4237    -4233 
   -4230    -4200    -4174    -4168    -4153    -4131    -4124    -4114 
   -4081    -4058    -4066    -4064    -4039    -4035    -4045    -4044 
   -4052    -4081    -4078    -4060    -4081    -4090    -4060    -4064 
   -4094    -4093    -4097    -4117    -4109    -4093    -4109    -4120 
   -4107    -4112    -4124    -4112    -4106    -4139    -4162    -4159 
   -4172    -4191    -4185    -4200    -4248    -4266    -4263    -4288 
   -4314    -4321    -4337    -4369    -4376    -4374    -4396    -4396 
   -4368    -4367    -4371    -4340    -4313    -4305    -4279    -4241 
   -4225    -4212    -4190    -4187    -4195    -4186    -4178    -4202 
   -4215    -4202    -4214    -4245    -4243    -4232    -4240    -4237 
   -4220    -4220    -4228    -4205    -4182    -4191    -4178    -4156 
   -4176    -4187    -4162    -4163    -4183    -4175    -4168    -4183 
   -4175    -4151    -4163    -4180    -4153    -4145    -4176    -4191 
   -4194    -4220    -4228    -4202    -4205    -4240    -4237    -4220 
   -4236    -4247    -4243    -4260    -4276    -4271    -4271    -4284 
   -4278    -4258    -4266    -4287    -4282    -4282    -4305    -4302 
   -4283    -4295    -4306    -4284    -4280    -4289    -4271    -4256 
   -4261    -4248    -4232    -4223    -4202    -4172    -4170    -4180 
   -4170    -4148    -4152    -4156    -4140    -4140    -4148    -4137 
   -4128    -4132    -4132    -4131    -4140    -4140    -4124    -4124 
   -4136    -4120    -4095    -4101    -4105    -4086    -4088    -4118 
   -4126    -4122    -4133    -4132    -4114    -4125    -4144    -4135 
   -4129    -4135    -4114    -4090    -4097    -4107    -4099    -4095 
   -4104    -4110    -4129    -4170    -4195    -4195    -4209    -4230 
   -4222    -4220    -4245    -4240    -4210    -4215    -4233    -4213 
   -4200    -4220    -4220    -4209    -4223    -4217    -4183    -4186 
   -4202    -4176    -4149    -4155    -4147    -4117    -4113    -4125 
   -4112    -4094    -4097    -4094    -4088    -4114    -4139    -4128 
   -4132    -4164    -4168    -4162    -4187    -4202    -4186    -4192 
   -4220    -4225    -4230    -4256    -4260    -4241    -4243    -4248 
   -4218    -4199    -4217    -4194    -4147    -4144    -4144    -4114 
   -4112    -4126    -4116    -4110    -4136    -4144    -4129    -4140 
   -4156    -4140    -4133    -4158    -4170    -4162    -4178    -4199 
   -4192    -4197    -4222    -4222    -4207    -4215    -4220    -4205 
   -4215    -4236    -4213    -4191    -4200    -4180    -4145    -4143 
   -4136    -4102    -4077    -4071    -4055    -4035    -4036    -4036 
   -4017    -4013    -4027    -4024    -4017    -4031    -4031    -4021 
   -4033    -4045    -4033    -4032    -4051    -4052    -4044    -4055 
   -4063    -4045    -4044    -4054    -4041    -4029    -4052    -4072 
   -4072    -4091    -4112    -4112    -4124    -4158    -4172    -4171 
   -4182    -4190    -4176    -4178    -4197    -4195    -4185    -4197 
   -4192    -4159    -4149    -4156    -4137    -4114    -4117    -4102 
   -4074    -4072    -4067    -4043    -4036    -4043    -4025    -4020 
   -4040    -4048    -4036    -4047    -4071    -4072    -4071    -4094 
   -4105    -4093    -4091    -4099    -4093    -4098    -4118    -4112 
   -4101    -4117    -4128    -4114    -4110    -4124    -4126    -4128 
   -4145    -4144    -4143    -4175    -4191    -4167    -4152    -4153 
   -4140    -4125    -4133    -4143    -4131    -4128    -4144    -4143 
   -4129    -4139    -4137    -4107    -4105    -4121    -4117    -4110 
   -4113    -4105    -4087    -4091    -4106    -4106    -4125    -4164 
   -4176    -4187    -4228    -4260    -4266    -4282    -4307    -4318 
   -4326    -4344    -4352    -4360    -4387    -4396    -4384    -4390 
   -4395    -4372    -4351    -4345    -4330    -4306    -4298    -4298 
   -4280    -4260    -4263    -4266    -4256    -4263    -4270    -4263 
   -4278    -4289    -4274    -4268    -4293    -4297    -4275    -4275 
   -4295    -4298    -4298    -4310    -4307    -4297    -4305    -4318 
   -4324    -4340    -4356    -4349    -4338    -4344    -4352    -4349 
   -4347    -4338    -4309    -4294    -4307    -4305    -4280    -4282 
   -4295    -4275    -4261    -4268    -4253    -4240    -4255    -4260 
   -4247    -4240    -4247    -4240    -4225    -4233    -4230    -4195 
   -4187    -4197    -4178    -4171    -4186    -4180    -4163    -4170 
   -4186    -4183    -4176    -4189    -4186    -4168    -4168    -4163 
   -4136    -4129    -4148    -4144    -4137    -4164    -4178    -4167 
   -4190    -4213    -4199    -4197    -4212    -4212    -4213    -4233 
   -4241    -4225    -4225    -4233    -4220    -4202    -4200    -4192 
   -4170    -4163    -4162    -4135    -4116    -4126    -4118    -4078 
   -4055    -4055    -4041    -4032    -4050    -4052    -4039    -4044 
   -4047    -4023    -4023    -4043    -4024    -4001    -4010    -4009 
   -3990    -3994    -4014    -4012    -4013    -4035    -4029    -4009 
   -4017    -4031    -4013    -4014    -4032    -4013    -4003    -4039 
   -4047    -4031    -4052    -4086    -4087    -4087    -4107    -4107 
   -4088    -4101    -4122    -4117    -4120    -4140    -4136    -4122 
   -4139    -4145    -4116    -4107    -4125    -4120    -4114    -4135 
   -4135    -4114    -4126    -4151    -4136    -4121    -4139    -4131 
   -4098    -4104    -4107    -4077    -4072    -4093    -4074    -4055 
   -4081    -4097    -4081    -4094    -4125    -4121    -4120    -4147 
   -4152    -4143    -4164    -4183    -4170    -4168    -4185    -4170 
   -4135    -4136    -4148    -4136    -4139    -4151    -4140    -4147 
   -4178    -4183    -4168    -4185    -4210    -4205    -4209    -4228 
   -4217    -4207    -4237    -4248    -4223    -4225    -4243    -4218 
   -4209    -4233    -4236    -4225    -4238    -4245    -4236    -4245 
   -4276    -4284    -4283    -4307    -4329    -4334    -4348    -4363 
   -4357    -4360    -4392    -4407    -4392    -4403    -4433    -4431 
   -4423    -4434    -4430    -4419    -4425    -4422    -4392    -4372 
   -4372    -4356    -4327    -4321    -4311    -4284    -4297    -4330 
   -4315    -4288    -4303    -4307    -4280    -4282    -4291    -4261 
   -4233    -4238    -4223    -4183    -4182    -4189    -4148    -4124 
   -4131    -4099    -4068    -4081    -4082    -4066    -4074    -4079 
   -4059    -4058    -4077    -4077    -4067    -4079    -4087    -4079 
   -4093    -4124    -4124    -4109    -4114    -4117    -4098    -4105 
   -4124    -4110    -4104    -4120    -4114    -4099    -4109    -4124 
   -4125    -4125    -4131    -4121    -4104    -4117    -4133    -4124 
   -4126    -4140    -4128    -4117    -4129    -4124    -4110    -4121 
   -4122    -4106    -4109    -4117    -4112    -4113    -4126    -4121 
   -4102    -4102    -4113    -4090    -4064    -4081    -4090    -4074 
   -4078    -4086    -4079    -4098    -4131    -4133    -4126    -4143 
   -4166    -4176    -4189    -4220    -4236    -4241    -4275    -4297 
   -4287    -4317    -4357    -4341    -4327    -4356    -4356    -4338 
   -4357    -4359    -4314    -4302    -4322    -4297    -4253    -4248 
   -4240    -4199    -4178    -4171    -4140    -4114    -4122    -4118 
   -4097    -4104    -4118    -4098    -4078    -4090    -4101    -4098 
   -4107    -4117    -4109    -4109    -4132    -4136    -4121    -4132 
   -4152    -4152    -4164    -4186    -4178    -4174    -4197    -4205 
   -4190    -4190    -4195    -4174    -4162    -4170    -4149    -4113 
   -4107    -4102    -4074    -4054    -4039    -4009    -3986    -3984 
   -3970    -3936    -3925    -3923    -3898    -3882    -3880    -3869 
   -3861    -3882    -3890    -3871    -3875    -3909    -3920    -3920 
   -3940    -3955    -3947    -3956    -3974    -3971    -3977    -4001 
   -4005    -3996    -4009    -4020    -4012    -4023    -4039    -4031 
   -4029    -4054    -4059    -4048    -4064    -4093    -4090    -4081 
   -4085    -4086    -4087    -4106    -4109    -4085    -4083    -4109 
   -4113    -4110    -4137    -4156    -4149    -4159    -4175    -4168 
   -4163    -4178    -4166    -4133    -4140    -4155    -4132    -4133 
   -4156    -4140    -4113    -4124    -4124    -4094    -4091    -4110 
   -4097    -4093    -4122    -4135    -4137    -4182    -4223    -4223 
   -4233    -4276    -4294    -4295    -4321    -4338    -4326    -4332 
   -4352    -4340    -4324    -4342    -4349    -4322    -4314    -4317 
   -4293    -4289    -4320    -4315    -4284    -4289    -4299    -4271 
   -4256    -4279    -4271    -4248    -4258    -4261    -4233    -4237 
   -4255    -4241    -4228    -4240    -4232    -4203    -4210    -4222 
   -4194    -4172    -4185    -4176    -4151    -4162    -4185    -4185 
   -4182    -4197    -4205    -4200    -4209    -4218    -4209    -4218 
   -4243    -4233    -4232    -4261    -4266    -4248    -4256    -4266 
   -4245    -4233    -4251    -4243    -4225    -4240    -4245    -4225 
   -4237    -4261    -4253    -4245    -4261    -4256    -4230    -4233 
   -4248    -4241    -4247    -4276    -4275    -4261    -4283    -4297 
   -4289    -4301    -4310    -4307    -4320    -4334    -4327    -4318 
   -4336    -4355    -4338    -4330    -4353    -4347    -4324    -4330 
   -4332    -4313    -4313    -4326    -4313    -4293    -4305    -4310 
   -4291    -4280    -4271    -4248    -4237    -4243    -4225    -4191 
   -4187    -4186    -4155    -4132    -4124    -4094    -4064    -4067 
   -4066    -4035    -4025    -4036    -4025    -4020    -4040    -4041 
   -4020    -4031    -4063    -4066    -4063    -4090    -4104    -4098 
   -4120    -4144    -4136    -4145    -4174    -4172    -4168    -4178 
   -4171    -4159    -4180    -4203    -4191    -4185    -4205    -4205 
   -4189    -4195    -4199    -4170    -4159    -4174    -4166    -4156 
   -4175    -4182    -4167    -4172    -4190    -4178    -4164    -4168 
   -4159    -4139    -4139    -4140    -4121    -4105    -4105    -4087 
   -4055    -4043    -4036    -4017    -4017    -4017    -3987    -3965 
   -3975    -3965    -3946    -3946    -3942    -3920    -3909    -3919 
   -3919    -3893    -3878    -3873    -3854    -3842    -3844    -3831 
   -3815    -3815    -3807    -3784    -3769    -3757    -3730    -3719 
   -3731    -3708    -3666    -3658    -3657    -3650    -3670    -3699 
   -3689    -3678    -3701    -3713    -3711    -3738    -3762    -3751 
   -3753    -3778    -3785    -3784    -3797    -3804    -3796    -3797 
   -3815    -3816    -3807    -3819    -3827    -3812    -3809    -3825 
   -3825    -3824    -3844    -3850    -3834    -3840    -3851    -3839 
   -3846    -3882    -3892    -3886    -3904    -3916    -3906    -3925 
   -3971    -3984    -3981    -4008    -4028    -4025    -4051    -4079 
   -4072    -4078    -4106    -4113    -4107    -4129    -4147    -4131 
   -4133    -4159    -4156    -4148    -4163    -4171    -4163    -4166 
   -4172    -4159    -4147    -4158    -4163    -4158    -4167    -4187 
   -4192    -4209    -4253    -4278    -4283    -4313    -4353    -4371 
   -4393    -4437    -4460    -4469    -4496    -4523    -4526    -4535 
   -4564    -4572    -4568    -4587    -4590    -4568    -4575    -4585 
   -4564    -4548    -4553    -4537    -4513    -4526    -4527    -4498 
   -4494    -4496    -4479    -4469    -4477    -4472    -4450    -4450 
   -4446    -4419    -4419    -4440    -4430    -4415    -4433    -4448 
   -4441    -4455    -4484    -4492    -4506    -4529    -4526    -4527 
   -4556    -4576    -4572    -4576    -4599    -4611    -4618    -4641 
   -4648    -4637    -4656    -4685    -4683    -4684    -4710    -4712 
   -4708    -4731    -4747    -4748    -4765    -4796    -4811    -4814 
   -4838    -4855    -4845    -4846    -4868    -4868    -4858    -4865 
   -4865    -4858    -4878    -4887    -4851    -4834    -4849    -4839 
   -4812    -4807    -4799    -4765    -4750    -4758    -4735    -4706 
   -4718    -4719    -4687    -4688    -4710    -4702    -4687    -4698 
   -4692    -4662    -4665    -4677    -4656    -4644    -4660    -4649 
   -4623    -4629    -4630    -4598    -4585    -4585    -4548    -4515 
   -4511    -4483    -4430    -4395    -4364    -4310    -4256    -4220 
   -4176    -4116    -4078    -4036    -3962    -3904    -3870    -3817 
   -3750    -3703    -3658    -3593    -3543    -3507    -3457    -3414 
   -3387    -3345    -3296    -3269    -3244    -3200    -3160    -3132 
   -3100    -3071    -3051    -3026    -2986    -2965    -2971    -2957 
   -2926    -2915    -2921    -2910    -2906    -2921    -2924    -2926 
   -2948    -2967    -2961    -2965    -2986    -2988    -2994    -3018 
   -3022    -3014    -3033    -3056    -3046    -3041    -3057    -3064 
   -3064    -3073    -3076    -3071    -3087    -3109    -3107    -3115 
   -3144    -3148    -3134    -3153    -3177    -3177    -3198    -3235 
   -3249    -3275    -3331    -3364    -3373    -3406    -3445    -3468 
   -3497    -3532    -3547    -3558    -3599    -3634    -3640    -3661 
   -3697    -3709    -3721    -3762    -3797    -3816    -3847    -3882 
   -3902    -3931    -3969    -3996    -4017    -4054    -4078    -4082 
   -4098    -4131    -4140    -4140    -4163    -4175    -4166    -4170 
   -4187    -4189    -4182    -4187    -4183    -4182    -4218    -4252 
   -4248    -4260    -4291    -4303    -4317    -4353    -4379    -4384 
   -4409    -4441    -4452    -4463    -4487    -4496    -4498    -4523 
   -4548    -4538    -4540    -4568    -4568    -4552    -4568    -4573 
   -4548    -4553    -4567    -4544    -4535    -4557    -4545    -4511 
   -4502    -4492    -4456    -4438    -4446    -4431    -4402    -4399 
   -4393    -4367    -4360    -4372    -4348    -4314    -4301    -4276 
   -4241    -4223    -4207    -4166    -4132    -4122    -4091    -4040 
   -4024    -4017    -3984    -3973    -3983    -3964    -3955    -3987 
   -4006    -4008    -4035    -4062    -4067    -4085    -4125    -4156 
   -4166    -4178    -4203    -4225    -4248    -4286    -4314    -4330 
   -4360    -4388    -4388    -4398    -4423    -4433    -4440    -4455 
   -4455    -4437    -4440    -4446    -4428    -4417    -4428    -4418 
   -4391    -4392    -4398    -4378    -4371    -4372    -4348    -4322 
   -4324    -4313    -4284    -4280    -4283    -4248    -4220    -4220 
   -4207    -4175    -4158    -4151    -4132    -4120    -4116    -4098 
   -4081    -4081    -4077    -4054    -4050    -4068    -4058    -4043 
   -4062    -4067    -4051    -4051    -4052    -4036    -4036    -4054 
   -4055    -4036    -4044    -4063    -4059    -4062    -4074    -4068 
   -4063    -4090    -4112    -4104    -4122    -4163    -4164    -4162 
   -4192    -4209    -4197    -4217    -4240    -4220    -4215    -4240 
   -4230    -4210    -4218    -4215    -4195    -4194    -4190    -4152 
   -4129    -4140    -4122    -4069    -4054    -4051    -4012    -3975 
   -3960    -3919    -3877    -3874    -3848    -3790    -3776    -3789 
   -3766    -3740    -3753    -3754    -3738    -3757    -3790    -3785 
   -3781    -3813    -3823    -3815    -3850    -3882    -3871    -3879 
   -3913    -3920    -3928    -3963    -3973    -3955    -3973    -4001 
   -3997    -4000    -4016    -4002    -3982    -3982    -3973    -3950 
   -3940    -3943    -3920    -3892    -3888    -3861    -3825    -3828 
   -3839    -3819    -3813    -3836    -3844    -3844    -3877    -3913 
   -3916    -3931    -3978    -4001    -4013    -4058    -4095    -4104 
   -4132    -4168    -4172    -4190    -4233    -4245    -4241    -4271 
   -4303    -4307    -4315    -4342    -4353    -4349    -4369    -4390 
   -4386    -4398    -4411    -4406    -4421    -4453    -4461    -4459 
   -4486    -4514    -4502    -4495    -4517    -4521    -4509    -4519 
   -4530    -4514    -4509    -4523    -4519    -4504    -4511    -4511 
   -4486    -4477    -4479    -4460    -4456    -4471    -4457    -4433 
   -4437    -4441    -4415    -4409    -4422    -4409    -4399    -4414 
   -4406    -4384    -4386    -4390    -4379    -4367    -4357    -4330 
   -4307    -4311    -4298    -4263    -4240    -4225    -4199    -4158 
   -4129    -4117    -4079    -4044    -4033    -3996    -3951    -3942 
   -3916    -3870    -3855    -3847    -3801    -3767    -3771    -3753 
   -3715    -3705    -3699    -3667    -3655    -3677    -3678    -3663 
   -3681    -3694    -3681    -3694    -3719    -3708    -3700    -3721 
   -3732    -3727    -3740    -3755    -3736    -3727    -3755    -3759 
   -3740    -3757    -3775    -3767    -3770    -3786    -3784    -3776 
   -3797    -3805    -3781    -3782    -3811    -3811    -3801    -3820 
   -3817    -3792    -3813    -3839    -3804    -3789    -3820    -3823 
   -3815    -3838    -3850    -3844    -3863    -3896    -3898    -3897 
   -3932    -3955    -3955    -3984    -4020    -4017    -4023    -4044 
   -4044    -4043    -4055    -4051    -4029    -4031    -4039    -4012 
   -3993    -3996    -3977    -3950    -3946    -3939    -3912    -3892 
   -3894    -3885    -3861    -3865    -3863    -3839    -3838    -3852 
   -3844    -3836    -3851    -3851    -3838    -3850    -3866    -3861 
   -3871    -3901    -3913    -3916    -3931    -3940    -3936    -3954 
   -3977    -3965    -3962    -3986    -3997    -3983    -3984    -3996 
   -3982    -3967    -3971    -3963    -3950    -3955    -3946    -3912 
   -3892    -3888    -3851    -3797    -3780    -3767    -3724    -3693 
   -3669    -3627    -3600    -3593    -3570    -3538    -3526    -3528 
   -3515    -3508    -3530    -3537    -3524    -3541    -3568    -3563 
   -3570    -3605    -3624    -3634    -3670    -3700    -3707    -3731 
   -3773    -3796    -3817    -3854    -3875    -3888    -3932    -3989 
   -4017    -4058    -4114    -4152    -4186    -4236    -4283    -4309 
   -4342    -4392    -4428    -4459    -4514    -4552    -4573    -4623 
   -4676    -4703    -4734    -4788    -4831    -4849    -4874    -4916 
   -4932    -4953    -5005    -5039    -5046    -5065    -5093    -5107 
   -5128    -5148    -5152    -5161    -5192    -5208    -5198    -5206 
   -5225    -5220    -5213    -5223    -5219    -5201    -5198    -5200 
   -5181    -5169    -5158    -5119    -5076    -5044    -4994    -4930 
   -4897    -4877    -4818    -4753    -4715    -4668    -4602    -4556 
   -4515    -4457    -4417    -4388    -4337    -4298    -4298    -4280 
