Origin Time       2016/04/16 01:25:00
Lat.              32.753
Long.             130.762
Depth. (km)       12
Mag.              7.3
Station Code      WKY011
Station Lat.      33.5947
Station Long.     135.9460
Station Height(m) 10
Record Time       2016/04/16 01:27:43
Sampling Freq(Hz) 100Hz
Duration Time(s)  60
Dir.              E-W
Scale Factor      7845(gal)/8223790
Max. Acc. (gal)   1.086
Last Correction   2016/04/16 01:27:43
Memo.             
[...]
   -5147    -5151    -5155    -5161    -5171    -5177    -5178    -5188 
   -5200    -5208    -5215    -5220    -5225    -5233    -5239    -5239 
   -5244    -5246    -5246    -5247    -5246    -5242    -5238    -5231 
   -5221    -5216    -5213    -5206    -5196    -5189    -5184    -5175 
   -5163    -5152    -5144    -5135    -5127    -5117    -5111    -5105 
   -5098    -5092    -5085    -5081    -5076    -5067    -5062    -5057 
   -5049    -5042    -5034    -5024    -5012    -5001    -4989    -4976 
   -4962    -4950    -4936    -4922    -4907    -4892    -4881    -4869 
   -4854    -4841    -4828    -4820    -4810    -4797    -4789    -4785 
   -4780    -4773    -4769    -4764    -4758    -4757    -4758    -4754 
   -4753    -4754    -4753    -4753    -4752    -4747    -4745    -4743 
   -4745    -4742    -4739    -4737    -4734    -4733    -4730    -4722 
   -4714    -4710    -4706    -4700    -4696    -4693    -4689    -4685 
   -4684    -4683    -4680    -4683    -4688    -4693    -4702    -4710 
   -4723    -4733    -4742    -4756    -4770    -4783    -4797    -4808 
   -4819    -4833    -4846    -4857    -4866    -4878    -4888    -4897 
   -4909    -4918    -4922    -4928    -4934    -4938    -4939    -4942 
   -4943    -4942    -4942    -4941    -4935    -4931    -4931    -4927 
   -4928    -4928    -4923    -4922    -4920    -4918    -4918    -4918 
   -4916    -4914    -4915    -4916    -4916    -4915    -4918    -4922 
   -4930    -4935    -4942    -4950    -4959    -4970    -4981    -4988 
   -4997    -5007    -5013    -5023    -5030    -5035    -5044    -5050 
   -5050    -5053    -5054    -5053    -5053    -5054    -5053    -5050 
   -5047    -5042    -5036    -5035    -5031    -5027    -5024    -5022 
   -5022    -5022    -5019    -5017    -5016    -5011    -5004    -5001 
   -4997    -4992    -4986    -4984    -4980    -4974    -4968    -4961 
   -4958    -4953    -4945    -4939    -4932    -4922    -4912    -4908 
   -4901    -4891    -4882    -4882    -4882    -4880    -4877    -4880 
   -4884    -4888    -4893    -4899    -4901    -4911    -4923    -4932 
   -4943    -4959    -4974    -4986    -4999    -5013    -5027    -5035 
   -5042    -5051    -5058    -5062    -5065    -5065    -5063    -5058 
   -5050    -5042    -5035    -5024    -5009    -4994    -4981    -4966 
   -4951    -4939    -4927    -4909    -4895    -4882    -4872    -4860 
   -4850    -4842    -4839    -4837    -4834    -4833    -4835    -4839 
   -4845    -4850    -4860    -4870    -4882    -4892    -4907    -4922 
   -4932    -4945    -4956    -4966    -4980    -4992    -5001    -5012 
   -5019    -5026    -5032    -5038    -5039    -5044    -5051    -5054 
   -5055    -5059    -5062    -5060    -5060    -5063    -5065    -5063 
   -5060    -5063    -5067    -5071    -5080    -5090    -5100    -5111 
   -5120    -5128    -5138    -5146    -5154    -5161    -5164    -5167 
   -5167    -5163    -5161    -5161    -5155    -5146    -5138    -5131 
   -5119    -5103    -5088    -5070    -5053    -5030    -5005    -4981 
   -4955    -4928    -4897    -4868    -4837    -4807    -4777    -4748 
   -4722    -4695    -4669    -4646    -4623    -4604    -4588    -4571 
   -4553    -4537    -4523    -4513    -4499    -4483    -4468    -4456 
   -4445    -4434    -4423    -4415    -4411    -4406    -4401    -4399 
   -4402    -4402    -4405    -4409    -4411    -4417    -4422    -4429 
   -4436    -4444    -4452    -4461    -4475    -4487    -4498    -4513 
   -4529    -4541    -4556    -4575    -4595    -4612    -4629    -4646 
   -4664    -4680    -4696    -4712    -4729    -4743    -4756    -4768 
   -4784    -4797    -4810    -4822    -4834    -4843    -4851    -4857 
   -4868    -4877    -4882    -4888    -4896    -4900    -4900    -4901 
   -4901    -4897    -4895    -4893    -4888    -4881    -4876    -4869 
   -4861    -4855    -4849    -4843    -4839    -4839    -4837    -4835 
   -4835    -4839    -4846    -4849    -4851    -4857    -4864    -4869 
   -4876    -4884    -4893    -4901    -4909    -4918    -4928    -4938 
   -4943    -4950    -4959    -4963    -4966    -4969    -4970    -4970 
   -4970    -4973    -4976    -4974    -4972    -4972    -4970    -4965 
   -4963    -4959    -4955    -4950    -4947    -4946    -4947    -4946 
   -4945    -4947    -4953    -4958    -4963    -4970    -4981    -4992 
   -5000    -5009    -5023    -5038    -5050    -5060    -5074    -5085 
   -5093    -5107    -5119    -5130    -5139    -5148    -5159    -5169 
   -5181    -5192    -5200    -5206    -5215    -5220    -5224    -5225 
   -5229    -5233    -5235    -5239    -5239    -5242    -5246    -5247 
   -5250    -5251    -5251    -5252    -5251    -5247    -5244    -5239 
   -5231    -5221    -5212    -5201    -5190    -5179    -5166    -5150 
   -5136    -5125    -5115    -5104    -5093    -5086    -5080    -5076 
   -5076    -5077    -5078    -5084    -5092    -5100    -5107    -5117 
   -5128    -5139    -5152    -5163    -5173    -5186    -5200    -5211 
   -5224    -5233    -5238    -5244    -5250    -5252    -5255    -5256 
   -5255    -5255    -5255    -5255    -5254    -5247    -5240    -5231 
   -5220    -5209    -5198    -5188    -5174    -5162    -5152    -5142 
   -5135    -5130    -5125    -5123    -5124    -5127    -5127    -5131 
   -5138    -5142    -5140    -5144    -5150    -5147    -5143    -5143 
   -5140    -5131    -5124    -5115    -5101    -5086    -5069    -5050 
   -5027    -5001    -4974    -4945    -4912    -4880    -4849    -4814 
   -4784    -4754    -4725    -4695    -4672    -4650    -4630    -4614 
   -4602    -4592    -4584    -4573    -4567    -4558    -4549    -4542 
   -4531    -4523    -4518    -4511    -4504    -4502    -4499    -4498 
   -4498    -4496    -4495    -4495    -4495    -4495    -4496    -4496 
   -4500    -4502    -4504    -4511    -4518    -4526    -4537    -4550 
   -4561    -4576    -4599    -4618    -4634    -4653    -4673    -4692 
   -4706    -4719    -4733    -4745    -4752    -4758    -4762    -4762 
   -4760    -4758    -4756    -4750    -4743    -4739    -4733    -4727 
   -4723    -4719    -4715    -4710    -4708    -4707    -4704    -4700 
   -4700    -4704    -4707    -4707    -4712    -4722    -4729    -4737 
   -4748    -4761    -4774    -4789    -4807    -4824    -4843    -4862 
   -4881    -4901    -4918    -4935    -4951    -4970    -4986    -5003 
   -5020    -5040    -5057    -5070    -5088    -5103    -5116    -5134 
   -5148    -5162    -5178    -5190    -5200    -5213    -5228    -5239 
   -5247    -5262    -5273    -5281    -5290    -5300    -5306    -5313 
   -5319    -5324    -5329    -5333    -5339    -5343    -5346    -5351 
   -5359    -5364    -5368    -5375    -5377    -5382    -5382    -5379 
   -5377    -5377    -5370    -5360    -5354    -5347    -5333    -5320 
   -5310    -5297    -5281    -5267    -5254    -5235    -5215    -5198 
   -5184    -5164    -5144    -5123    -5101    -5086    -5071    -5057 
   -5042    -5027    -5017    -5008    -4999    -4989    -4984    -4976 
   -4970    -4966    -4963    -4961    -4962    -4962    -4959    -4962 
   -4969    -4974    -4982    -4994    -5007    -5023    -5042    -5062 
   -5081    -5101    -5123    -5146    -5162    -5178    -5200    -5217 
   -5228    -5242    -5254    -5259    -5263    -5268    -5273    -5271 
   -5270    -5265    -5259    -5252    -5243    -5233    -5223    -5211 
   -5196    -5186    -5178    -5169    -5164    -5162    -5159    -5158 
   -5159    -5162    -5163    -5169    -5175    -5181    -5188    -5194 
   -5201    -5208    -5215    -5221    -5228    -5235    -5242    -5250 
   -5254    -5256    -5259    -5262    -5262    -5262    -5265    -5263 
   -5262    -5260    -5259    -5254    -5248    -5243    -5235    -5229 
   -5219    -5208    -5197    -5185    -5169    -5158    -5148    -5134 
   -5121    -5113    -5104    -5089    -5074    -5063    -5054    -5040 
   -5027    -5016    -5005    -4993    -4982    -4969    -4956    -4946 
   -4935    -4926    -4918    -4905    -4896    -4889    -4882    -4874 
   -4869    -4865    -4858    -4854    -4849    -4841    -4833    -4826 
   -4816    -4806    -4793    -4781    -4770    -4761    -4747    -4738 
   -4731    -4723    -4716    -4712    -4710    -4706    -4702    -4700 
   -4698    -4692    -4688    -4685    -4681    -4676    -4672    -4668 
   -4664    -4660    -4654    -4649    -4644    -4635    -4627    -4619 
   -4610    -4596    -4585    -4573    -4560    -4549    -4537    -4522 
   -4511    -4502    -4491    -4483    -4479    -4473    -4469    -4464 
   -4463    -4461    -4461    -4463    -4467    -4467    -4467    -4471 
   -4476    -4476    -4479    -4484    -4491    -4496    -4496    -4499 
   -4506    -4507    -4507    -4510    -4511    -4509    -4506    -4502 
   -4502    -4500    -4496    -4496    -4498    -4498    -4498    -4500 
   -4506    -4510    -4517    -4523    -4530    -4538    -4550    -4563 
   -4576    -4591    -4604    -4621    -4641    -4658    -4673    -4693 
   -4714    -4731    -4747    -4768    -4783    -4797    -4818    -4833 
   -4845    -4857    -4872    -4884    -4892    -4901    -4912    -4922 
   -4932    -4947    -4959    -4970    -4984    -4999    -5015    -5031 
   -5043    -5057    -5073    -5089    -5105    -5123    -5139    -5154 
   -5167    -5184    -5198    -5209    -5220    -5233    -5248    -5258 
   -5267    -5279    -5289    -5297    -5309    -5320    -5328    -5339 
   -5352    -5363    -5375    -5387    -5400    -5413    -5424    -5436 
   -5445    -5454    -5464    -5474    -5478    -5481    -5483    -5485 
   -5483    -5478    -5468    -5462    -5451    -5436    -5422    -5408 
   -5389    -5370    -5351    -5331    -5312    -5292    -5271    -5250 
   -5227    -5209    -5192    -5169    -5148    -5131    -5112    -5093 
   -5076    -5060    -5044    -5023    -5003    -4981    -4959    -4935 
   -4911    -4889    -4865    -4841    -4818    -4793    -4770    -4747 
   -4722    -4702    -4685    -4669    -4656    -4648    -4638    -4633 
   -4633    -4634    -4634    -4639    -4648    -4657    -4669    -4681 
   -4693    -4710    -4723    -4737    -4752    -4768    -4783    -4797 
   -4812    -4826    -4838    -4851    -4866    -4880    -4892    -4904 
   -4916    -4928    -4938    -4950    -4961    -4969    -4977    -4984 
   -4992    -5003    -5011    -5016    -5024    -5032    -5043    -5055 
   -5065    -5074    -5086    -5100    -5111    -5123    -5131    -5139 
   -5144    -5148    -5152    -5155    -5154    -5151    -5151    -5150 
   -5146    -5146    -5142    -5136    -5135    -5134    -5131    -5125 
   -5121    -5119    -5115    -5109    -5107    -5104    -5098    -5092 
   -5085    -5078    -5069    -5059    -5049    -5035    -5022    -5008 
   -4994    -4976    -4956    -4939    -4918    -4895    -4872    -4847 
   -4823    -4797    -4768    -4742    -4715    -4685    -4662    -4639 
   -4612    -4585    -4563    -4538    -4518    -4500    -4480    -4464 
   -4453    -4442    -4436    -4433    -4430    -4431    -4437    -4446 
   -4457    -4471    -4488    -4507    -4525    -4545    -4563    -4579 
   -4596    -4611    -4625    -4638    -4649    -4658    -4666    -4671 
   -4676    -4680    -4679    -4679    -4675    -4669    -4665    -4660 
   -4654    -4650    -4642    -4635    -4634    -4633    -4631    -4633 
   -4638    -4645    -4652    -4662    -4675    -4685    -4696    -4710 
   -4723    -4738    -4753    -4766    -4781    -4792    -4803    -4814 
   -4823    -4831    -4838    -4842    -4846    -4849    -4849    -4849 
   -4849    -4845    -4845    -4842    -4838    -4838    -4841    -4841 
   -4839    -4845    -4852    -4861    -4869    -4876    -4887    -4900 
   -4914    -4927    -4941    -4950    -4963    -4978    -4988    -4997 
   -5007    -5012    -5016    -5024    -5027    -5027    -5031    -5032 
   -5030    -5031    -5031    -5031    -5031    -5030    -5032    -5032 
   -5030    -5030    -5031    -5031    -5034    -5036    -5038    -5039 
   -5040    -5043    -5049    -5054    -5058    -5066    -5074    -5085 
   -5098    -5109    -5120    -5136    -5148    -5159    -5171    -5186 
   -5196    -5205    -5213    -5219    -5227    -5235    -5235    -5238 
   -5240    -5243    -5242    -5240    -5240    -5240    -5240    -5240 
   -5239    -5238    -5238    -5238    -5238    -5239    -5242    -5242 
   -5243    -5244    -5244    -5242    -5242    -5240    -5235    -5233 
   -5229    -5223    -5215    -5206    -5200    -5190    -5181    -5171 
   -5159    -5144    -5125    -5108    -5093    -5080    -5059    -5040 
   -5024    -5007    -4989    -4974    -4962    -4951    -4938    -4928 
   -4923    -4915    -4911    -4908    -4903    -4901    -4903    -4901 
   -4905    -4912    -4916    -4922    -4934    -4943    -4955    -4970 
   -4988    -5005    -5024    -5044    -5067    -5090    -5112    -5136 
   -5162    -5185    -5206    -5228    -5250    -5271    -5294    -5316 
   -5335    -5352    -5370    -5386    -5401    -5414    -5425    -5435 
   -5440    -5437    -5433    -5429    -5420    -5408    -5389    -5367 
   -5347    -5324    -5294    -5263    -5231    -5197    -5162    -5127 
   -5089    -5051    -5012    -4974    -4939    -4900    -4860    -4824 
   -4787    -4747    -4715    -4680    -4641    -4606    -4576    -4541 
   -4504    -4471    -4438    -4405    -4371    -4338    -4307    -4278 
   -4247    -4214    -4185    -4156    -4124    -4094    -4067    -4036 
   -4009    -3982    -3954    -3929    -3908    -3885    -3865    -3848 
   -3835    -3827    -3819    -3811    -3811    -3817    -3823    -3831 
   -3842    -3861    -3885    -3909    -3935    -3965    -4001    -4039 
   -4081    -4128    -4178    -4232    -4287    -4345    -4406    -4468 
   -4534    -4600    -4666    -4735    -4803    -4870    -4936    -5003 
   -5071    -5139    -5200    -5260    -5323    -5379    -5435    -5491 
   -5548    -5601    -5649    -5694    -5741    -5782    -5819    -5854 
   -5886    -5915    -5944    -5968    -5989    -6008    -6022    -6031 
   -6042    -6050    -6053    -6054    -6052    -6046    -6041    -6034 
   -6025    -6012    -6000    -5988    -5976    -5962    -5949    -5933 
   -5910    -5890    -5871    -5848    -5821    -5792    -5764    -5734 
   -5701    -5664    -5628    -5590    -5552    -5512    -5466    -5422 
   -5381    -5336    -5293    -5250    -5205    -5161    -5120    -5081 
   -5042    -5003    -4966    -4932    -4899    -4869    -4842    -4818 
   -4796    -4776    -4760    -4750    -4741    -4731    -4726    -4725 
   -4725    -4727    -4731    -4733    -4737    -4742    -4747    -4757 
   -4764    -4765    -4770    -4779    -4781    -4787    -4795    -4801 
   -4807    -4812    -4819    -4826    -4831    -4834    -4837    -4839 
   -4838    -4837    -4835    -4834    -4831    -4826    -4819    -4816 
   -4810    -4800    -4791    -4783    -4776    -4766    -4758    -4752 
   -4742    -4730    -4720    -4710    -4703    -4693    -4680    -4672 
   -4662    -4650    -4638    -4627    -4614    -4602    -4590    -4573 
   -4560    -4546    -4534    -4522    -4511    -4499    -4492    -4488 
   -4483    -4477    -4475    -4473    -4473    -4473    -4473    -4473 
   -4477    -4483    -4490    -4498    -4507    -4517    -4527    -4537 
   -4549    -4567    -4581    -4596    -4611    -4627    -4644    -4660 
   -4673    -4691    -4710    -4727    -4745    -4764    -4781    -4800 
   -4823    -4846    -4868    -4892    -4916    -4942    -4969    -4993 
   -5017    -5042    -5066    -5089    -5112    -5131    -5151    -5169 
   -5184    -5200    -5213    -5221    -5229    -5235    -5235    -5235 
   -5235    -5233    -5227    -5220    -5212    -5200    -5188    -5171 
   -5155    -5138    -5120    -5103    -5082    -5058    -5035    -5013 
   -4989    -4965    -4943    -4923    -4897    -4874    -4855    -4833 
   -4812    -4797    -4781    -4768    -4756    -4742    -4734    -4729 
   -4723    -4720    -4720    -4720    -4723    -4730    -4737    -4743 
   -4752    -4762    -4773    -4781    -4789    -4797    -4807    -4816 
   -4826    -4835    -4846    -4858    -4873    -4889    -4901    -4918 
   -4938    -4955    -4974    -4997    -5015    -5031    -5050    -5069 
   -5082    -5096    -5112    -5124    -5139    -5151    -5159    -5169 
   -5182    -5192    -5200    -5206    -5215    -5223    -5228    -5232 
   -5238    -5239    -5243    -5251    -5255    -5260    -5267    -5275 
   -5285    -5292    -5300    -5313    -5325    -5337    -5350    -5362 
   -5370    -5382    -5393    -5401    -5408    -5410    -5409    -5410 
   -5410    -5405    -5397    -5387    -5377    -5366    -5351    -5336 
   -5321    -5301    -5282    -5266    -5248    -5229    -5211    -5189 
   -5167    -5148    -5131    -5113    -5096    -5080    -5066    -5054 
   -5043    -5034    -5026    -5019    -5015    -5011    -5005    -5000 
   -4994    -4992    -4989    -4982    -4978    -4974    -4969    -4963 
   -4953    -4942    -4932    -4927    -4918    -4911    -4904    -4897 
   -4891    -4887    -4884    -4881    -4881    -4880    -4884    -4888 
   -4889    -4895    -4899    -4905    -4915    -4926    -4934    -4943 
   -4951    -4959    -4968    -4972    -4974    -4978    -4981    -4980 
   -4977    -4974    -4966    -4956    -4947    -4932    -4918    -4903 
   -4885    -4866    -4847    -4830    -4811    -4791    -4772    -4756 
   -4742    -4730    -4718    -4707    -4696    -4684    -4675    -4665 
   -4660    -4654    -4646    -4641    -4641    -4639    -4638    -4641 
   -4646    -4652    -4656    -4662    -4671    -4680    -4689    -4696 
   -4704    -4715    -4722    -4730    -4741    -4748    -4758    -4772 
   -4781    -4788    -4797    -4807    -4814    -4822    -4827    -4833 
   -4834    -4835    -4841    -4845    -4845    -4846    -4852    -4858 
   -4862    -4869    -4880    -4892    -4905    -4920    -4939    -4956 
   -4974    -4996    -5016    -5038    -5066    -5092    -5116    -5144 
   -5171    -5198    -5223    -5248    -5278    -5304    -5328    -5352 
   -5374    -5391    -5410    -5429    -5443    -5456    -5472    -5486 
   -5495    -5505    -5516    -5524    -5526    -5530    -5535    -5535 
   -5532    -5529    -5526    -5525    -5522    -5516    -5510    -5506 
   -5501    -5495    -5490    -5485    -5476    -5467    -5458    -5447 
   -5437    -5425    -5406    -5390    -5374    -5354    -5333    -5310 
   -5283    -5258    -5229    -5204    -5178    -5148    -5120    -5097 
   -5070    -5043    -5022    -4997    -4974    -4955    -4935    -4918 
   -4905    -4889    -4876    -4866    -4854    -4843    -4839    -4835 
   -4830    -4830    -4831    -4830    -4831    -4831    -4835    -4839 
   -4842    -4842    -4845    -4846    -4843    -4845    -4847    -4846 
   -4846    -4846    -4842    -4838    -4838    -4837    -4835    -4835 
   -4834    -4838    -4843    -4843    -4847    -4855    -4861    -4864 
   -4870    -4877    -4881    -4887    -4893    -4899    -4903    -4908 
   -4911    -4914    -4916    -4918    -4922    -4918    -4918    -4920 
   -4922    -4920    -4923    -4927    -4930    -4932    -4941    -4949 
   -4951    -4953    -4959    -4966    -4972    -4974    -4977    -4981 
   -4985    -4985    -4985    -4986    -4986    -4982    -4982    -4981 
   -4976    -4970    -4966    -4959    -4955    -4947    -4938    -4930 
   -4923    -4915    -4907    -4899    -4891    -4882    -4877    -4870 
