Origin Time       2016/04/16 01:25:00
Lat.              32.753
Long.             130.762
Depth. (km)       12
Mag.              7.3
Station Code      WKY003
Station Lat.      34.0996
Station Long.     135.1160
Station Height(m) 3
Record Time       2016/04/16 01:27:13
Sampling Freq(Hz) 100Hz
Duration Time(s)  60
Dir.              N-S
Scale Factor      7845(gal)/8223790
Max. Acc. (gal)   3.848
Last Correction   2016/04/16 01:27:14
Memo.             
[...]
  -18967   -18937   -18905   -18859   -18805   -18758   -18719   -18674 
  -18636   -18604   -18567   -18527   -18485   -18449   -18411   -18355 
  -18301   -18246   -18172   -18091   -18014   -17938   -17859   -17784 
  -17729   -17686   -17637   -17595   -17572   -17559   -17532   -17513 
  -17509   -17509   -17509   -17523   -17550   -17594   -17636   -17668 
  -17695   -17724   -17756   -17778   -17793   -17817   -17844   -17872 
  -17911   -17963   -18015   -18065   -18127   -18188   -18246   -18316 
  -18381   -18427   -18468   -18511   -18553   -18584   -18602   -18612 
  -18600   -18573   -18540   -18505   -18454   -18384   -18311   -18234 
  -18156   -18080   -17998   -17919   -17852   -17771   -17676   -17593 
  -17514   -17439   -17371   -17315   -17277   -17259   -17258   -17261 
  -17265   -17275   -17290   -17311   -17342   -17374   -17398   -17417 
  -17435   -17446   -17450   -17455   -17460   -17459   -17450   -17443 
  -17446   -17443   -17450   -17455   -17459   -17470   -17485   -17506 
  -17539   -17575   -17621   -17667   -17702   -17733   -17759   -17771 
  -17772   -17770   -17760   -17729   -17690   -17647   -17587   -17521 
  -17456   -17392   -17334   -17285   -17246   -17212   -17178   -17146 
  -17112   -17077   -17046   -17031   -17037   -17041   -17050   -17074 
  -17103   -17134   -17172   -17202   -17225   -17242   -17244   -17242 
  -17244   -17240   -17224   -17212   -17211   -17213   -17209   -17207 
  -17221   -17258   -17292   -17311   -17327   -17356   -17398   -17443 
  -17477   -17517   -17568   -17597   -17605   -17622   -17647   -17660 
  -17674   -17705   -17752   -17802   -17848   -17902   -17961   -18003 
  -18037   -18076   -18112   -18146   -18175   -18193   -18209   -18234 
  -18250   -18250   -18258   -18277   -18285   -18292   -18308   -18323 
  -18337   -18349   -18354   -18349   -18343   -18333   -18311   -18292 
  -18287   -18285   -18279   -18277   -18288   -18300   -18308   -18316 
  -18314   -18310   -18315   -18318   -18333   -18364   -18396   -18445 
  -18515   -18585   -18648   -18727   -18809   -18875   -18945   -19030 
  -19107   -19170   -19241   -19311   -19363   -19402   -19446   -19484 
  -19503   -19515   -19512   -19496   -19487   -19479   -19458   -19433 
  -19408   -19380   -19345   -19317   -19294   -19261   -19226   -19188 
  -19150   -19117   -19083   -19051   -19016   -18982   -18939   -18863 
  -18777   -18693   -18581   -18457   -18361   -18283   -18193   -18123 
  -18091   -18053   -18002   -17968   -17942   -17899   -17856   -17822 
  -17805   -17795   -17788   -17797   -17817   -17841   -17863   -17882 
  -17899   -17911   -17917   -17925   -17941   -17960   -17987   -18018 
  -18052   -18092   -18133   -18162   -18185   -18204   -18227   -18260 
  -18279   -18291   -18323   -18355   -18369   -18384   -18415   -18449 
  -18476   -18503   -18543   -18592   -18636   -18684   -18739   -18794 
  -18843   -18893   -18948   -18999   -19043   -19087   -19136   -19176 
  -19215   -19264   -19317   -19363   -19410   -19456   -19499   -19541 
  -19583   -19626   -19664   -19699   -19742   -19784   -19813   -19847 
  -19897   -19948   -19992   -20043   -20104   -20158   -20210   -20271 
  -20331   -20374   -20402   -20416   -20402   -20363   -20312   -20241 
  -20152   -20044   -19926   -19797   -19652   -19507   -19363   -19193 
  -19006   -18813   -18597   -18365   -18129   -17888   -17643   -17394 
  -17162   -16954   -16760   -16583   -16438   -16310   -16190   -16090 
  -16011   -15928   -15851   -15792   -15736   -15684   -15643   -15608 
  -15562   -15518   -15487   -15469   -15460   -15460   -15477   -15513 
  -15556   -15614   -15680   -15741   -15819   -15911   -15996   -16092 
  -16202   -16313   -16413   -16507   -16614   -16725   -16814   -16895 
  -16972   -17034   -17078   -17111   -17128   -17138   -17149   -17151 
  -17143   -17142   -17128   -17095   -17061   -17027   -16992   -16965 
  -16926   -16885   -16848   -16797   -16737   -16671   -16602   -16526 
  -16452   -16371   -16276   -16194   -16124   -16054   -16002   -15982 
  -15970   -15965   -15975   -15994   -16021   -16054   -16081   -16108 
  -16137   -16159   -16185   -16228   -16286   -16353   -16421   -16488 
  -16561   -16638   -16707   -16780   -16872   -16961   -17044   -17139 
  -17246   -17348   -17450   -17559   -17683   -17818   -17952   -18085 
  -18212   -18339   -18477   -18613   -18744   -18870   -18974   -19060 
  -19137   -19202   -19259   -19307   -19350   -19400   -19441   -19475 
  -19522   -19566   -19603   -19652   -19705   -19734   -19751   -19770 
  -19774   -19761   -19741   -19720   -19687   -19639   -19591   -19527 
  -19437   -19329   -19213   -19093   -18962   -18810   -18648   -18480 
  -18307   -18130   -17957   -17793   -17633   -17479   -17350   -17244 
  -17161   -17104   -17076   -17064   -17074   -17104   -17140   -17181 
  -17242   -17315   -17381   -17443   -17523   -17604   -17679   -17764 
  -17852   -17925   -17994   -18056   -18117   -18173   -18222   -18273 
  -18335   -18399   -18469   -18553   -18644   -18748   -18871   -18998 
  -19117   -19245   -19392   -19530   -19649   -19764   -19877   -19973 
  -20044   -20094   -20131   -20147   -20133   -20097   -20038   -19948 
  -19847   -19747   -19634   -19494   -19344   -19186   -19010   -18825 
  -18639   -18450   -18250   -18052   -17861   -17656   -17443   -17247 
  -17064   -16885   -16715   -16553   -16403   -16267   -16147   -16048 
  -15961   -15880   -15811   -15764   -15743   -15739   -15749   -15777 
  -15826   -15896   -15990   -16093   -16202   -16318   -16438   -16561 
  -16681   -16786   -16886   -16988   -17084   -17181   -17281   -17371 
  -17446   -17509   -17574   -17633   -17682   -17732   -17783   -17834 
  -17884   -17936   -17994   -18050   -18098   -18153   -18211   -18252 
  -18284   -18312   -18333   -18345   -18354   -18361   -18354   -18341 
  -18335   -18312   -18269   -18230   -18193   -18157   -18120   -18083 
  -18056   -18038   -18019   -18000   -17991   -17984   -17963   -17941 
  -17925   -17887   -17824   -17763   -17713   -17653   -17585   -17524 
  -17466   -17409   -17351   -17288   -17228   -17174   -17107   -17024 
  -16949   -16891   -16848   -16819   -16812   -16829   -16869   -16922 
  -16980   -17049   -17123   -17204   -17294   -17392   -17500   -17610 
  -17712   -17814   -17922   -18017   -18106   -18203   -18307   -18416 
  -18536   -18661   -18781   -18902   -19024   -19126   -19219   -19315 
  -19398   -19467   -19531   -19593   -19654   -19718   -19784   -19846 
  -19912   -19982   -20052   -20115   -20167   -20217   -20263   -20305 
  -20333   -20333   -20317   -20283   -20220   -20139   -20036   -19900 
  -19737   -19558   -19360   -19134   -18890   -18642   -18387   -18123 
  -17857   -17590   -17323   -17050   -16788   -16546   -16321   -16116 
  -15938   -15790   -15672   -15585   -15534   -15512   -15508   -15518 
  -15538   -15569   -15612   -15669   -15730   -15781   -15838   -15903 
  -15967   -16035   -16112   -16195   -16282   -16367   -16464   -16571 
  -16669   -16774   -16899   -17037   -17181   -17323   -17456   -17583 
  -17707   -17815   -17907   -18000   -18080   -18135   -18176   -18208 
  -18237   -18257   -18265   -18262   -18254   -18252   -18245   -18220 
  -18198   -18172   -18137   -18100   -18057   -18021   -17990   -17944 
  -17896   -17857   -17824   -17791   -17753   -17720   -17691   -17655 
  -17612   -17574   -17540   -17509   -17486   -17474   -17466   -17456 
  -17454   -17443   -17427   -17412   -17404   -17393   -17390   -17392 
  -17371   -17334   -17302   -17266   -17213   -17157   -17104   -17050 
  -16987   -16920   -16860   -16806   -16738   -16654   -16579   -16524 
  -16471   -16425   -16406   -16410   -16430   -16463   -16502   -16553 
  -16619   -16690   -16753   -16812   -16888   -16952   -16995   -17034 
  -17084   -17145   -17199   -17248   -17304   -17371   -17442   -17506 
  -17582   -17675   -17780   -17901   -18033   -18173   -18318   -18454 
  -18586   -18734   -18885   -19025   -19164   -19299   -19434   -19561 
  -19666   -19766   -19855   -19919   -19962   -19990   -19994   -19973 
  -19927   -19872   -19822   -19768   -19691   -19614   -19554   -19500 
  -19438   -19364   -19280   -19199   -19114   -19010   -18894   -18775 
  -18657   -18534   -18400   -18268   -18141   -18006   -17849   -17687 
  -17533   -17374   -17196   -17018   -16852   -16682   -16511   -16349 
  -16183   -16015   -15858   -15707   -15570   -15464   -15371   -15292 
  -15236   -15199   -15184   -15186   -15192   -15206   -15238   -15282 
  -15333   -15394   -15466   -15546   -15632   -15719   -15811   -15901 
  -15992   -16093   -16198   -16301   -16406   -16525   -16663   -16800 
  -16932   -17087   -17257   -17424   -17593   -17761   -17933   -18100 
  -18249   -18376   -18482   -18571   -18643   -18693   -18719   -18736 
  -18751   -18748   -18731   -18717   -18704   -18679   -18650   -18635 
  -18625   -18608   -18589   -18574   -18559   -18540   -18509   -18472 
  -18434   -18388   -18339   -18292   -18243   -18196   -18152   -18106 
  -18058   -18003   -17928   -17832   -17722   -17602   -17466   -17319 
  -17170   -17027   -16892   -16764   -16649   -16560   -16478   -16406 
  -16360   -16313   -16262   -16227   -16195   -16171   -16166   -16174 
  -16193   -16223   -16274   -16340   -16406   -16468   -16548   -16649 
  -16745   -16826   -16923   -17031   -17124   -17213   -17311   -17402 
  -17486   -17567   -17644   -17729   -17810   -17875   -17942   -18013 
  -18073   -18120   -18154   -18179   -18188   -18185   -18169   -18138 
  -18106   -18079   -18044   -18000   -17959   -17919   -17883   -17847 
  -17809   -17775   -17749   -17724   -17694   -17678   -17679   -17680 
  -17675   -17672   -17671   -17661   -17633   -17593   -17550   -17501 
  -17456   -17420   -17377   -17331   -17286   -17244   -17194   -17138 
  -17084   -17034   -16992   -16949   -16906   -16875   -16869   -16875 
  -16883   -16891   -16909   -16926   -16941   -16961   -16978   -16995 
  -17020   -17044   -17070   -17107   -17159   -17205   -17248   -17304 
  -17365   -17425   -17496   -17587   -17698   -17818   -17942   -18072 
  -18207   -18347   -18478   -18600   -18711   -18808   -18893   -18955 
  -18997   -19035   -19047   -19030   -19012   -18985   -18945   -18902 
  -18852   -18798   -18747   -18690   -18620   -18561   -18511   -18439 
  -18364   -18307   -18250   -18188   -18137   -18095   -18054   -18019 
  -17987   -17948   -17911   -17876   -17821   -17753   -17697   -17643 
  -17574   -17504   -17469   -17459   -17439   -17433   -17473   -17523 
  -17568   -17629   -17693   -17748   -17801   -17853   -17902   -17952 
  -18003   -18052   -18095   -18129   -18164   -18207   -18249   -18287 
  -18327   -18372   -18418   -18461   -18509   -18566   -18624   -18685 
  -18758   -18848   -18952   -19061   -19179   -19305   -19421   -19533 
  -19643   -19737   -19809   -19865   -19900   -19921   -19928   -19905 
  -19862   -19823   -19761   -19665   -19560   -19446   -19319   -19178 
  -19016   -18852   -18701   -18544   -18369   -18185   -18013   -17845 
  -17674   -17498   -17325   -17162   -17014   -16875   -16748   -16649 
  -16583   -16530   -16494   -16491   -16518   -16563   -16626   -16721 
  -16845   -16975   -17122   -17286   -17452   -17631   -17821   -18006 
  -18192   -18369   -18528   -18693   -18863   -19013   -19144   -19267 
  -19377   -19468   -19533   -19584   -19626   -19657   -19675   -19680 
  -19661   -19629   -19593   -19541   -19469   -19399   -19323   -19234 
  -19133   -19024   -18901   -18765   -18620   -18470   -18312   -18154 
  -17988   -17814   -17647   -17478   -17297   -17126   -16968   -16803 
  -16629   -16463   -16306   -16147   -16002   -15867   -15743   -15641 
  -15562   -15498   -15453   -15433   -15437   -15453   -15477   -15525 
  -15599   -15673   -15731   -15809   -15908   -15997   -16078   -16164 
  -16255   -16344   -16430   -16521   -16618   -16710   -16791   -16869 
  -16949   -17041   -17123   -17207   -17300   -17386   -17469   -17568 
  -17679   -17782   -17888   -18017   -18154   -18297   -18445   -18580 
  -18709   -18831   -18932   -19028   -19120   -19188   -19241   -19292 
  -19341   -19368   -19392   -19422   -19438   -19448   -19454   -19458 
  -19456   -19434   -19410   -19386   -19349   -19307   -19256   -19192 
  -19122   -19039   -18937   -18817   -18682   -18531   -18360   -18191 
  -18033   -17859   -17682   -17523   -17371   -17220   -17073   -16938 
  -16819   -16710   -16614   -16538   -16482   -16434   -16401   -16384 
  -16376   -16378   -16388   -16391   -16403   -16437   -16482   -16532 
  -16602   -16700   -16814   -16935   -17076   -17234   -17409   -17604 
  -17811   -18033   -18270   -18519   -18763   -19005   -19256   -19511 
  -19754   -19988   -20223   -20453   -20659   -20845   -21026   -21184 
  -21304   -21398   -21475   -21533   -21573   -21593   -21593   -21581 
  -21550   -21497   -21421   -21324   -21197   -21024   -20806   -20560 
  -20295   -19998   -19668   -19330   -19005   -18679   -18346   -18022 
  -17716   -17419   -17127   -16852   -16598   -16360   -16128   -15915 
  -15738   -15593   -15468   -15352   -15269   -15229   -15209   -15201 
  -15214   -15257   -15329   -15418   -15529   -15673   -15846   -16038 
  -16251   -16483   -16729   -16984   -17259   -17551   -17852   -18166 
  -18492   -18827   -19168   -19502   -19827   -20140   -20425   -20684 
  -20912   -21114   -21301   -21473   -21612   -21729   -21832   -21906 
  -21952   -21973   -21973   -21967   -21942   -21886   -21818   -21748 
  -21659   -21548   -21429   -21300   -21155   -21007   -20858   -20696 
  -20525   -20358   -20204   -20058   -19907   -19759   -19616   -19461 
  -19302   -19141   -18963   -18777   -18596   -18422   -18243   -18058 
  -17888   -17733   -17579   -17412   -17232   -17054   -16879   -16711 
  -16560   -16421   -16295   -16190   -16097   -16015   -15958   -15927 
  -15919   -15924   -15939   -15970   -16011   -16052   -16086   -16116 
  -16147   -16179   -16216   -16256   -16302   -16352   -16403   -16456 
  -16509   -16555   -16598   -16638   -16681   -16723   -16750   -16774 
  -16812   -16843   -16869   -16912   -16969   -17031   -17097   -17176 
  -17253   -17317   -17370   -17420   -17470   -17518   -17570   -17620 
  -17660   -17705   -17750   -17790   -17824   -17864   -17914   -17963 
  -18010   -18069   -18130   -18188   -18246   -18304   -18360   -18396 
  -18424   -18457   -18482   -18497   -18503   -18499   -18489   -18472 
  -18439   -18405   -18384   -18372   -18357   -18345   -18341   -18341 
  -18331   -18312   -18307   -18320   -18328   -18333   -18346   -18360 
  -18357   -18343   -18330   -18312   -18289   -18266   -18238   -18196 
  -18148   -18100   -18065   -18027   -17994   -17973   -17956   -17949 
  -17963   -17983   -17998   -18019   -18054   -18094   -18131   -18171 
  -18208   -18252   -18301   -18345   -18391   -18436   -18476   -18501 
  -18511   -18516   -18526   -18527   -18526   -18524   -18528   -18535 
  -18543   -18557   -18580   -18613   -18659   -18708   -18766   -18837 
  -18921   -19022   -19133   -19244   -19356   -19475   -19592   -19704 
  -19816   -19911   -19988   -20066   -20140   -20196   -20235   -20270 
  -20308   -20335   -20343   -20349   -20345   -20312   -20260   -20191 
  -20109   -20005   -19881   -19751   -19615   -19477   -19332   -19174 
  -19018   -18860   -18690   -18526   -18372   -18214   -18054   -17905 
  -17768   -17636   -17512   -17400   -17300   -17212   -17132   -17064 
  -17011   -16981   -16969   -16960   -16961   -16988   -17020   -17054 
  -17096   -17143   -17202   -17266   -17328   -17397   -17464   -17532 
  -17602   -17675   -17755   -17838   -17915   -17988   -18080   -18186 
  -18279   -18370   -18472   -18566   -18650   -18723   -18786   -18843 
  -18883   -18905   -18921   -18936   -18949   -18945   -18925   -18898 
  -18858   -18798   -18736   -18677   -18602   -18515   -18435   -18360 
  -18279   -18199   -18115   -18030   -17950   -17882   -17813   -17737 
  -17672   -17624   -17571   -17514   -17471   -17432   -17386   -17329 
  -17277   -17244   -17209   -17162   -17126   -17103   -17077   -17053 
  -17050   -17058   -17058   -17061   -17080   -17107   -17135   -17177 
  -17221   -17250   -17288   -17340   -17390   -17443   -17494   -17550 
  -17613   -17668   -17707   -17753   -17806   -17842   -17872   -17909 
  -17940   -17965   -17999   -18034   -18065   -18100   -18137   -18184 
  -18235   -18283   -18338   -18393   -18442   -18490   -18538   -18586 
  -18631   -18663   -18688   -18715   -18736   -18743   -18746   -18748 
  -18743   -18734   -18723   -18709   -18696   -18682   -18677   -18667 
  -18658   -18675   -18708   -18740   -18787   -18848   -18909   -18971 
  -19035   -19091   -19141   -19183   -19211   -19229   -19245   -19251 
  -19242   -19219   -19186   -19148   -19087   -19005   -18914   -18805 
  -18671   -18531   -18389   -18243   -18098   -17964   -17830   -17694 
  -17572   -17460   -17348   -17243   -17130   -17015   -16914   -16817 
  -16723   -16636   -16553   -16472   -16403   -16353   -16308   -16268 
  -16251   -16256   -16275   -16306   -16362   -16440   -16528   -16629 
  -16754   -16892   -17037   -17192   -17359   -17517   -17672   -17825 
  -17965   -18102   -18230   -18324   -18399   -18477   -18544   -18580 
  -18602   -18625   -18620   -18593   -18580   -18555   -18497   -18434 
  -18380   -18326   -18268   -18202   -18123   -18041   -17961   -17867 
  -17759   -17649   -17539   -17419   -17288   -17158   -17031   -16895 
  -16762   -16646   -16542   -16449   -16365   -16291   -16241   -16213 
  -16193   -16193   -16223   -16281   -16351   -16430   -16519   -16626 
  -16748   -16872   -17004   -17145   -17282   -17423   -17566   -17709 
  -17857   -17990   -18107   -18230   -18346   -18449   -18547   -18636 
  -18713   -18782   -18854   -18918   -18966   -19008   -19048   -19075 
  -19080   -19070   -19049   -19006   -18948   -18878   -18789   -18692 
  -18582   -18463   -18354   -18246   -18139   -18030   -17917   -17815 
  -17733   -17656   -17590   -17544   -17513   -17481   -17458   -17454 
  -17462   -17473   -17486   -17518   -17559   -17582   -17605   -17641 
  -17666   -17680   -17709   -17744   -17770   -17780   -17793   -17821 
  -17844   -17851   -17859   -17883   -17910   -17938   -17968   -18000 
  -18044   -18098   -18141   -18175   -18214   -18256   -18289   -18322 
  -18350   -18368   -18373   -18370   -18368   -18364   -18349   -18331 
  -18322   -18303   -18274   -18254   -18233   -18208   -18192   -18175 
  -18145   -18119   -18107   -18099   -18085   -18075   -18075   -18075 
  -18072   -18056   -18031   -18009   -17980   -17942   -17914   -17887 
  -17855   -17833   -17817   -17784   -17755   -17741   -17736   -17733 
  -17729   -17730   -17740   -17749   -17756   -17763   -17775   -17793 
  -17810   -17821   -17826   -17836   -17859   -17864   -17849   -17840 
  -17834   -17825   -17813   -17803   -17795   -17784   -17779   -17784 
  -17799   -17810   -17813   -17824   -17838   -17841   -17832   -17815 
  -17793   -17763   -17727   -17687   -17637   -17577   -17517   -17462 
  -17406   -17352   -17302   -17251   -17194   -17140   -17096   -17050 
  -16998   -16938   -16880   -16837   -16800   -16758   -16719   -16695 
  -16684   -16677   -16669   -16664   -16668   -16679   -16687   -16696 
