Origin Time       2016/04/16 01:25:00
Lat.              32.753
Long.             130.762
Depth. (km)       12
Mag.              7.3
Station Code      WKY003
Station Lat.      34.0996
Station Long.     135.1160
Station Height(m) 3
Record Time       2016/04/16 01:27:13
Sampling Freq(Hz) 100Hz
Duration Time(s)  60
Dir.              E-W
Scale Factor      7845(gal)/8223790
Max. Acc. (gal)   1.928
Last Correction   2016/04/16 01:27:14
Memo.             
[...]
  -14767   -14740   -14708   -14675   -14636   -14584   -14542   -14505 
  -14445   -14373   -14318   -14262   -14187   -14113   -14072   -14040 
  -14000   -13981   -13986   -13987   -13995   -14025   -14058   -14096 
  -14143   -14200   -14269   -14351   -14442   -14534   -14623   -14713 
  -14797   -14877   -14958   -15036   -15102   -15161   -15214   -15250 
  -15265   -15261   -15241   -15214   -15179   -15129   -15075   -15017 
  -14949   -14899   -14860   -14801   -14751   -14735   -14721   -14704 
  -14701   -14716   -14731   -14750   -14777   -14794   -14790   -14783 
  -14775   -14754   -14709   -14662   -14612   -14550   -14476   -14382 
  -14291   -14222   -14154   -14075   -14000   -13938   -13883   -13821 
  -13757   -13705   -13660   -13629   -13608   -13593   -13598   -13612 
  -13617   -13624   -13637   -13651   -13643   -13621   -13609   -13586 
  -13559   -13548   -13545   -13543   -13544   -13547   -13555   -13567 
  -13583   -13605   -13629   -13664   -13717   -13771   -13814   -13872 
  -13942   -13996   -14041   -14076   -14092   -14096   -14083   -14052 
  -14023   -13996   -13956   -13910   -13865   -13810   -13756   -13714 
  -13666   -13617   -13575   -13545   -13539   -13549   -13565   -13587 
  -13609   -13628   -13651   -13672   -13687   -13710   -13761   -13814 
  -13852   -13907   -13976   -14029   -14076   -14133   -14185   -14231 
  -14276   -14324   -14369   -14407   -14443   -14469   -14486   -14506 
  -14526   -14539   -14557   -14571   -14578   -14585   -14584   -14558 
  -14523   -14480   -14405   -14315   -14229   -14125   -14014   -13917 
  -13817   -13710   -13617   -13533   -13452   -13380   -13316   -13259 
  -13212   -13154   -13095   -13051   -13019   -12987   -12960   -12943 
  -12938   -12945   -12966   -12993   -13005   -13024   -13077   -13120 
  -13143   -13196   -13271   -13333   -13397   -13482   -13565   -13630 
  -13690   -13748   -13794   -13844   -13907   -13980   -14057   -14133 
  -14208   -14305   -14412   -14503   -14589   -14683   -14775   -14858 
  -14929   -14997   -15053   -15091   -15117   -15142   -15171   -15182 
  -15171   -15167   -15159   -15130   -15106   -15087   -15061   -15045 
  -15037   -15010   -14967   -14936   -14899   -14835   -14766   -14704 
  -14642   -14567   -14492   -14438   -14386   -14323   -14265   -14214 
  -14149   -14075   -13988   -13902   -13824   -13740   -13667   -13608 
  -13551   -13505   -13479   -13462   -13454   -13455   -13455   -13458 
  -13478   -13500   -13516   -13539   -13574   -13618   -13654   -13689 
  -13734   -13784   -13836   -13896   -13965   -14045   -14137   -14246 
  -14369   -14493   -14623   -14762   -14899   -15031   -15159   -15277 
  -15390   -15492   -15591   -15684   -15777   -15865   -15931   -15978 
  -16005   -16015   -16012   -15996   -15970   -15944   -15916   -15881 
  -15847   -15815   -15782   -15754   -15723   -15697   -15688   -15677 
  -15650   -15628   -15607   -15566   -15516   -15466   -15414   -15345 
  -15255   -15157   -15054   -14939   -14809   -14671   -14534   -14401 
  -14262   -14133   -14033   -13950   -13871   -13796   -13740   -13701 
  -13653   -13612   -13597   -13586   -13568   -13567   -13570   -13559 
  -13539   -13514   -13493   -13467   -13433   -13404   -13385   -13371 
  -13373   -13386   -13405   -13441   -13489   -13540   -13618   -13722 
  -13822   -13932   -14061   -14195   -14327   -14466   -14604   -14725 
  -14837   -14952   -15048   -15117   -15188   -15259   -15303   -15333 
  -15353   -15357   -15354   -15336   -15310   -15300   -15280   -15241 
  -15206   -15180   -15153   -15132   -15115   -15099   -15083   -15063 
  -15039   -15017   -15002   -14983   -14960   -14932   -14898   -14858 
  -14810   -14747   -14670   -14589   -14499   -14395   -14288   -14179 
  -14053   -13927   -13818   -13722   -13637   -13558   -13493   -13455 
  -13432   -13413   -13400   -13401   -13409   -13410   -13406   -13413 
  -13432   -13443   -13451   -13467   -13489   -13517   -13549   -13586 
  -13626   -13663   -13705   -13765   -13825   -13879   -13944   -14013 
  -14079   -14146   -14207   -14260   -14320   -14395   -14472   -14554 
  -14652   -14744   -14817   -14893   -14974   -15039   -15084   -15136 
  -15199   -15255   -15310   -15367   -15421   -15483   -15542   -15592 
  -15649   -15709   -15777   -15847   -15900   -15936   -15963   -15977 
  -15990   -15993   -15971   -15931   -15880   -15817   -15749   -15670 
  -15579   -15483   -15385   -15275   -15153   -15028   -14893   -14750 
  -14611   -14480   -14351   -14222   -14116   -14030   -13956   -13907 
  -13890   -13875   -13868   -13888   -13922   -13948   -13976   -14008 
  -14042   -14075   -14108   -14138   -14150   -14154   -14165   -14184 
  -14210   -14230   -14242   -14265   -14301   -14337   -14364   -14391 
  -14423   -14458   -14484   -14506   -14523   -14539   -14571   -14607 
  -14629   -14648   -14673   -14696   -14717   -14746   -14782   -14823 
  -14864   -14905   -14952   -15001   -15040   -15074   -15103   -15130 
  -15163   -15184   -15182   -15175   -15159   -15121   -15076   -15029 
  -14964   -14891   -14827   -14747   -14644   -14553   -14476   -14386 
  -14291   -14207   -14122   -14023   -13919   -13822   -13729   -13625 
  -13516   -13419   -13331   -13236   -13158   -13113   -13077   -13028 
  -12978   -12934   -12896   -12858   -12829   -12815   -12822   -12858 
  -12918   -13003   -13116   -13240   -13370   -13518   -13671   -13813 
  -13959   -14107   -14239   -14364   -14482   -14580   -14644   -14677 
  -14686   -14669   -14620   -14551   -14462   -14359   -14258   -14156 
  -14060   -13968   -13879   -13801   -13728   -13663   -13612   -13570 
  -13540   -13525   -13524   -13535   -13563   -13603   -13653   -13713 
  -13771   -13814   -13851   -13880   -13898   -13907   -13918   -13927 
  -13940   -13948   -13957   -13967   -13983   -14002   -14008   -14010 
  -14017   -14023   -14031   -14038   -14041   -14047   -14062   -14065 
  -14046   -14026   -14002   -13960   -13911   -13861   -13809   -13756 
  -13701   -13654   -13624   -13587   -13554   -13551   -13567   -13598 
  -13657   -13740   -13846   -13975   -14103   -14237   -14388   -14542 
  -14685   -14823   -14962   -15093   -15201   -15276   -15342   -15400 
  -15431   -15437   -15423   -15398   -15354   -15287   -15217   -15148 
  -15067   -14978   -14904   -14840   -14782   -14737   -14693   -14654 
  -14646   -14655   -14648   -14651   -14677   -14694   -14697   -14694 
  -14681   -14658   -14628   -14596   -14569   -14546   -14516   -14494 
  -14496   -14496   -14488   -14488   -14503   -14519   -14535   -14555 
  -14566   -14562   -14561   -14565   -14555   -14527   -14496   -14462 
  -14413   -14361   -14301   -14235   -14170   -14090   -13988   -13887 
  -13794   -13695   -13593   -13494   -13410   -13335   -13269   -13227 
  -13193   -13159   -13138   -13138   -13151   -13167   -13198   -13243 
  -13288   -13343   -13404   -13452   -13501   -13563   -13621   -13678 
  -13747   -13826   -13905   -13995   -14087   -14166   -14249   -14331 
  -14404   -14478   -14561   -14631   -14689   -14755   -14818   -14854 
  -14882   -14924   -14955   -14970   -14986   -15007   -15020   -15026 
  -15036   -15026   -15002   -14991   -14971   -14931   -14898   -14867 
  -14818   -14759   -14709   -14663   -14598   -14538   -14496   -14451 
  -14409   -14376   -14339   -14307   -14278   -14243   -14207   -14175 
  -14139   -14096   -14067   -14047   -14014   -13980   -13967   -13961 
  -13941   -13917   -13907   -13905   -13903   -13910   -13919   -13937 
  -13965   -13994   -14011   -14030   -14069   -14113   -14148   -14197 
  -14261   -14314   -14369   -14439   -14503   -14555   -14619   -14690 
  -14754   -14812   -14879   -14936   -14985   -15041   -15099   -15142 
  -15175   -15213   -15244   -15252   -15263   -15268   -15253   -15229 
  -15194   -15142   -15091   -15029   -14958   -14889   -14825   -14750 
  -14659   -14563   -14466   -14354   -14233   -14125   -14023   -13913 
  -13809   -13714   -13620   -13540   -13470   -13404   -13354   -13312 
  -13270   -13235   -13212   -13185   -13149   -13122   -13096   -13066 
  -13045   -13041   -13047   -13063   -13090   -13139   -13209   -13279 
  -13350   -13427   -13510   -13598   -13683   -13767   -13859   -13945 
  -14021   -14099   -14179   -14261   -14334   -14407   -14485   -14543 
  -14582   -14620   -14650   -14667   -14679   -14681   -14671   -14655 
  -14620   -14567   -14519   -14476   -14423   -14380   -14361   -14347 
  -14331   -14318   -14318   -14330   -14337   -14338   -14347   -14353 
  -14345   -14342   -14342   -14331   -14305   -14269   -14234   -14188 
  -14125   -14068   -14017   -13948   -13876   -13810   -13734   -13648 
  -13579   -13529   -13478   -13437   -13412   -13394   -13393   -13392 
  -13385   -13390   -13413   -13440   -13454   -13475   -13531   -13582 
  -13610   -13649   -13707   -13763   -13806   -13851   -13903   -13960 
  -14011   -14060   -14116   -14175   -14210   -14239   -14281   -14319 
  -14335   -14341   -14362   -14385   -14393   -14405   -14424   -14434 
  -14435   -14427   -14416   -14405   -14388   -14351   -14307   -14276 
  -14250   -14208   -14177   -14169   -14161   -14152   -14158   -14187 
  -14220   -14247   -14283   -14327   -14361   -14385   -14401   -14401 
  -14381   -14347   -14296   -14238   -14176   -14096   -14004   -13922 
  -13852   -13783   -13713   -13640   -13567   -13500   -13444   -13397 
  -13343   -13293   -13257   -13232   -13211   -13190   -13182   -13181 
  -13184   -13204   -13224   -13242   -13271   -13313   -13363   -13420 
  -13460   -13494   -13543   -13591   -13635   -13689   -13751   -13806 
  -13857   -13927   -14011   -14085   -14156   -14238   -14323   -14396 
  -14457   -14511   -14557   -14594   -14634   -14665   -14686   -14708 
  -14725   -14732   -14728   -14720   -14710   -14702   -14688   -14677 
  -14673   -14661   -14651   -14654   -14648   -14640   -14640   -14631 
  -14602   -14570   -14547   -14520   -14473   -14424   -14381   -14335 
  -14284   -14220   -14148   -14075   -14000   -13925   -13839   -13752 
  -13671   -13598   -13537   -13483   -13427   -13377   -13347   -13332 
  -13327   -13335   -13360   -13404   -13446   -13489   -13545   -13609 
  -13678   -13755   -13833   -13903   -13963   -14013   -14058   -14100 
  -14139   -14172   -14200   -14239   -14277   -14295   -14300   -14305 
  -14308   -14304   -14307   -14319   -14328   -14341   -14354   -14364 
  -14384   -14412   -14446   -14470   -14484   -14503   -14515   -14516 
  -14527   -14526   -14494   -14455   -14420   -14382   -14328   -14261 
  -14196   -14126   -14045   -13969   -13902   -13834   -13775   -13730 
  -13689   -13647   -13617   -13601   -13588   -13590   -13598   -13609 
  -13618   -13624   -13629   -13644   -13666   -13690   -13717   -13744 
  -13779   -13829   -13884   -13938   -13994   -14053   -14107   -14145 
  -14179   -14214   -14241   -14261   -14280   -14288   -14285   -14281 
  -14265   -14230   -14199   -14177   -14142   -14098   -14061   -14033 
  -14000   -13967   -13952   -13948   -13945   -13948   -13968   -13990 
  -14014   -14047   -14085   -14130   -14177   -14215   -14250   -14278 
  -14308   -14334   -14347   -14361   -14377   -14378   -14376   -14377 
  -14373   -14362   -14354   -14349   -14334   -14320   -14300   -14265 
  -14239   -14220   -14187   -14153   -14122   -14085   -14050   -14023 
  -13994   -13959   -13933   -13917   -13909   -13910   -13922   -13946 
  -13975   -13998   -14030   -14084   -14143   -14191   -14245   -14319 
  -14391   -14447   -14517   -14605   -14683   -14752   -14832   -14917 
  -14988   -15061   -15136   -15201   -15264   -15330   -15384   -15431 
  -15488   -15541   -15576   -15607   -15641   -15664   -15665   -15665 
  -15654   -15622   -15579   -15523   -15452   -15367   -15276   -15169 
  -15049   -14943   -14845   -14739   -14638   -14543   -14459   -14389 
  -14323   -14265   -14220   -14179   -14143   -14116   -14083   -14046 
  -14021   -14000   -13976   -13952   -13926   -13900   -13879   -13863 
  -13849   -13834   -13814   -13794   -13782   -13782   -13784   -13782 
  -13792   -13817   -13855   -13892   -13937   -13999   -14067   -14135 
  -14212   -14293   -14380   -14466   -14546   -14632   -14721   -14790 
  -14841   -14893   -14943   -14964   -14963   -14959   -14937   -14889 
  -14835   -14767   -14686   -14602   -14523   -14436   -14346   -14274 
  -14200   -14111   -14034   -13975   -13911   -13848   -13782   -13706 
  -13643   -13590   -13522   -13440   -13373   -13306   -13232   -13162 
  -13093   -13034   -12978   -12919   -12877   -12855   -12833   -12807 
  -12793   -12795   -12803   -12808   -12807   -12818   -12846   -12874 
  -12900   -12939   -12992   -13053   -13113   -13174   -13232   -13288 
  -13351   -13429   -13501   -13560   -13630   -13714   -13796   -13879 
  -13967   -14056   -14141   -14230   -14321   -14415   -14511   -14600 
  -14685   -14757   -14818   -14878   -14922   -14940   -14941   -14937 
  -14931   -14909   -14871   -14825   -14779   -14728   -14663   -14585 
  -14496   -14411   -14330   -14246   -14149   -14053   -13964   -13876 
  -13790   -13699   -13605   -13510   -13419   -13324   -13236   -13159 
  -13086   -13018   -12964   -12928   -12908   -12903   -12926   -12977 
  -13039   -13116   -13208   -13311   -13437   -13575   -13718   -13888 
  -14072   -14249   -14422   -14604   -14793   -14964   -15122   -15286 
  -15445   -15593   -15727   -15853   -15975   -16081   -16159   -16216 
  -16259   -16287   -16294   -16289   -16276   -16255   -16232   -16193 
  -16129   -16058   -15988   -15917   -15838   -15745   -15641   -15533 
  -15424   -15311   -15190   -15063   -14945   -14840   -14742   -14650 
  -14565   -14484   -14412   -14358   -14321   -14300   -14272   -14246 
  -14242   -14251   -14262   -14285   -14330   -14384   -14422   -14461 
  -14524   -14584   -14636   -14696   -14746   -14775   -14801   -14820 
  -14817   -14804   -14787   -14747   -14692   -14638   -14582   -14512 
  -14439   -14364   -14288   -14199   -14096   -13999   -13910   -13819 
  -13734   -13664   -13593   -13513   -13441   -13380   -13327   -13279 
  -13236   -13209   -13197   -13184   -13176   -13193   -13219   -13240 
  -13275   -13333   -13401   -13464   -13547   -13659   -13782   -13911 
  -14057   -14206   -14353   -14506   -14658   -14798   -14929   -15045 
  -15142   -15228   -15300   -15358   -15394   -15414   -15429   -15421 
  -15388   -15357   -15325   -15272   -15211   -15151   -15097   -15049 
  -15002   -14965   -14944   -14918   -14887   -14870   -14860   -14860 
  -14867   -14868   -14875   -14898   -14917   -14931   -14949   -14970 
  -14972   -14975   -14993   -14995   -14979   -14985   -14998   -14995 
  -14990   -15003   -15021   -15026   -15043   -15087   -15121   -15132 
  -15144   -15168   -15192   -15202   -15202   -15206   -15217   -15210 
  -15184   -15163   -15132   -15079   -15026   -14978   -14928   -14866 
  -14798   -14747   -14709   -14654   -14582   -14524   -14480   -14415 
  -14335   -14274   -14218   -14152   -14092   -14038   -13990   -13946 
  -13903   -13857   -13815   -13783   -13757   -13733   -13711   -13702 
  -13697   -13690   -13697   -13720   -13726   -13720   -13734   -13760 
  -13765   -13761   -13772   -13786   -13788   -13787   -13786   -13780 
  -13776   -13775   -13773   -13767   -13756   -13747   -13732   -13714 
  -13707   -13697   -13679   -13668   -13654   -13636   -13621   -13613 
  -13595   -13571   -13551   -13544   -13539   -13521   -13504   -13497 
  -13495   -13494   -13489   -13485   -13497   -13505   -13513   -13554 
  -13598   -13628   -13657   -13697   -13744   -13782   -13825   -13891 
  -13960   -14014   -14071   -14138   -14199   -14246   -14297   -14345 
  -14376   -14401   -14428   -14446   -14461   -14481   -14494   -14503 
  -14516   -14516   -14513   -14524   -14523   -14504   -14504   -14504 
  -14481   -14466   -14470   -14467   -14461   -14470   -14485   -14488 
  -14476   -14463   -14451   -14438   -14424   -14405   -14380   -14359 
  -14341   -14316   -14296   -14278   -14255   -14224   -14200   -14189 
  -14172   -14139   -14126   -14131   -14130   -14134   -14152   -14164 
  -14169   -14177   -14192   -14208   -14226   -14237   -14239   -14250 
  -14265   -14274   -14277   -14285   -14288   -14281   -14269   -14260 
  -14251   -14235   -14208   -14187   -14166   -14139   -14112   -14084 
  -14050   -14027   -14002   -13960   -13933   -13922   -13905   -13888 
  -13887   -13895   -13903   -13925   -13963   -13991   -14014   -14058 
  -14110   -14150   -14184   -14216   -14250   -14285   -14323   -14359 
  -14385   -14405   -14438   -14476   -14509   -14535   -14547   -14557 
  -14575   -14584   -14572   -14572   -14585   -14572   -14542   -14527 
  -14505   -14458   -14401   -14353   -14310   -14258   -14192   -14129 
  -14077   -14018   -13942   -13876   -13828   -13773   -13721   -13689 
  -13670   -13654   -13649   -13654   -13670   -13694   -13729   -13773 
  -13819   -13876   -13945   -14010   -14068   -14141   -14219   -14291 
  -14362   -14443   -14515   -14558   -14607   -14692   -14763   -14800 
  -14843   -14898   -14948   -14995   -15034   -15070   -15109   -15155 
  -15190   -15219   -15259   -15291   -15319   -15360   -15390   -15404 
  -15422   -15442   -15452   -15453   -15453   -15452   -15444   -15441 
  -15446   -15435   -15412   -15402   -15391   -15357   -15307   -15264 
  -15229   -15187   -15134   -15079   -15025   -14964   -14899   -14840 
  -14778   -14710   -14640   -14570   -14512   -14463   -14416   -14377 
  -14351   -14324   -14295   -14277   -14264   -14247   -14245   -14249 
  -14246   -14253   -14274   -14288   -14304   -14327   -14351   -14373 
  -14397   -14422   -14440   -14463   -14486   -14503   -14526   -14559 
  -14588   -14615   -14652   -14697   -14728   -14762   -14817   -14874 
  -14913   -14960   -15016   -15060   -15097   -15133   -15157   -15175 
  -15191   -15195   -15179   -15163   -15157   -15144   -15126   -15124 
  -15111   -15083   -15067   -15054   -15039   -15020   -14998   -14985 
  -14971   -14947   -14922   -14908   -14899   -14891   -14872   -14846 
  -14823   -14805   -14779   -14743   -14702   -14663   -14620   -14565 
  -14509   -14465   -14415   -14364   -14319   -14264   -14210   -14164 
  -14116   -14077   -14050   -14030   -13999   -13961   -13938   -13917 
  -13879   -13842   -13817   -13796   -13768   -13737   -13722   -13716 
  -13707   -13711   -13730   -13751   -13767   -13792   -13833   -13875 
  -13922   -13980   -14046   -14121   -14197   -14270   -14347   -14443 
  -14535   -14601   -14670   -14759   -14839   -14906   -14976   -15049 
  -15113   -15159   -15194   -15229   -15265   -15299   -15330   -15356 
  -15371   -15377   -15388   -15395   -15379   -15350   -15321   -15282 
  -15234   -15183   -15128   -15068   -15006   -14948   -14878   -14809 
  -14754   -14688   -14611   -14546   -14488   -14419   -14347   -14297 
  -14257   -14202   -14150   -14115   -14084   -14052   -14026   -14019 
  -14014   -13998   -13991   -14008   -14033   -14047   -14049   -14067 
  -14107   -14129   -14145   -14179   -14210   -14239   -14278   -14326 
  -14374   -14422   -14480   -14557   -14635   -14719   -14808   -14885 
  -14958   -15036   -15109   -15180   -15255   -15317   -15369   -15422 
  -15473   -15512   -15549   -15583   -15593   -15593   -15599   -15604 
