Origin Time       2016/04/16 01:25:00
Lat.              32.753
Long.             130.762
Depth. (km)       12
Mag.              7.3
Station Code      WKY001
Station Lat.      34.2288
Station Long.     135.1694
Station Height(m) 8
Record Time       2016/04/16 01:27:15
Sampling Freq(Hz) 100Hz
Duration Time(s)  87
Dir.              E-W
Scale Factor      7845(gal)/8223790
Max. Acc. (gal)   2.698
Last Correction   2016/04/16 01:27:00
Memo.             
[...]
    1781     1798     1817     1836     1881     1942     1972     1975 
    1993     2039     2096     2114     2091     2079     2069     2046 
    2034     2026     2023     2027     1989     1941     1941     1948 
    1917     1876     1878     1919     1945     1938     1922     1934 
    1960     1953     1956     1999     2020     2018     2038     2085 
    2115     2118     2130     2168     2215     2241     2234     2245 
    2277     2300     2316     2331     2347     2366     2367     2350 
    2357     2389     2412     2409     2390     2381     2374     2340 
    2312     2317     2313     2272     2200     2147     2138     2110 
    2057     2039     2041     2022     1977     1944     1930     1885 
    1833     1848     1864     1849     1868     1878     1826     1784 
    1779     1795     1833     1856     1837     1818     1837     1868 
    1873     1869     1902     1972     2020     2020     2010     2042 
    2093     2123     2149     2200     2265     2299     2311     2367 
    2424     2424     2442     2511     2569     2587     2601     2650 
    2686     2688     2706     2716     2695     2706     2747     2748 
    2724     2736     2759     2737     2671     2624     2616     2604 
    2542     2450     2378     2319     2238     2139     2061     2012 
    1953     1863     1783     1740     1701     1641     1582     1547 
    1521     1482     1455     1456     1447     1431     1456     1509 
    1522     1512     1548     1584     1605     1645     1692     1752 
    1814     1826     1821     1837     1856     1857     1864     1884 
    1878     1833     1809     1833     1850     1841     1850     1857 
    1858     1864     1833     1806     1836     1868     1854     1833 
    1842     1867     1868     1850     1863     1892     1907     1907 
    1876     1844     1865     1883     1864     1852     1829     1780 
    1760     1773     1791     1798     1763     1719     1717     1733 
    1748     1757     1745     1742     1746     1734     1760     1826 
    1854     1845     1838     1841     1877     1927     1949     1982 
    2045     2084     2101     2114     2149     2215     2243     2230 
    2239     2232     2219     2259     2288     2263     2228     2192 
    2173     2163     2143     2151     2166     2153     2141     2134 
    2126     2165     2224     2249     2255     2293     2363     2432 
    2467     2493     2558     2627     2656     2698     2764     2821 
    2855     2867     2862     2867     2880     2884     2876     2848 
    2795     2758     2759     2759     2728     2669     2608     2575 
    2550     2481     2400     2336     2286     2247     2203     2146 
    2092     2031     1954     1904     1904     1900     1852     1792 
    1761     1780     1809     1791     1769     1794     1842     1891 
    1929     1946     1962     1989     2034     2079     2111     2147 
    2192     2241     2285     2317     2327     2338     2369     2413 
    2440     2424     2381     2374     2386     2369     2361     2367 
    2338     2280     2246     2239     2223     2170     2137     2146 
    2116     2034     1992     1999     2007     2000     1972     1896 
    1819     1817     1846     1815     1753     1723     1725     1736 
    1729     1709     1703     1722     1755     1786     1813     1856 
    1910     1964     2026     2091     2146     2196     2258     2324 
    2376     2423     2471     2501     2509     2521     2551     2569 
    2551     2527     2528     2529     2505     2479     2475     2475 
    2454     2413     2384     2385     2384     2358     2344     2355 
    2354     2331     2312     2317     2316     2284     2253     2253 
    2277     2290     2277     2247     2232     2246     2247     2220 
    2193     2168     2137     2104     2072     2049     2007     1939 
    1891     1858     1802     1745     1721     1707     1692     1686 
    1687     1701     1729     1750     1763     1794     1854     1903 
    1912     1922     1965     2020     2073     2120     2162     2215 
    2266     2293     2340     2416     2465     2494     2525     2544 
    2556     2565     2569     2579     2570     2528     2500     2508 
    2498     2421     2323     2272     2242     2191     2150     2123 
    2091     2077     2074     2047     2029     2058     2093     2095 
    2107     2153     2195     2222     2257     2319     2405     2470 
    2516     2597     2702     2771     2802     2853     2932     2984 
    3009     3051     3107     3140     3133     3115     3109     3106 
    3090     3068     3029     2997     2986     2953     2875     2786 
    2721     2675     2610     2520     2438     2366     2288     2220 
    2170     2104     2033     1999     1972     1884     1781     1757 
    1787     1753     1665     1640     1651     1610     1554     1537 
    1544     1537     1502     1476     1499     1528     1513     1505 
    1535     1563     1568     1579     1614     1655     1680     1701 
    1729     1767     1810     1842     1864     1888     1938     2004 
    2052     2081     2106     2134     2168     2192     2212     2238 
    2249     2241     2209     2160     2116     2073     2038     2020 
    1973     1869     1784     1761     1729     1640     1547     1501 
    1478     1421     1333     1275     1267     1254     1206     1158 
    1132     1117     1109     1105     1093     1073     1051     1013 
     984     1012     1034      990      950      949      931      896 
     884      888      907      913      896      893      916      935 
     962      997     1015     1008     1026     1092     1135     1132 
    1136     1169     1212     1247     1274     1331     1416     1444 
    1405     1393     1441     1502     1520     1505     1501     1516 
    1507     1483     1490     1497     1482     1482     1482     1475 
    1501     1535     1560     1595     1629     1657     1710     1788 
    1872     1945     2006     2079     2169     2255     2335     2405 
    2482     2569     2621     2655     2727     2802     2836     2860 
    2902     2941     2953     2947     2961     2972     2926     2866 
    2843     2848     2839     2787     2717     2679     2669     2650 
    2613     2616     2643     2646     2635     2632     2648     2679 
    2694     2700     2731     2789     2852     2902     2953     3026 
    3098     3152     3215     3295     3365     3412     3440     3462 
    3492     3516     3515     3526     3553     3543     3511     3520 
    3550     3563     3551     3515     3488     3488     3492     3491 
    3484     3470     3450     3411     3376     3365     3333     3279 
    3258     3264     3246     3194     3153     3152     3159     3137 
    3099     3082     3090     3088     3051     3007     2972     2934 
    2894     2853     2813     2781     2747     2717     2702     2673 
    2620     2581     2551     2532     2527     2494     2435     2393 
    2366     2327     2257     2176     2126     2074     1964     1858 
    1815     1767     1674     1587     1534     1497     1459     1424 
    1395     1362     1333     1333     1343     1345     1358     1374 
    1399     1439     1444     1431     1463     1526     1578     1597 
    1602     1637     1688     1705     1695     1715     1744     1752 
    1759     1779     1798     1795     1768     1760     1788     1811 
    1803     1783     1781     1792     1783     1755     1752     1783 
    1815     1833     1852     1873     1904     1949     1984     2014 
    2072     2130     2166     2187     2215     2258     2278     2270 
    2270     2267     2236     2204     2177     2115     2037     1973 
    1917     1865     1802     1715     1641     1594     1532     1456 
    1393     1350     1310     1251     1196     1177     1169     1147 
    1120     1111     1131     1165     1183     1201     1244     1297 
    1344     1408     1483     1539     1584     1652     1721     1773 
    1811     1840     1881     1934     1952     1953     1984     2023 
    2038     2033     2037     2076     2111     2110     2095     2081 
    2069     2062     2034     1987     1948     1915     1871     1821 
    1765     1699     1630     1574     1506     1426     1383     1356 
    1300     1242     1185     1107     1042     1028     1012      954 
     909      901      903      905      908      916      942      957 
     959     1024     1132     1177     1173     1210     1298     1397 
    1468     1520     1602     1711     1800     1865     1949     2060 
    2165     2236     2296     2369     2438     2482     2508     2525 
    2535     2535     2521     2500     2457     2376     2278     2191 
    2095     1989     1885     1780     1667     1530     1385     1246 
    1117      997      890      799      715      631      540      467 
     419      402      407      410      410      432      472      503 
     533      579      621      654      695      750      812      862 
     895      923      965     1015     1060     1113     1174     1224 
    1258     1293     1350     1422     1482     1525     1578     1644 
    1710     1772     1831     1906     1971     1999     2038     2104 
    2162     2200     2218     2232     2267     2301     2307     2305 
    2319     2330     2331     2338     2354     2369     2377     2378 
    2381     2405     2446     2459     2447     2459     2490     2504 
    2508     2516     2531     2548     2567     2583     2602     2628 
    2658     2668     2667     2667     2654     2625     2610     2590 
    2546     2506     2478     2435     2388     2349     2311     2278 
    2239     2187     2137     2098     2061     2014     1979     1966 
    1944     1894     1865     1880     1880     1850     1833     1850 
    1872     1884     1894     1911     1949     1999     2041     2083 
    2142     2218     2288     2343     2403     2479     2556     2621 
    2685     2743     2790     2844     2895     2934     2984     3025 
    3042     3071     3107     3119     3117     3114     3126     3144 
    3150     3157     3165     3171     3172     3171     3183     3203 
    3194     3176     3188     3210     3208     3200     3211     3245 
    3268     3267     3264     3284     3311     3308     3291     3289 
    3287     3262     3248     3252     3248     3230     3204     3180 
    3165     3142     3106     3078     3057     3029     2984     2940 
    2896     2844     2791     2739     2666     2578     2501     2439 
    2371     2284     2187     2096     2003     1908     1817     1729 
    1655     1584     1502     1428     1375     1318     1263     1224 
    1185     1150     1144     1161     1170     1177     1208     1270 
    1328     1358     1395     1472     1564     1645     1711     1773 
    1857     1944     1993     2053     2141     2192     2226     2288 
    2346     2388     2428     2469     2512     2543     2552     2569 
    2600     2614     2596     2570     2571     2582     2563     2525 
    2509     2505     2489     2458     2423     2411     2416     2393 
    2349     2322     2312     2293     2257     2228     2226     2215 
    2184     2154     2144     2141     2130     2119     2120     2144 
    2153     2130     2135     2165     2163     2130     2111     2098 
    2077     2064     2057     2049     2038     2019     1996     1991 
    2018     2039     2026     2018     2043     2064     2073     2098 
    2134     2165     2181     2187     2219     2274     2300     2301 
    2327     2374     2412     2425     2436     2473     2504     2504 
    2511     2544     2560     2556     2575     2616     2648     2656 
    2656     2683     2745     2789     2803     2826     2871     2917 
    2943     2974     3025     3059     3064     3068     3080     3100 
    3106     3086     3068     3059     3038     3015     2997     2976 
    2943     2887     2828     2801     2783     2733     2659     2608 
    2579     2528     2455     2412     2384     2319     2226     2149 
    2079     1999     1927     1857     1781     1723     1655     1570 
    1518     1486     1435     1375     1324     1298     1293     1285 
    1286     1310     1331     1344     1372     1426     1491     1525 
    1537     1590     1660     1706     1749     1807     1864     1907 
    1934     1961     2007     2053     2073     2074     2100     2150 
    2158     2141     2165     2187     2172     2162     2150     2130 
    2137     2126     2073     2027     2010     1968     1885     1817 
    1768     1690     1597     1512     1417     1306     1204     1112 
    1021      926      803      685      611      535      437      360 
     314      255      195      174      143       93       79       79 
      86      122      156      193      256      340      425      483 
     538      650      769      849      912      973     1046     1146 
    1235     1281     1321     1409     1516     1578     1610     1664 
    1726     1771     1796     1809     1811     1807     1806     1794 
    1750     1687     1630     1597     1559     1486     1385     1301 
    1251     1193     1104     1024      978      947      907      846 
     803      810      831      838      858      908      974     1048 
    1129     1216     1317     1447     1594     1749     1915     2083 
    2246     2427     2627     2826     3018     3202     3381     3566 
    3743     3896     4040     4199     4341     4441     4546     4654 
    4735     4796     4828     4861     4916     4935     4901     4888 
    4882     4841     4780     4710     4635     4588     4527     4411 
    4307     4241     4140     4025     3947     3867     3740     3607 
    3516     3454     3384     3281     3173     3113     3071     3002 
    2933     2901     2872     2814     2762     2745     2735     2706 
    2683     2677     2655     2625     2614     2610     2598     2575 
    2546     2536     2533     2511     2467     2421     2416     2442 
    2427     2390     2386     2392     2405     2428     2424     2421 
    2452     2490     2532     2571     2590     2624     2677     2709 
    2731     2764     2789     2797     2801     2797     2790     2791 
    2785     2766     2740     2713     2690     2675     2656     2633 
    2605     2581     2571     2562     2538     2531     2521     2488 
    2477     2477     2450     2425     2424     2434     2440     2420 
    2400     2409     2415     2419     2432     2423     2407     2409 
    2396     2376     2367     2350     2328     2317     2304     2296 
    2293     2276     2257     2262     2278     2285     2267     2242 
    2234     2241     2246     2232     2196     2174     2185     2196 
    2181     2146     2120     2123     2124     2100     2057     2025 
    2010     1984     1933     1887     1867     1833     1787     1768 
    1755     1714     1686     1694     1705     1691     1656     1640 
    1664     1694     1687     1661     1663     1684     1692     1691 
    1711     1753     1787     1802     1813     1844     1903     1961 
    1989     2010     2061     2123     2165     2201     2235     2249 
    2269     2304     2319     2315     2319     2336     2350     2346 
    2307     2257     2241     2243     2219     2168     2104     2053 
    2039     2020     1956     1881     1833     1810     1791     1772 
    1749     1709     1664     1647     1653     1657     1649     1644 
    1638     1628     1630     1638     1632     1641     1667     1679 
    1667     1668     1702     1745     1776     1784     1796     1841 
    1895     1937     1982     2029     2064     2101     2166     2245 
    2292     2319     2365     2417     2471     2528     2550     2559 
    2596     2617     2612     2616     2627     2614     2583     2560 
    2554     2535     2479     2425     2404     2401     2386     2349 
    2299     2269     2266     2272     2261     2205     2134     2106 
    2114     2107     2073     2025     1973     1937     1919     1900 
    1865     1833     1796     1748     1713     1688     1645     1594 
    1554     1526     1498     1455     1418     1405     1395     1383 
    1372     1379     1421     1466     1475     1491     1552     1622 
    1684     1745     1796     1857     1949     2043     2104     2153 
    2207     2250     2288     2340     2380     2384     2392     2419 
    2416     2384     2369     2363     2344     2319     2272     2203 
    2163     2158     2126     2069     2015     1954     1877     1809 
    1765     1742     1676     1568     1516     1514     1485     1440 
    1410     1399     1418     1428     1399     1408     1474     1512 
    1512     1517     1553     1618     1671     1696     1734     1783 
    1811     1825     1846     1884     1937     1969     1987     2019 
    2052     2079     2119     2158     2203     2257     2290     2317 
    2362     2417     2469     2511     2538     2555     2577     2612 
    2650     2675     2682     2671     2671     2695     2709     2704 
    2693     2679     2673     2673     2666     2655     2651     2666 
    2693     2706     2721     2759     2805     2844     2895     2941 
    2976     3037     3103     3137     3173     3211     3226     3245 
    3269     3284     3284     3265     3230     3207     3198     3167 
    3106     3033     2976     2941     2891     2806     2737     2712 
    2681     2605     2513     2455     2425     2371     2289     2223 
    2154     2069     2003     1954     1895     1823     1753     1698 
    1658     1614     1556     1501     1455     1418     1389     1355 
    1331     1328     1324     1317     1328     1331     1337     1364 
    1391     1428     1480     1514     1541     1599     1671     1729 
    1768     1802     1869     1949     2003     2050     2107     2170 
    2232     2288     2335     2393     2442     2467     2489     2516 
    2533     2527     2509     2501     2492     2457     2400     2347 
    2311     2277     2227     2166     2111     2064     2014     1961 
    1914     1863     1796     1755     1733     1703     1668     1628 
    1594     1599     1606     1588     1591     1603     1591     1599 
    1630     1657     1684     1692     1699     1742     1795     1818 
    1818     1833     1880     1917     1926     1949     1977     1993 
    2010     2029     2058     2087     2100     2120     2153     2176 
    2189     2192     2211     2241     2235     2207     2204     2209 
    2193     2161     2116     2077     2046     2001     1949     1898 
    1852     1800     1734     1676     1632     1576     1526     1493 
    1462     1428     1394     1372     1360     1354     1348     1333 
    1332     1356     1372     1377     1395     1431     1463     1475 
    1491     1530     1570     1602     1636     1664     1701     1741 
    1753     1771     1815     1836     1840     1857     1875     1892 
    1912     1911     1908     1937     1966     1965     1958     1973 
    1987     1980     1979     2000     2008     1989     1980     1985 
    1975     1966     1968     1952     1930     1917     1885     1865 
    1873     1867     1840     1822     1815     1823     1831     1830 
    1845     1868     1876     1892     1935     1977     2003     2026 
    2060     2106     2149     2187     2236     2296     2346     2384 
