Origin Time       2016/04/16 01:25:00
Lat.              32.753
Long.             130.762
Depth. (km)       12
Mag.              7.3
Station Code      WKY013
Station Lat.      34.2160
Station Long.     135.5860
Station Height(m) 823
Record Time       2016/04/16 01:27:28
Sampling Freq(Hz) 100Hz
Duration Time(s)  60
Dir.              E-W
Scale Factor      7845(gal)/8223790
Max. Acc. (gal)   1.211
Last Correction   2016/04/16 01:27:29
Memo.             
[...]
   -9171    -9182    -9190    -9198    -9205    -9209    -9211    -9215 
   -9220    -9223    -9225    -9228    -9228    -9229    -9231    -9231 
   -9232    -9231    -9231    -9234    -9236    -9239    -9240    -9243 
   -9250    -9252    -9250    -9250    -9251    -9250    -9248    -9246 
   -9243    -9244    -9244    -9242    -9239    -9236    -9232    -9229 
   -9225    -9223    -9223    -9217    -9212    -9211    -9208    -9201 
   -9198    -9197    -9192    -9186    -9182    -9178    -9171    -9163 
   -9158    -9153    -9146    -9139    -9137    -9134    -9132    -9137 
   -9142    -9143    -9147    -9150    -9153    -9158    -9161    -9161 
   -9161    -9159    -9157    -9154    -9150    -9144    -9139    -9135 
   -9132    -9130    -9127    -9124    -9126    -9126    -9119    -9113 
   -9113    -9111    -9111    -9115    -9115    -9116    -9120    -9123 
   -9123    -9121    -9117    -9117    -9120    -9121    -9126    -9128 
   -9130    -9134    -9136    -9134    -9134    -9136    -9136    -9137 
   -9142    -9146    -9150    -9155    -9159    -9158    -9162    -9166 
   -9163    -9163    -9166    -9165    -9163    -9162    -9161    -9161 
   -9157    -9157    -9157    -9153    -9150    -9147    -9143    -9135 
   -9126    -9117    -9113    -9107    -9101    -9097    -9090    -9084 
   -9077    -9070    -9062    -9058    -9058    -9061    -9065    -9070 
   -9077    -9082    -9085    -9088    -9093    -9092    -9092    -9094 
   -9096    -9097    -9101    -9107    -9109    -9109    -9109    -9109 
   -9115    -9123    -9127    -9132    -9143    -9154    -9158    -9159 
   -9162    -9165    -9167    -9167    -9171    -9174    -9171    -9171 
   -9174    -9173    -9166    -9161    -9155    -9147    -9140    -9134 
   -9132    -9134    -9136    -9135    -9134    -9134    -9130    -9120 
   -9109    -9100    -9093    -9086    -9081    -9077    -9071    -9065 
   -9061    -9055    -9047    -9040    -9038    -9038    -9038    -9035 
   -9031    -9028    -9028    -9026    -9024    -9026    -9028    -9027 
   -9027    -9028    -9031    -9032    -9030    -9032    -9038    -9043 
   -9050    -9057    -9065    -9076    -9082    -9086    -9094    -9104 
   -9115    -9124    -9135    -9147    -9157    -9163    -9169    -9170 
   -9170    -9170    -9170    -9171    -9174    -9175    -9174    -9174 
   -9177    -9180    -9186    -9190    -9193    -9197    -9200    -9200 
   -9200    -9204    -9205    -9204    -9204    -9202    -9202    -9202 
   -9204    -9204    -9204    -9205    -9208    -9211    -9211    -9207 
   -9205    -9204    -9201    -9200    -9198    -9196    -9196    -9193 
   -9189    -9186    -9184    -9178    -9174    -9173    -9171    -9171 
   -9174    -9175    -9177    -9177    -9177    -9178    -9178    -9178 
   -9180    -9182    -9184    -9185    -9186    -9188    -9189    -9186 
   -9185    -9184    -9184    -9184    -9184    -9184    -9186    -9184 
   -9180    -9180    -9174    -9170    -9169    -9166    -9162    -9161 
   -9161    -9158    -9159    -9165    -9167    -9167    -9169    -9171 
   -9167    -9161    -9155    -9154    -9157    -9158    -9159    -9163 
   -9167    -9171    -9173    -9173    -9171    -9170    -9167    -9165 
   -9163    -9166    -9171    -9174    -9175    -9180    -9180    -9178 
   -9175    -9174    -9169    -9165    -9163    -9159    -9155    -9155 
   -9153    -9150    -9146    -9139    -9134    -9126    -9117    -9111 
   -9103    -9094    -9090    -9089    -9086    -9082    -9078    -9073 
   -9067    -9061    -9055    -9053    -9050    -9046    -9045    -9046 
   -9043    -9040    -9038    -9032    -9028    -9022    -9015    -9009 
   -9007    -9005    -9005    -9004    -9003    -9003    -9003    -9000 
   -8997    -8996    -8992    -8989    -8991    -8988    -8989    -8992 
   -8991    -8986    -8984    -8982    -8977    -8972    -8972    -8966 
   -8959    -8961    -8964    -8965    -8966    -8968    -8965    -8961 
   -8957    -8950    -8943    -8939    -8938    -8934    -8928    -8926 
   -8920    -8915    -8907    -8893    -8883    -8873    -8861    -8854 
   -8845    -8835    -8830    -8829    -8827    -8830    -8833    -8833 
   -8835    -8839    -8843    -8851    -8861    -8870    -8884    -8899 
   -8910    -8920    -8932    -8941    -8950    -8964    -8972    -8981 
   -8989    -8997    -9003    -9013    -9024    -9035    -9045    -9053 
   -9061    -9069    -9073    -9077    -9082    -9085    -9085    -9088 
   -9092    -9092    -9090    -9089    -9085    -9078    -9074    -9069 
   -9061    -9054    -9047    -9042    -9036    -9031    -9026    -9023 
   -9020    -9018    -9018    -9018    -9020    -9027    -9035    -9043 
   -9051    -9062    -9073    -9081    -9088    -9097    -9107    -9116 
   -9130    -9147    -9162    -9174    -9186    -9197    -9205    -9212 
   -9216    -9221    -9231    -9242    -9251    -9258    -9266    -9278 
   -9288    -9296    -9305    -9316    -9328    -9337    -9347    -9355 
   -9363    -9367    -9373    -9378    -9385    -9391    -9398    -9406 
   -9412    -9416    -9417    -9416    -9410    -9408    -9404    -9397 
   -9396    -9394    -9390    -9383    -9374    -9362    -9348    -9335 
   -9320    -9302    -9288    -9273    -9258    -9242    -9224    -9209 
   -9193    -9178    -9165    -9154    -9146    -9143    -9137    -9132 
   -9127    -9123    -9116    -9109    -9100    -9092    -9084    -9077 
   -9071    -9070    -9069    -9069    -9073    -9078    -9081    -9088 
   -9094    -9100    -9107    -9116    -9124    -9130    -9137    -9147 
   -9162    -9177    -9190    -9204    -9220    -9232    -9246    -9258 
   -9266    -9273    -9279    -9283    -9285    -9288    -9288    -9282 
   -9277    -9271    -9265    -9258    -9252    -9248    -9246    -9244 
   -9242    -9239    -9234    -9227    -9220    -9213    -9204    -9197 
   -9192    -9182    -9173    -9166    -9159    -9147    -9139    -9128 
   -9119    -9112    -9104    -9096    -9092    -9086    -9084    -9084 
   -9080    -9076    -9076    -9077    -9076    -9073    -9070    -9063 
   -9055    -9050    -9042    -9031    -9024    -9016    -9008    -9004 
   -8997    -8988    -8982    -8978    -8972    -8968    -8965    -8961 
   -8958    -8957    -8953    -8949    -8949    -8949    -8943    -8935 
   -8931    -8926    -8919    -8918    -8915    -8912    -8914    -8915 
   -8912    -8910    -8910    -8907    -8903    -8896    -8896    -8892 
   -8888    -8888    -8885    -8883    -8880    -8878    -8877    -8873 
   -8870    -8870    -8869    -8868    -8868    -8870    -8873    -8876 
   -8880    -8883    -8881    -8883    -8881    -8880    -8877    -8876 
   -8872    -8866    -8861    -8853    -8842    -8833    -8822    -8810 
   -8797    -8791    -8787    -8784    -8781    -8784    -8787    -8791 
   -8795    -8800    -8806    -8808    -8814    -8823    -8833    -8839 
   -8841    -8845    -8849    -8847    -8850    -8858    -8860    -8861 
   -8865    -8869    -8870    -8869    -8869    -8869    -8869    -8866 
   -8866    -8868    -8873    -8877    -8880    -8885    -8891    -8896 
   -8903    -8910    -8918    -8928    -8937    -8945    -8951    -8959 
   -8969    -8977    -8982    -8985    -8985    -8986    -8986    -8982 
   -8982    -8984    -8984    -8985    -8991    -8995    -9004    -9015 
   -9023    -9034    -9053    -9069    -9085    -9101    -9117    -9134 
   -9153    -9171    -9193    -9216    -9238    -9259    -9283    -9306 
   -9324    -9343    -9363    -9383    -9405    -9429    -9452    -9478 
   -9508    -9533    -9562    -9591    -9617    -9641    -9668    -9694 
   -9717    -9741    -9765    -9786    -9801    -9815    -9830    -9845 
   -9860    -9876    -9895    -9913    -9934    -9954    -9973    -9994 
  -10014   -10031   -10045   -10060   -10075   -10088   -10102   -10114 
  -10123   -10133   -10142   -10145   -10147   -10153   -10153   -10153 
  -10153   -10152   -10149   -10147   -10145   -10137   -10131   -10126 
  -10119   -10112   -10104   -10095   -10085   -10077   -10068   -10054 
  -10039   -10022   -10008    -9995    -9979    -9958    -9944    -9927 
   -9903    -9880    -9859    -9829    -9795    -9765    -9730    -9688 
   -9647    -9602    -9555    -9504    -9454    -9404    -9355    -9304 
   -9254    -9207    -9159    -9116    -9071    -9027    -8985    -8942 
   -8899    -8856    -8814    -8770    -8733    -8698    -8665    -8631 
   -8600    -8573    -8545    -8517    -8494    -8469    -8449    -8428 
   -8406    -8387    -8368    -8349    -8332    -8313    -8297    -8281 
   -8268    -8257    -8251    -8245    -8239    -8235    -8235    -8230 
   -8230    -8232    -8229    -8228    -8230    -8236    -8241    -8247 
   -8253    -8263    -8274    -8281    -8289    -8293    -8298    -8305 
   -8313    -8319    -8329    -8338    -8345    -8352    -8356    -8360 
   -8367    -8376    -8385    -8398    -8411    -8428    -8440    -8451 
   -8464    -8477    -8492    -8506    -8520    -8537    -8553    -8575 
   -8594    -8611    -8634    -8658    -8679    -8700    -8723    -8743 
   -8764    -8781    -8796    -8808    -8822    -8830    -8835    -8841 
   -8849    -8857    -8862    -8869    -8881    -8892    -8904    -8914 
   -8923    -8934    -8949    -8964    -8976    -8991    -9007    -9024 
   -9042    -9058    -9077    -9101    -9123    -9142    -9162    -9180 
   -9201    -9220    -9236    -9252    -9269    -9283    -9296    -9308 
   -9319    -9324    -9327    -9332    -9332    -9328    -9328    -9328 
   -9324    -9320    -9315    -9308    -9300    -9294    -9288    -9279 
   -9270    -9259    -9250    -9242    -9236    -9229    -9223    -9220 
   -9217    -9216    -9219    -9220    -9223    -9231    -9242    -9251 
   -9263    -9283    -9305    -9325    -9347    -9369    -9386    -9402 
   -9421    -9441    -9460    -9479    -9502    -9529    -9556    -9578 
   -9596    -9618    -9634    -9645    -9656    -9662    -9672    -9686 
   -9697    -9705    -9718    -9732    -9742    -9752    -9759    -9764 
   -9768    -9767    -9767    -9767    -9767    -9764    -9764    -9765 
   -9764    -9763    -9759    -9759    -9760    -9761    -9768    -9776 
   -9782    -9791    -9801    -9809    -9818    -9825    -9828    -9832 
   -9837    -9842    -9845    -9847    -9856    -9863    -9865    -9868 
   -9872    -9871    -9865    -9860    -9850    -9840    -9828    -9815 
   -9798    -9783    -9769    -9757    -9745    -9734    -9726    -9718 
   -9705    -9697    -9690    -9682    -9671    -9659    -9647    -9632 
   -9617    -9606    -9595    -9580    -9568    -9556    -9539    -9525 
   -9512    -9495    -9485    -9475    -9462    -9451    -9443    -9432 
   -9417    -9402    -9390    -9377    -9362    -9347    -9333    -9321 
   -9304    -9283    -9266    -9248    -9231    -9215    -9194    -9177 
   -9162    -9140    -9117    -9097    -9070    -9040    -9011    -8978 
   -8943    -8905    -8868    -8834    -8803    -8770    -8738    -8708 
   -8677    -8646    -8617    -8591    -8563    -8540    -8520    -8503 
   -8487    -8477    -8467    -8457    -8451    -8444    -8436    -8433 
   -8433    -8428    -8430    -8436    -8437    -8444    -8454    -8461 
   -8467    -8471    -8472    -8476    -8482    -8483    -8484    -8484 
   -8486    -8487    -8484    -8484    -8487    -8487    -8487    -8487 
   -8490    -8496    -8502    -8509    -8517    -8523    -8529    -8537 
   -8546    -8553    -8563    -8571    -8579    -8588    -8599    -8614 
   -8627    -8641    -8657    -8676    -8694    -8715    -8741    -8762 
   -8781    -8802    -8823    -8843    -8865    -8887    -8903    -8920 
   -8935    -8945    -8954    -8961    -8969    -8977    -8981    -8989 
   -8999    -9003    -9009    -9019    -9024    -9032    -9043    -9049 
   -9053    -9058    -9065    -9069    -9073    -9080    -9085    -9094 
   -9104    -9112    -9121    -9132    -9143    -9154    -9165    -9178 
   -9192    -9202    -9209    -9217    -9224    -9228    -9231    -9235 
   -9239    -9243    -9246    -9248    -9251    -9258    -9265    -9271 
   -9281    -9288    -9294    -9305    -9316    -9325    -9335    -9346 
   -9359    -9370    -9381    -9391    -9402    -9410    -9416    -9421 
   -9425    -9431    -9436    -9441    -9443    -9445    -9448    -9448 
   -9445    -9448    -9445    -9440    -9439    -9436    -9432    -9431 
   -9429    -9425    -9421    -9418    -9416    -9418    -9420    -9420 
   -9425    -9436    -9444    -9454    -9468    -9482    -9495    -9513 
   -9528    -9543    -9560    -9576    -9589    -9606    -9624    -9634 
   -9647    -9659    -9670    -9682    -9695    -9705    -9717    -9729 
   -9740    -9749    -9757    -9767    -9771    -9775    -9779    -9782 
   -9784    -9783    -9779    -9774    -9768    -9759    -9749    -9740 
   -9728    -9717    -9703    -9688    -9672    -9655    -9637    -9620 
   -9605    -9586    -9567    -9552    -9537    -9520    -9504    -9487 
   -9470    -9452    -9433    -9413    -9396    -9377    -9358    -9342 
   -9325    -9308    -9289    -9265    -9242    -9221    -9198    -9174 
   -9153    -9127    -9100    -9076    -9051    -9024    -9000    -8974 
   -8943    -8914    -8884    -8851    -8818    -8785    -8750    -8714 
   -8676    -8638    -8600    -8565    -8529    -8494    -8464    -8430 
   -8398    -8375    -8352    -8333    -8317    -8298    -8283    -8272 
   -8260    -8247    -8236    -8221    -8205    -8187    -8167    -8148 
   -8129    -8108    -8085    -8062    -8039    -8014    -7989    -7969 
   -7952    -7931    -7911    -7893    -7879    -7867    -7859    -7854 
   -7850    -7848    -7854    -7858    -7865    -7875    -7893    -7913 
   -7939    -7966    -7997    -8031    -8066    -8101    -8137    -8175 
   -8214    -8252    -8291    -8330    -8368    -8408    -8451    -8487 
   -8527    -8569    -8608    -8649    -8688    -8727    -8769    -8812 
   -8853    -8891    -8929    -8969    -9004    -9038    -9080    -9117 
   -9150    -9184    -9220    -9256    -9289    -9320    -9352    -9385 
   -9413    -9440    -9471    -9502    -9530    -9563    -9596    -9629 
   -9657    -9691    -9729    -9763    -9794    -9826    -9859    -9892 
   -9923    -9954    -9985   -10015   -10042   -10069   -10093   -10114 
  -10134   -10152   -10166   -10176   -10181   -10184   -10185   -10181 
  -10173   -10162   -10150   -10134   -10111   -10091   -10071   -10044 
  -10021    -9996    -9964    -9933    -9900    -9869    -9840    -9807 
   -9775    -9741    -9705    -9672    -9643    -9612    -9580    -9551 
   -9525    -9501    -9472    -9444    -9420    -9396    -9371    -9350 
   -9328    -9305    -9283    -9267    -9251    -9235    -9224    -9215 
   -9204    -9200    -9200    -9198    -9198    -9201    -9204    -9208 
   -9217    -9229    -9242    -9254    -9270    -9283    -9298    -9316 
   -9331    -9344    -9358    -9367    -9375    -9385    -9390    -9396 
   -9397    -9401    -9405    -9408    -9408    -9410    -9413    -9409 
   -9406    -9409    -9409    -9402    -9394    -9387    -9381    -9367 
   -9348    -9329    -9310    -9292    -9269    -9248    -9232    -9213 
   -9190    -9171    -9154    -9132    -9111    -9092    -9071    -9050 
   -9032    -9018    -8999    -8980    -8965    -8950    -8938    -8927 
   -8912    -8896    -8891    -8884    -8880    -8878    -8878    -8881 
   -8887    -8895    -8904    -8914    -8923    -8934    -8945    -8955 
   -8966    -8978    -8991    -9000    -9011    -9020    -9031    -9042 
   -9051    -9061    -9071    -9084    -9093    -9100    -9111    -9124 
   -9132    -9136    -9142    -9146    -9147    -9147    -9146    -9139 
   -9134    -9128    -9123    -9117    -9111    -9101    -9094    -9086 
   -9080    -9070    -9061    -9054    -9047    -9042    -9038    -9032 
   -9028    -9023    -9019    -9013    -9005    -8999    -8996    -8989 
   -8980    -8972    -8964    -8955    -8947    -8938    -8926    -8920 
   -8916    -8908    -8896    -8888    -8881    -8877    -8872    -8870 
   -8869    -8868    -8865    -8863    -8865    -8865    -8869    -8873 
   -8876    -8883    -8892    -8896    -8904    -8915    -8927    -8939 
   -8951    -8965    -8977    -8992    -9008    -9022    -9036    -9053 
   -9066    -9082    -9100    -9115    -9131    -9146    -9162    -9175 
   -9186    -9196    -9204    -9212    -9219    -9224    -9228    -9228 
   -9227    -9225    -9223    -9217    -9213    -9208    -9198    -9188 
   -9178    -9167    -9154    -9136    -9119    -9101    -9088    -9076 
   -9061    -9050    -9038    -9028    -9016    -9003    -8989    -8974 
   -8959    -8947    -8937    -8924    -8914    -8903    -8893    -8883 
   -8870    -8857    -8846    -8837    -8824    -8815    -8808    -8802 
   -8796    -8791    -8787    -8781    -8777    -8773    -8762    -8753 
   -8742    -8730    -8721    -8711    -8698    -8683    -8668    -8653 
   -8637    -8619    -8602    -8586    -8568    -8549    -8533    -8517 
   -8496    -8474    -8451    -8433    -8414    -8391    -8371    -8349 
   -8326    -8307    -8290    -8274    -8260    -8248    -8237    -8230 
   -8225    -8220    -8215    -8213    -8212    -8210    -8210    -8212 
   -8213    -8217    -8224    -8229    -8233    -8240    -8244    -8248 
   -8259    -8268    -8274    -8284    -8295    -8306    -8321    -8329 
   -8334    -8345    -8359    -8370    -8378    -8387    -8397    -8404 
   -8417    -8426    -8434    -8441    -8451    -8464    -8477    -8490 
   -8503    -8517    -8530    -8543    -8556    -8571    -8586    -8600 
   -8615    -8633    -8650    -8667    -8683    -8699    -8711    -8727 
   -8745    -8760    -8775    -8787    -8796    -8810    -8822    -8830 
   -8843    -8857    -8869    -8881    -8891    -8901    -8914    -8923 
   -8931    -8945    -8957    -8966    -8974    -8981    -8986    -8991 
   -8995    -8997    -9001    -9004    -9008    -9012    -9013    -9013 
   -9012    -9012    -9011    -9008    -9005    -9003    -9000    -8996 
   -8992    -8986    -8984    -8981    -8977    -8972    -8969    -8965 
   -8962    -8957    -8949    -8943    -8942    -8941    -8939    -8939 
   -8939    -8939    -8938    -8939    -8941    -8941    -8942    -8942 
   -8941    -8939    -8939    -8939    -8939    -8937    -8932    -8928 
   -8928    -8927    -8922    -8919    -8920    -8924    -8926    -8928 
   -8932    -8939    -8945    -8954    -8965    -8972    -8986    -9000 
   -9015    -9031    -9047    -9063    -9080    -9096    -9113    -9130 
   -9143    -9158    -9173    -9186    -9198    -9213    -9229    -9243 
   -9256    -9274    -9290    -9306    -9321    -9335    -9352    -9367 
   -9381    -9396    -9408    -9423    -9437    -9450    -9460    -9474 
   -9485    -9491    -9499    -9506    -9509    -9512    -9513    -9513 
   -9510    -9508    -9504    -9501    -9495    -9489    -9482    -9471 
   -9463    -9458    -9448    -9439    -9433    -9428    -9421    -9413 
   -9408    -9400    -9396    -9390    -9379    -9370    -9362    -9352 
   -9343    -9333    -9324    -9316    -9305    -9293    -9283    -9275 
   -9267    -9256    -9248    -9240    -9232    -9227    -9223    -9219 
   -9216    -9215    -9213    -9216    -9217    -9220    -9223    -9227 
   -9234    -9239    -9244    -9254    -9261    -9265    -9273    -9281 
   -9286    -9292    -9298    -9301    -9305    -9309    -9312    -9317 
   -9321    -9328    -9337    -9342    -9350    -9355    -9359    -9366 
   -9374    -9381    -9387    -9394    -9398    -9404    -9410    -9417 
