Origin Time       2016/04/16 01:25:00
Lat.              32.753
Long.             130.762
Depth. (km)       12
Mag.              7.3
Station Code      WKY009
Station Lat.      33.7209
Station Long.     135.9813
Station Height(m) 9
Record Time       2016/04/16 01:27:36
Sampling Freq(Hz) 100Hz
Duration Time(s)  60
Dir.              E-W
Scale Factor      7845(gal)/8223790
Max. Acc. (gal)   1.507
Last Correction   2016/04/16 01:27:37
Memo.             
[...]
    8876     8857     8841     8827     8812     8804     8807     8819 
    8822     8818     8808     8799     8807     8827     8843     8858 
    8861     8857     8870     8884     8893     8904     8904     8904 
    8901     8891     8891     8893     8889     8887     8880     8872 
    8876     8881     8883     8883     8889     8896     8903     8910 
    8915     8915     8910     8904     8905     8911     8904     8896 
    8905     8911     8904     8892     8874     8863     8861     8837 
    8802     8785     8775     8761     8752     8750     8757     8749 
    8738     8737     8727     8721     8725     8715     8707     8702 
    8687     8679     8673     8668     8665     8658     8649     8635 
    8618     8622     8627     8617     8603     8596     8595     8592 
    8590     8596     8610     8621     8630     8630     8631     8644 
    8654     8664     8675     8677     8676     8676     8675     8672 
    8665     8669     8687     8696     8706     8733     8765     8793 
    8816     8842     8880     8905     8922     8941     8965     8996 
    9027     9051     9078     9108     9135     9153     9161     9167 
    9169     9169     9163     9146     9136     9143     9147     9146 
    9147     9159     9175     9190     9202     9223     9254     9285 
    9312     9329     9352     9387     9424     9451     9472     9493 
    9522     9548     9553     9563     9586     9593     9589     9586 
    9594     9606     9610     9618     9632     9639     9656     9683 
    9709     9737     9764     9778     9787     9802     9818     9833 
    9853     9877     9891     9896     9906     9918     9931     9944 
    9941     9934     9926     9915     9909     9904     9900     9896 
    9875     9857     9855     9842     9833     9833     9822     9806 
    9783     9755     9734     9714     9693     9671     9636     9607 
    9587     9558     9536     9514     9483     9456     9416     9373 
    9351     9333     9309     9277     9244     9225     9216     9202 
    9189     9175     9159     9131     9096     9069     9053     9042 
    9022     8992     8972     8953     8934     8927     8920     8905 
    8892     8881     8877     8888     8896     8907     8918     8922 
    8935     8959     8976     8989     9008     9027     9050     9073 
    9085     9092     9101     9112     9121     9119     9111     9092 
    9070     9059     9049     9036     9016     8982     8954     8928 
    8907     8887     8854     8818     8784     8745     8718     8691 
    8646     8610     8586     8557     8525     8503     8494     8483 
    8464     8454     8444     8426     8417     8417     8410     8414 
    8436     8440     8428     8436     8461     8474     8472     8480 
    8496     8509     8526     8543     8563     8584     8606     8617 
    8617     8631     8660     8679     8703     8733     8758     8803 
    8853     8889     8938     8991     9036     9086     9127     9165 
    9205     9227     9252     9288     9309     9328     9354     9370 
    9390     9417     9439     9451     9460     9468     9477     9479 
    9478     9479     9477     9472     9468     9456     9441     9431 
    9417     9401     9393     9385     9362     9346     9339     9321 
    9300     9286     9265     9244     9236     9224     9201     9178 
    9165     9151     9131     9116     9111     9103     9093     9084 
    9073     9066     9063     9053     9049     9059     9074     9086 
    9089     9092     9107     9117     9123     9128     9140     9158 
    9166     9166     9169     9171     9174     9173     9175     9188 
    9185     9184     9193     9197     9201     9204     9211     9227 
    9239     9242     9248     9256     9265     9288     9321     9346 
    9362     9377     9390     9401     9400     9396     9404     9404 
    9391     9381     9371     9367     9355     9332     9321     9315 
    9298     9288     9277     9273     9283     9288     9285     9288 
    9294     9309     9324     9332     9332     9332     9339     9342 
    9339     9340     9337     9336     9337     9329     9325     9337 
    9346     9343     9332     9324     9322     9308     9282     9266 
    9252     9228     9201     9171     9140     9115     9092     9058 
    9022     9001     8978     8953     8934     8910     8893     8883 
    8870     8858     8842     8829     8829     8816     8800     8791 
    8779     8773     8766     8739     8719     8710     8695     8683 
    8669     8646     8634     8614     8583     8561     8537     8509 
    8479     8436     8398     8379     8347     8303     8271     8251 
    8232     8214     8198     8189     8176     8162     8151     8144 
    8143     8155     8171     8177     8179     8185     8198     8215 
    8229     8228     8230     8252     8271     8286     8309     8332 
    8357     8384     8414     8451     8473     8500     8540     8572 
    8604     8644     8667     8695     8745     8787     8812     8843 
    8889     8934     8965     9004     9055     9094     9123     9150 
    9178     9217     9259     9297     9332     9366     9404     9435 
    9459     9478     9490     9513     9543     9543     9537     9545 
    9552     9553     9549     9547     9553     9555     9560     9579 
    9591     9596     9610     9624     9643     9668     9682     9695 
    9710     9718     9733     9742     9745     9753     9753     9755 
    9771     9788     9798     9796     9790     9794     9802     9809 
    9807     9791     9775     9765     9751     9737     9722     9705 
    9688     9668     9643     9620     9606     9589     9566     9540 
    9517     9493     9470     9448     9418     9391     9387     9382 
    9367     9358     9346     9327     9305     9286     9274     9258 
    9238     9217     9186     9165     9163     9157     9140     9116 
    9090     9073     9051     9026     9008     8986     8969     8950 
    8915     8883     8854     8830     8807     8779     8758     8738 
    8712     8685     8649     8618     8599     8573     8538     8505 
    8482     8464     8430     8401     8383     8360     8347     8341 
    8328     8330     8347     8347     8343     8349     8364     8380 
    8391     8404     8417     8426     8441     8463     8477     8490 
    8496     8494     8492     8486     8477     8483     8482     8464 
    8453     8446     8440     8434     8436     8446     8451     8451 
    8460     8473     8483     8490     8497     8509     8517     8530 
    8540     8538     8545     8568     8579     8590     8606     8608 
    8621     8648     8673     8698     8718     8738     8756     8766 
    8785     8816     8843     8869     8893     8910     8935     8977 
    9004     9018     9043     9081     9116     9140     9165     9201 
    9243     9277     9306     9335     9370     9414     9450     9475 
    9513     9549     9571     9591     9620     9640     9664     9698 
    9715     9728     9759     9790     9815     9847     9880     9907 
    9930     9956     9977    10000    10048    10088    10099    10111 
   10137    10152    10174    10203    10214    10211    10223    10246 
   10261    10265    10281    10296    10292    10288    10299    10309 
   10314    10309    10303    10295    10295    10293    10281    10269 
   10268    10261    10245    10230    10220    10214    10196    10168 
   10138    10116    10103    10084    10057    10035    10018     9987 
    9948     9919     9899     9876     9846     9803     9760     9730 
    9693     9636     9579     9544     9514     9459     9409     9373 
    9332     9296     9267     9224     9177     9139     9099     9045 
    8997     8961     8920     8876     8838     8797     8757     8723 
    8685     8642     8602     8577     8556     8515     8469     8434 
    8406     8385     8368     8343     8326     8316     8275     8232 
    8210     8185     8155     8124     8095     8075     8052     8032 
    8021     8009     8005     8012     8004     7985     7978     7981 
    7987     7987     7982     7986     8007     8037     8062     8086 
    8124     8156     8172     8193     8236     8286     8319     8333 
    8352     8382     8417     8444     8469     8510     8550     8571 
    8587     8603     8621     8640     8650     8653     8653     8653 
    8664     8667     8655     8664     8676     8672     8661     8653 
    8654     8660     8655     8638     8615     8606     8602     8591 
    8590     8596     8598     8595     8598     8607     8621     8630 
    8637     8648     8655     8664     8685     8703     8708     8719 
    8727     8731     8739     8734     8727     8735     8742     8746 
    8749     8757     8781     8785     8784     8815     8841     8853 
    8874     8893     8918     8962     9000     9020     9050     9093 
    9124     9140     9169     9209     9239     9254     9266     9294 
    9325     9351     9375     9394     9420     9459     9483     9510 
    9551     9585     9618     9660     9701     9744     9782     9819 
    9868     9917     9958     9992    10019    10050    10080    10103 
   10125    10139    10149    10156    10162    10170    10166    10150 
   10141    10133    10114    10093    10068    10031    10002     9971 
    9929     9882     9837     9799     9757     9717     9680     9629 
    9582     9544     9491     9448     9416     9367     9321     9288 
    9254     9221     9188     9157     9134     9103     9074     9063 
    9047     9024     9009     8989     8964     8947     8932     8914 
    8904     8896     8870     8835     8807     8780     8754     8731 
    8698     8653     8612     8586     8560     8517     8480     8453 
    8413     8368     8324     8278     8247     8230     8206     8181 
    8164     8156     8148     8135     8131     8133     8124     8118 
    8132     8144     8155     8186     8220     8248     8294     8352 
    8401     8444     8499     8556     8602     8640     8681     8726 
    8766     8807     8857     8908     8959     9015     9055     9086 
    9128     9165     9194     9231     9263     9288     9316     9346 
    9371     9400     9436     9466     9481     9490     9508     9521 
    9530     9540     9552     9571     9595     9610     9621     9641 
    9661     9676     9695     9714     9736     9752     9747     9729 
    9715     9705     9701     9690     9671     9656     9632     9598 
    9571     9552     9532     9499     9466     9432     9390     9348 
    9305     9262     9228     9193     9153     9119     9094     9073 
    9047     9018     8989     8958     8926     8899     8869     8839 
    8822     8800     8762     8733     8715     8703     8684     8662 
    8648     8627     8606     8594     8576     8561     8567     8565 
    8548     8540     8543     8542     8530     8515     8503     8494 
    8486     8469     8444     8431     8421     8404     8383     8363 
    8349     8340     8328     8317     8305     8294     8284     8270 
    8256     8256     8267     8280     8286     8295     8314     8337 
    8372     8421     8471     8522     8571     8617     8671     8734 
    8807     8873     8928     8981     9034     9099     9184     9263 
    9333     9416     9486     9533     9587     9652     9711     9760 
    9798     9836     9871     9900     9942     9984    10018    10058 
   10088    10115    10157    10192    10219    10251    10277    10296 
   10320    10347    10372    10397    10426    10450    10455    10461 
   10484    10503    10517    10536    10550    10551    10557    10563 
   10561    10562    10569    10567    10561    10552    10542    10530 
   10513    10489    10463    10438    10413    10377    10326    10282 
   10249    10197    10142    10088    10022     9963     9902     9834 
    9776     9725     9664     9596     9526     9460     9409     9355 
    9294     9232     9166     9099     9034     8972     8912     8849 
    8780     8712     8645     8583     8527     8472     8413     8347 
    8276     8221     8172     8120     8077     8037     7986     7928 
    7881     7850     7823     7789     7767     7744     7708     7681 
    7669     7663     7677     7695     7697     7692     7697     7719 
    7743     7767     7805     7836     7855     7888     7925     7960 
    8013     8078     8131     8177     8230     8284     8341     8411 
    8484     8545     8602     8655     8708     8772     8845     8932 
    9024     9100     9166     9234     9310     9391     9460     9520 
    9583     9644     9698     9748     9791     9841     9898     9942 
    9975    10003    10035    10076    10099    10102    10111    10118 
   10112    10104    10099    10088    10076    10066    10046    10022 
   10006     9987     9965     9950     9929     9896     9868     9849 
    9825     9802     9780     9752     9713     9674     9649     9626 
    9601     9582     9544     9502     9483     9468     9452     9440 
    9416     9387     9367     9346     9320     9290     9263     9236 
    9201     9158     9112     9067     9023     8978     8935     8895 
    8849     8799     8748     8695     8649     8612     8575     8532 
    8482     8426     8364     8303     8260     8224     8168     8111 
    8063     8013     7981     7950     7915     7892     7860     7816 
    7784     7756     7732     7707     7685     7677     7657     7627 
    7619     7611     7600     7600     7592     7578     7572     7558 
    7541     7530     7526     7523     7508     7503     7519     7539 
    7558     7578     7599     7624     7651     7681     7709     7743 
    7789     7831     7859     7894     7943     7990     8044     8106 
    8171     8228     8278     8336     8391     8436     8499     8559 
    8606     8675     8750     8819     8891     8958     9030     9104 
    9171     9232     9296     9367     9441     9504     9563     9640 
    9714     9771     9819     9875     9933     9983    10021    10053 
   10080    10111    10137    10146    10160    10185    10206    10215 
   10218    10228    10242    10235    10211    10187    10174    10169 
   10152    10129    10115    10104    10077    10048    10031    10022 
   10002     9971     9937     9910     9883     9853     9818     9784 
    9752     9717     9686     9647     9601     9568     9545     9508 
    9464     9429     9409     9381     9336     9315     9297     9261 
    9227     9197     9159     9131     9120     9109     9090     9070 
    9065     9061     9035     9015     9011     9003     8995     8976 
    8950     8945     8947     8946     8949     8946     8942     8937 
    8926     8926     8927     8923     8926     8920     8900     8889 
    8884     8876     8870     8860     8849     8847     8847     8838 
    8818     8800     8787     8760     8733     8729     8729     8721 
    8715     8715     8719     8729     8742     8742     8746     8779 
    8797     8795     8808     8833     8856     8880     8905     8942 
    8974     8995     9024     9057     9089     9127     9147     9159 
    9188     9213     9227     9232     9240     9254     9261     9265 
    9273     9269     9266     9271     9275     9279     9286     9289 
    9292     9300     9320     9336     9340     9347     9355     9354 
    9348     9350     9360     9364     9352     9340     9333     9322 
    9310     9301     9288     9271     9252     9235     9224     9219 
    9217     9217     9204     9185     9174     9167     9166     9162 
    9154     9146     9142     9139     9139     9147     9169     9188 
    9196     9196     9198     9207     9213     9215     9207     9193 
    9182     9177     9173     9170     9170     9162     9143     9131 
    9124     9112     9101     9096     9085     9067     9054     9055 
    9053     9047     9049     9053     9058     9066     9073     9085 
    9104     9124     9134     9131     9130     9147     9159     9157 
    9177     9200     9205     9217     9236     9251     9269     9282 
    9283     9283     9296     9305     9296     9283     9288     9286 
    9274     9267     9271     9273     9266     9256     9246     9235 
    9224     9202     9175     9166     9162     9143     9119     9096 
    9073     9058     9042     9022     9008     8997     8982     8954 
    8924     8916     8915     8905     8896     8887     8887     8888 
    8878     8877     8889     8896     8899     8900     8907     8918 
    8919     8920     8928     8928     8931     8943     8951     8951 
    8953     8959     8966     8965     8962     8965     8976     8977 
    8962     8959     8972     8989     9003     9011     9028     9058 
    9076     9084     9093     9097     9101     9108     9109     9115 
    9128     9139     9146     9157     9170     9185     9196     9208 
    9224     9236     9244     9250     9248     9250     9262     9273 
    9279     9289     9308     9332     9343     9344     9364     9398 
    9416     9414     9418     9439     9456     9460     9462     9467 
    9489     9499     9493     9501     9509     9505     9505     9497 
    9491     9505     9508     9487     9475     9483     9495     9493 
    9483     9482     9489     9491     9491     9490     9489     9490 
    9479     9454     9443     9447     9448     9437     9424     9412 
    9405     9409     9404     9387     9386     9387     9377     9367 
    9360     9359     9352     9346     9351     9346     9331     9337 
    9342     9328     9320     9315     9301     9282     9258     9242 
    9224     9198     9178     9158     9144     9139     9115     9080 
    9065     9057     9038     9012     8988     8962     8937     8911 
    8885     8857     8841     8829     8806     8781     8769     8762 
    8758     8745     8735     8741     8745     8741     8739     8742 
    8756     8769     8773     8776     8783     8787     8796     8795 
    8787     8793     8802     8795     8791     8802     8818     8816 
    8803     8804     8820     8830     8830     8834     8841     8846 
    8849     8856     8869     8887     8892     8884     8883     8892 
    8908     8923     8923     8919     8927     8939     8955     8980 
    9011     9043     9055     9054     9086     9130     9151     9178 
    9211     9236     9256     9279     9319     9354     9377     9400 
    9412     9420     9439     9447     9445     9451     9456     9462 
    9468     9471     9471     9463     9447     9433     9421     9414 
    9409     9388     9367     9358     9358     9359     9352     9348 
    9355     9355     9352     9350     9343     9352     9360     9348 
    9337     9333     9335     9348     9351     9337     9329     9324 
    9319     9315     9319     9329     9335     9325     9315     9320 
    9332     9336     9333     9328     9329     9337     9337     9325 
    9324     9333     9335     9327     9321     9324     9333     9335 
    9319     9297     9285     9281     9271     9254     9244     9235 
    9211     9193     9186     9180     9186     9185     9165     9150 
    9139     9128     9117     9100     9090     9078     9053     9032 
    9022     9015     9011     9003     8977     8950     8949     8947 
    8923     8903     8893     8876     8853     8830     8808     8796 
    8785     8758     8729     8712     8708     8698     8673     8655 
