Origin Time       2016/04/16 01:25:00
Lat.              32.753
Long.             130.762
Depth. (km)       12
Mag.              7.3
Station Code      WKY014
Station Lat.      33.7053
Station Long.     135.6397
Station Height(m) 430
Record Time       2016/04/16 01:27:31
Sampling Freq(Hz) 100Hz
Duration Time(s)  60
Dir.              E-W
Scale Factor      7845(gal)/8223790
Max. Acc. (gal)   1.368
Last Correction   2016/04/16 01:27:16
Memo.             
[...]
  -24659   -24644   -24626   -24603   -24578   -24557   -24543   -24528 
  -24516   -24503   -24486   -24470   -24449   -24429   -24408   -24394 
  -24385   -24376   -24370   -24370   -24371   -24371   -24371   -24374 
  -24379   -24379   -24379   -24375   -24363   -24344   -24327   -24309 
  -24287   -24267   -24251   -24232   -24209   -24190   -24171   -24155 
  -24143   -24132   -24129   -24132   -24140   -24152   -24169   -24186 
  -24209   -24233   -24258   -24287   -24317   -24345   -24374   -24399 
  -24424   -24447   -24467   -24486   -24506   -24518   -24521   -24521 
  -24517   -24514   -24517   -24524   -24534   -24548   -24563   -24574 
  -24586   -24598   -24603   -24603   -24602   -24598   -24591   -24587 
  -24583   -24575   -24570   -24563   -24547   -24529   -24520   -24507 
  -24495   -24490   -24490   -24490   -24490   -24486   -24480   -24474 
  -24463   -24455   -24441   -24422   -24397   -24376   -24359   -24348 
  -24344   -24348   -24354   -24358   -24354   -24345   -24333   -24317 
  -24301   -24288   -24283   -24282   -24286   -24290   -24298   -24305 
  -24306   -24302   -24291   -24275   -24262   -24254   -24248   -24247 
  -24247   -24251   -24258   -24266   -24270   -24271   -24270   -24266 
  -24258   -24252   -24254   -24259   -24273   -24293   -24316   -24343 
  -24372   -24397   -24416   -24425   -24424   -24420   -24420   -24420 
  -24425   -24441   -24459   -24468   -24478   -24483   -24480   -24476 
  -24478   -24475   -24472   -24476   -24480   -24484   -24486   -24483 
  -24478   -24468   -24452   -24437   -24429   -24426   -24429   -24437 
  -24443   -24443   -24435   -24420   -24406   -24393   -24381   -24372 
  -24371   -24376   -24379   -24382   -24382   -24382   -24381   -24381 
  -24382   -24386   -24393   -24397   -24405   -24409   -24410   -24414 
  -24424   -24430   -24435   -24436   -24435   -24432   -24432   -24426 
  -24414   -24394   -24370   -24347   -24327   -24317   -24314   -24313 
  -24316   -24322   -24329   -24328   -24322   -24313   -24300   -24286 
  -24278   -24277   -24279   -24283   -24287   -24287   -24286   -24283 
  -24285   -24286   -24288   -24288   -24287   -24286   -24285   -24279 
  -24273   -24267   -24258   -24244   -24231   -24224   -24216   -24204 
  -24196   -24187   -24181   -24181   -24186   -24194   -24206   -24216 
  -24217   -24209   -24200   -24192   -24179   -24167   -24159   -24152 
  -24148   -24147   -24147   -24146   -24148   -24152   -24155   -24154 
  -24151   -24150   -24147   -24146   -24146   -24147   -24146   -24144 
  -24148   -24148   -24143   -24143   -24147   -24152   -24162   -24171 
  -24181   -24186   -24186   -24186   -24186   -24182   -24179   -24177 
  -24175   -24173   -24166   -24159   -24154   -24150   -24151   -24158 
  -24159   -24167   -24182   -24197   -24213   -24233   -24254   -24270 
  -24285   -24294   -24300   -24304   -24304   -24302   -24300   -24297 
  -24297   -24295   -24287   -24277   -24271   -24268   -24268   -24277 
  -24287   -24301   -24311   -24321   -24329   -24337   -24347   -24354 
  -24354   -24352   -24354   -24354   -24356   -24367   -24381   -24395 
  -24409   -24417   -24420   -24417   -24416   -24412   -24406   -24406 
  -24409   -24408   -24410   -24416   -24418   -24417   -24413   -24403 
  -24393   -24387   -24393   -24402   -24409   -24422   -24436   -24447 
  -24462   -24475   -24486   -24499   -24511   -24524   -24536   -24545 
  -24552   -24563   -24570   -24571   -24570   -24568   -24565   -24563 
  -24564   -24568   -24572   -24580   -24587   -24590   -24588   -24578 
  -24564   -24551   -24537   -24526   -24520   -24516   -24513   -24506 
  -24495   -24483   -24463   -24443   -24422   -24402   -24383   -24366 
  -24349   -24340   -24336   -24336   -24337   -24344   -24356   -24367 
  -24383   -24400   -24417   -24435   -24451   -24462   -24474   -24490 
  -24507   -24520   -24529   -24541   -24549   -24552   -24559   -24564 
  -24564   -24563   -24560   -24555   -24549   -24541   -24529   -24516 
  -24494   -24474   -24462   -24453   -24449   -24449   -24448   -24448 
  -24451   -24456   -24466   -24476   -24483   -24486   -24490   -24489 
  -24486   -24491   -24499   -24506   -24507   -24501   -24491   -24480 
  -24466   -24453   -24445   -24435   -24422   -24405   -24383   -24368 
  -24354   -24345   -24339   -24334   -24329   -24322   -24316   -24310 
  -24310   -24314   -24320   -24328   -24336   -24344   -24349   -24352 
  -24356   -24364   -24372   -24381   -24390   -24397   -24400   -24409 
  -24414   -24414   -24410   -24409   -24409   -24405   -24399   -24395 
  -24394   -24394   -24394   -24397   -24405   -24412   -24417   -24418 
  -24417   -24414   -24417   -24422   -24429   -24437   -24449   -24462 
  -24474   -24484   -24497   -24506   -24509   -24518   -24528   -24537 
  -24549   -24561   -24575   -24588   -24598   -24605   -24615   -24626 
  -24630   -24637   -24641   -24637   -24629   -24618   -24602   -24588 
  -24580   -24578   -24580   -24582   -24580   -24575   -24564   -24549 
  -24532   -24517   -24505   -24495   -24491   -24493   -24501   -24514 
  -24533   -24555   -24579   -24603   -24618   -24630   -24640   -24646 
  -24646   -24642   -24637   -24629   -24617   -24602   -24584   -24565 
  -24548   -24532   -24518   -24503   -24490   -24479   -24474   -24466 
  -24457   -24448   -24435   -24422   -24412   -24399   -24389   -24381 
  -24370   -24363   -24364   -24370   -24376   -24386   -24395   -24400 
  -24403   -24405   -24402   -24397   -24399   -24397   -24393   -24390 
  -24387   -24387   -24393   -24397   -24405   -24410   -24409   -24406 
  -24408   -24408   -24409   -24414   -24414   -24414   -24416   -24412 
  -24408   -24405   -24400   -24399   -24400   -24399   -24395   -24391 
  -24389   -24387   -24385   -24381   -24379   -24379   -24379   -24374 
  -24366   -24358   -24347   -24333   -24317   -24298   -24281   -24266 
  -24254   -24243   -24232   -24227   -24224   -24223   -24229   -24245 
  -24262   -24279   -24295   -24309   -24321   -24332   -24344   -24356 
  -24368   -24383   -24397   -24412   -24425   -24432   -24433   -24437 
  -24441   -24439   -24433   -24429   -24425   -24418   -24410   -24405 
  -24399   -24393   -24385   -24377   -24371   -24363   -24354   -24343 
  -24331   -24318   -24308   -24300   -24294   -24290   -24286   -24283 
  -24279   -24274   -24268   -24264   -24260   -24258   -24258   -24258 
  -24255   -24250   -24244   -24245   -24251   -24255   -24259   -24267 
  -24274   -24278   -24285   -24293   -24302   -24314   -24331   -24349 
  -24376   -24409   -24443   -24475   -24505   -24534   -24561   -24586 
  -24613   -24638   -24663   -24688   -24713   -24732   -24753   -24779 
  -24802   -24829   -24857   -24884   -24908   -24935   -24962   -24992 
  -25018   -25039   -25057   -25070   -25076   -25074   -25069   -25060 
  -25049   -25034   -25018   -24999   -24983   -24966   -24942   -24915 
  -24891   -24867   -24840   -24813   -24787   -24767   -24742   -24709 
  -24672   -24637   -24602   -24568   -24536   -24501   -24463   -24425 
  -24381   -24332   -24283   -24236   -24189   -24143   -24097   -24055 
  -24017   -23978   -23944   -23907   -23866   -23832   -23801   -23777 
  -23762   -23750   -23742   -23742   -23746   -23751   -23761   -23778 
  -23797   -23816   -23838   -23863   -23888   -23916   -23949   -23978 
  -24004   -24034   -24061   -24086   -24112   -24138   -24159   -24179 
  -24200   -24221   -24239   -24254   -24270   -24290   -24309   -24325 
  -24347   -24367   -24387   -24408   -24428   -24451   -24475   -24501 
  -24529   -24559   -24590   -24621   -24648   -24671   -24694   -24711 
  -24725   -24744   -24767   -24793   -24825   -24857   -24884   -24908 
  -24929   -24945   -24960   -24968   -24970   -24972   -24972   -24970 
  -24972   -24972   -24973   -24975   -24975   -24972   -24968   -24958 
  -24948   -24941   -24935   -24935   -24943   -24952   -24952   -24952 
  -24945   -24930   -24911   -24887   -24858   -24827   -24798   -24769 
  -24740   -24710   -24683   -24652   -24621   -24592   -24556   -24516 
  -24475   -24436   -24397   -24356   -24317   -24278   -24241   -24209 
  -24181   -24152   -24129   -24109   -24092   -24077   -24063   -24055 
  -24052   -24054   -24058   -24069   -24081   -24093   -24106   -24116 
  -24127   -24136   -24136   -24132   -24123   -24109   -24097   -24084 
  -24070   -24061   -24047   -24034   -24024   -24013   -24004   -23996 
  -23989   -23984   -23980   -23977   -23974   -23969   -23965   -23965 
  -23966   -23963   -23959   -23958   -23963   -23970   -23978   -23989 
  -23996   -24004   -24015   -24023   -24027   -24031   -24035   -24036 
  -24039   -24044   -24052   -24062   -24066   -24070   -24079   -24084 
  -24089   -24093   -24097   -24104   -24113   -24123   -24132   -24142 
  -24150   -24158   -24167   -24174   -24179   -24183   -24187   -24192 
  -24197   -24204   -24212   -24221   -24231   -24245   -24264   -24285 
  -24306   -24336   -24374   -24408   -24435   -24459   -24476   -24484 
  -24493   -24498   -24498   -24498   -24502   -24507   -24514   -24517 
  -24520   -24522   -24524   -24522   -24521   -24522   -24524   -24533 
  -24544   -24561   -24582   -24602   -24618   -24634   -24652   -24672 
  -24692   -24717   -24744   -24773   -24807   -24844   -24879   -24918 
  -24956   -24988   -25014   -25033   -25045   -25050   -25051   -25049 
  -25042   -25031   -25011   -24987   -24957   -24922   -24888   -24854 
  -24821   -24790   -24763   -24740   -24722   -24710   -24700   -24692 
  -24687   -24683   -24678   -24669   -24663   -24665   -24672   -24678 
  -24686   -24696   -24703   -24710   -24717   -24725   -24734   -24746 
  -24759   -24768   -24773   -24776   -24773   -24765   -24757   -24750 
  -24740   -24727   -24719   -24713   -24704   -24698   -24695   -24695 
  -24696   -24695   -24698   -24706   -24714   -24719   -24727   -24733 
  -24734   -24729   -24718   -24704   -24688   -24671   -24653   -24638 
  -24624   -24605   -24590   -24574   -24547   -24514   -24482   -24443 
  -24397   -24354   -24313   -24271   -24228   -24187   -24148   -24113 
  -24084   -24062   -24044   -24035   -24030   -24027   -24025   -24024 
  -24021   -24020   -24015   -24003   -23988   -23977   -23965   -23946 
  -23931   -23916   -23900   -23885   -23873   -23859   -23850   -23843 
  -23835   -23823   -23809   -23796   -23774   -23750   -23727   -23704 
  -23683   -23664   -23645   -23627   -23614   -23602   -23588   -23579 
  -23568   -23562   -23557   -23550   -23545   -23537   -23529   -23523 
  -23518   -23508   -23499   -23494   -23491   -23490   -23490   -23494 
  -23502   -23514   -23525   -23542   -23558   -23575   -23595   -23611 
  -23631   -23657   -23685   -23718   -23757   -23795   -23835   -23881 
  -23927   -23971   -24017   -24065   -24112   -24158   -24200   -24239 
  -24274   -24306   -24336   -24364   -24393   -24424   -24459   -24494 
  -24526   -24557   -24587   -24615   -24638   -24659   -24682   -24704 
  -24722   -24737   -24752   -24763   -24773   -24788   -24799   -24807 
  -24811   -24813   -24818   -24823   -24830   -24836   -24844   -24849 
  -24852   -24854   -24856   -24850   -24842   -24831   -24819   -24804 
  -24793   -24790   -24784   -24776   -24767   -24754   -24741   -24721 
  -24695   -24669   -24645   -24625   -24603   -24580   -24567   -24559 
  -24551   -24544   -24541   -24540   -24534   -24526   -24517   -24502 
  -24484   -24467   -24448   -24432   -24420   -24414   -24412   -24413 
  -24417   -24420   -24418   -24414   -24410   -24408   -24400   -24395 
  -24391   -24385   -24376   -24368   -24360   -24351   -24339   -24333 
  -24327   -24318   -24310   -24294   -24271   -24248   -24223   -24196 
  -24169   -24148   -24133   -24123   -24117   -24116   -24117   -24124 
  -24132   -24139   -24144   -24148   -24152   -24155   -24152   -24154 
  -24159   -24165   -24171   -24179   -24187   -24194   -24200   -24205 
  -24217   -24227   -24233   -24243   -24256   -24266   -24275   -24287 
  -24300   -24316   -24333   -24352   -24372   -24394   -24420   -24448 
  -24475   -24505   -24534   -24561   -24591   -24618   -24638   -24656 
  -24668   -24675   -24678   -24678   -24676   -24675   -24671   -24668 
  -24664   -24660   -24661   -24667   -24669   -24675   -24684   -24691 
  -24695   -24695   -24691   -24688   -24683   -24671   -24659   -24645 
  -24634   -24621   -24610   -24603   -24598   -24588   -24579   -24570 
  -24552   -24528   -24503   -24476   -24448   -24422   -24394   -24367 
  -24339   -24310   -24285   -24258   -24232   -24210   -24185   -24155 
  -24129   -24106   -24077   -24048   -24024   -24003   -23981   -23963 
  -23949   -23936   -23924   -23913   -23907   -23901   -23895   -23890 
  -23886   -23886   -23889   -23889   -23884   -23882   -23884   -23886 
  -23889   -23890   -23893   -23897   -23909   -23924   -23936   -23953 
  -23973   -23990   -24001   -24009   -24016   -24020   -24017   -24017 
  -24021   -24025   -24031   -24042   -24058   -24070   -24081   -24098 
  -24116   -24131   -24150   -24173   -24196   -24220   -24250   -24282 
  -24314   -24354   -24395   -24437   -24486   -24536   -24584   -24630 
  -24676   -24719   -24760   -24802   -24844   -24881   -24918   -24956 
  -24993   -25026   -25056   -25081   -25103   -25123   -25143   -25166 
  -25191   -25213   -25236   -25262   -25289   -25313   -25338   -25366 
  -25393   -25421   -25451   -25479   -25508   -25539   -25569   -25600 
  -25629   -25658   -25687   -25714   -25737   -25760   -25782   -25797 
  -25809   -25818   -25830   -25837   -25841   -25843   -25843   -25834 
  -25820   -25801   -25768   -25729   -25686   -25639   -25589   -25536 
  -25488   -25435   -25378   -25318   -25252   -25180   -25110   -25033 
  -24948   -24867   -24787   -24704   -24624   -24547   -24472   -24400 
  -24331   -24262   -24196   -24131   -24067   -24007   -23946   -23888 
  -23836   -23788   -23743   -23707   -23674   -23638   -23604   -23572 
  -23535   -23499   -23463   -23427   -23393   -23364   -23338   -23311 
  -23288   -23269   -23252   -23237   -23229   -23224   -23222   -23230 
  -23244   -23259   -23278   -23299   -23322   -23346   -23368   -23390 
  -23415   -23444   -23472   -23502   -23535   -23571   -23603   -23634 
  -23666   -23693   -23718   -23739   -23755   -23776   -23792   -23805 
  -23819   -23829   -23836   -23843   -23847   -23854   -23866   -23880 
  -23895   -23920   -23949   -23980   -24011   -24036   -24066   -24102 
  -24138   -24174   -24210   -24248   -24288   -24329   -24371   -24416 
  -24463   -24506   -24549   -24592   -24634   -24678   -24722   -24764 
  -24800   -24835   -24867   -24891   -24911   -24926   -24939   -24954 
  -24966   -24980   -24995   -25008   -25027   -25050   -25069   -25088 
  -25104   -25116   -25124   -25130   -25132   -25131   -25122   -25114 
  -25107   -25096   -25083   -25066   -25047   -25030   -25006   -24979 
  -24950   -24919   -24884   -24846   -24803   -24763   -24725   -24683 
  -24642   -24607   -24572   -24537   -24507   -24479   -24455   -24432 
  -24406   -24381   -24358   -24334   -24310   -24285   -24266   -24251 
  -24239   -24232   -24231   -24224   -24220   -24216   -24202   -24189 
  -24174   -24155   -24135   -24117   -24101   -24089   -24079   -24074 
  -24070   -24069   -24066   -24061   -24052   -24043   -24034   -24023 
  -24011   -24004   -24004   -24003   -24004   -24008   -24012   -24012 
  -24007   -24004   -23998   -23988   -23974   -23965   -23957   -23944 
  -23932   -23924   -23916   -23907   -23900   -23895   -23892   -23890 
  -23897   -23912   -23926   -23946   -23970   -23989   -24012   -24038 
  -24061   -24089   -24124   -24159   -24200   -24247   -24295   -24341 
  -24385   -24432   -24480   -24526   -24575   -24625   -24678   -24734 
  -24787   -24834   -24876   -24912   -24939   -24957   -24968   -24976 
  -24980   -24980   -24983   -24985   -24985   -24987   -24988   -24984 
  -24980   -24976   -24968   -24961   -24954   -24945   -24931   -24915 
  -24899   -24879   -24862   -24848   -24834   -24821   -24810   -24798 
  -24784   -24769   -24752   -24733   -24713   -24691   -24672   -24657 
  -24644   -24629   -24613   -24597   -24579   -24557   -24525   -24493 
  -24463   -24428   -24394   -24367   -24343   -24318   -24300   -24285 
  -24271   -24258   -24244   -24227   -24206   -24187   -24166   -24140 
  -24112   -24088   -24062   -24036   -24015   -23998   -23984   -23973 
  -23967   -23966   -23971   -23981   -23992   -24008   -24025   -24040 
  -24057   -24070   -24085   -24097   -24113   -24132   -24151   -24170 
  -24192   -24214   -24239   -24267   -24293   -24318   -24344   -24367 
  -24385   -24400   -24416   -24428   -24433   -24437   -24440   -24439 
  -24435   -24429   -24424   -24420   -24418   -24418   -24420   -24426 
  -24437   -24451   -24463   -24478   -24489   -24497   -24503   -24507 
  -24509   -24509   -24505   -24501   -24502   -24503   -24505   -24506 
  -24509   -24507   -24507   -24509   -24507   -24507   -24506   -24503 
  -24503   -24501   -24498   -24495   -24490   -24482   -24479   -24479 
  -24478   -24475   -24474   -24472   -24468   -24466   -24463   -24462 
  -24460   -24463   -24470   -24474   -24479   -24489   -24495   -24498 
  -24505   -24511   -24516   -24525   -24534   -24538   -24538   -24534 
  -24528   -24514   -24497   -24478   -24457   -24440   -24424   -24410 
  -24403   -24403   -24405   -24409   -24412   -24410   -24409   -24408 
  -24402   -24395   -24391   -24391   -24393   -24394   -24397   -24406 
  -24413   -24420   -24426   -24432   -24436   -24441   -24445   -24452 
  -24462   -24471   -24482   -24493   -24498   -24502   -24502   -24499 
  -24497   -24491   -24489   -24484   -24478   -24472   -24472   -24472 
  -24474   -24479   -24486   -24490   -24493   -24497   -24499   -24499 
  -24501   -24501   -24501   -24503   -24507   -24511   -24516   -24524 
  -24529   -24534   -24537   -24541   -24544   -24543   -24541   -24540 
  -24540   -24541   -24543   -24543   -24543   -24544   -24545   -24544 
  -24540   -24537   -24532   -24525   -24518   -24513   -24507   -24501 
  -24490   -24482   -24474   -24459   -24443   -24432   -24420   -24410 
  -24405   -24403   -24403   -24403   -24406   -24409   -24413   -24420 
  -24422   -24420   -24418   -24413   -24403   -24397   -24393   -24389 
  -24387   -24389   -24386   -24387   -24391   -24394   -24397   -24406 
  -24413   -24417   -24420   -24422   -24425   -24429   -24430   -24426 
  -24425   -24425   -24422   -24420   -24418   -24416   -24413   -24413 
  -24418   -24425   -24437   -24453   -24470   -24486   -24507   -24526 
  -24541   -24555   -24565   -24571   -24572   -24572   -24572   -24567 
  -24557   -24549   -24544   -24536   -24529   -24526   -24525   -24526 
  -24528   -24529   -24533   -24536   -24538   -24540   -24541   -24545 
  -24548   -24552   -24560   -24565   -24568   -24575   -24583   -24587 
  -24594   -24599   -24599   -24599   -24601   -24597   -24588   -24580 
  -24567   -24548   -24528   -24505   -24482   -24457   -24433   -24413 
  -24393   -24372   -24349   -24328   -24308   -24291   -24279   -24270 
  -24262   -24254   -24243   -24236   -24232   -24225   -24220   -24214 
  -24210   -24204   -24197   -24192   -24187   -24181   -24177   -24178 
  -24183   -24192   -24202   -24217   -24232   -24244   -24260   -24278 
  -24293   -24309   -24329   -24352   -24374   -24399   -24425   -24449 
