Origin Time       2016/04/16 01:25:00
Lat.              32.753
Long.             130.762
Depth. (km)       12
Mag.              7.3
Station Code      WKY006
Station Lat.      33.8908
Station Long.     135.1524
Station Height(m) 3
Record Time       2016/04/16 01:26:30
Sampling Freq(Hz) 100Hz
Duration Time(s)  106
Dir.              E-W
Scale Factor      7845(gal)/8223790
Max. Acc. (gal)   1.895
Last Correction   2016/04/16 01:26:30
Memo.             
[...]
     228      278      276      184      212      265      207      241 
     356      348      361      484      513      484      571      611 
     545      579      625      518      440      438      309      148 
     116       35     -102      -93      -64     -153     -144      -51 
     -70      -60       82      143      153      278      344      287 
     330      417      370      375      486      488      475      584 
     616      561      616      660      569      562      638      588 
     556      645      643      577      638      672      569      546 
     560      423      313      298      172       23       17      -28 
    -139     -117      -86     -162     -152      -79     -124     -152 
     -54      -25      -52       62      172      186      299      451 
     481      553      702      727      718      804      807      735 
     797      872      849      916     1046     1036     1024     1105 
    1081      984      984      938      785      731      702      548 
     460      464      352      218      202      116      -41      -72 
    -105     -244     -289     -261     -333     -346     -236     -218 
    -241     -139      -86     -148     -101      -16      -45      -10 
     124      151      180      352      438      444      579      688 
     658      708      789      738      726      804      777      724 
     796      820      751      793      859      805      808      876 
     823      780      841      815      754      820      854      784 
     799      845      757      699      730      650      549      581 
     561      468      496      522      432      427      479      390 
     311      330      240      110      135      149       75      128 
     237      211      225      337      317      268      341      341 
     263      321      390      341      390      522      529      565 
     722      767      756      874      951      912      985     1085 
    1035     1031     1094     1004      882      870      773      608 
     566      515      356      286      271      156       91      133 
      82        2       58       74       -8       13       47      -51 
     -82      -27      -83     -129      -40      -27      -83      -10 
      45      -10       20       99       65       79      202      225 
     221      355      438      421      504      595      552      553 
     615      544      449      463      413      295      291      275 
     141       91       91      -32     -121     -114     -206     -292 
    -234     -236     -301     -220     -126     -151      -82       62 
      81      109      251      307      315      456      575      579 
     681      819      816      847      973      976      943     1026 
    1028      931      942      945      824      788      823      711 
     592      595      493      334      330      303      167      144 
     144       -8      -93      -68     -164     -259     -211     -225 
    -298     -232     -178     -248     -210      -91      -85      -31 
     157      257      324      525      679      738      897     1059 
    1092     1185     1345     1368     1363     1456     1443     1336 
    1348     1337     1197     1140     1125      980      869      853 
     739      600      577      510      352      297      255       87 
     -14      -18     -133     -253     -243     -289     -390     -353 
    -325     -400     -372     -291     -326     -311     -178     -143 
    -135       -5       60       47      170      307      328      421 
     576      587      589      696      707      658      739      787 
     727      777      868      815      793      864      811      702 
     715      684      568      572      591      481      450      500 
     421      348      388      336      228      237      211       85 
      70      112       47       43      140      148      148      263 
     311      280      353      414      355      367      436      387 
     365      448      437      383      450      472      383      382 
     380      248      189      228      156       91      163      162 
      87      131      157       71       71      121       47       -2 
      60       37      -10       82      133      108      206      298 
     266      315      430      423      432      553      583      550 
     639      699      638      675      758      696      662      726 
     664      568      607      576      446      432      425      298 
     248      275      186      118      175      156       78      121 
     140       47       54      108       39       21      117      108 
      74      170      199      139      202      268      203      214 
     291      238      205      274      225      141      209      229 
     144      178      238      170      160      243      199      136 
     211      221      141      199      268      206      237      356 
     349      363      492      521      492      596      654      602 
     668      769      746      793      926      927      923     1042 
    1059      996     1048     1057      936      912      920      788 
     691      692      584      437      415      348      187      149 
     139        0      -63      -27     -108     -183     -122     -135 
    -214     -156     -102     -160     -109       10        8       55 
     217      263      274      427      529      522      630      751 
     747      812      958      977      972     1070     1080     1009 
    1058     1096     1023     1039     1105     1042     1004     1053 
    1000      915      950      931      812      803      804      677 
     626      660      566      487      532      487      379      399 
     392      272      252      287      207      178      252      209 
     140      201      186       89      121      129       16        4 
      56      -20      -65       18       27       -8       85      152 
     121      190      295      276      309      433      441      446 
     579      622      596      708      789      743      793      877 
     804      758      818      787      726      788      803      714 
     735      780      683      646      710      646      573      627 
     596      483      500      490      344      305      329      217 
     139      180      137       71      136      152       76      122 
     202      162      187      292      266      237      319      307 
     234      298      349      298      334      417      378      364 
     444      427      382      461      486      419      472      522 
     451      477      568      523      496      572      535      444 
     468      449      332      328      355      257      225      297 
     263      218      291      291      220      266      289      210 
     237      309      246      225      313      292      241      321 
     340      268      325      398      326      326      430      407 
     378      475      479      409      467      500      414      432 
     495      422      392      477      456      409      503      531 
     461      526      603      544      568      675      653      641 
     743      743      679      741      777      702      720      773 
     696      660      704      634      542      553      492      348 
     319      315      203      159      187       97       21       76 
      41      -58      -11       22      -52      -22       65       23 
      16      114      128      116      222      272      225      291 
     369      336      387      500      480      475      587      595 
     535      599      619      517      514      549      454      415 
     479      442      391      457      467      392      418      441 
     349      338      399      332      278      357      357      301 
     373      414      355      395      467      425      440      533 
     519      500      602      631      581      642      704      646 
     660      722      653      606      657      612      522      552 
     556      471      486      517      423      382      405      307 
     206      216      155       37       41       44      -39      -36 
      20      -18      -28       58       47        5       95      143 
     101      163      245      220      257      376      394      405 
     513      540      502      584      666      641      702      811 
     789      792      880      859      804      853      832      710 
     685      676      552      499      535      460      383      427 
     388      270      263      248      122       83      102        5 
     -59       -8      -51     -137      -97      -95     -195     -187 
    -152     -241     -263     -182     -206     -225     -110      -51 
     -55       47      125       93      144      243      210      224 
     349      375      379      517      594      579      677      776 
     741      762      845      803      749      807      800      728 
     795      851      778      800      874      804      769      835 
     781      696      749      745      650      675      697      589 
     565      614      532      464      515      480      402      460 
     484      405      430      493      429      403      464      407 
     326      364      330      211      221      243      129       99 
     170      106       35       93       63      -22       31       49 
     -47      -41        5      -60      -71       11      -13      -64 
       5        5      -82      -32       32      -22        1       94 
      67       58      151      144       89      167      230      203 
     263      355      328      346      451      446      436      553 
     598      558      629      679      604      598      629      525 
     445      468      383      256      252      205       67       44 
      49      -56      -93      -40      -95     -160     -117     -148 
    -238     -205     -182     -274     -268     -198     -246     -248 
    -137     -124     -121       22       97       72      168      276 
     256      307      429      421      414      523      545      487 
     549      591      499      498      560      490      453      530 
     502      433      491      496      402      414      448      359 
     334      395      338      286      342      306      212      246 
     248      139      125      162       90       75      148      106 
      62      147      160       89      140      193      124      133 
     210      166      140      229      229      174      246      282 
     205      234      294      221      199      270      228      178 
     253      252      189      261      333      298      353      471 
     472      490      611      634      595      673      714      646 
     664      702      627      610      668      614      553      606 
     587      487      493      488      359      305      315      214 
     144      182      131       44       68       58      -39      -36 
     -10      -99     -125      -67     -110     -144      -52      -18 
     -32       81      195      216      330      490      529      602 
     765      815      823      954     1034     1020     1117     1221 
    1194     1227     1317     1260     1183     1202     1124      987 
     973      918      767      727      720      592      522      548 
     453      329      326      255       99       78       79      -29 
     -58       -9      -74     -112      -39      -41      -78       21 
     102      105      230      395      444      561      776      873 
     945     1133     1242     1256     1378     1472     1443     1495 
    1588     1548     1517     1572     1522     1405     1375     1297 
    1123     1039      985      826      724      719      612      493 
     487      409      268      252      225       91       56       94 
      20      -10       72       78       65      167      218      193 
     280      391      390      438      561      584      610      734 
     774      760      855      903      837      862      924      849 
     805      853      791      689      691      635      492      449 
     415      271      193      176       44      -62      -44     -105 
    -205     -160     -129     -183     -129      -45      -86      -79 
      29       43       27      140      211      199      297      406 
     402      459      562      532      502      560      514      419 
     450      450      357      368      411      326      289      344 
     271      167      189      152       32       27       37      -47 
     -44       25      -13      -22       74       86       65      162 
     222      195      287      417      418      477      642      691 
     719      864      927      903      986     1044      965      945 
     966      864      776      773      676      556      565      518 
     382      360      344      201      116      116       14      -90 
     -65      -87     -167     -125      -94     -171     -163     -109 
    -176     -211     -160     -216     -287     -236     -232     -286 
    -203      -90      -75       35      229      298      383      591 
     711      788     1003     1173     1223     1375     1553     1579 
    1634     1772     1769     1705     1755     1726     1580     1549 
    1524     1351     1232     1171      973      776      681      477 
     203       52     -129     -414     -585     -704     -932    -1096 
   -1152    -1310    -1471    -1483    -1522    -1611    -1571    -1512 
   -1534    -1468    -1331    -1277    -1173     -962     -835     -737 
    -514     -336     -259      -75      143      244      394      615 
     711      789      972     1055     1047     1146     1215     1156 
    1179     1242     1159     1093     1117     1034      920      936 
     897      757      723      700      546      450      444      326 
     212      237      205      108      131      144       41       37 
      99       55       74      211      255      284      444      542 
     556      683      812      837      931     1058     1059     1075 
    1185     1209     1189     1286     1343     1296     1333     1381 
    1305     1275     1308     1216     1116     1129     1070      945 
     936      927      803      754      765      649      558      571 
     480      364      392      380      287      309      357      302 
     314      407      383      359      461      498      471      585 
     708      718      807      958      984     1026     1155     1179 
    1166     1256     1294     1240     1275     1305     1205     1170 
    1220     1147     1065     1107     1074      978     1020     1038 
     934      938      985      893      838      877      800      681 
     661      564      383      317      236       35      -76     -114 
    -263     -388     -392     -476     -608     -610     -634     -766 
    -797     -773     -861     -884     -781     -772     -781     -658 
    -587     -594     -493     -406     -427     -363     -243     -238 
    -198      -49       -2       -5      103      174      140      191 
     263      214      228      344      355      367      515      600 
     616      751      877      886      969     1092     1075     1077 
    1175     1166     1119     1185     1179     1070     1058     1034 
     890      820      804      666      546      537      448      315 
     310      287      170      147      164       63       -1       32 
     -20      -90      -40      -40     -122      -95      -65     -152 
    -166     -110     -160     -178      -85      -60      -65       49 
     139      139      229      344      333      361      456      427 
     376      421      376      257      249      225       91       21 
       5     -114     -218     -206     -261     -360     -326     -315 
    -402     -387     -334     -399     -413     -341     -383     -445 
    -383     -394     -490     -459     -421     -506     -496     -415 
    -464     -468     -344     -330     -361     -253     -182     -218 
    -152      -44      -52       -2      131      144      143      271 
     328      313      432      552      553      646      804      826 
     864     1019     1065     1050     1151     1208     1162     1219 
    1300     1259     1282     1387     1354     1298     1363     1340 
    1217     1202     1165      989      892      853      696      572 
     556      449      306      280      210       47        8       11 
    -102     -140      -62      -82      -98       23       89       86 
     205      325      333      422      571      598      661      838 
     920      966     1133     1247     1262     1371     1493     1480 
    1521     1649     1667     1672     1796     1850     1830     1912 
    1977     1930     1958     2020     1944     1895     1938     1854 
    1718     1695     1606     1421     1334     1239     1012      854 
     751      531      329      230       52     -168     -266     -392 
    -614     -726     -780     -953    -1077    -1086    -1183    -1302 
   -1285    -1308    -1412    -1391    -1348    -1416    -1394    -1291 
   -1310    -1306    -1171    -1119    -1105     -955     -841     -824 
    -688     -519     -493     -419     -245     -201     -191      -68 
     -20      -62       -9       28      -49      -59      -10      -75 
    -121      -68     -105     -178     -149     -163     -268     -287 
    -291     -407     -460     -425     -502     -583     -546     -571 
    -653     -611     -577     -649     -635     -571     -622     -648 
    -566     -568     -608     -535     -504     -568     -537     -490 
    -566     -592     -545     -608     -685     -665     -706     -801 
    -791     -791     -884     -880     -811     -855     -873     -781 
    -774     -807     -712     -643     -660     -564     -427     -407 
    -318     -124      -29       59      271      417      493      679 
     851      912     1046     1223     1255     1301     1451     1485 
    1467     1572     1609     1535     1571     1601     1480     1422 
    1437     1329     1228     1243     1174     1053     1048     1015 
     880      841      835      715      657      702      658      621 
     720      767      737      827      936      923      976     1104 
    1097     1094     1224     1271     1251     1364     1457     1443 
    1537     1655     1624     1645     1745     1713     1658     1719 
    1703     1598     1618     1644     1543     1532     1597     1528 
    1474     1537     1513     1440     1497     1506     1404     1405 
    1433     1323     1255     1258     1127      977      936      805 
     591      498      395      178       51      -17     -209     -368 
    -402     -515     -643     -616     -615     -685     -626     -542 
    -566     -503     -353     -328     -295     -131      -43      -22 
     120      237      249      369      535      556      603      738 
     751      724      814      828      734      745      761      643 
     595      625      522      417      440      363      202      175 
     131      -32     -106     -126     -279     -391     -383     -475 
    -603     -583     -604     -727     -715     -670     -751     -754 
    -645     -649     -649     -506     -433     -423     -280     -163 
