Origin Time       2016/04/16 01:25:00
Lat.              32.753
Long.             130.762
Depth. (km)       12
Mag.              7.3
Station Code      WKY002
Station Lat.      34.2755
Station Long.     135.4305
Station Height(m) 59
Record Time       2016/04/16 01:27:23
Sampling Freq(Hz) 100Hz
Duration Time(s)  84
Dir.              N-S
Scale Factor      7845(gal)/8223790
Max. Acc. (gal)   2.875
Last Correction   2016/04/16 01:27:24
Memo.             
[...]
    8040     8039     8028     8025     8014     8002     7990     7967 
    7950     7939     7921     7901     7882     7859     7844     7823 
    7794     7788     7771     7719     7697     7709     7685     7663 
    7665     7639     7627     7636     7614     7595     7592     7578 
    7584     7585     7553     7539     7541     7522     7507     7515 
    7512     7487     7488     7510     7507     7495     7497     7504 
    7503     7506     7506     7491     7488     7495     7485     7480 
    7481     7470     7461     7454     7444     7438     7430     7422 
    7422     7427     7416     7402     7411     7425     7414     7408 
    7434     7453     7446     7447     7474     7507     7535     7547 
    7551     7581     7626     7645     7668     7707     7728     7728 
    7749     7784     7785     7780     7794     7793     7796     7805 
    7788     7785     7803     7798     7788     7801     7823     7847 
    7867     7875     7892     7928     7963     7974     7989     8028 
    8048     8040     8059     8083     8077     8073     8091     8090 
    8071     8056     8040     8024     8005     7977     7952     7943 
    7919     7878     7857     7850     7834     7821     7816     7807 
    7797     7793     7782     7774     7769     7755     7736     7731 
    7731     7717     7701     7697     7695     7688     7680     7666 
    7647     7638     7618     7577     7548     7531     7493     7452 
    7430     7408     7378     7356     7338     7323     7317     7306 
    7292     7291     7291     7276     7264     7264     7261     7258 
    7267     7267     7264     7273     7275     7271     7283     7298 
    7304     7322     7342     7352     7365     7389     7406     7418 
    7439     7468     7487     7510     7534     7546     7570     7599 
    7607     7614     7630     7642     7651     7657     7652     7651 
    7672     7696     7705     7719     7746     7771     7804     7839 
    7851     7865     7913     7956     7966     7983     8019     8032 
    8035     8055     8066     8060     8063     8075     8077     8060 
    8043     8046     8048     8035     8023     8016     8010     8012 
    8002     7973     7954     7958     7950     7921     7892     7877 
    7858     7830     7809     7793     7773     7751     7731     7723 
    7712     7695     7689     7688     7680     7677     7674     7672 
    7672     7659     7649     7650     7641     7622     7607     7592 
    7574     7555     7533     7512     7496     7472     7443     7425 
    7410     7391     7378     7372     7365     7361     7361     7361 
    7361     7368     7372     7375     7384     7392     7387     7385 
    7393     7392     7385     7391     7387     7377     7383     7388 
    7377     7376     7385     7384     7380     7384     7381     7377 
    7381     7385     7392     7402     7418     7430     7449     7472 
    7477     7488     7520     7537     7543     7566     7581     7584 
    7595     7605     7603     7607     7622     7628     7636     7657 
    7678     7695     7716     7743     7763     7781     7803     7817 
    7832     7852     7871     7884     7902     7923     7935     7950 
    7963     7969     7979     7990     7993     7994     7994     7986 
    7978     7978     7967     7955     7954     7948     7936     7939 
    7940     7931     7931     7936     7931     7928     7924     7915 
    7909     7908     7897     7878     7873     7865     7846     7838 
    7830     7817     7819     7816     7807     7805     7805     7799 
    7794     7789     7785     7776     7771     7766     7759     7755 
    7751     7743     7738     7742     7742     7734     7734     7743 
    7747     7751     7753     7749     7753     7749     7732     7722 
    7708     7680     7662     7654     7623     7581     7555     7538 
    7507     7476     7457     7438     7416     7395     7369     7353 
    7339     7317     7296     7281     7263     7234     7214     7198 
    7180     7160     7145     7125     7111     7109     7099     7088 
    7098     7103     7092     7099     7119     7122     7122     7136 
    7137     7132     7142     7145     7134     7126     7118     7106 
    7094     7086     7075     7060     7048     7034     7025     7029 
    7023     7013     7015     7017     7009     7009     7017     7018 
    7014     7017     7014     7017     7040     7059     7069     7098 
    7132     7165     7210     7258     7307     7362     7430     7495 
    7560     7631     7701     7771     7848     7919     7983     8050 
    8106     8162     8218     8267     8305     8343     8383     8411 
    8428     8451     8472     8480     8487     8494     8492     8494 
    8497     8494     8487     8487     8476     8463     8464     8463 
    8453     8449     8441     8426     8414     8401     8374     8344 
    8317     8275     8226     8185     8139     8085     8031     7977 
    7916     7859     7809     7753     7696     7646     7593     7539 
    7493     7441     7384     7346     7311     7264     7236     7207 
    7167     7145     7132     7105     7083     7078     7065     7056 
    7069     7082     7087     7106     7132     7146     7168     7200 
    7215     7226     7257     7277     7283     7304     7318     7318 
    7330     7337     7337     7346     7357     7358     7357     7362 
    7362     7364     7375     7376     7371     7378     7389     7388 
    7388     7402     7404     7396     7402     7408     7406     7411 
    7426     7433     7446     7469     7489     7512     7542     7566 
    7596     7632     7668     7711     7755     7793     7831     7871 
    7911     7944     7981     8023     8052     8071     8093     8104 
    8110     8120     8117     8102     8093     8078     8056     8035 
    8013     7989     7969     7947     7919     7900     7889     7873 
    7857     7847     7836     7825     7830     7832     7827     7836 
    7854     7859     7869     7886     7894     7903     7919     7925 
    7928     7946     7960     7960     7962     7971     7973     7969 
    7971     7969     7964     7962     7956     7946     7942     7935 
    7920     7906     7905     7898     7884     7881     7879     7863 
    7854     7851     7835     7819     7813     7801     7789     7785 
    7771     7754     7750     7739     7722     7719     7716     7703 
    7703     7709     7701     7700     7709     7712     7715     7722 
    7723     7728     7740     7747     7746     7756     7767     7761 
    7761     7765     7754     7740     7738     7723     7700     7689 
    7677     7650     7630     7619     7597     7574     7565     7551 
    7537     7528     7518     7506     7500     7493     7477     7469 
    7462     7444     7430     7420     7402     7383     7368     7346 
    7319     7296     7267     7234     7203     7164     7126     7092 
    7056     7015     6983     6959     6928     6901     6891     6883 
    6870     6867     6867     6867     6876     6885     6893     6910 
    6926     6948     6982     7013     7042     7076     7118     7155 
    7184     7226     7267     7296     7331     7369     7395     7423 
    7458     7480     7496     7524     7548     7566     7593     7619 
    7632     7655     7682     7696     7716     7751     7781     7807 
    7844     7888     7928     7981     8039     8091     8155     8220 
    8271     8324     8379     8417     8449     8487     8509     8517 
    8527     8537     8532     8519     8509     8487     8464     8446 
    8418     8382     8351     8324     8284     8244     8213     8174 
    8132     8098     8058     8017     7983     7943     7909     7888 
    7858     7827     7816     7812     7798     7789     7789     7784 
    7777     7777     7767     7751     7739     7720     7690     7665 
    7641     7611     7581     7555     7526     7500     7476     7447 
    7426     7410     7387     7366     7356     7342     7327     7315 
    7307     7296     7284     7277     7272     7263     7250     7242 
    7238     7234     7227     7215     7209     7210     7207     7203 
    7214     7221     7227     7246     7264     7277     7302     7322 
    7334     7358     7383     7395     7411     7429     7433     7446 
    7461     7464     7468     7472     7473     7476     7484     7481 
    7469     7466     7461     7442     7434     7431     7419     7411 
    7415     7411     7410     7420     7425     7416     7423     7434 
    7431     7433     7443     7438     7427     7426     7415     7391 
    7372     7350     7319     7294     7264     7227     7198     7177 
    7144     7115     7102     7086     7068     7067     7075     7076 
    7087     7111     7130     7153     7192     7226     7260     7307 
    7346     7373     7411     7450     7470     7497     7527     7542 
    7564     7596     7614     7626     7654     7677     7689     7712 
    7740     7761     7782     7798     7812     7827     7838     7842 
    7838     7836     7831     7816     7803     7796     7785     7773 
    7765     7761     7758     7761     7765     7771     7794     7816 
    7835     7865     7896     7928     7971     8012     8044     8081 
    8116     8141     8166     8189     8201     8208     8218     8217 
    8206     8202     8189     8162     8137     8113     8073     8035 
    8000     7956     7906     7860     7807     7749     7701     7649 
    7586     7534     7488     7434     7388     7352     7302     7261 
    7233     7190     7142     7115     7088     7048     7015     6990 
    6959     6929     6905     6880     6859     6844     6831     6814 
    6806     6808     6801     6804     6817     6821     6832     6856 
    6872     6885     6910     6932     6943     6966     6990     7006 
    7030     7060     7078     7098     7132     7160     7182     7213 
    7241     7258     7287     7315     7331     7356     7389     7414 
    7438     7472     7500     7527     7561     7593     7624     7662 
    7700     7734     7776     7817     7847     7882     7923     7948 
    7974     8007     8033     8050     8073     8098     8114     8131 
    8154     8171     8177     8193     8205     8208     8212     8215 
    8214     8212     8208     8193     8176     8159     8136     8116 
    8100     8075     8056     8047     8024     8000     7990     7973 
    7951     7950     7940     7915     7903     7897     7878     7867 
    7859     7835     7809     7796     7773     7742     7723     7700 
    7663     7634     7607     7569     7538     7514     7480     7457 
    7444     7431     7420     7419     7420     7420     7427     7430 
    7426     7435     7447     7443     7441     7449     7447     7444 
    7454     7464     7469     7489     7518     7538     7572     7619 
    7655     7696     7751     7799     7848     7915     7981     8037 
    8104     8170     8225     8286     8352     8401     8449     8509 
    8561     8612     8672     8723     8772     8830     8884     8923 
    8969     9015     9054     9093     9130     9157     9184     9219 
    9244     9262     9282     9297     9309     9317     9317     9315 
    9312     9312     9302     9282     9270     9259     9231     9205 
    9185     9153     9117     9085     9043     8993     8951     8904 
    8843     8787     8729     8657     8586     8517     8437     8352 
    8274     8185     8094     8016     7931     7839     7753     7669 
    7585     7508     7429     7348     7277     7207     7129     7059 
    6993     6921     6851     6790     6725     6652     6589     6523 
    6448     6381     6315     6238     6165     6093     6011     5930 
    5859     5788     5715     5652     5601     5555     5521     5497 
    5471     5462     5470     5470     5474     5499     5528     5552 
    5590     5632     5674     5724     5782     5831     5888     5961 
    6023     6083     6161     6231     6289     6363     6427     6475 
    6535     6594     6635     6679     6729     6767     6801     6841 
    6867     6883     6910     6933     6937     6949     6968     6976 
    6982     6999     7015     7020     7029     7044     7052     7065 
    7080     7084     7089     7103     7111     7117     7130     7144 
    7156     7176     7198     7213     7240     7271     7290     7315 
    7354     7388     7425     7469     7512     7564     7624     7682 
    7740     7811     7885     7955     8031     8114     8197     8276 
    8356     8428     8503     8579     8641     8695     8761     8816 
    8857     8905     8951     8991     9038     9088     9127     9177 
    9239     9297     9360     9437     9517     9595     9684     9776 
    9864     9957    10052    10138    10219    10303    10370    10427 
   10490    10537    10566    10602    10632    10640    10648    10655 
   10642    10621    10605    10575    10536    10498    10455    10403 
   10350    10296    10237    10176    10111    10035     9964     9895 
    9811     9726     9647     9553     9454     9364     9269     9163 
    9063     8966     8862     8758     8653     8538     8424     8316 
    8194     8070     7960     7850     7734     7628     7537     7443 
    7350     7267     7180     7094     7018     6930     6839     6756 
    6666     6562     6465     6377     6278     6173     6076     5972 
    5864     5767     5668     5559     5463     5371     5271     5181 
    5098     5016     4945     4885     4824     4774     4741     4707 
    4676     4662     4658     4658     4666     4680     4693     4720 
    4756     4788     4828     4878     4927     4980     5044     5112 
    5181     5254     5328     5401     5479     5555     5634     5719 
    5800     5880     5964     6053     6145     6238     6335     6430 
    6527     6631     6731     6824     6926     7030     7121     7215 
    7311     7391     7470     7565     7649     7717     7797     7888 
    7958     8024     8102     8171     8232     8298     8352     8401 
    8461     8510     8545     8587     8627     8652     8681     8718 
    8735     8753     8777     8787     8797     8820     8838     8846 
    8862     8884     8900     8926     8962     8996     9035     9084 
    9131     9175     9231     9286     9328     9371     9417     9452 
    9486     9521     9537     9541     9545     9533     9508     9487 
    9454     9405     9352     9296     9223     9151     9082     8996 
    8905     8823     8731     8630     8536     8447     8356     8266 
    8187     8111     8043     7989     7938     7894     7867     7844 
    7827     7819     7811     7804     7808     7813     7812     7819 
    7832     7843     7863     7896     7925     7956     8004     8055 
    8098     8151     8215     8270     8322     8384     8440     8490 
    8546     8599     8644     8691     8737     8772     8810     8849 
    8868     8885     8910     8916     8916     8920     8920     8918 
    8915     8908     8901     8896     8888     8878     8870     8861 
    8849     8845     8841     8830     8827     8833     8830     8834 
    8850     8869     8885     8908     8928     8946     8977     9009 
    9030     9055     9090     9116     9132     9158     9182     9186 
    9197     9209     9198     9189     9178     9146     9109     9076 
    9024     8954     8883     8806     8710     8606     8500     8382 
    8260     8139     8006     7871     7750     7624     7492     7372 
    7256     7134     7025     6922     6822     6729     6635     6543 
    6462     6385     6309     6238     6170     6108     6050     5998 
    5949     5898     5848     5810     5775     5738     5709     5679 
    5647     5628     5616     5595     5580     5574     5559     5551 
    5552     5543     5540     5547     5545     5551     5574     5595 
    5617     5652     5699     5748     5803     5867     5931     6002 
    6080     6161     6242     6323     6409     6493     6575     6658 
    6736     6813     6885     6952     7021     7080     7129     7183 
    7236     7272     7299     7337     7366     7383     7404     7429 
    7452     7474     7500     7527     7562     7605     7647     7693 
    7751     7813     7878     7956     8035     8109     8195     8291 
    8379     8464     8557     8650     8737     8826     8915     9003 
    9097     9192     9281     9381     9485     9575     9666     9761 
    9837     9911     9994    10054    10102    10153    10196    10226 
   10261    10296    10320    10339    10362    10382    10396    10419 
   10438    10453    10474    10494    10504    10517    10534    10536 
   10540    10547    10539    10525    10516    10494    10463    10432 
   10397    10350    10300    10251    10189    10120    10057     9987 
    9909     9832     9753     9664     9571     9478     9378     9275 
    9173     9054     8932     8818     8694     8556     8428     8298 
    8156     8013     7877     7736     7595     7454     7315     7177 
    7038     6897     6762     6632     6502     6376     6255     6138 
    6023     5918     5821     5726     5638     5557     5478     5406 
    5352     5300     5244     5204     5167     5125     5093     5070 
    5044     5023     5015     5005     5001     5013     5027     5046 
    5080     5117     5155     5209     5275     5339     5409     5495 
    5584     5678     5784     5892     6004     6126     6249     6370 
    6502     6637     6767     6907     7056     7196     7339     7495 
    7642     7788     7943     8094     8239     8383     8527     8658 
    8781     8901     9012     9111     9205     9283     9352     9424 
    9482     9522     9572     9614     9641     9668     9690     9703 
    9714     9718     9717     9710     9703     9687     9659     9634 
    9607     9570     9536     9502     9459     9418     9385     9343 
    9296     9258     9224     9177     9135     9097     9045     8991 
    8939     8874     8803     8734     8654     8568     8486     8398 
    8303     8213     8127     8031     7935     7847     7759     7668 
    7580     7489     7402     7323     7240     7153     7078     7009 
    6941     6883     6832     6787     6744     6714     6693     6675 
    6664     6658     6655     6664     6678     6685     6705     6733 
    6752     6777     6813     6847     6886     6929     6975     7026 
    7086     7146     7206     7273     7339     7396     7461     7527 
    7581     7634     7692     7736     7767     7807     7839     7850 
    7865     7874     7869     7865     7854     7825     7796     7761 
    7716     7663     7614     7560     7495     7434     7376     7314 
    7260     7211     7159     7118     7094     7069     7056     7060 
    7064     7071     7092     7122     7142     7169     7207     7231 
    7252     7277     7294     7300     7311     7314     7302     7294 
    7283     7257     7230     7203     7169     7132     7089     7038 
    6988     6951     6906     6851     6805     6763     6714     6669 
    6635     6600     6571     6556     6538     6515     6505     6502 
    6496     6501     6513     6519     6534     6555     6575     6600 
    6629     6656     6685     6716     6744     6771     6798     6829 
    6856     6886     6922     6945     6968     6998     7023     7051 
    7087     7122     7156     7203     7249     7291     7345     7404 
