Origin Time       2016/04/16 01:25:00
Lat.              32.753
Long.             130.762
Depth. (km)       12
Mag.              7.3
Station Code      WKY014
Station Lat.      33.7053
Station Long.     135.6397
Station Height(m) 430
Record Time       2016/04/16 01:27:31
Sampling Freq(Hz) 100Hz
Duration Time(s)  60
Dir.              N-S
Scale Factor      7845(gal)/8223790
Max. Acc. (gal)   1.793
Last Correction   2016/04/16 01:27:16
Memo.             
[...]
   12005    12010    12015    12021    12025    12024    12023    12023 
   12021    12023    12021    12019    12013    12005    11996    11983 
   11974    11970    11966    11962    11955    11942    11925    11912 
   11898    11888    11881    11884    11888    11889    11893    11898 
   11897    11890    11885    11880    11878    11881    11888    11894 
   11900    11908    11921    11935    11944    11947    11950    11947 
   11944    11940    11939    11943    11952    11965    11975    11986 
   11998    12008    12013    12019    12024    12023    12017    12010 
   12004    11998    11993    11990    11986    11988    11994    12004 
   12009    12010    12013    12010    12005    11998    11989    11982 
   11977    11970    11963    11962    11967    11971    11975    11982 
   11986    11985    11978    11967    11956    11943    11928    11911 
   11886    11861    11842    11827    11823    11828    11838    11853 
   11869    11881    11889    11893    11894    11896    11901    11908 
   11919    11934    11952    11969    11980    11994    12006    12019 
   12029    12043    12058    12074    12089    12105    12120    12129 
   12132    12133    12136    12135    12135    12135    12132    12131 
   12136    12141    12148    12155    12159    12155    12147    12139 
   12127    12109    12093    12078    12062    12046    12033    12029 
   12025    12023    12024    12024    12020    12017    12015    12015 
   12016    12017    12020    12024    12024    12024    12028    12029 
   12027    12024    12019    12013    12006    12002    12002    12012 
   12025    12037    12051    12063    12071    12075    12074    12069 
   12062    12052    12040    12032    12028    12027    12028    12036 
   12048    12056    12063    12070    12073    12070    12066    12063 
   12062    12064    12067    12069    12070    12067    12059    12050 
   12039    12027    12019    12019    12023    12024    12027    12035 
   12042    12046    12051    12052    12050    12046    12043    12039 
   12039    12044    12055    12067    12081    12093    12101    12104 
   12101    12091    12086    12083    12079    12077    12077    12074 
   12066    12052    12033    12008    11979    11950    11925    11911 
   11898    11893    11892    11888    11888    11893    11897    11904 
   11909    11914    11921    11925    11927    11928    11928    11929 
   11929    11929    11929    11931    11937    11950    11963    11982 
   12005    12027    12044    12059    12069    12070    12069    12069 
   12069    12074    12081    12086    12091    12094    12100    12102 
   12098    12098    12104    12108    12112    12116    12117    12120 
   12121    12114    12102    12093    12079    12069    12060    12052 
   12055    12060    12063    12069    12071    12064    12052    12039 
   12027    12013    12004    11998    11992    11988    11986    11988 
   11983    11975    11969    11959    11951    11950    11951    11954 
   11958    11965    11977    11986    11992    11993    11993    11989 
   11988    11988    11989    11992    11994    11996    12001    12004 
   12002    11998    12001    12006    12010    12019    12033    12046 
   12062    12082    12106    12125    12140    12148    12147    12140 
   12132    12125    12120    12112    12108    12105    12100    12096 
   12089    12083    12073    12056    12037    12020    12005    11998 
   11996    11998    12005    12012    12017    12020    12020    12016 
   12006    11997    11989    11980    11978    11982    11992    12010 
   12032    12054    12074    12089    12101    12108    12108    12102 
   12097    12087    12079    12075    12075    12079    12093    12102 
   12106    12109    12105    12089    12074    12063    12055    12054 
   12062    12074    12083    12087    12087    12083    12074    12064 
   12055    12043    12035    12031    12032    12037    12044    12051 
   12052    12048    12040    12027    12009    11997    11989    11989 
   11996    12008    12025    12050    12074    12097    12116    12124 
   12127    12127    12122    12124    12127    12132    12144    12159 
   12172    12185    12194    12201    12208    12212    12214    12218 
   12225    12231    12233    12228    12221    12217    12212    12206 
   12201    12198    12191    12185    12183    12182    12179    12171 
   12155    12137    12120    12097    12073    12055    12042    12029 
   12020    12010    11998    11986    11977    11965    11951    11942 
   11931    11921    11919    11916    11909    11901    11893    11884 
   11874    11867    11862    11853    11842    11831    11817    11807 
   11797    11784    11772    11766    11757    11747    11735    11719 
   11704    11686    11666    11654    11646    11641    11638    11637 
   11632    11628    11626    11623    11619    11615    11614    11615 
   11616    11619    11624    11632    11641    11646    11649    11651 
   11654    11657    11659    11663    11672    11682    11692    11708 
   11726    11743    11759    11774    11785    11789    11790    11793 
   11796    11799    11807    11813    11817    11823    11827    11828 
   11832    11838    11842    11842    11842    11838    11834    11835 
   11842    11851    11867    11892    11913    11935    11956    11975 
   11989    12000    12012    12023    12035    12051    12067    12079 
   12093    12110    12128    12147    12168    12190    12212    12236 
   12254    12270    12289    12307    12324    12339    12351    12359 
   12363    12370    12376    12380    12386    12394    12401    12405 
   12405    12399    12390    12380    12368    12352    12336    12318 
   12299    12286    12274    12259    12244    12231    12218    12204 
   12186    12170    12155    12139    12124    12118    12117    12114 
   12112    12114    12112    12112    12118    12125    12131    12141 
   12151    12158    12163    12167    12166    12158    12145    12132 
   12118    12110    12112    12120    12132    12151    12178    12206 
   12235    12263    12287    12306    12318    12320    12320    12320 
   12318    12321    12325    12325    12328    12337    12343    12349 
   12359    12367    12373    12379    12382    12382    12384    12390 
   12393    12390    12390    12386    12376    12367    12357    12344 
   12330    12324    12317    12306    12297    12290    12275    12258 
   12240    12220    12195    12174    12152    12128    12109    12094 
   12075    12055    12042    12027    12008    11990    11974    11959 
   11944    11934    11923    11909    11893    11874    11853    11835 
   11817    11801    11792    11789    11789    11789    11790    11793 
   11797    11803    11808    11808    11807    11805    11800    11794 
   11789    11782    11777    11770    11762    11758    11751    11739 
   11732    11726    11715    11703    11691    11681    11673    11665 
   11658    11651    11646    11645    11645    11645    11645    11645 
   11642    11637    11630    11623    11616    11605    11593    11584 
   11573    11562    11554    11549    11545    11545    11546    11551 
   11558    11569    11577    11584    11587    11593    11595    11592 
   11592    11593    11593    11592    11592    11595    11600    11604 
   11610    11618    11624    11630    11635    11641    11643    11643 
   11643    11639    11638    11643    11650    11658    11669    11681 
   11693    11708    11723    11739    11762    11781    11794    11808 
   11817    11824    11832    11838    11846    11859    11875    11893 
   11916    11942    11970    11998    12023    12043    12060    12075 
   12087    12104    12124    12147    12171    12198    12228    12253 
   12275    12297    12318    12337    12355    12371    12384    12394 
   12401    12409    12417    12422    12429    12437    12442    12448 
   12451    12452    12455    12455    12457    12463    12467    12469 
   12472    12472    12471    12468    12465    12467    12468    12467 
   12468    12474    12478    12479    12483    12488    12498    12507 
   12513    12518    12530    12540    12546    12556    12564    12573 
   12584    12599    12617    12634    12650    12665    12679    12690 
   12698    12703    12710    12715    12719    12723    12729    12730 
   12727    12725    12719    12713    12713    12712    12703    12699 
   12694    12684    12677    12675    12667    12653    12641    12630 
   12619    12611    12602    12590    12577    12563    12548    12534 
   12514    12494    12482    12469    12455    12441    12425    12406 
   12393    12373    12356    12343    12328    12309    12290    12271 
   12252    12233    12214    12193    12175    12159    12144    12132 
   12122    12114    12109    12110    12110    12112    12117    12124 
   12132    12136    12135    12136    12139    12141    12147    12151 
   12151    12154    12155    12155    12160    12166    12172    12179 
   12185    12185    12188    12194    12195    12191    12188    12182 
   12172    12160    12150    12140    12135    12131    12128    12127 
   12127    12128    12131    12127    12118    12108    12094    12078 
   12059    12040    12024    12006    11989    11977    11969    11962 
   11958    11952    11944    11936    11928    11919    11907    11894 
   11880    11862    11843    11827    11813    11803    11790    11778 
   11769    11755    11739    11727    11709    11686    11666    11645 
   11618    11591    11562    11534    11506    11476    11441    11406 
   11372    11341    11310    11279    11250    11225    11200    11176 
   11160    11146    11133    11121    11110    11103    11095    11088 
   11086    11087    11087    11086    11084    11086    11087    11087 
   11083    11079    11080    11083    11087    11088    11094    11101 
   11107    11114    11124    11133    11144    11156    11165    11176 
   11186    11191    11195    11204    11221    11237    11253    11269 
   11288    11307    11321    11337    11361    11387    11418    11452 
   11487    11523    11560    11593    11622    11650    11676    11700 
   11726    11747    11769    11799    11830    11857    11884    11909 
   11934    11958    11978    11997    12019    12046    12078    12112 
   12150    12193    12237    12278    12314    12352    12384    12411 
   12438    12468    12498    12530    12567    12606    12646    12688 
   12727    12765    12798    12825    12849    12872    12888    12900 
   12911    12920    12921    12920    12926    12933    12931    12933 
   12939    12946    12946    12945    12945    12946    12943    12942 
   12937    12928    12920    12907    12888    12869    12847    12826 
   12804    12777    12750    12723    12692    12657    12622    12584 
   12542    12499    12456    12411    12363    12316    12264    12210 
   12155    12098    12043    11990    11940    11897    11858    11821 
   11789    11759    11729    11703    11678    11655    11632    11610 
   11587    11564    11541    11518    11495    11468    11443    11422 
   11400    11383    11368    11354    11346    11341    11334    11330 
   11327    11326    11329    11334    11344    11358    11377    11400 
   11426    11452    11479    11511    11545    11577    11611    11647 
   11681    11719    11762    11803    11843    11890    11935    11978 
   12023    12069    12110    12155    12198    12237    12275    12312 
   12348    12388    12429    12472    12514    12559    12604    12644 
   12677    12713    12750    12781    12815    12849    12876    12900 
   12923    12946    12970    12993    13015    13035    13055    13073 
   13090    13104    13116    13126    13134    13139    13147    13153 
   13157    13163    13171    13176    13176    13174    13176    13172 
   13169    13163    13155    13146    13138    13129    13117    13111 
   13105    13096    13081    13059    13032    13000    12962    12919 
   12873    12825    12772    12717    12661    12609    12557    12505 
   12457    12411    12367    12320    12272    12224    12174    12122 
   12074    12029    11989    11952    11924    11900    11881    11866 
   11855    11847    11842    11842    11844    11846    11848    11854 
   11862    11870    11880    11894    11911    11928    11947    11967 
   11986    12004    12024    12046    12067    12089    12112    12133 
   12154    12177    12198    12221    12245    12267    12287    12305 
   12321    12336    12353    12371    12386    12399    12417    12436 
   12456    12475    12491    12505    12514    12523    12534    12544 
   12553    12563    12571    12587    12607    12627    12646    12661 
   12673    12685    12695    12700    12708    12715    12723    12733 
   12746    12761    12776    12791    12803    12815    12829    12838 
   12849    12864    12879    12892    12908    12927    12950    12972 
   12995    13016    13042    13069    13096    13122    13147    13170 
   13189    13203    13209    13208    13200    13189    13170    13151 
   13132    13108    13080    13053    13018    12973    12927    12879 
   12826    12771    12712    12653    12592    12533    12472    12415 
   12359    12297    12233    12170    12101    12033    11966    11893 
   11819    11747    11674    11601    11529    11457    11388    11318 
   11246    11176    11109    11043    10979    10914    10848    10786 
   10728    10669    10609    10554    10503    10451    10404    10362 
   10327    10293    10272    10250    10230    10219    10204    10189 
   10181    10173    10164    10164    10169    10177    10187    10210 
   10239    10274    10315    10358    10403    10449    10493    10540 
   10588    10638    10692    10750    10814    10887    10960    11029 
   11102    11178    11253    11335    11419    11500    11583    11665 
   11743    11815    11877    11939    11992    12031    12069    12108 
   12141    12177    12216    12253    12293    12332    12367    12401 
   12434    12460    12482    12505    12522    12540    12565    12594 
   12622    12656    12695    12733    12765    12793    12819    12842 
   12864    12880    12891    12904    12916    12926    12930    12931 
   12926    12916    12904    12892    12879    12866    12858    12852 
   12847    12846    12845    12842    12838    12830    12819    12803 
   12783    12769    12756    12742    12734    12730    12725    12722 
   12721    12715    12710    12703    12694    12680    12663    12641 
   12622    12602    12579    12557    12536    12515    12492    12472 
   12452    12428    12406    12390    12371    12349    12328    12312 
   12293    12271    12245    12221    12197    12171    12144    12124 
   12106    12086    12067    12046    12025    11998    11975    11952 
   11927    11901    11880    11857    11834    11813    11793    11777 
   11765    11750    11734    11715    11696    11680    11662    11643 
   11626    11607    11583    11564    11549    11529    11511    11499 
   11484    11466    11454    11445    11437    11433    11430    11426 
   11425    11429    11435    11445    11453    11461    11473    11484 
   11499    11519    11539    11562    11589    11618    11645    11672 
   11701    11735    11772    11809    11847    11885    11917    11950 
   11986    12016    12043    12074    12102    12131    12163    12194 
   12228    12264    12297    12328    12353    12380    12411    12447 
   12482    12517    12553    12591    12627    12660    12687    12713 
   12739    12758    12775    12793    12812    12834    12853    12868 
   12885    12901    12912    12921    12928    12933    12930    12920 
   12906    12891    12874    12855    12838    12818    12795    12776 
   12758    12735    12711    12687    12661    12633    12607    12583 
   12561    12544    12526    12509    12492    12475    12456    12437 
   12414    12391    12372    12351    12324    12301    12282    12260 
   12243    12233    12226    12217    12210    12206    12202    12195 
   12186    12175    12163    12147    12129    12109    12089    12070 
   12051    12032    12020    12005    11990    11982    11978    11971 
   11966    11962    11955    11950    11943    11935    11929    11925 
   11923    11920    11919    11921    11925    11924    11921    11920 
   11916    11909    11901    11897    11894    11893    11892    11894 
   11893    11890    11889    11889    11888    11881    11871    11861 
   11851    11840    11831    11824    11821    11821    11821    11821 
   11824    11827    11830    11832    11831    11835    11840    11843 
   11848    11858    11865    11866    11871    11875    11878    11881 
   11886    11893    11900    11904    11909    11914    11916    11920 
   11923    11928    11935    11946    11954    11962    11969    11973 
   11970    11963    11956    11946    11937    11932    11927    11923 
   11923    11919    11913    11907    11896    11880    11863    11843 
   11820    11801    11786    11767    11750    11734    11719    11705 
   11693    11678    11663    11646    11632    11622    11610    11596 
   11585    11577    11574    11574    11577    11584    11599    11622 
   11645    11668    11692    11712    11728    11743    11757    11772 
   11786    11808    11836    11869    11902    11934    11963    11989 
   12008    12024    12037    12043    12044    12048    12052    12052 
   12052    12054    12054    12054    12051    12046    12040    12031 
   12021    12010    11998    11986    11974    11963    11954    11943 
   11932    11923    11913    11904    11896    11881    11869    11855 
   11842    11831    11819    11807    11800    11797    11794    11797 
   11803    11808    11815    11820    11827    11830    11828    11826 
   11821    11815    11807    11801    11796    11790    11788    11788 
   11790    11794    11804    11813    11820    11824    11827    11827 
   11823    11815    11804    11796    11786    11774    11765    11757 
   11747    11739    11731    11723    11716    11709    11701    11692 
   11682    11673    11661    11646    11630    11616    11603    11587 
   11572    11560    11545    11527    11511    11495    11477    11464 
   11455    11452    11448    11445    11442    11439    11433    11422 
   11407    11391    11373    11356    11341    11325    11313    11304 
   11299    11298    11296    11298    11303    11306    11307    11310 
   11315    11319    11323    11329    11334    11341    11350    11362 
   11372    11381    11391    11399    11407    11415    11425    11438 
   11449    11462    11479    11491    11502    11511    11518    11524 
   11526    11521    11520    11520    11515    11511    11511    11510 
   11507    11506    11508    11511    11515    11518    11519    11524 
   11530    11529    11524    11529    11531    11530    11534    11542 
   11547    11554    11564    11574    11584    11595    11603    11611 
   11619    11620    11623    11626    11628    11630    11635    11645 
   11655    11665    11674    11682    11691    11693    11693    11695 
   11696    11699    11705    11716    11724    11732    11742    11750 
   11757    11761    11762    11767    11772    11772    11769    11766 
   11761    11755    11750    11742    11736    11734    11731    11726 
   11722    11718    11715    11712    11711    11708    11703    11699 
   11696    11688    11678    11669    11655    11643    11637    11628 
