Origin Time       2016/04/16 01:25:00
Lat.              32.753
Long.             130.762
Depth. (km)       12
Mag.              7.3
Station Code      YMG005
Station Lat.      34.2904
Station Long.     130.9484
Station Height(m) 58
Record Time       2016/04/16 01:25:37
Sampling Freq(Hz) 100Hz
Duration Time(s)  100
Dir.              N-S
Scale Factor      7845(gal)/8223790
Max. Acc. (gal)   8.640
Last Correction   2016/04/16 01:25:37
Memo.             
[...]
   10374     9822     8986     8149     7642     7518     7624     7777 
    7966     8324     8780     9131     9425     9810    10158    10129 
    9614     8928     8461     8235     7974     7605     7410     7548 
    7761     7770     7635     7649     8059     8731     9259     9433 
    9337     9174     9092     9051     8953     8799     8614     8456 
    8459     8572     8575     8490     8525     8664     8756     8847 
    9093     9396     9497     9408     9355     9420     9429     9232 
    8993     9137     9763    10358    10451    10204    10080    10254 
   10528    10575    10287     9971     9972    10282    10681    10949 
   11016    11036    11142    11202    10994    10525    10054     9803 
    9747     9693     9512     9310     9346     9661    10044    10312 
   10443    10461    10396    10239     9926     9464     8982     8520 
    8029     7581     7344     7437     7852     8318     8469     8217 
    7812     7647     7915     8370     8662     8779     8912     9143 
    9379     9501     9512     9552     9718     9852     9626     9034 
    8532     8503     8945     9579    10033    10223    10395    10566 
   10621    10694    10899    11121    11237    11176    10851    10223 
    9458     8955     8911     8997     8822     8472     8385     8746 
    9229     9520     9714    10018    10420    10768    10878    10635 
   10066     9337     8676     8203     7912     7871     8171     8671 
    9150     9547     9847    10068    10304    10562    10683    10508 
   10065     9563     9238     9205     9271     9053     8532     8120 
    8147     8586     9200     9837    10457    10962    11241    11232 
   10976    10709    10674    10827    10889    10660    10238     9911 
    9767     9603     9382     9335     9489     9518     9236     8878 
    8830     9188     9683    10093    10415    10640    10791    10972 
   11209    11353    11242    10971    10786    10663    10396    10054 
    9929    10077    10199    10071     9873     9909    10215    10557 
   10741    10854    11006    11159    11277    11358    11303    10998 
   10517    10073     9744     9466     9275     9232     9224     9147 
    9059     9026     8918     8484     7807     7307     7210     7371 
    7622     7978     8480     9019     9456     9760     9963    10118 
   10272    10480    10773    10996    10928    10682    10648    10874 
   10976    10717    10281    10019    10126    10478    10739    10712 
   10512    10293    10057     9721     9269     8777     8447     8479 
    8787     9112     9355     9504     9466     9208     8796     8341 
    8068     8262     8881     9474     9664     9522     9406     9649 
   10270    10867    11097    11188    11557    12100    12316    11988 
   11438    11034    10793    10585    10338     9985     9582     9325 
    9288     9310     9231     9045     8884     8822     8760     8588 
    8395     8401     8650     8914     9042     9173     9451     9782 
   10035    10242    10399    10335     9913     9286     8766     8471 
    8363     8428     8640     9030     9585    10031    10146    10064 
    9981     9853     9530     9022     8560     8408     8658     9127 
    9544     9913    10404    10956    11267    11097    10590    10278 
   10455    10786    10750    10250     9707     9579     9822     9977 
    9775     9451     9440     9825    10219    10210     9725     9069 
    8619     8434     8286     8062     7852     7835     8040     8224 
    8158     7974     7931     8035     8170     8376     8727     9153 
    9459     9525     9528     9709     9923     9894     9651     9373 
    9169     9062     8911     8608     8348     8401     8785     9219 
    9404     9406     9576    10093    10710    10916    10509     9859 
    9377     9170     9161     9155     9062     9132     9607    10263 
   10652    10640    10451    10326    10247    10026     9676     9520 
    9753    10219    10590    10575    10160     9644     9317     9216 
    9278     9506     9860    10219    10478    10580    10496    10303 
   10131    10022     9937     9847     9733     9645     9674     9741 
    9639     9351     9073     8912     8861     8903     8999     9104 
    9225     9381     9495     9516     9555     9644     9578     9215 
    8710     8444     8694     9224     9539     9509     9429     9570 
    9925    10289    10520    10656    10755    10788    10640    10218 
    9652     9258     9240     9522     9837     9961     9868     9714 
    9757    10060    10331    10390    10327    10139     9809     9471 
    9224     9034     8876     8787     8772     8737     8600     8472 
    8538     8739     8820     8733     8734     9011     9404     9605 
    9462     9035     8440     7844     7586     7865     8387     8702 
    8702     8691     9034     9637    10048    10042     9757     9425 
    9154     8876     8561     8286     8093     8031     8102     8210 
    8286     8329     8380     8530     8823     9194     9518     9791 
   10108    10438    10673    10798    10831    10692    10287     9707 
    9165     8838     8804     8866     8684     8264     7951     8028 
    8480     8988     9198     9085     8977     9180     9657    10145 
   10327    10029     9522     9335     9613    10035    10257    10127 
    9741     9362     9228     9402     9701     9837     9811     9861 
   10039    10242    10463    10716    10902    10874    10552    10030 
    9524     9232     9154     9063     8791     8472     8406     8671 
    9036     9265     9293     9173     9004     8903     9042     9504 
   10088    10520    10675    10551    10179     9620     9035     8687 
    8588     8471     8293     8341     8808     9487     9948    10004 
    9801     9495     9166     8892     8781     8953     9439    10057 
   10512    10585    10247     9693     9242     9007     8829     8667 
    8667     8826     9031     9273     9606    10068    10498    10615 
   10413    10172    10121    10326    10694    11053    11196    10974 
   10461     9895     9421     8988     8467     7921     7731     8144 
    8834     9289     9385     9355     9405     9490     9545     9709 
   10045    10303    10277    10057     9747     9367     9026     8874 
    8941     9142     9404     9664     9850     9922     9877     9801 
    9830     9931     9960     9965    10095    10295    10299     9902 
    9225     8729     8796     9308     9736     9711     9379     9173 
    9375     9844    10177    10187    10130    10308    10620    10759 
   10650    10384    10044     9710     9412     9089     8646     8066 
    7515     7261     7442     7898     8263     8380     8456     8698 
    8985     9055     8918     8881     9127     9450     9641     9821 
   10083    10309    10381    10270    10054     9867     9715     9574 
    9490     9495     9616     9869    10183    10422    10447    10304 
   10260    10315    10207     9926     9551     9009     8456     8147 
    7993     7799     7577     7496     7736     8244     8756     9101 
    9309     9425     9367     9116     8937     9084     9429     9647 
    9629     9482     9277     9109     9089     9119     9004     8770 
    8598     8564     8608     8672     8746     8849     8984     9111 
    9190     9239     9362     9664     9998    10035     9734     9375 
    9235     9394     9733    10099    10413    10611    10666    10611 
   10417    10068     9675     9387     9312     9517     9909    10234 
   10345    10299    10192    10035     9811     9551     9324     9182 
    9155     9243     9343     9355     9274     9170     9147     9234 
    9298     9255     9211     9274     9347     9255     9058     9042 
    9329     9717    10031    10261    10334    10211     9998     9782 
    9614     9543     9555     9549     9382     9028     8687     8591 
    8725     8826     8772     8737     8846     8964     8986     9045 
    9238     9458     9614     9804    10118    10507    10833    10928 
   10786    10604    10486    10385    10222     9984     9803     9806 
    9930     9952     9687     9197     8734     8446     8324     8337 
    8542     9003     9571     9992    10166    10068     9707     9255 
    8889     8671     8568     8401     8073     7838     7969     8398 
    8854     9151     9300     9412     9501     9512     9508     9587 
    9761    10022    10224    10081     9590     9120     8966     9045 
    9074     8982     8961     9092     9235     9322     9448     9607 
    9586     9302     8999     8881     8929     9109     9425     9814 
   10181    10434    10503    10466    10403    10192     9749     9236 
    8896     8822     8926     9169     9618    10114    10258     9938 
    9452     9113     8955     8822     8645     8550     8655     8931 
    9228     9332     9184     9022     9090     9309     9429     9346 
    9161     9065     9134     9277     9428     9659     9985    10234 
   10208     9929     9571     9278     9155     9248     9433     9485 
    9347     9151     9026     8969     8907     8887     9066     9479 
    9985    10424    10669    10709    10689    10683    10620    10527 
   10500    10517    10444    10187     9829     9525     9292     8980 
    8523     8102     7870     7770     7732     7793     8020     8403 
    8868     9274     9388     9124     8738     8545     8581     8648 
    8634     8738     9155     9678     9900     9724     9432     9292 
    9244     9104     8853     8661     8645     8808     9185     9714 
   10130    10187     9918     9640     9652     9977    10444    10945 
   11450    11793    11751    11277    10520     9738     9252     9270 
    9720    10324    10781    10908    10848    10952    11230    11369 
   11237    10897    10424     9973     9690     9652     9927    10454 
   11029    11446    11477    11037    10342     9702     9175     8568 
    7731     6754     5902     5467     5530     5845     6107     6313 
    6642     7129     7589     7777     7693     7631     7786     8028 
    8155     8182     8195     8063     7636     7051     6651     6652 
    6936     7172     7269     7553     8270     9258    10233    10940 
   11195    11024    10615    10197     9853     9397     8711     8033 
    7696     7797     8143     8367     8181     7592     6970     6843 
    7429     8472     9655    10864    12151    13568    14877    15574 
   15417    14710    13981    13527    13343    13250    13016    12499 
   11729    10908    10160     9301     8139     6899     5948     5347 
    5062     5169     5645     6338     7171     8054     8761     9163 
    9428     9875    10613    11404    11913    12083    12355    13235 
   14488    15233    14901    13659    12102    10685     9529     8696 
    8340     8604     9412    10293    10666    10278     9288     8110 
    7065     6200     5521     5131     5190     5710     6351     6658 
    6457     5910     5441     5445     5880     6366     6648     6813 
    7172     7830     8417     8596     8410     8021     7663     7623 
    7940     8313     8271     7649     7052     7350     8687    10307 
   11299    11557    11742    12002    11607    10031     7672     5559 
    4504     4564     5532     7276     9454    11650    13458    14285 
   13842    12486    10866     9744     9640    10295    11119    11884 
   12514    12874    12852    12299    11211     9941     8923     8467 
    8626     9007     9259     9536    10022    10540    10852    10755 
   10030     8739     7253     6002     5448     5868     7038     8418 
    9559    10296    10696    11006    11441    11840    11805    11110 
    9780     7928     6027     5020     5441     6814     8162     8843 
    8939     8964     9132     9012     8077     6409     4664     3534 
    3319     4029     5582     7611     9528    10939    11734    12009 
   12044    12129    12486    13216    14104    14520    13819    11965 
    9585     7576     6501     5956     5085     3910     3412     4368 
    6478     8727    10584    12174    13462    14316    14812    14906 
   14520    13799    13014    12494    12206    11487     9857     7761 
    6174     5714     6280     7391     8600     9684    10673    11662 
   12571    13176    13327    13045    12581    12213    11890    11475 
   11171    11313    12027    12962    13400    13106    12579    12140 
   11762    11388    10706     9562     8502     8148     8540     9310 
    9923    10006     9698     9355     9282     9721    10666    11738 
   12386    12330    11782    10773     9026     7009     5840     6046 
    7160     8404     9497    10493    11134    11094    10537     9892 
    9499     9517     9852    10423    11164    11747    11819    11223 
    9822     7751     5656     4205     3524     3111     2440     1738 
    1561     1961     2625     3200     3523     3967     4988     6563 
    8556    10818    12869    14080    14203    13664    13139    12472 
   11033     9104     7570     6750     6154     5039     3296     1636 
     843     1235     2529     3996     5112     5921     6670     7586 
    8793    10006    10824    11246    11450    11476    11280    10831 
   10350    10204    10276    10055     9294     8166     7288     7474 
    8842    10473    11392    11483    11148    10584     9717     8529 
    7425     7055     7434     7827     7611     6794     6027     6241 
    7863    10343    12573    13802    14014    13671    13389    13477 
   13528    12850    11421     9929     8772     7604     5938     3751 
    1586      329      533     1838     3477     5007     6210     7119 
    8068     9319    10908    12730    14472    15632    15789    14891 
   13325    11557     9645     7577     5869     4980     4757     5019 
    5760     6881     8218     9440    10176    10465    10569    10605 
   10627    10606    10412    10057     9810     9814     9803     9544 
    9188     8912     8721     8680     9049    10050    11375    12167 
   11881    10944    10226    10189    10848    12016    13370    14531 
   15191    15434    15606    15606    15045    13890    12424    11053 
   10162     9783     9622     9463     9298     9285     9599    10025 
    9821     8653     7258     6716     7429     8851    10008    10436 
   10500    10709    11057    11160    10729     9915     9366     9613 
   10324    10721    10539    10223    10351    10925    11356    11198 
   10558     9818     9256     8830     8237     7406     6648     6212 
    6058     6072     6139     6161     6249     6721     7850     9657 
   11672    12996    13106    12503    12077    12021    11904    11647 
   11681    12009    12100    11815    11403    10913    10380    10121 
   10449    11272    12195    12892    13374    13937    14681    15346 
   15742    15815    15479    14721    13652    12627    12343    13138 
   14401    15149    14964    14188    13309    12559    11994    11510 
   10921    10193     9416     8721     8201     7758     7230     6752 
    6770     7415     8100     8170     7672     7065     6627     6307 
    5898     5443     5397     5996     6876     7561     7912     7974 
    7720     7061     6049     5057     4704     5192     6039     6841 
    7520     7900     7906     7844     7969     8278     8752     9294 
    9651     9768     9895    10127    10133     9648     8928     8236 
    7474     6588     5748     5173     4900     4727     4523     4425 
    4614     5078     5582     5915     6224     6700     7042     6817 
    5981     4715     3334     2261     1837     2323     3712     5336 
    6288     6421     6478     7080     8094     9163    10157    11013 
   11659    12083    12293    12295    12059    11539    10818    10160 
    9767     9612     9620     9796    10081    10263     9987     8943 
    7385     5996     5007     4240     3836     4182     5486     7438 
    9297    10611    11259    11110    10462     9925     9563     9047 
    8213     7086     5853     4833     4327     4518     5263     6088 
    6600     6787     6767     6590     6455     6716     7515     8610 
    9633    10544    11568    12698    13598    13882    13416    12417 
   11165     9767     8317     7109     6262     5525     4881     4652 
    5027     5925     6980     7839     8367     8561     8607     8550 
    8237     8032     8454     9308    10027    10343    10427    10592 
   10752    10431     9466     8108     6700     5757     5727     6493 
    7568     8581     9409     9976    10197    10226    10435    10968 
   11564    11766    11337    10485     9474     8360     7307     6709 
    6752     7160     7631     8182     8860     9470     9882    10207 
   10558    10918    11271    11503    11410    10941    10311     9855 
    9694     9674     9567     9123     8372     7769     7678     8100 
    8845     9535     9742     9421     8972     8743     8834     9339 
   10295    11445    12380    12769    12465    11793    11384    11315 
   11168    10794    10416    10457    11095    12023    12901    13648 
   14413    15414    16557    17579    18292    18345    17521    16193 
   14859    13640    12514    11437    10358     9390     8640     8077 
    7785     7816     7990     8328     8981     9649     9929     9849 
    9628     9478     9451     9408     9342     9196     8739     8078 
    7595     7609     8175     8868     9304     9556     9624     9373 
    8914     8457     8166     8117     8343     8945     9837    10546 
   10731    10629    10652    10817    10801    10361     9612     8957 
    8641     8473     8141     7677     7415     7591     8163     9015 
    9960    10689    11028    11028    10847    10697    10714    10737 
   10477    10010     9652     9567     9837    10381    10800    10813 
   10567    10401    10519    10916    11466    11982    12297    12314 
   11990    11353    10550     9830     9306     8857     8324     7665 
    6952     6354     6154     6667     7813     9186    10516    11663 
   12486    12924    13030    12934    12818    12630    12096    11192 
   10320     9879     9873     9979     9960     9856     9828     9975 
   10214    10262     9923     9336     8775     8348     8024     7784 
    7701     7897     8322     8781     9192     9670    10329    10996 
   11372    11493    11596    11607    11303    10725    10044     9425 
    9042     8899     8939     9216     9697    10272    10844    11206 
   11152    10687     9995     9324     8822     8384     7974     7851 
    8159     8706     9221     9544     9722     9829     9806     9653 
    9506     9413     9339     9312     9367     9460     9462     9228 
    8846     8545     8345     8203     8202     8387     8685     8908 
    8899     8746     8619     8494     8337     8233     8202     8186 
    8181     8229     8359     8517     8716     9080     9529     9802 
    9765     9494     9200     9057     8927     8517     7870     7380 
    7290     7522     7879     8201     8421     8568     8676     8758 
    8795     8856     9159     9802    10531    11014    11146    11010 
   10774    10562    10324    10003     9705     9594     9744    10054 
   10282    10312    10257    10238    10291    10431    10671    10982 
   11271    11437    11400    11113    10744    10686    11060    11519 
   11761    11947    12330    12746    12949    12962    12773    12309 
   11719    11240    10890    10539    10199    10003     9991    10143 
