Origin Time       2016/04/16 01:25:00
Lat.              32.753
Long.             130.762
Depth. (km)       12
Mag.              7.3
Station Code      YMG010
Station Lat.      34.2304
Station Long.     131.9822
Station Height(m) 65
Record Time       2016/04/16 01:25:41
Sampling Freq(Hz) 100Hz
Duration Time(s)  105
Dir.              N-S
Scale Factor      7845(gal)/8223790
Max. Acc. (gal)   7.402
Last Correction   2016/04/16 01:25:42
Memo.             
[...]
    4554     4789     4963     5046     5047     5080     5212     5271 
    5070     4742     4541     4477     4422     4324     4189     4036 
    3960     4090     4421     4810     5127     5275     5178     4911 
    4689     4660     4846     5138     5293     5188     4976     4808 
    4691     4660     4718     4791     4880     4996     5032     4835 
    4395     3943     3778     4040     4646     5335     5798     5917 
    5787     5566     5377     5337     5481     5647     5556     5146 
    4634     4202     3785     3302     2914     2941     3497     4418 
    5397     6035     6115     5872     5732     5850     6122     6358 
    6363     6068     5614     5242     5082     5096     5123     4996 
    4703     4484     4618     5074     5516     5682     5644     5582 
    5510     5343     5112     4962     4950     4951     4873     4814 
    4881     5013     5135     5227     5254     5215     5164     5125 
    5093     5060     4954     4712     4445     4310     4286     4252 
    4203     4228     4341     4495     4727     5042     5321     5486 
    5552     5583     5682     5967     6405     6782     6821     6409 
    5765     5327     5377     5795     6178     6222     5917     5456 
    5062     4831     4758     4843     5036     5162     5093     4932 
    4846     4838     4826     4818     4873     5035     5373     5898 
    6435     6750     6777     6592     6309     6072     5988     6049 
    6166     6297     6399     6354     6124     5864     5792     5968 
    6297     6635     6902     7075     7149     7163     7195     7254 
    7207     6848     6150     5355     4770     4571     4818     5413 
    6108     6706     7118     7268     7125     6772     6367     6091 
    6049     6134     6174     6158     6195     6338     6586     6940 
    7357     7700     7823     7689     7365     6928     6443     5977 
    5606     5468     5675     6118     6540     6809     6903     6806 
    6612     6494     6457     6365     6176     5942     5722     5610 
    5740     6076     6374     6486     6465     6430     6492     6706 
    6956     7056     6972     6777     6508     6195     5871     5568 
    5405     5498     5790     6142     6493     6808     7056     7231 
    7277     7096     6671     6133     5711     5556     5628     5849 
    6235     6673     6881     6781     6521     6228     6025     6092 
    6427     6711     6679     6459     6349     6408     6471     6400 
    6201     5971     5746     5529     5343     5209     5151     5206 
    5337     5427     5431     5458     5609     5844     6069     6264 
    6423     6438     6189     5726     5198     4753     4579     4715 
    4931     5013     4989     4989     5055     5109     5130     5254 
    5578     6006     6408     6686     6771     6608     6153     5464 
    4801     4483     4648     5182     5775     6130     6173     6022 
    5838     5736     5721     5734     5710     5598     5390     5173 
    5046     5046     5221     5579     5944     6123     6122     6037 
    5890     5706     5609     5647     5689     5613     5447     5202 
    4814     4372     4101     4112     4388     4864     5305     5417 
    5134     4661     4317     4388     4923     5675     6336     6716 
    6723     6408     5911     5387     5013     4911     5062     5429 
    5968     6517     6898     7021     6812     6258     5483     4689 
    4120     3979     4271     4779     5250     5564     5670     5502 
    5076     4556     4191     4149     4375     4671     4874     4876 
    4652     4355     4200     4320     4715     5243     5687     5927 
    5968     5902     5831     5760     5684     5675     5691     5582 
    5312     4981     4785     4936     5421     5961     6278     6277 
    6010     5571     5078     4695     4526     4577     4852     5301 
    5705     5840     5727     5589     5572     5655     5764     5867 
    5926     5904     5814     5764     5845     5957     5856     5517 
    5235     5256     5510     5826     6064     6156     6183     6239 
    6290     6299     6272     6123     5814     5493     5339     5371 
    5486     5630     5814     5902     5628     4923     4086     3592 
    3748     4476     5436     6312     6936     7250     7323     7269 
    7071     6586     5798     4972     4440     4330     4510     4773 
    4973     5070     5121     5136     5027     4776     4475     4252 
    4271     4633     5155     5459     5355     5038     4837     4936 
    5265     5516     5414     5024     4626     4423     4423     4515 
    4591     4619     4614     4642     4792     5090     5494     5900 
    6160     6150     5917     5665     5557     5506     5271     4787 
    4225     3792     3605     3748     4200     4779     5251     5443 
    5259     4738     4133     3819     3986     4499     5123     5694 
    6122     6363     6381     6124     5727     5458     5394     5409 
    5429     5479     5563     5651     5703     5682     5567     5362 
    5086     4789     4545     4415     4437     4606     4851     5070 
    5254     5472     5722     5919     6002     5902     5568     5084 
    4707     4635     4828     5093     5248     5228     5124     5050 
    4999     4884     4668     4378     4097     3940     3987     4186 
    4398     4548     4692     4922     5221     5463     5512     5367 
    5166     4999     4843     4712     4722     4932     5233     5431 
    5428     5289     5117     4965     4845     4729     4561     4369 
    4344     4656     5219     5782     6180     6351     6211     5751 
    5162     4718     4581     4704     4891     4999     5026     5008 
    4903     4626     4241     3979     4003     4288     4653     4833 
    4696     4403     4233     4301     4464     4541     4486     4390 
    4391     4590     4942     5286     5524     5648     5629     5406 
    4935     4310     3815     3665     3815     4159     4660     5188 
    5548     5667     5634     5613     5713     5877     5873     5479 
    4707     3790     3001     2571     2660     3183     3858     4463 
    4954     5418     5927     6393     6631     6589     6377     6124 
    5906     5763     5699     5644     5524     5410     5479     5759 
    6093     6349     6430     6259     5918     5587     5356     5198 
    5096     5101     5242     5470     5688     5733     5441     4888 
    4413     4307     4548     4915     5244     5510     5688     5706 
    5572     5405     5225     4958     4604     4266     4055     4033 
    4143     4295     4534     4931     5364     5582     5510     5348 
    5323     5481     5694     5790     5683     5404     5063     4855 
    4916     5084     5055     4787     4515     4431     4502     4560 
    4530     4491     4552     4742     4989     5184     5332     5532 
    5730     5810     5848     5944     5985     5825     5517     5235 
    5111     5185     5400     5533     5382     5027     4748     4720 
    4904     5124     5244     5297     5400     5552     5668     5713 
    5694     5628     5555     5525     5537     5519     5417     5301 
    5304     5448     5652     5846     6006     6095     6110     6112 
    6157     6203     6184     6114     6034     5958     5934     5972 
    6002     6004     6002     5925     5714     5475     5362     5435 
    5621     5755     5744     5593     5331     5034     4781     4606 
    4635     4980     5458     5752     5745     5548     5336     5247 
    5297     5379     5410     5421     5487     5636     5830     5995 
    6079     6115     6157     6183     6147     6025     5849     5729 
    5775     5994     6258     6369     6185     5727     5185     4827 
    4811     5053     5348     5570     5734     5922     6170     6463 
    6717     6779     6554     6153     5798     5611     5589     5699 
    5841     5880     5775     5559     5271     5003     4849     4799 
    4811     4889     5015     5163     5401     5748     6025     6031 
    5784     5420     5059     4814     4781     4992     5402     5884 
    6262     6389     6265     5998     5667     5328     5092     4996 
    4914     4699     4356     4074     4094     4464     5020     5579 
    6050     6358     6465     6436     6405     6417     6420     6397 
    6426     6501     6440     6084     5537     5101     5035     5367 
    5857     6195     6252     6158     6162     6382     6666     6789 
    6701     6469     6174     5953     5884     5906     5940     5988 
    6037     6041     5984     5879     5724     5537     5370     5310 
    5447     5702     5873     5914     5953     6057     6135     6064 
    5834     5560     5335     5247     5382     5706     6083     6413 
    6583     6443     6011     5508     5139     4999     5127     5468 
    5884     6278     6582     6643     6342     5755     5130     4716 
    4646     4916     5439     6037     6453     6455     6031     5470 
    5092     4914     4781     4688     4747     4959     5220     5478 
    5733     5919     5917     5749     5559     5422     5356     5358 
    5386     5386     5320     5158     4951     4819     4842     5035 
    5371     5760     6038     6057     5838     5590     5428     5231 
    4852     4282     3704     3507     3937     4753     5466     5829 
    5922     5899     5837     5740     5551     5286     5086     4988 
    4893     4852     4988     5204     5305     5247     5093     4893 
    4745     4828     5243     5892     6477     6651     6356     5810 
    5267     4974     4989     5120     5273     5462     5533     5456 
    5443     5491     5404     5297     5382     5571     5741     5871 
    5848     5649     5468     5408     5386     5352     5293     5080 
    4698     4464     4560     4688     4615     4565     4746     4943 
    4912     4757     4654     4716     5073     5616     5987     6065 
    6002     5796     5428     5131     4974     4680     4217     3861 
    3812     4189     4923     5539     5585     5227     4955     5065 
    5447     5663     5439     5100     5093     5348     5497     5347 
    4981     4654     4534     4576     4706     4881     5073     5277 
    5481     5705     6018     6326     6384     6127     5748     5495 
    5599     6081     6525     6443     5848     5076     4321     3757 
    3771     4548     5638     6346     6389     6088     5998     6183 
    6070     5362     4638     4629     5296     6084     6574     6509 
    5852     5060     4733     4939     5292     5431     5293     5107 
    5051     5020     4988     5121     5379     5676     6147     6713 
    7047     7103     7075     7096     7190     7236     7069     6658 
    6080     5530     5323     5489     5697     5814     5964     6021 
    5850     5782     6108     6609     6941     7010     6883     6708 
    6578     6386     5987     5440     4834     4200     3759     3765 
    4175     4855     5661     6282     6458     6245     5869     5544 
    5451     5660     5946     5962     5659     5277     4989     4779 
    4614     4625     4908     5262     5448     5440     5219     4861 
    4642     4617     4639     4641     4504     4233     4087     4114 
    4106     3990     3801     3640     3692     3956     4330     4965 
    5956     6868     7160     6790     6138     5616     5308     4989 
    4596     4301     4207     4303     4463     4581     4750     5004 
    5286     5742     6426     7017     7219     7048     6739     6440 
    5929     5043     4085     3442     3292     3557     3924     4237 
    4571     4877     5166     5579     5913     5834     5499     5228 
    5063     5054     5262     5481     5548     5562     5567     5486 
    5424     5590     5848     5807     5455     5173     5174     5227 
    5077     4814     4650     4595     4467     4116     3709     3708 
    4414     5485     6112     5945     5364     4822     4461     4279 
    4197     4147     4133     4158     4317     4760     5404     6083 
    6790     7371     7649     7801     7758     7067     5846     4819 
    4498     4870     5548     6002     5879     5327     4872     4748 
    4830     5001     5143     5204     5341     5526     5513     5319 
    5093     4799     4375     3919     3765     4238     5085     5737 
    6044     5964     5314     4446     3951     3753     3549     3489 
    3780     4263     4606     4662     4563     4537     4806     5433 
    6219     6940     7411     7419     6787     5589     4275     3464 
    3440     4035     4907     5850     6727     7331     7470     7280 
    7248     7515     7668     7472     7136     6874     6789     6905 
    7159     7398     7387     7029     6547     6261     6338     6686 
    7088     7491     7879     8073     7994     7727     7249     6647 
    6326     6601     7399     8398     9258     9764     9865     9652 
    9316     9019     8707     8175     7396     6717     6500     6675 
    6836     6736     6493     6296     6214     6216     6192     6100 
    5989     5768     5335     4943     4915     5171     5467     5727 
    5863     5706     5325     5022     4923     4870     4683     4376 
    4025     3631     3244     2965     2717     2430     2267     2239 
    2139     2091     2376     2751     2751     2296     1554      757 
     249      194      279      167        2      116      572     1266 
    2077     2822     3368     3684     3808     3888     3955     3794 
    3308     2593     1733      913      364      -54     -712    -1599 
   -2286    -2409    -1888     -862      418     1694     2792     3632 
    4185     4473     4540     4468     4417     4483     4596     4680 
    4765     4870     4927     4837     4540     4085     3613     3245 
    3142     3453     4090     4888     5818     6839     7722     8212 
    8391     8581     8931     9383     9913    10465    10858    10956 
   10782    10355     9647     8823     8319     8454     9142    10081 
   10930    11352    11188    10481     9436     8477     8064     8337 
    8957     9436     9637     9683     9506     8910     7889     6480 
    4673     2816     1528     1057     1204     1861     3103     4719 
    6196     7349     8433     9590    10666    11416    11605    11173 
   10327     9201     7703     5918     4357     3562     3603     4025 
    4371     4664     5130     5603     5656     5205     4522     3863 
    3372     3038     2700     2354     2196     2174     1992     1653 
    1425     1333     1271     1333     1543     1800     2259     3092 
    4063     4769     4895     4266     3180     2403     2428     2999 
    3431     3250     2612     2147     2324     3118     4253     5431 
    6353     6815     6805     6492     6044     5528     4951     4322 
    3619     2791     1856     1088      841     1221     2196     3736 
    5699     7770     9513    10632    11171    11389    11495    11507 
   11318    10947    10535    10088     9493     8702     7801     7023 
    6569     6322     6088     5953     6042     6237     6369     6447 
    6598     6963     7604     8428     9205     9736     9988    10137 
   10428    10847    11044    10858    10481     9999     9374     8842 
    8665     8750     8928     9274     9938    10905    11815    12064 
   11348    10060     9019     8752     9153     9883    10740    11531 
   11909    11611    10768     9823     9151     8743     8297     7699 
    7236     7160     7300     7356     7195     6697     5819     4772 
    3762     2874     2158     1660     1478     1630     1935     2258 
    2586     2839     2910     2816     2644     2511     2486     2420 
    2064     1444      851      438       76     -337     -623     -549 
    -148      390      905     1318     1625     1715     1356      472 
    -664    -1598    -2064    -2092    -1768    -1192     -521      160 
     819     1393     1821     2170     2700     3546     4446     5011 
    5050     4550     3623     2596     1814     1302      955      989 
    1645     2721     3680     4024     3728     3304     3244     3608 
    4286     5262     6562     8062     9378    10108    10106     9401 
    8135     6609     5215     4386     4405     4981     5451     5598 
    5653     5643     5451     5192     5043     5104     5478     6204 
    7241     8441     9377     9674     9477     9154     8872     8725 
    8829     9184     9662    10058    10107     9610     8592     7425 
    6567     6151     6093     6394     7063     7815     8108     7612 
    6543     5408     4526     3919     3469     3114     3049     3562 
    4606     5757     6613     7075     7269     7349     7454     7645 
    7773     7659     7337     6828     5956     4696     3419     2527 
    2177     2344     2875     3508     4009     4298     4379     4159 
    3495     2502     1580     1007      731      540      209     -225 
    -263      591     2327     4603     7018     9099    10417    10836 
   10443     9396     7931     6338     4918     3959     3419     2983 
    2583     2346     2214     2139     2223     2525     3149     4203 
    5514     6779     7831     8492     8579     8077     7142     6122 
    5360     4908     4606     4395     4251     4106     3982     3946 
    3888     3663     3383     3306     3577     4209     5003     5458 
    5146     4156     2868     1535      301     -773    -1661    -2151 
   -1954    -1085      133     1410     2610     3651     4409     4756 
    4718     4499     4271     4033     3719     3357     3018     2666 
    2280     2073     2301     3015     4029     4918     5343     5462 
    5664     6065     6531     6851     6916     6909     6952     6735 
    6058     5233     4681     4661     5252     6211     7183     7987 
    8437     8406     8040     7442     6465     5143     3873     3078 
    2898     3198     3740     4225     4395     4390     4665     5436 
    6474     7366     7723     7393     6739     6385     6525     6835 
    7011     6961     6552     5714     4712     3981     3750     3929 
    4117     3915     3350     2674     1993     1404     1078     1059 
    1235     1597     2247     3049     3492     3173     2322     1647 
    1648     2278     3168     3946     4357     4386     4241     4144 
    4122     4083     4024     4063     4248     4542     4895     5217 
    5390     5433     5464     5510     5518     5433     5217     4858 
    4345     3684     3041     2592     2319     2253     2524     3144 
    4017     4988     5748     6038     5902     5640     5539     5675 
    5962     6252     6345     6120     5640     4980     4121     3114 
    2258     1872     1954     2326     2870     3435     3880     4348 
    5027     5701     5907     5513     4891     4622     4938     5528 
    5957     6077     5992     5829     5636     5481     5412     5341 
    5184     4949     4718     4608     4664     4861     5246     5788 
    6232     6304     5971     5494     5206     5076     4774     4225 
    3636     3165     2943     3127     3840     5050     6450     7581 
    8091     7889     7114     5940     4614     3669     3601     4321 
    5301     6102     6608     6964     7299     7593     7834     8097 
    8344     8321     7803     6925     6060     5451     5193     5270 
    5525     5809     6026     6044     5831     5494     5225     5324 
    5890     6567     6949     6939     6577     5884     4826     3481 
