Origin Time       2016/04/16 01:25:00
Lat.              32.753
Long.             130.762
Depth. (km)       12
Mag.              7.3
Station Code      YMG015
Station Lat.      34.0966
Station Long.     132.0758
Station Height(m) 64
Record Time       2016/04/16 01:25:39
Sampling Freq(Hz) 100Hz
Duration Time(s)  116
Dir.              E-W
Scale Factor      7845(gal)/8223790
Max. Acc. (gal)   12.815
Last Correction   2016/04/16 01:25:40
Memo.             
[...]
   -6755    -6635    -6392    -6231    -6092    -5810    -5441    -5231 
   -5347    -5675    -5890    -5822    -5559    -5247    -5024    -5012 
   -5238    -5508    -5524    -5224    -4785    -4379    -4029    -3685 
   -3437    -3429    -3577    -3666    -3636    -3570    -3496    -3416 
   -3375    -3402    -3619    -4047    -4428    -4568    -4525    -4472 
   -4617    -5034    -5594    -6160    -6667    -7074    -7325    -7375 
   -7231    -6916    -6484    -6058    -5748    -5603    -5566    -5486 
   -5305    -5078    -4885    -4781    -4810    -5016    -5364    -5715 
   -5964    -6100    -6186    -6270    -6343    -6380    -6312    -6139 
   -5908    -5590    -5235    -5005    -4932    -4852    -4625    -4240 
   -3738    -3183    -2716    -2539    -2721    -3018    -3034    -2806 
   -2728    -2859    -3013    -3167    -3343    -3528    -3673    -3732 
   -3821    -4068    -4406    -4652    -4803    -5077    -5495    -5888 
   -6242    -6619    -7059    -7497    -7678    -7450    -6979    -6598 
   -6520    -6682    -6855    -6836    -6651    -6542    -6666    -7009 
   -7435    -7628    -7372    -6829    -6228    -5547    -4745    -3951 
   -3262    -2644    -2130    -1811    -1696    -1711    -1741    -1775 
   -1841    -1968    -2311    -2951    -3738    -4523    -5258    -5821 
   -6153    -6401    -6667    -6918    -7109    -7150    -6983    -6663 
   -6318    -6091    -6069    -6201    -6336    -6388    -6408    -6440 
   -6482    -6546    -6613    -6660    -6727    -6767    -6664    -6489 
   -6378    -6322    -6231    -6057    -5845    -5647    -5440    -5227 
   -5066    -4976    -4904    -4726    -4392    -4069    -3927    -3958 
   -4122    -4434    -4860    -5232    -5383    -5339    -5219    -5051 
   -4882    -4822    -4923    -5146    -5436    -5741    -6030    -6389 
   -6810    -7059    -7002    -6744    -6432    -6170    -5942    -5640 
   -5385    -5405    -5620    -5841    -6046    -6208    -6201    -6000 
   -5738    -5610    -5724    -6025    -6330    -6542    -6687    -6720 
   -6578    -6326    -6027    -5733    -5532    -5416    -5281    -5085 
   -4814    -4518    -4326    -4282    -4275    -4228    -4255    -4492 
   -4823    -5066    -5219    -5421    -5778    -6199    -6536    -6843 
   -7152    -7264    -7144    -7023    -7020    -7125    -7257    -7287 
   -7169    -6862    -6381    -5975    -5807    -5748    -5667    -5582 
   -5529    -5539    -5583    -5621    -5684    -5688    -5512    -5235 
   -4985    -4788    -4660    -4568    -4463    -4380    -4437    -4638 
   -4788    -4773    -4730    -4791    -5005    -5472    -6168    -6821 
   -7272    -7614    -7896    -8047    -8014    -7827    -7631    -7526 
   -7485    -7488    -7469    -7294    -6955    -6559    -6208    -6035 
   -6133    -6355    -6415    -6180    -5786    -5529    -5595    -5913 
   -6311    -6663    -6833    -6713    -6345    -5852    -5374    -5066 
   -4972    -4999    -4988    -4835    -4654    -4557    -4426    -4186 
   -3935    -3759    -3724    -3893    -4238    -4673    -5124    -5524 
   -5791    -5926    -6104    -6482    -6972    -7383    -7697    -8071 
   -8515    -8876    -9038    -8938    -8517    -7848    -7169    -6664 
   -6330    -6084    -5899    -5760    -5597    -5421    -5383    -5501 
   -5589    -5556    -5506    -5533    -5610    -5552    -5221    -4803 
   -4521    -4387    -4461    -4739    -4965    -4945    -4710    -4407 
   -4243    -4333    -4577    -4877    -5225    -5541    -5763    -5995 
   -6308    -6635    -6835    -6831    -6878    -7252    -7893    -8646 
   -9205    -9246    -9050    -9047    -9111    -8991    -8702    -8364 
   -8097    -7909    -7638    -7087    -6290    -5420    -4576    -4058 
   -4225    -4850    -5194    -4753    -3657    -2727    -3003    -4418 
   -5645    -5867    -5506    -5250    -5409    -5796    -5859    -5551 
   -5503    -5900    -6246    -6142    -5726    -5329    -4994    -4876 
   -5206    -5613    -5744    -5818    -5715    -5329    -5394    -6069 
   -6457    -6245    -5892    -5759    -5863    -5871    -5655    -5640 
   -6072    -6632    -7030    -7287    -7458    -7441    -7362    -7622 
   -8106    -8505    -8806    -8718    -8167    -7809    -7890    -8128 
   -8418    -8311    -7279    -6015    -5652    -6169    -6663    -6498 
   -5846    -5383    -5516    -6093    -6438    -5809    -4615    -4009 
   -4233    -4787    -5001    -4514    -3715    -3094    -2986    -3380 
   -3466    -3040    -3024    -3634    -4314    -4874    -5270    -5481 
   -5760    -6427    -7492    -8348    -8431    -8159    -7982    -7684 
   -7619    -8194    -8565    -8059    -7338    -7179    -7446    -7657 
   -7798    -8012    -8245    -8472    -8629    -8614    -8332    -7700 
   -6970    -6494    -6219    -5984    -5748    -5339    -4760    -4295 
   -3929    -3543    -3288    -3211    -3190    -3126    -2984    -2790 
   -2756    -3076    -3577    -3998    -4352    -4734    -5109    -5421 
   -5644    -5737    -5821    -6092    -6536    -6972    -7217    -7203 
   -7047    -6919    -6906    -6944    -6970    -6993    -7001    -7001 
   -7079    -7276    -7453    -7479    -7439    -7466    -7581    -7705 
   -7668    -7406    -7036    -6650    -6328    -6199    -6281    -6465 
   -6613    -6604    -6409    -6141    -5962    -6010    -6212    -6304 
   -6151    -5831    -5495    -5290    -5278    -5373    -5447    -5516 
   -5672    -5930    -6285    -6732    -7172    -7481    -7572    -7426 
   -7146    -6833    -6507    -6166    -5860    -5647    -5549    -5548 
   -5547    -5468    -5350    -5268    -5271    -5321    -5368    -5398 
   -5400    -5401    -5420    -5417    -5418    -5428    -5336    -5134 
   -4992    -4989    -5040    -5065    -5053    -5042    -5066    -5089 
   -5103    -5198    -5424    -5727    -6023    -6237    -6392    -6605 
   -6862    -7014    -7011    -6901    -6756    -6662    -6629    -6609 
   -6569    -6485    -6311    -6062    -5844    -5701    -5598    -5552 
   -5644    -5846    -6043    -6214    -6404    -6534    -6469    -6185 
   -5792    -5418    -5093    -4806    -4588    -4486    -4553    -4847 
   -5347    -5887    -6274    -6492    -6669    -6913    -7198    -7395 
   -7371    -7063    -6515    -5825    -5157    -4716    -4575    -4575 
   -4495    -4268    -4027    -3955    -4159    -4631    -5255    -5898 
   -6477    -6943    -7302    -7639    -7989    -8266    -8395    -8363 
   -8133    -7789    -7495    -7254    -7005    -6755    -6512    -6278 
   -6085    -5896    -5636    -5332    -5057    -4830    -4664    -4509 
   -4248    -3831    -3345    -2976    -2855    -2960    -3180    -3419 
   -3634    -3873    -4158    -4469    -4851    -5382    -6004    -6571 
   -6993    -7272    -7477    -7678    -7834    -7836    -7650    -7360 
   -7088    -6833    -6498    -6058    -5556    -5093    -4841    -4877 
   -5112    -5374    -5483    -5337    -5053    -4801    -4621    -4464 
   -4256    -3940    -3613    -3415    -3373    -3434    -3543    -3711 
   -3950    -4248    -4612    -4994    -5275    -5428    -5505    -5516 
   -5491    -5435    -5273    -5016    -4769    -4648    -4657    -4723 
   -4820    -4976    -5167    -5306    -5324    -5242    -5169    -5232 
   -5410    -5552    -5570    -5483    -5351    -5279    -5352    -5506 
   -5653    -5790    -5895    -5899    -5783    -5611    -5478    -5505 
   -5729    -6076    -6509    -7011    -7465    -7740    -7815    -7740 
   -7557    -7250    -6848    -6421    -6006    -5651    -5397    -5192 
   -4988    -4819    -4698    -4591    -4500    -4429    -4302    -4066 
   -3817    -3674    -3642    -3730    -4039    -4568    -5188    -5756 
   -6147    -6318    -6378    -6489    -6720    -7011    -7198    -7246 
   -7248    -7219    -7159    -7136    -7183    -7231    -7182    -6966 
   -6606    -6195    -5784    -5409    -5134    -4997    -4962    -4974 
   -4980    -4931    -4870    -4843    -4804    -4765    -4845    -5104 
   -5510    -5994    -6415    -6621    -6615    -6543    -6490    -6438 
   -6320    -6085    -5830    -5711    -5755    -5908    -6169    -6490 
   -6781    -6939    -6814    -6426    -6062    -5975    -6154    -6413 
   -6562    -6538    -6351    -6054    -5745    -5462    -5206    -5022 
   -4965    -4993    -4980    -4936    -4985    -5148    -5389    -5679 
   -5902    -5996    -6084    -6228    -6332    -6374    -6435    -6439 
   -6280    -6091    -6044    -6062    -5952    -5667    -5320    -5090 
   -5112    -5348    -5589    -5675    -5652    -5637    -5711    -5861 
   -5981    -6052    -6134    -6174    -6097    -5989    -5954    -5998 
   -6141    -6376    -6539    -6512    -6305    -5950    -5505    -5032 
   -4644    -4546    -4807    -5194    -5476    -5653    -5864    -6172 
   -6535    -6820    -6858    -6631    -6355    -6227    -6228    -6295 
   -6420    -6500    -6435    -6212    -5803    -5339    -5136    -5320 
   -5706    -6037    -6100    -5806    -5356    -5049    -4966    -5148 
   -5595    -6022    -6181    -6169    -6150    -6246    -6484    -6667 
   -6685    -6667    -6624    -6403    -5949    -5327    -4689    -4278 
   -4215    -4322    -4317    -4140    -3901    -3663    -3499    -3491 
   -3624    -3840    -4183    -4739    -5410    -5952    -6269    -6430 
   -6531    -6706    -6966    -7210    -7398    -7410    -7202    -7030 
   -7094    -7373    -7823    -8319    -8672    -8926    -9238    -9497 
   -9506    -9329    -9136    -8984    -8884    -8804    -8645    -8391 
   -8160    -8071    -8122    -8131    -7942    -7573    -7098    -6627 
   -6323    -6157    -5890    -5454    -4978    -4563    -4197    -3839 
   -3572    -3477    -3391    -3126    -2763    -2479    -2354    -2419 
   -2628    -2785    -2835    -2998    -3412    -4087    -5063    -6227 
   -7298    -8106    -8612    -8839    -8880    -8814    -8707    -8669 
   -8758    -8901    -8895    -8626    -8278    -8100    -8158    -8357 
   -8494    -8507    -8519    -8497    -8330    -8078    -7784    -7457 
   -7246    -7219    -7226    -7123    -6905    -6581    -6106    -5544 
   -5130    -4958    -4823    -4631    -4509    -4345    -4001    -3740 
   -3642    -3361    -2961    -2871    -3168    -3688    -4225    -4580 
   -4895    -5441    -6076    -6596    -7123    -7722    -8280    -8704 
   -8838    -8618    -8345    -8306    -8380    -8330    -8024    -7454 
   -6748    -6044    -5448    -5027    -4784    -4754    -4922    -5116 
   -5196    -5161    -5105    -5143    -5319    -5632    -6041    -6447 
   -6790    -6990    -6945    -6669    -6230    -5686    -5158    -4811 
   -4654    -4521    -4251    -3785    -3194    -2694    -2515    -2682 
   -3011    -3321    -3549    -3767    -4104    -4558    -4935    -5086 
   -5131    -5205    -5259    -5212    -5030    -4738    -4468    -4365 
   -4460    -4665    -4882    -5043    -5166    -5289    -5406    -5548 
   -5751    -6000    -6281    -6624    -7119    -7804    -8526    -9045 
   -9310    -9483    -9640    -9764    -9877    -9991   -10017    -9840 
   -9369    -8561    -7681    -7200    -7145    -7175    -7121    -6983 
   -6812    -6714    -6758    -6939    -7267    -7738    -8225    -8565 
   -8730    -8858    -9140    -9605   -10044   -10235   -10100    -9736 
   -9331    -8942    -8619    -8472    -8451    -8431    -8384    -8309 
   -8194    -8019    -7793    -7533    -7256    -7045    -6897    -6700 
   -6493    -6399    -6455    -6704    -7171    -7723    -8199    -8661 
   -9157    -9491    -9553    -9444    -9244    -9071    -9132    -9370 
   -9451    -9265    -8908    -8401    -7819    -7294    -6851    -6459 
   -6096    -5694    -5201    -4668    -4270    -4197    -4464    -4891 
   -5289    -5513    -5505    -5397    -5335    -5273    -5182    -5140 
   -5043    -4796    -4556    -4367    -4182    -4045    -3852    -3459 
   -2978    -2521    -2104    -1784    -1533    -1267    -1109    -1178 
   -1355    -1513    -1621    -1656    -1637    -1626    -1603    -1467 
   -1165     -749     -326       -8       71     -229     -886    -1642 
   -2255    -2714    -3159    -3694    -4317    -4946    -5544    -6122 
   -6628    -6926    -6928    -6701    -6404    -6118    -5908    -5906 
   -6134    -6481    -6813    -6968    -6822    -6393    -5845    -5359 
   -4881    -4286    -3694    -3258    -2986    -2894    -3014    -3326 
   -3793    -4388    -5011    -5490    -5772    -5987    -6289    -6755 
   -7292    -7635    -7557    -7064    -6301    -5409    -4531    -3750 
   -3036    -2404    -1975    -1806    -1876    -2073    -2223    -2305 
   -2416    -2558    -2710    -2832    -2867    -2913    -3145    -3665 
   -4457    -5331    -6026    -6496    -6889    -7338    -7843    -8284 
   -8621    -8932    -9305    -9803   -10374   -10773   -10818   -10584 
  -10230    -9922    -9807    -9867    -9898    -9756    -9398    -8823 
   -8073    -7183    -6196    -5258    -4491    -3816    -3051    -2176 
   -1355     -652      -41      437      857     1375     1989     2556 
    2891     2833     2338     1548      665     -314    -1462    -2709 
   -4027    -5294    -6231    -6790    -7214    -7703    -8305    -9080 
  -10050   -11121   -12174   -13065   -13690   -14135   -14519   -14785 
  -14844   -14679   -14339   -13954   -13636   -13387   -13124   -12672 
  -11904   -10893    -9782    -8641    -7487    -6319    -5084    -3788 
   -2608    -1719    -1067     -348      627     1761     2925     3965 
    4692     5128     5343     5220     4727     4006     3092     1872 
     294    -1617    -3775    -5961    -7951    -9764   -11556   -13347 
  -15056   -16532   -17621   -18361   -18912   -19244   -19272   -19049 
  -18567   -17734   -16603   -15279   -13832   -12478   -11476   -10762 
  -10017    -9046    -7852    -6558    -5379    -4523    -3969    -3459 
   -2790    -1956    -1086     -418     -137     -160     -263     -363 
    -448     -550     -816    -1290    -1844    -2459    -3140    -3771 
   -4320    -4801    -5255    -5844    -6696    -7755    -8900    -9927 
  -10612   -10970   -11198   -11422   -11686   -11951   -12096   -12062 
  -11861   -11483   -10975   -10417    -9804    -9147    -8499    -7850 
   -7184    -6535    -5886    -5181    -4475    -3844    -3345    -3013 
   -2814    -2770    -2967    -3326    -3613    -3724    -3894    -4407 
   -5244    -6196    -6966    -7346    -7489    -7672    -7936    -8213 
   -8430    -8499    -8418    -8281    -8106    -7852    -7569    -7311 
   -7023    -6623    -6142    -5724    -5460    -5337    -5306    -5289 
   -5254    -5360    -5736    -6261    -6818    -7352    -7736    -8006 
   -8274    -8502    -8688    -8847    -8884    -8671    -8094    -7168 
   -6054    -4897    -3788    -2799    -2026    -1568    -1444    -1574 
   -1829    -2030    -2064    -1961    -1833    -1804    -2000    -2570 
   -3591    -4930    -6288    -7353    -7964    -8179    -8164    -8132 
   -8205    -8332    -8484    -8761    -9193    -9632    -9864    -9778 
   -9427    -8937    -8322    -7541    -6667    -5945    -5539    -5402 
   -5463    -5688    -6029    -6450    -6889    -7261    -7533    -7697 
   -7830    -8033    -8278    -8390    -8229    -7811    -7260    -6725 
   -6274    -5872    -5445    -4923    -4393    -4005    -3709    -3420 
   -3159    -2902    -2628    -2404    -2282    -2207    -2107    -2053 
   -2121    -2286    -2502    -2601    -2312    -1684     -954     -186 
     549     1127     1567     1891     2056     2130     2181     2138 
    1961     1648     1154      495     -176     -727    -1220    -1771 
   -2359    -2957    -3565    -4074    -4386    -4552    -4649    -4679 
   -4619    -4430    -4101    -3721    -3343    -2867    -2251    -1653 
   -1251    -1116    -1254    -1564    -1939    -2404    -2992    -3643 
   -4230    -4595    -4696    -4584    -4263    -3801    -3358    -3090 
   -3063    -3202    -3352    -3377    -3281    -3206    -3213    -3159 
   -2943    -2743    -2737    -2886    -3034    -3029    -2839    -2589 
   -2366    -2115    -1802    -1534    -1364    -1113     -592      141 
     888     1440     1634     1495     1132      533     -271    -1208 
   -2301    -3504    -4673    -5779    -6828    -7798    -8734    -9662 
  -10520   -11221   -11745   -12162   -12491   -12638   -12548   -12218 
  -11521   -10444    -9167    -7771    -6269    -4792    -3470    -2349 
   -1443     -710      -87      352      471      245     -218     -774 
   -1354    -1993    -2685    -3317    -3804    -4175    -4513    -4878 
   -5312    -5848    -6489    -7159    -7665    -7824    -7639    -7245 
   -6744    -6142    -5387    -4477    -3499    -2613    -1975    -1561 
   -1229    -1005     -987    -1128    -1343    -1602    -1903    -2293 
   -2837    -3549    -4301    -4896    -5300    -5649    -6023    -6389 
   -6768    -7179    -7466    -7506    -7442    -7406    -7339    -7179 
   -6913    -6511    -6048    -5725    -5598    -5513    -5382    -5219 
   -5011    -4764    -4554    -4453    -4523    -4764    -5112    -5584 
   -6219    -6990    -7811    -8560    -9131    -9510    -9787    -9972 
   -9922    -9602    -9221    -8970    -8849    -8802    -8816    -8905 
   -9137    -9551   -10076   -10623   -11022   -11128   -10993   -10629 
  -10012    -9300    -8618    -8024    -7622    -7334    -7020    -6682 
   -6273    -5788    -5441    -5296    -5208    -5157    -5220    -5350 
   -5483    -5647    -5846    -6061    -6264    -6389    -6419    -6440 
   -6597    -7067    -7931    -9116   -10504   -11956   -13271   -14265 
  -14931   -15385   -15632   -15606   -15340   -14774   -13856   -12758 
  -11572   -10204    -8680    -7156    -5674    -4168    -2673    -1278 
     -55      828     1229     1204      885      433       10     -337 
    -606     -741     -750     -706     -676     -684     -749     -882 
   -1069    -1291    -1534    -1803    -2211    -2907    -3923    -5143 
   -6401    -7538    -8437    -9066    -9378    -9281    -8811    -8149 
   -7449    -6744    -5968    -5148    -4421    -3744    -3064    -2520 
   -2107    -1671    -1254     -969     -845     -897    -1047    -1115 
   -1094    -1129    -1266    -1424    -1464    -1220     -660        5 
     544      854      880      595       71     -526    -1058    -1534 
   -2023    -2506    -2926    -3262    -3532    -3680    -3599    -3331 
   -2994    -2656    -2324    -1852    -1085     -128      746     1358 
    1702     1883     1962     1971     1912     1759     1557     1382 
    1229     1086      946      859      966     1332     1799     2111 
    2119     1880     1584     1337     1107      905      754      608 
     436      186     -180     -630    -1138    -1721    -2312    -2762 
   -2974    -3007    -3036    -3244    -3655    -4082    -4407    -4758 
   -5255    -5859    -6482    -7038    -7441    -7723    -7974    -8164 
   -8262    -8298    -8251    -8095    -7915    -7812    -7860    -8098 
   -8454    -8757    -8905    -8904    -8726    -8379    -7936    -7443 
   -6993    -6619    -6154    -5497    -4756    -4010    -3260    -2581 
   -2073    -1746    -1602    -1661    -1896    -2285    -2841    -3511 
   -4178    -4785    -5313    -5740    -6153    -6690    -7304    -7847 
   -8286    -8641    -8911    -9157    -9429    -9695    -9917   -10092 
  -10241   -10350   -10372   -10230    -9919    -9526    -9140    -8838 
   -8737    -8887    -9215    -9653   -10246   -11086   -12091   -12976 
  -13479   -13463   -12947   -12218   -11564   -11051   -10655   -10319 
