Origin Time       2016/04/16 01:25:00
Lat.              32.753
Long.             130.762
Depth. (km)       12
Mag.              7.3
Station Code      YMG001
Station Lat.      34.6173
Station Long.     131.6019
Station Height(m) 6
Record Time       2016/04/16 01:25:43
Sampling Freq(Hz) 100Hz
Duration Time(s)  144
Dir.              E-W
Scale Factor      7845(gal)/8223790
Max. Acc. (gal)   30.453
Last Correction   2016/04/16 01:25:43
Memo.             
[...]
   -1034     -869     -616     -448     -448     -483     -299      259 
    1131     2074     2808     3099     2922     2469     1926     1341 
     793      391      110     -128     -378     -697    -1081    -1489 
   -1930    -2362    -2629    -2632    -2442    -2284    -2386    -2822 
   -3419    -3839    -3851    -3511    -3071    -2744    -2527    -2220 
   -1621     -683      463     1548     2263     2461     2253     1876 
    1541     1294     1020      611      108     -287     -395     -217 
     131      545      923     1175     1289     1308     1256     1133 
     915      538      -14     -668    -1296    -1807    -2178    -2382 
   -2355    -2079    -1649    -1296    -1274    -1606    -1971    -1952 
   -1379     -454      414      909      939      612      155     -243 
    -508     -627     -625     -553     -463     -372     -240       32 
     457      873     1073      962      588       76     -436     -869 
   -1233    -1501    -1509    -1173     -612      -72      233      238 
     120      164      445      751      818      532        5     -537 
    -950    -1248    -1460    -1535    -1472    -1381    -1362    -1457 
   -1661    -1910    -2144    -2312    -2289    -1911    -1167     -249 
     535      918      837      473      101      -76      -47       75 
     212      265      171       -4     -137     -125       91      468 
     857     1096     1081      843      473       28     -422     -792 
   -1051    -1229    -1405    -1660    -2056    -2589    -3145    -3595 
   -3858    -3811    -3325    -2423    -1317     -302      351      575 
     508      310       79     -162     -493     -927    -1294    -1394 
   -1133     -579       83      681     1173     1629     2163     2806 
    3457     3932     4060     3828     3342     2652     1822      962 
     101     -780    -1595    -2162    -2338    -2141    -1803    -1606 
   -1634    -1776    -1935    -2118    -2371    -2739    -3190    -3580 
   -3778    -3765    -3607    -3383    -3121    -2859    -2663    -2571 
   -2536    -2442    -2120    -1422     -369      799     1794     2457 
    2778     2790     2509     1982     1360      869      646      676 
     859     1115     1382     1599     1691     1568     1196      673 
     206      -14       47      230      330      278      105     -117 
    -326     -498     -630     -735     -850    -1024    -1287    -1621 
   -1935    -2151    -2253    -2250    -2165    -1996    -1723    -1413 
   -1198    -1140    -1221    -1404    -1641    -1895    -2130    -2238 
   -2079    -1622     -965     -274      283      645      908     1247 
    1746     2365     2959     3323     3339     3038     2546     2031 
    1603     1263      946      599      206     -251     -770    -1278 
   -1641    -1742    -1564    -1240    -1011    -1078    -1441    -1864 
   -2073    -1977    -1696    -1480    -1564    -2047    -2841    -3649 
   -4109    -3997    -3349    -2420    -1490     -673       41      662 
    1123     1328     1205      747      105     -471     -761     -668 
    -270      253      726     1009     1011      741      330       -8 
     -87      149      633     1181     1568     1644     1325      616 
    -315    -1201    -1813    -2100    -2201    -2292    -2428    -2552 
   -2635    -2695    -2737    -2775    -2762    -2516    -1881     -949 
     -41      538      702      604      499      486      500      511 
     553      662      787      807      689      506      353      328 
     476      766     1136     1482     1674     1647     1433     1116 
     791      488      163     -279     -947    -1844    -2785    -3558 
   -4114    -4464    -4542    -4220    -3457    -2384    -1246     -256 
     484     1026     1424     1665     1779     1803     1722     1497 
    1104      656      367      341      486      662      776      810 
     830      922     1102     1282     1321     1146      797      394 
     -11     -463     -993    -1605    -2261    -2871    -3402    -3844 
   -4101    -4047    -3615    -2787    -1698     -626      194      654 
     753      592      342      180      184      259      217      -21 
    -351     -602     -637     -370      140      760     1382     1845 
    1973     1721     1158      491       25      -72      105      346 
     454      328       14     -379     -799    -1192    -1471    -1609 
   -1656    -1644    -1535    -1321    -1080     -939     -966    -1042 
    -946     -596     -110      274      321     -112     -972    -1941 
   -2573    -2606    -2141    -1493     -935     -558     -332     -240 
    -328     -585     -946    -1364    -1806    -2144    -2227    -2060 
   -1811    -1637    -1551    -1431    -1150     -702     -253        0 
      -8     -135     -133      137      677     1462     2428     3433 
    4266     4758     4852     4568     3967     3163     2315     1594 
    1057      602      121     -333     -622     -675     -564     -459 
    -517     -819    -1372    -2115    -2999    -4016    -5058    -5869 
   -6183    -5973    -5498    -5024    -4665    -4382    -4041    -3541 
   -2898    -2254    -1768    -1480    -1252     -888     -295      477 
    1229     1684     1725     1448     1100      957     1201     1849 
    2739     3653     4450     5027     5313     5251     4814     4101 
    3323     2651     2154     1826     1561     1170      546     -221 
    -984    -1647    -2115    -2359    -2474    -2592    -2786    -3051 
   -3342    -3680    -4083    -4434    -4591    -4515    -4268    -3937 
   -3559    -3152    -2789    -2538    -2350    -2100    -1723    -1331 
   -1135    -1262    -1620    -1945    -1930    -1395     -417      685 
    1556     2010     2118     2081     2007     1878     1656     1344 
    1013      788      805     1188     1896     2694     3287     3491 
    3335     2947     2346     1512      491     -603    -1537    -2096 
   -2342    -2474    -2584    -2644    -2551    -2319    -2143    -2203 
   -2548    -3056    -3500    -3757    -3867    -3821    -3446    -2650 
   -1656     -890     -657     -932    -1449    -1958    -2415    -2899 
   -3366    -3613    -3433    -2685    -1449      -79     1162     2272 
    3199     3775     3919     3682     3254     2852     2529     2174 
    1641      961      333      -37      -52      197      517      822 
    1088     1229     1148      766       71     -758    -1513    -2218 
   -3014    -3923    -4845    -5705    -6485    -7196    -7813    -8209 
   -8255    -8002    -7631    -7248    -6790    -6110    -5205    -4289 
   -3601    -3308    -3445    -3871    -4367    -4739    -4892    -4823 
   -4488    -3780    -2644    -1175      434     2003     3423     4604 
    5405     5697     5514     5058     4535     4118     3913     3913 
    3989     3960     3797     3646     3657     3838     4060     4218 
    4324     4383     4324     4131     3913     3773     3658     3366 
    2747     1826      639     -886    -2736    -4710    -6524    -7936 
   -8769    -9005    -8853    -8548    -8144    -7564    -6786    -5973 
   -5385    -5174    -5337    -5783    -6331    -6729    -6739    -6273 
   -5467    -4479    -3322    -1985     -448     1337     3280     5135 
    6648     7738     8595     9450    10285    10936    11264    11191 
   10729     9934     8781     7300     5709     4228     2882     1590 
     344     -783    -1710    -2392    -2859    -3198    -3469    -3771 
   -4190    -4645    -5053    -5491    -5981    -6424    -6791    -7175 
   -7677    -8280    -8851    -9265    -9466    -9481    -9312    -8918 
   -8259    -7288    -6025    -4652    -3272    -1777     -137     1537 
    3138     4498     5420     5853     5931     5902     5945     6033 
    6037     5926     5783     5714     5760     5831     5772     5535 
    5123     4556     3978     3544     3200     2713     1938      973 
      28     -783    -1449    -1982    -2461    -3075    -3931    -4956 
   -5976    -6805    -7335    -7506    -7360    -7049    -6677    -6320 
   -6135    -6197    -6411    -6678    -6941    -7094    -7020    -6652 
   -6043    -5394    -4882    -4511    -4210    -3882    -3404    -2744 
   -1914     -907      233     1437     2671     3888     4956     5772 
    6407     7009     7603     8068     8213     7916     7209     6172 
    4954     3880     3292     3319     3801     4352     4567     4213 
    3296     1878       13    -2107    -4294    -6480    -8500   -10156 
  -11361   -12023   -12017   -11379   -10450    -9651    -9167    -8988 
   -8927    -8718    -8255    -7572    -6691    -5621    -4406    -3200 
   -2173    -1389     -815     -344      164      719     1260     1817 
    2359     2776     3065     3237     3334     3530     3897     4313 
    4618     4649     4371     3971     3586     3175     2655     1984 
    1229      614      306      229      212      218      217      163 
     120      109      116      183      189     -140     -932    -2045 
   -3163    -4136    -5121    -6278    -7546    -8710    -9544    -9963 
  -10079   -10060    -9948    -9667    -9201    -8703    -8337    -8122 
   -7903    -7473    -6708    -5626    -4383    -3087    -1733     -356 
    1057     2556     4051     5448     6735     7871     8870     9733 
   10455    11090    11635    11927    11821    11389    10788    10123 
    9468     8865     8272     7712     7260     6832     6284     5521 
    4414     2938     1152     -874    -2982    -5031    -6948    -8595 
   -9776   -10284   -10054    -9305    -8343    -7295    -6092    -4621 
   -2949    -1351        8     1183     2290     3434     4629     5709 
    6507     7159     7942     8970    10197    11437    12496    13373 
   14077    14594    14979    15249    15380    15292    14817    13815 
   12299    10480     8710     7210     6027     5092     4170     3148 
    2214     1535     1119      838      441     -207    -1032    -1880 
   -2581    -2998    -3121    -3071    -2938    -2743    -2648    -2882 
   -3524    -4495    -5560    -6448    -7013    -7184    -6907    -6201 
   -5228    -4230    -3412    -2882    -2605    -2461    -2438    -2600 
   -2839    -2925    -2690    -2072    -1269     -707     -638     -993 
   -1609    -2241    -2567    -2427    -1831     -734      834     2583 
    4105     4969     4864     3746     1696    -1167    -4471    -7507 
   -9508   -10150    -9784    -9011    -8214    -7484    -6702    -5793 
   -4920    -4406    -4552    -5468    -6955    -8646   -10314   -11871 
  -13092   -13593   -13167   -11975   -10381    -8718    -7364    -6793 
   -7172    -8257    -9698   -11016   -11630   -11263    -9963    -7893 
   -5474    -3302    -1721     -846     -792    -1543    -2875    -4352 
   -5362    -5417    -4356    -2301      409     3336     6102     8467 
   10216    11171    11484    11542    11711    12282    13230    14119 
   14484    14104    12989    11356     9690     8557     8193     8370 
    8592     8290     7159     5244     2740      114    -2053    -3464 
   -4023    -3866    -3515    -3630    -4673    -6775    -9590   -12391 
  -14542   -15830   -16391   -16501   -16394   -16279   -16355   -16495 
  -16232   -15179   -13162   -10261    -6763    -3079      307     3025 
    4884     5810     6057     6296     6995     8158     9662    11247 
   12695    14100    15466    16665    17586    17895    17308    15882 
   13773    11187     8484     5998     3851     2056      477    -1177 
   -2997    -4792    -6554    -8538   -10974   -13936   -17288   -20483 
  -22681   -23261   -22133   -19830   -17431   -15823   -15145   -15233 
  -15847   -16592   -17155   -17324   -16957   -16114   -14760   -12630 
   -9612    -5871    -1679     2656     6795    10403    13220    15171 
   16332    16760    16582    16108    15700    15631    15916    16352 
   16812    17300    17811    18209    18261    17952    17502    17084 
   16606    15735    14237    12063     9252     6137     3349     1378 
     183     -634    -1436    -2582    -4252    -5946    -7007    -7369 
   -7311    -7188    -7333    -7784    -8380    -8988    -9497    -9941 
  -10594   -11662   -12954   -14021   -14539   -14318   -12964   -10170 
   -6319    -2250     1273     3865     5665     7033     8245     9605 
   11267    13030    14594    15643    15909    15533    15107    15257 
   16337    18326    20822    23348    25571    27217    28120    28194 
   27257    25212    22152    18284    13938     9405     4900      769 
   -2632    -5049    -6336    -6663    -6536    -6605    -7399    -8811 
  -10230   -11449   -12690   -14042   -15380   -16357   -16615   -16263 
  -15838   -15842   -16449   -17496   -18613   -19380   -19368   -18391 
  -16694   -14539   -11890    -8769    -5431    -2088     1028     3738 
    6207     8513    10266    11129    11094    10208     8657     6963 
    5753     5572     6886     9707    13258    16246    17676    17520 
   16551    15500    14550    13405    11716     9370     6475     3283 
     109    -2714    -4945    -6623    -8078    -9613   -11247   -12860 
  -14349   -15745   -17273   -19030   -20749   -22054   -22713   -22612 
  -21836   -20610   -18989   -17041   -15054   -13223   -11669   -10435 
   -9346    -8322    -7307    -5925    -3886    -1325     1723     5344 
    9240    12989    16351    19043    20946    22289    23274    24111 
   24950    25633    26098    26399    26524    26603    26522    25714 
   23836    20922    17147    12854     8460     4337      781    -2107 
   -4483    -6677    -8995   -11576   -14424   -17477   -20619   -23751 
  -26690   -29110   -30806   -31859   -32377   -32321   -31668   -30416 
  -28470   -25834   -22775   -19566   -16344   -13073    -9664    -6268 
   -3094     -210     2301     4487     6646     8985    11479    13945 
   16065    17520    18115    17923    17377    16718    15799    14683 
   13713    13286    13716    14889    16276    17254    17296    16074 
   13512     9872     5796     2096     -699    -2542    -3700    -4557 
   -5441    -6523    -7959    -9844   -11909   -13714   -14940   -15434 
  -15179   -14057   -12031    -9606    -7335    -5366    -3852    -2964 
   -2627    -2705    -3191    -4183    -5705    -7499    -9100   -10019 
   -9930    -8730    -6430    -3316     -186     2037     2893     2496 
    1337      129     -521     -403      499     2015     3650     5042 
    6143     6903     7236     7156     6766     6273     5814     5352 
    4985     5043     5676     6596     7349     7573     7064     5773 
    3805     1344    -1453    -4236    -6447    -7847    -8523    -8550 
   -8050    -7281    -6465    -5836    -5611    -5652    -5533    -4861 
   -3352    -1132     1216     3149     4380     4839     4710     4183 
    3207     1744       41    -1371    -1977    -1677     -603     1139 
    3335     5652     7635     8800     8989     8334     6903     4703 
    1952     -864    -3210    -4784    -5632    -5894    -5529    -4554 
   -3336    -2335    -1790    -1783    -2259    -3071    -4021    -4830 
   -5239    -5104    -4266    -2548      -91     2336     3748     3662 
    2262      211    -1597    -2519    -2359    -1215      444     1910 
    2956     3858     4795     5810     6744     7227     7068     6336 
    5050     3265     1233     -789    -2500    -3379    -3125    -1982 
    -526      573      795      102     -994    -1914    -2338    -2170 
   -1533     -745     -131      149      118     -159     -629    -1148 
   -1485    -1490    -1192     -677      -54      513      938     1321 
    1744     2135     2470     2849     3267     3543     3385     2504 
     999     -676    -2069    -2811    -2879    -2636    -2322    -1838 
   -1012      311     2121     4166     6080     7446     7979     7695 
    6777     5512     4240     3279     2725     2296     1773     1306 
    1089     1236     1750     2378     2754     2763     2579     2317 
    1918     1287      217    -1443    -3388    -5146    -6497    -7330 
   -7562    -7284    -6573    -5516    -4475    -3838    -3732    -4166 
   -4984    -5809    -6327    -6394    -5940    -5038    -4010    -3138 
   -2338    -1514     -805     -318     -197     -476     -764     -606 
     137     1298     2602     3890     5127     6285     7209     7672 
    7666     7340     6839     6335     5811     4977     3786     2454 
    1016     -548    -2052    -3173    -3647    -3404    -2621    -1729 
   -1161    -1132    -1752    -2922    -4233    -5268    -5853    -5998 
   -5821    -5516    -5233    -5027    -4918    -4955    -5081    -5115 
   -5031    -4984    -5057    -5177    -5252    -5190    -4750    -3854 
   -2717    -1557     -588      -17       95     -157     -654    -1348 
   -2126    -2759    -3113    -3145    -2816    -2158    -1102      391 
    1900     2895     3154     2583     1453      425      -98       27 
     841     2052     3273     4321     5060     5209     4557     3204 
    1405     -557    -2374    -3793    -4789    -5368    -5533    -5602 
   -5822    -6014    -6083    -6143    -6224    -6359    -6748    -7545 
   -8662    -9921   -11001   -11422   -10949    -9590    -7503    -5248 
   -3438    -2272    -1777    -1804    -1795    -1183      218     2305 
    4745     7023     8721     9730    10033     9670     8923     7925 
    6555     4893     3177     1647      619      224      256      506 
     940     1528     2170     2809     3284     3331     2893     2121 
    1236      456     -183     -869    -1755    -2781    -3788    -4644 
   -5212    -5400    -5217    -4734    -4131    -3676    -3427    -3218 
   -3013    -2913    -2998    -3410    -4291    -5579    -7078    -8598 
   -9844   -10544   -10679   -10392    -9934    -9563    -9317    -9065 
   -8655    -8020    -7238    -6361    -5327    -4081    -2639    -1143 
     198     1198     1772     2106     2506     3100     3893     4873 
    5950     6947     7700     8241     8800     9586    10562    11449 
   11963    11936    11321    10235     8820     7183     5443     3704 
    2134      781     -607    -2220    -4028    -5930    -7673    -8991 
   -9771   -10077   -10179   -10266   -10300   -10172    -9771    -9115 
   -8289    -7438    -6826    -6602    -6727    -7038    -7236    -7011 
   -6183    -4772    -2915     -731     1583     3765     5616     7044 
    8052     8687     9053     9320     9571     9678     9486     9004 
    8324     7601     7014     6573     6162     5717     5121     4243 
    3057     1548     -225    -2098    -3937    -5544    -6691    -7321 
   -7576    -7631    -7539    -7327    -7140    -7002    -6754    -6312 
   -5684    -4896    -4008    -3103    -2187    -1189      -60     1223 
    2578     3807     4835     5623     6010     6008     5817     5589 
    5476     5536     5582     5339     4637     3474     1975      386 
    -993    -1949    -2374    -2312    -1987    -1644    -1499    -1679 
   -2102    -2641    -3154    -3499    -3763    -4183    -4849    -5792 
   -6985    -8136    -8823    -8860    -8264    -7074    -5485    -3880 
   -2590    -1783    -1393    -1177     -999     -785     -483     -203 
    -202     -631    -1413    -2338    -3119    -3497    -3544    -3450 
   -3180    -2736    -2282    -1915    -1595    -1251     -858     -468 
    -174      -56     -114     -271     -456     -591     -626     -584 
    -434     -103      402      989     1491     1746     1736     1667 
    1728     1896     2073     2115     1849     1217      263     -897 
