Origin Time       2016/04/16 01:25:00
Lat.              32.753
Long.             130.762
Depth. (km)       12
Mag.              7.3
Station Code      YMG004
Station Lat.      34.3709
Station Long.     131.1820
Station Height(m) 6
Record Time       2016/04/16 01:25:39
Sampling Freq(Hz) 100Hz
Duration Time(s)  104
Dir.              E-W
Scale Factor      7845(gal)/8223790
Max. Acc. (gal)   9.475
Last Correction   2016/04/16 01:25:39
Memo.             
[...]
  -12987   -12405   -12063   -11916   -11790   -11651   -11678   -11805 
  -11772   -11580   -11384   -11292   -11334   -11375   -11389   -11576 
  -11931   -12198   -12316   -12476   -12800   -13086   -12962   -12272 
  -11335   -10662   -10381   -10399   -10779   -11496   -12224   -12614 
  -12642   -12692   -13042   -13365   -13108   -12305   -11681   -11747 
  -12187   -12523   -12806   -13258   -13705   -13811   -13562   -13082 
  -12437   -11881   -11820   -12344   -13007   -13225   -12964   -12721 
  -12723   -12627   -12112   -11408   -11014   -11034   -11198   -11427 
  -11747   -11970   -12040   -12152   -12394   -12614   -12646   -12563 
  -12579   -12637   -12532   -12405   -12596   -13116   -13481   -13284 
  -12820   -12649   -12764   -12806   -12687   -12588   -12641   -12671 
  -12352   -11817   -11645   -12015   -12505   -12698   -12457   -11942 
  -11449   -11071   -10825   -10771   -10893   -11263   -11934   -12607 
  -13009   -13196   -13261   -13207   -12935   -12361   -11751   -11512 
  -11635   -11862   -12124   -12445   -12739   -12977   -13136   -13011 
  -12545   -11973   -11487   -11292   -11479   -11766   -12002   -12293 
  -12498   -12448   -12337   -12356   -12280   -11782   -11033   -10706 
  -11192   -12024   -12532   -12704   -12830   -12968   -12949   -12568 
  -12050   -11970   -12337   -12625   -12580   -12305   -12009   -11786 
  -11521   -11173   -10876   -10697   -10602   -10642   -10983   -11608 
  -12159   -12329   -12202   -12108   -12213   -12367   -12426   -12455 
  -12525   -12619   -12688   -12642   -12505   -12511   -12772   -13019 
  -12903   -12480   -12243   -12561   -13240   -13690   -13590   -13270 
  -13244   -13481   -13564   -13417   -13248   -13135   -13011   -12762 
  -12414   -12205   -12201   -12241   -12361   -12660   -12931   -12984 
  -13005   -13139   -13104   -12708   -12271   -12105   -12063   -11854 
  -11412   -10939   -10786   -11059   -11410   -11538   -11479   -11334 
  -11190   -11183   -11284   -11335   -11319   -11358   -11611   -12055 
  -12386   -12384   -12163   -11973   -11967   -12082   -12187   -12341 
  -12636   -12924   -13036   -12964   -12765   -12509   -12235   -11969 
  -11842   -11886   -11884   -11794   -11844   -11979   -11898   -11676 
  -11742   -12155   -12528   -12691   -12748   -12783   -12861   -12883 
  -12704   -12476   -12289   -12124   -12214   -12579   -12880   -13001 
  -13076   -13221   -13370   -13204   -12653   -12144   -12069   -12333 
  -12498   -12332   -12100   -12129   -12352   -12373   -11931   -11247 
  -10740   -10409   -10019    -9725    -9836   -10291   -10725   -10891 
  -10963   -11273   -11719   -11940   -11889   -11850   -11963   -11943 
  -11574   -11242   -11407   -12005   -12603   -12811   -12688   -12626 
  -12741   -12822   -12756   -12523   -12101   -11587   -11237   -11306 
  -11801   -12396   -12783   -13016   -13274   -13524   -13590   -13392 
  -13132   -13061   -13078   -12985   -12866   -12933   -13204   -13458 
  -13501   -13346   -13095   -12908   -12845   -12718   -12486   -12357 
  -12379   -12480   -12556   -12387   -12048   -11925   -12086   -12214 
  -12056   -11637   -11249   -11140   -11247   -11442   -11669   -11851 
  -11947   -11947   -11819   -11665   -11649   -11709   -11673   -11504 
  -11232   -10925   -10782   -10982   -11510   -12159   -12637   -12795 
  -12799   -12897   -13054   -13014   -12725   -12483   -12505   -12563 
  -12452   -12441   -12779   -13232   -13304   -12806   -12164   -11911 
  -11994   -11969   -11758   -11753   -12039   -12247   -12221   -12135 
  -12056   -11904   -11622   -11256   -10974   -10860   -10774   -10665 
  -10750   -11125   -11591   -11866   -11796   -11510   -11322   -11403 
  -11650   -11832   -11836   -11770   -11817   -11986   -12087   -12087 
  -12233   -12576   -12865   -12926   -12845   -12822   -12911   -12988 
  -13011   -13117   -13373   -13593   -13576   -13366   -13157   -13070 
  -13119   -13293   -13560   -13806   -13865   -13702   -13456   -13269 
  -13136   -12927   -12579   -12244   -12089   -12079   -12079   -12028 
  -12017   -12162   -12352   -12349   -12140   -11861   -11483   -11060 
  -10897   -11102   -11453   -11723   -11831   -11820   -11749   -11504 
  -11018   -10592   -10565   -10755   -10759   -10597   -10628   -11022 
  -11551   -11813   -11722   -11612   -11726   -11878   -11831   -11696 
  -11796   -12190   -12626   -12884   -13001   -13103   -13176   -13096 
  -12789   -12299   -11835   -11635   -11786   -12170   -12565   -12834 
  -12997   -13113   -13122   -12847   -12290   -11780   -11612   -11769 
  -12054   -12252   -12382   -12658   -13004   -13129   -12997   -12783 
  -12654   -12580   -12372   -12066   -11901   -11908   -11963   -11952 
  -11842   -11811   -11973   -12114   -12127   -12168   -12225   -12154 
  -12012   -11971   -12110   -12307   -12349   -12205   -11998   -11831 
  -11819   -12051   -12396   -12567   -12456   -12254   -12175   -12260 
  -12426   -12607   -12838   -13085   -13142   -12907   -12542   -12349 
  -12513   -12896   -13198   -13294   -13252   -13080   -12672   -12110 
  -11701   -11597   -11724   -11967   -12181   -12274   -12352   -12505 
  -12606   -12491   -12186   -11828   -11600   -11574   -11506   -11203 
  -10920   -10948   -11217   -11466   -11529   -11481   -11499   -11546 
  -11539   -11585   -11743   -11846   -11706   -11369   -11074   -11020 
  -11179   -11327   -11323   -11254   -11271   -11465   -11785   -11958 
  -11869   -11827   -11997   -12112   -11978   -11706   -11531   -11537 
  -11562   -11556   -11696   -11970   -12145   -12210   -12259   -12186 
  -11898   -11599   -11560   -11788   -12010   -11998   -11842   -11767 
  -11848   -12039   -12321   -12623   -12667   -12254   -11731   -11630 
  -11978   -12312   -12360   -12339   -12576   -12985   -13174   -13008 
  -12614   -12216   -12086   -12235   -12393   -12405   -12330   -12329 
  -12429   -12469   -12330   -12042   -11809   -11826   -11925   -11901 
  -11917   -12129   -12411   -12599   -12696   -12877   -13232   -13521 
  -13513   -13284   -13004   -12699   -12280   -11877   -11778   -11983 
  -12188   -12231   -12244   -12355   -12391   -12220   -12059   -12069 
  -12089   -11998   -11867   -11878   -12187   -12694   -13061   -13116 
  -12968   -12723   -12409   -12094   -11900   -11923   -12185   -12550 
  -12846   -12999   -12962   -12735   -12479   -12355   -12373   -12442 
  -12460   -12491   -12721   -13043   -13139   -13000   -12892   -12883 
  -12781   -12514   -12321   -12478   -12884   -13127   -13000   -12796 
  -12891   -13159   -13162   -12819   -12482   -12426   -12515   -12464 
  -12382   -12591   -13028   -13335   -13297   -12964   -12592   -12418 
  -12417   -12486   -12579   -12602   -12513   -12453   -12517   -12548 
  -12403   -12127   -11803   -11507   -11330   -11190   -10991   -10868 
  -10868   -10933   -11196   -11689   -12114   -12294   -12388   -12529 
  -12586   -12429   -12221   -12260   -12555   -12710   -12523   -12380 
  -12621   -13020   -13211   -13182   -13161   -13174   -12953   -12395 
  -11866   -11749   -12000   -12289   -12405   -12345   -12145   -11838 
  -11547   -11392   -11385   -11550   -11924   -12448   -12906   -13078 
  -12978   -12838   -12748   -12475   -11857   -11181   -10924   -11190 
  -11672   -12006   -12118   -12191   -12247   -12059   -11595   -11186 
  -11078   -11134   -11117   -11070   -11227   -11576   -11790   -11642 
  -11306   -11211   -11527   -11927   -12028   -11843   -11742   -12010 
  -12463   -12695   -12636   -12476   -12337   -12280   -12363   -12637 
  -13047   -13390   -13501   -13378   -13126   -12861   -12618   -12415 
  -12366   -12529   -12779   -12991   -13281   -13745   -14162   -14293 
  -14179   -13948   -13585   -13082   -12656   -12618   -13016   -13543 
  -13828   -13748   -13467   -13115   -12630   -12101   -11811   -11832 
  -11980   -12089   -12179   -12386   -12698   -12918   -12942   -12807 
  -12591   -12445   -12449   -12538   -12698   -12838   -12726   -12324 
  -11797   -11256   -10813   -10615   -10698   -10984   -11313   -11573 
  -11796   -11937   -11890   -11695   -11549   -11591   -11705   -11685 
  -11611   -11743   -12132   -12519   -12553   -12140   -11632   -11443 
  -11611   -11847   -11936   -11947   -12046   -12249   -12503   -12696 
  -12712   -12580   -12370   -12109   -11893   -11851   -11973   -12078 
  -12104   -12194   -12375   -12420   -12212   -11893   -11618   -11407 
  -11250   -11179   -11217   -11318   -11426   -11549   -11686   -11739 
  -11615   -11398   -11313   -11462   -11639   -11570   -11269   -11059 
  -11219   -11651   -11997   -12089   -12104   -12293   -12644   -12845 
  -12644   -12152   -11727   -11618   -11712   -11668   -11394   -11163 
  -11246   -11655   -12137   -12406   -12490   -12548   -12449   -12054 
  -11727   -11900   -12402   -12748   -12846   -13051   -13594   -14208 
  -14422   -14131   -13652   -13185   -12673   -12154   -11765   -11538 
  -11578   -11927   -12291   -12418   -12340   -12144   -11973   -11936 
  -11956   -11978   -12046   -12112   -12167   -12314   -12565   -12826 
  -13049   -13150   -13000   -12622   -12231   -12037   -12147   -12418 
  -12486   -12221   -11890   -11670   -11534   -11466   -11341   -11032 
  -10762   -10801   -11075   -11360   -11521   -11612   -11778   -11935 
  -11799   -11392   -11025   -10821   -10762   -10910   -11254   -11650 
  -11967   -12112   -12145   -12198   -12164   -11955   -11774   -11704 
  -11605   -11476   -11477   -11706   -12009   -12125   -12035   -11962 
  -12089   -12402   -12691   -12771   -12726   -12703   -12691   -12636 
  -12495   -12285   -12071   -11901   -11896   -12122   -12322   -12287 
  -12109   -11935   -11861   -11902   -11947   -11963   -12017   -12056 
  -11990   -11928   -12089   -12455   -12675   -12517   -12236   -12254 
  -12556   -12699   -12509   -12322   -12471   -12814   -12928   -12660 
  -12271   -12051   -12039   -12086   -12048   -11940   -11898   -12004 
  -12167   -12177   -11914   -11545   -11426   -11696   -12079   -12310 
  -12490   -12769   -13018   -13004   -12773   -12606   -12561   -12429 
  -12237   -12302   -12699   -13088   -13180   -13070   -12987   -12981 
  -12845   -12371   -11809   -11558   -11626   -11844   -12093   -12283 
  -12406   -12461   -12456   -12487   -12553   -12499   -12317   -12260 
  -12492   -12800   -12898   -12785   -12711   -12935   -13346   -13608 
  -13648   -13565   -13487   -13498   -13487   -13360   -13201   -13082 
  -12945   -12675   -12303   -12055   -12064   -12256   -12496   -12699 
  -12826   -12831   -12704   -12529   -12353   -12197   -12151   -12251 
  -12469   -12746   -12853   -12647   -12302   -12010   -11847   -11824 
  -11886   -11970   -12105   -12283   -12349   -12197   -11954   -11889 
  -12140   -12565   -12961   -13279   -13510   -13612   -13572   -13396 
  -13136   -12881   -12621   -12349   -12178   -12155   -12155   -12079 
  -12035   -12112   -12182   -12163   -12104   -11982   -11742   -11400 
  -11148   -11245   -11670   -12040   -12135   -12212   -12433   -12591 
  -12642   -12703   -12773   -12811   -12704   -12542   -12715   -13201 
  -13473   -13275   -12807   -12316   -11904   -11587   -11431   -11535 
  -11838   -12010   -11875   -11851   -12212   -12611   -12783   -12702 
  -12429   -12218   -12217   -12368   -12619   -12829   -12908   -12918 
  -12866   -12733   -12532   -12422   -12598   -12906   -13128   -13359 
  -13662   -13921   -14010   -13853   -13527   -13247   -13192   -13365 
  -13590   -13663   -13539   -13360   -13312   -13435   -13548   -13540 
  -13602   -13846   -14083   -14214   -14342   -14478   -14535   -14454 
  -14233   -13968   -13813   -13829   -14031   -14331   -14526   -14511 
  -14328   -14041   -13805   -13676   -13446   -13116   -12982   -13111 
  -13333   -13439   -13275   -13018   -12891   -12765   -12476   -12109 
  -11789   -11647   -11645   -11557   -11507   -11646   -11792   -11900 
  -12059   -12414   -13028   -13625   -13937   -13992   -13905   -13779 
  -13683   -13636   -13620   -13555   -13454   -13401   -13398   -13479 
  -13598   -13602   -13508   -13440   -13571   -13918   -14211   -14432 
  -14743   -14953   -14832   -14401   -13756   -13103   -12604   -12198 
  -11904   -11781   -11704   -11646   -11784   -12105   -12359   -12542 
  -12860   -13257   -13554   -13717   -13821   -13918   -13984   -13999 
  -14014   -14076   -14077   -13988   -13880   -13567   -12924   -12236 
  -11808   -11655   -11630   -11696   -11916   -12264   -12641   -12981 
  -13275   -13513   -13555   -13217   -12587   -12087   -12070   -12460 
  -12984   -13540   -14202   -14924   -15338   -15248   -14886   -14534 
  -14384   -14470   -14724   -15223   -15924   -16600   -17116   -17413 
  -17528   -17456   -17041   -16431   -15961   -15688   -15622   -15660 
  -15561   -15385   -15304   -15305   -15265   -15114   -14891   -14486 
  -13751   -12907   -12287   -11885   -11429   -10669    -9633    -8612 
   -7797    -7107    -6358    -5548    -5007    -4950    -5065    -4923 
   -4576    -4437    -4689    -5004    -4953    -4629    -4608    -5119 
   -5674    -5857    -5852    -6064    -6552    -6968    -7119    -7167 
   -7183    -7126    -7067    -7132    -7560    -8671   -10419   -12309 
  -13819   -14631   -14767   -14473   -13905   -13123   -12254   -11634 
  -11529   -11711   -11989   -12518   -13356   -14426   -15360   -15692 
  -15471   -14921   -14108   -12942   -11335    -9833    -9101    -8991 
   -8972    -8695    -8135    -7398    -6358    -5071    -3920    -3032 
   -2438    -2293    -2687    -3561    -4552    -5251    -5533    -5420 
   -5148    -4985    -4812    -4531    -4387    -4611    -5316    -6564 
   -8284   -10284   -12210   -13687   -14712   -15542   -16254   -16576 
  -16411   -16232   -16425   -16745   -16713   -16147   -15465   -15255 
  -15519   -15894   -16216   -16421   -16379   -15920   -15037   -14050 
  -13446   -13582   -14397   -15373   -16021   -16426   -16974   -17729 
  -18436   -18904   -19199   -19615   -20316   -21139   -21747   -21784 
  -21147   -20111   -19045   -18173   -17613   -17324   -17067   -16595 
  -15786   -14615   -13122   -11398    -9644    -8237    -7612    -8001 
   -9157   -10428   -11461   -12391   -13211   -13383   -12388   -10376 
   -8163    -6772    -6775    -7938    -9698   -11673   -13670   -15454 
  -16563   -16579   -15628   -14295   -13142   -12567   -12752   -13565 
  -14858   -16472   -17748   -17907   -16840   -15060   -13410   -12560 
  -12411   -12587   -12973   -13421   -13761   -13929   -13751   -13113 
  -12204   -11346   -10779   -10578   -10771   -11379   -12212   -12870 
  -13104   -12895   -12285   -11502   -11011   -11223   -12333   -14203 
  -16204   -17622   -18238   -18122   -17146   -15250   -12887   -10788 
   -9505    -9027    -8895    -8946    -9629   -11160   -12837   -13828 
  -14160   -14397   -14910   -15742   -16663   -17497   -18283   -18716 
  -18209   -16748   -15075   -13915   -13274   -12793   -12499   -12529 
  -12675   -12603   -12141   -11545   -11272   -11280   -11192   -11032 
  -11187   -11917   -12942   -13527   -13404   -12968   -12475   -12058 
  -12027   -12471   -13142   -13644   -13702   -13493   -13292   -13108 
  -13146   -13787   -14879   -15705   -15662   -14836   -13869   -13178 
  -12610   -11898   -11082   -10443   -10048    -9574    -8958    -8602 
   -8633    -8770    -8691    -8040    -6812    -5548    -4795    -4776 
   -5462    -6561    -7608    -8306    -8661    -8775    -8826    -9004 
   -9136    -9031    -9059    -9680   -10829   -12078   -12888   -12968 
  -12542   -11934   -11173   -10250    -9319    -8631    -8363    -8361 
   -8259    -7817    -7183    -6685    -6432    -6403    -6678    -7211 
   -7689    -7846    -7715    -7403    -6875    -6048    -4927    -3775 
   -3057    -2952    -3241    -3765    -4583    -5663    -6635    -7079 
   -7049    -7028    -7387    -7996    -8437    -8687    -9192   -10081 
  -10817   -10839   -10147    -9196    -8328    -7557    -6940    -6671 
   -6771    -7061    -7299    -7260    -6968    -6516    -5852    -5113 
   -4568    -4237    -4128    -4476    -5321    -6219    -6693    -6815 
   -6990    -7393    -7990    -8757    -9613   -10444   -11094   -11534 
  -12001   -12581   -13072   -13389   -13544   -13466   -13161   -12773 
  -12600   -12891   -13508   -14207   -14893   -15421   -15626   -15411 
  -14823   -14297   -14202   -14359   -14509   -14677   -14909   -15072 
  -14949   -14554   -14222   -14199   -14392   -14532   -14308   -13482 
  -12127   -10631    -9393    -8619    -8326    -8536    -9339   -10582 
  -11742   -12475   -12847   -12920   -12669   -12205   -11726   -11308 
  -11016   -11061   -11615   -12613   -13803   -14928   -15834   -16380 
  -16390   -15876   -15221   -14875   -14754   -14551   -14499   -14879 
  -15456   -15882   -16000   -15900   -15917   -16237   -16611   -16756 
  -16714   -16590   -16197   -15318   -14173   -13181   -12492   -12069 
  -11811   -11624   -11499   -11472   -11614   -11929   -12163   -12040 
  -11670   -11322   -11134   -11160   -11214   -10960   -10427    -9844 
   -9112    -8097    -7061    -6507    -6883    -8156    -9549   -10335 
  -10570   -10628   -10636   -10417    -9664    -8441    -7273    -6597 
   -6416    -6500    -6831    -7566    -8591    -9533    -9952    -9580 
   -8712    -7897    -7441    -7518    -8318    -9904   -12081   -14480 
  -16695   -18281   -18947   -18713   -17691   -16112   -14459   -13099 
  -12151   -11743   -11875   -12295   -12760   -13077   -13012   -12565 
  -12089   -11912   -12121   -12753   -13733   -14742   -15381   -15417 
  -14990   -14521   -14257   -14191   -14321   -14631   -14997   -15210 
  -14955   -14202   -13464   -13041   -12461   -11399   -10351    -9949 
  -10314   -11169   -12139   -13143   -14292   -15311   -15651   -15180 
  -14296   -13432   -12661   -11788   -10836   -10134    -9996   -10582 
  -11630   -12475   -12791   -12768   -12571   -12271   -12143   -12420 
  -12970   -13371   -13366   -13288   -13562   -14062   -14575   -15124 
  -15678   -16194   -16582   -16606   -16201   -15493   -14659   -13986 
  -13663   -13518   -13177   -12409   -11348   -10322    -9428    -8612 
   -8104    -8248    -9018   -10098   -11241   -12287   -12999   -13185 
  -12904   -12305   -11535   -10849   -10438   -10451   -11013   -11859 
  -12609   -13221   -13684   -13787   -13159   -11616    -9737    -8347 
   -7577    -7302    -7711    -8922   -10754   -12698   -14007   -14277 
  -13689   -12557   -11079    -9535    -8221    -7233    -6708    -6957 
   -8014    -9566   -11271   -12906   -14254   -14936   -14646   -13659 
  -12756   -12598   -13070   -13452   -13444   -13298   -13117   -12883 
  -12781   -13051   -13713   -14570   -15468   -16312   -16958   -17365 
  -17521   -17385   -16969   -16190   -15048   -13921   -13084   -12537 
  -12297   -12302   -12390   -12422   -12198   -11614   -10824   -10053 
   -9394    -9024    -9316   -10424   -11951   -13285   -14058   -14243 
  -13983   -13314   -12221   -10962    -9985    -9537    -9625   -10169 
  -11044   -12010   -12738   -13046   -12941   -12279   -10922    -9410 
   -8721    -9157   -10169   -11087   -11604   -11917   -12158   -12017 
  -11437   -10754   -10115    -9532    -9097    -8935    -9115    -9551 
   -9999   -10233   -10138    -9775    -9393    -9232    -9300    -9529 
   -9904   -10417   -11049   -11595   -11774   -11591   -11156   -10642 
