Origin Time       2016/04/16 01:25:00
Lat.              32.753
Long.             130.762
Depth. (km)       12
Mag.              7.3
Station Code      YMG016
Station Lat.      34.1699
Station Long.     132.1766
Station Height(m) 7
Record Time       2016/04/16 01:25:42
Sampling Freq(Hz) 100Hz
Duration Time(s)  131
Dir.              E-W
Scale Factor      7845(gal)/8223790
Max. Acc. (gal)   13.487
Last Correction   2016/04/16 01:25:42
Memo.             
[...]
    2739     3171     3339     3291     3063     2694     2254     1787 
    1323      938      718      673      743      838      877      853 
     785      676      542      459      523      781     1181     1667 
    2207     2693     2932     2797     2376     1945     1775     1930 
    2209     2350     2273     2076     1858     1642     1405     1169 
    1003      974     1062     1144     1088      882      614      337 
      59     -190     -289      -95      419     1133     1810     2177 
    2088     1579      805       21     -480     -515      -93      602 
    1324     1944     2444     2762     2783     2504     1989     1291 
     535      -39     -266     -172       87      332      422      349 
     216      148      198      332      472      569      631      680 
     706      672      581      522      598      832     1170     1525 
    1842     2106     2270     2267     2126     1973     1949     2126 
    2442     2806     3164     3447     3573     3535     3391     3187 
    2944     2691     2498     2457     2605     2862     3071     3090 
    2837     2359     1819     1337      947      611      220     -271 
    -795    -1275    -1687    -2011    -2238    -2378    -2459    -2486 
   -2438    -2326    -2241    -2277    -2376    -2293    -1795     -838 
     363     1471     2289     2806     3092     3229     3272     3246 
    3200     3204     3307     3511     3770     4017     4213     4364 
    4476     4526     4452     4186     3703     3055     2328     1602 
     923      321     -163     -460     -538     -456     -333     -270 
    -309     -456     -707     -970    -1053     -837     -340      338 
    1009     1501     1784     1945     2053     2093     1988     1692 
    1263      869      696      781      994     1194     1333     1368 
    1220      847      259     -477    -1181    -1652    -1863    -1904 
   -1833    -1657    -1360     -955     -587     -463     -648     -967 
   -1113     -858     -201      722     1765     2779     3612     4106 
    4195     3951     3538     3154     2963     2984     3117     3235 
    3308     3415     3605     3861     4129     4320     4387     4333 
    4054     3470     2674     1771      846       37     -525     -774 
    -758     -627     -538     -589     -751     -895    -1043    -1329 
   -1677    -1896    -1952    -1840    -1540    -1142     -726     -286 
     117      344      369      272       70     -272     -666     -915 
    -935     -838     -727     -571     -353      -76      319      820 
    1389     2107     2902     3464     3693     3705     3538     3245 
    2936     2620     2376     2448     2884     3423     3908     4372 
    4766     5005     5124     5152     5031     4726     4291     3802 
    3280     2687     1956     1062      167     -379     -457     -356 
    -368     -592    -1048    -1644    -2184    -2593    -2913    -3229 
   -3678    -4298    -4855    -5003    -4567    -3688    -2605    -1433 
    -274      677     1271     1514     1544     1606     1930     2490 
    3111     3707     4168     4337     4266     4172     4175     4286 
    4473     4687     4903     5076     5069     4772     4248     3663 
    3146     2763     2490     2211     1798     1174      311     -699 
   -1610    -2226    -2556    -2679    -2555    -2106    -1528    -1251 
   -1448    -1872    -2238    -2473    -2579    -2505    -2246    -1895 
   -1493     -954     -266      368      797     1085     1259     1314 
    1413     1603     1698     1694     1734     1723     1540     1379 
    1440     1653     1876     2084     2393     2890     3418     3748 
    3873     3850     3670     3350     2844     2079     1197      481 
      65       -9      259      754     1205     1269      814      143 
    -314     -444     -444     -564     -918    -1394    -1753    -1958 
   -2226    -2601    -2926    -3130    -3092    -2623    -1831    -1048 
    -481     -278     -479     -824    -1023    -1013     -789     -376 
       5      118      -49     -313     -453     -302      136      735 
    1448     2173     2593     2515     2107     1622     1151      757 
     532      564      866     1300     1551     1405      949      467 
     186      136      225      274       49     -414     -718     -568 
     -94      440      876     1067      980      756      488      162 
    -174     -413     -506     -480     -467     -523     -469     -259 
    -193     -444     -847    -1101     -927     -276      560     1239 
    1622     1764     1890     2208     2598     2700     2388     1844 
    1254      753      398       41     -392     -692     -724     -629 
    -483     -193      248      631      712      469      102     -151 
    -110      270      849     1426     1949     2454     2906     3227 
    3361     3296     3060     2749     2602     2668     2584     2115 
    1486      969      715      864     1368     2008     2597     3009 
    3192     3217     3117     2740     2039     1275      733      514 
     575      741      796      610      274      -35     -351     -723 
    -966    -1031    -1070    -1039     -893     -864    -1125    -1556 
   -1908    -1953    -1578     -847       49      908     1620     2163 
    2527     2687     2685     2697     2802     2748     2390     1968 
    1632     1282      908      625      468      460      583      708 
     734      618      265     -256     -614     -591     -261      205 
     611      869     1115     1405     1601     1718     1961     2354 
    2745     2990     3018     2925     2974     3391     4159     4980 
    5456     5440     5096     4625     4055     3439     2905     2458 
    2079     1850     1781     1723     1571     1413     1296      965 
     157     -992    -2096    -2863    -3152    -3032    -2763    -2524 
   -2338    -2209    -2135    -2100    -2089    -2072    -2034    -1941 
   -1667    -1189     -658     -232      112      535     1081     1624 
    2118     2605     2988     3118     3049     2983     3007     3042 
    3014     2972     3019     3168     3252     3052     2617     2224 
    1984     1821     1642     1266      557     -349    -1264    -2128 
   -2870    -3391    -3747    -4063    -4320    -4476    -4688    -5080 
   -5476    -5660    -5719    -5910    -6250    -6474    -6328    -5748 
   -4907    -4210    -3920    -3800    -3469    -2871    -2185    -1533 
    -901     -168      757     1732     2475     2941     3346     3971 
    4974     6230     7357     7940     7827     7238     6485     5734 
    5120     4774     4738     4974     5282     5296     4816     4003 
    3175     2569     2250     2111     2016     1939     1895     1830 
    1622     1204      665      105     -533    -1248    -1876    -2336 
   -2652    -2844    -2999    -3132    -2976    -2277    -1069      407 
    1819     2855     3385     3393     2956     2305     1755     1560 
    1799     2357     3096     3880     4525     4978     5364     5756 
    6134     6513     6829     6883     6577     6048     5508     5071 
    4818     4876     5225     5568     5628     5424     5062     4513 
    3801     3208     3042     3399     4232     5327     6246     6609 
    6315     5522     4564     3705     3078     2778     2797     3022 
    3383     3867     4437     4938     5182     5125     4828     4294 
    3483     2388     1084     -241    -1352    -2096    -2452    -2529 
   -2474    -2361    -2315    -2590    -3342    -4521    -5948    -7338 
   -8437    -9147    -9423    -9212    -8513    -7321    -5686    -3801 
   -1854       -9     1521     2610     3283     3558     3434     3015 
    2511     2146     2142     2660     3673     4939     6130     6985 
    7353     7207     6675     5900     4988     4025     2967     1691 
     216    -1324    -2778    -3931    -4720    -5327    -5815    -6046 
   -5996    -5830    -5698    -5694    -5861    -6060    -6080    -5900 
   -5607    -5216    -4773    -4421    -4194    -3923    -3339    -2317 
    -974      506     2060     3618     5015     6145     7029     7682 
    8127     8499     8873     9084     8938     8467     7898     7485 
    7340     7358     7352     7248     7114     7034     6922     6511 
    5582     4197     2625     1112     -211    -1250    -1973    -2420 
   -2597    -2574    -2516    -2500    -2533    -2683    -2980    -3338 
   -3624    -3771    -3738    -3474    -3044    -2520    -1872    -1135 
    -409      270      819     1101     1096      913      615      178 
    -333     -727     -838     -699     -449     -168      178      657 
    1254     1926     2639     3249     3576     3609     3485     3335 
    3176     2851     2232     1443      753      272     -148     -689 
   -1431    -2355    -3256    -3816    -3898    -3526    -2725    -1668 
    -687       62      660     1120     1316     1154      635      -68 
    -657     -940     -976     -890     -741     -499      -63      616 
    1354     1767     1632     1174      820      693      573      233 
    -398    -1244    -2139    -2971    -3716    -4353    -4757    -4718 
   -4251    -3717    -3454    -3542    -3855    -4091    -3923    -3284 
   -2334    -1267     -268      625     1516     2319     2740     2671 
    2305     1773     1123      652      738     1352     2130     2745 
    3055     3133     3190     3410     3838     4337     4662     4650 
    4293     3751     3357     3373     3778     4369     4954     5383 
    5594     5609     5494     5375     5366     5495     5729     5913 
    5798     5282     4477     3563     2708     2049     1601     1290 
    1028      712      217     -634    -1988    -3727    -5437    -6606 
   -6874    -6288    -5204    -3939    -2667    -1571     -826     -486 
    -479     -680     -877     -841     -484       94      796     1605 
    2577     3761     5131     6573     7892     8942     9684    10049 
    9875     9153     8222     7603     7624     8185     8896     9375 
    9363     8787     7719     6201     4332     2467     1039      131 
    -493    -1143    -2029    -3183    -4371    -5206    -5547    -5597 
   -5611    -5765    -6189    -6813    -7375    -7650    -7608    -7290 
   -6716    -6019    -5356    -4727    -4125    -3613    -3208    -2843 
   -2470    -2043    -1468     -743       60      940     1900     2797 
    3384     3619     3690     3736     3828     4063     4442     4857 
    5248     5636     6023     6378     6731     7142     7564     7799 
    7630     6937     5718     4191     2878     2214     2196     2579 
    3109     3605     3921     3899     3465     2709     1725      490 
    -924    -2319    -3628    -4927    -6184    -7207    -7700    -7450 
   -6536    -5260    -3983    -3002    -2454    -2299    -2331    -2207 
   -1674     -789      214     1177     1996     2594     2990     3260 
    3440     3562     3700     3960     4434     5092     5763     6247 
    6480     6581     6747     7075     7456     7576     7132     6142 
    4873     3514     2185     1035      128     -561    -1005    -1223 
   -1374    -1657    -2176    -2903    -3662    -4149    -4128    -3643 
   -2894    -1961     -841      475     1984     3544     4943     6088 
    7026     7823     8494     8996     9277     9370     9355     9220 
    8920     8529     8194     8039     8083     8248     8451     8668 
    8915     9154     9204     8815     7900     6629     5221     3769 
    2349     1123      199     -446     -895    -1263    -1732    -2349 
   -2934    -3319    -3472    -3365    -2990    -2463    -1965    -1579 
   -1235     -823     -315      295     1088     2123     3316     4449 
    5317     5837     6134     6496     7121     7987     8972     9898 
   10531    10706    10318     9261     7623     5782     4136     2940 
    2293     2065     1941     1677     1202      471     -634    -2168 
   -3958    -5656    -6970    -7778    -8090    -7979    -7570    -6970 
   -6235    -5379    -4283    -2762     -834     1216     3113     4743 
    6092     7148     7963     8671     9364    10015    10534    10913 
   11233    11520    11734    11886    11997    11963    11691    11129 
   10208     8947     7487     5895     4145     2255      325    -1548 
   -3303    -4912    -6389    -7744    -8878    -9632    -9913    -9792 
   -9489    -9231    -9115    -9136    -9180    -8999    -8407    -7518 
   -6562    -5597    -4457    -3011    -1385      166     1545     2828 
    4071     5297     6586     7985     9431    10814    11951    12606 
   12730    12532    12278    12105    11973    11793    11493    10941 
   10100     9166     8394     7966     7921     8070     8083     7693 
    6786     5404     3761     2101      607     -491     -953     -837 
    -542     -496     -927    -1807    -2848    -3631    -3979    -4072 
   -4178    -4491    -5019    -5485    -5503    -4907    -3748    -2163 
    -289     1764     3859     5699     6949     7534     7712     7865 
    8293     9062     9954    10698    11196    11404    11298    11009 
   10640    10072     9204     8128     6975     5845     4811     3974 
    3454     3240     3196     3069     2455     1047    -1155    -3932 
   -6982    -9884   -12067   -13128   -13124   -12312   -10891    -9065 
   -7026    -4959    -3096    -1575     -351      661     1528     2421 
    3537     4939     6625     8460    10160    11587    12822    13844 
   14535    14906    15041    14899    14382    13467    12218    10746 
    9134     7418     5579     3584     1474     -668    -2848    -5113 
   -7443    -9715   -11638   -12841   -13150   -12657   -11597   -10315 
   -9150    -8228    -7503    -6948    -6567    -6304    -6027    -5563 
   -4808    -3788    -2528    -1008      724     2535     4293     5945 
    7510     9034    10516    11881    12930    13451    13458    13172 
   12775    12266    11612    10903    10272     9761     9266     8552 
    7408     5849     4106     2432      890     -625    -2168    -3628 
   -4891    -5998    -7082    -8186    -9180    -9811    -9909    -9614 
   -9279    -9150    -9293    -9678   -10158   -10486   -10507   -10239 
   -9764    -9175    -8627    -8163    -7659    -7020    -6230    -5277 
   -4178    -2978    -1749     -668       35      221      -70     -561 
    -737     -163     1116     2683     4102     5150     5868     6484 
    7188     8002     8758     9169     9084     8618     7847     6698 
    5233     3719     2466     1776     1796     2274     2766     3026 
    2980     2497     1375     -386    -2323    -3686    -3955    -3148 
   -1745     -469       16     -532    -1792    -3175    -4212    -4622 
   -4344    -3599    -2766    -2143    -1809    -1621    -1372     -897 
     -87      970     1865     2106     1537      344    -1081    -2199 
   -2544    -2012     -776      850     2377     3315     3532     3235 
    2687     2095     1622     1333     1228     1282     1389     1443 
    1502     1750     2316     3075     3651     3781     3555     3244 
    3025     2943     2952     3086     3573     4525     5645     6457 
    6588     5854     4483     3100     2189     1738     1503     1237 
     631     -491    -1949    -3402    -4614    -5481    -5979    -6245 
   -6512    -6921    -7411    -7767    -7797    -7472    -6893    -6164 
   -5395    -4783    -4448    -4388    -4584    -4918    -5043    -4506 
   -3068     -963     1205     2814     3562     3618     3296     2766 
    2157     1637     1302     1152     1178     1421     1911     2567 
    3198     3585     3559     2983     1811      160    -1711    -3492 
   -4855    -5585    -5648    -5143    -4256    -3235    -2388    -1945 
   -1848    -1856    -1941    -2212    -2620    -3026    -3302    -3257 
   -2766    -1911    -1003     -491     -669    -1467    -2586    -3685 
   -4526    -5151    -5784    -6590    -7479    -8193    -8576    -8660 
   -8494    -8114    -7614    -7048    -6347    -5459    -4472    -3559 
   -2792    -2073    -1237     -246      800     1796     2597     2967 
    2713     1846      648     -375     -745     -301      750     2010 
    3117     3996     4807     5576     6170     6625     7092     7581 
    7986     8060     7425     5975     4225     2963     2627     3051 
    3681     4029     3993     3738     3323     2612     1483      -55 
   -1858    -3623    -4968    -5603    -5559    -5213    -4996    -5103 
   -5452    -5907    -6439    -7037    -7645    -8252    -8837    -9297 
   -9568    -9699    -9722    -9487    -8714    -7344    -5790    -4584 
   -3869    -3500    -3246    -2739    -1779     -619      419     1320 
    2138     2729     2859     2520     2047     1869     2166     2801 
    3508     4032     4220     4140     4001     3929     3851     3555 
    2930     2130     1426     1019      900      781      325     -423 
   -1009    -1026     -511      114      417      257     -183     -741 
   -1463    -2393    -3456    -4541    -5475    -5980    -5922    -5552 
   -5292    -5333    -5661    -6177    -6635    -6779    -6701    -6739 
   -6990    -7192    -7083    -6724    -6400    -6313    -6471    -6670 
   -6497    -5590    -4029    -2286     -726      625     1848     3059 
    4392     5806     6939     7339     6871     5821     4703     4005 
    3998     4679     5813     7080     8131     8537     7989     6644 
    5082     3877     3252     3083     3109     3137     3057     2695 
    1829      391    -1378    -2953    -3766    -3631    -2948    -2551 
   -3208    -5054    -7501    -9738   -11249   -11975   -12195   -12220 
  -12109   -11751   -11148   -10463    -9840    -9316    -8904    -8552 
   -7997    -6875    -5040    -2728     -433     1425     2785     3910 
    5143     6677     8490    10413    12231    13683    14505    14615 
   14241    13765    13467    13359    13261    12993    12442    11477 
    9987     8012     5821     3750     2037      819       70     -461 
    -994    -1610    -2442    -3666    -5273    -7105    -8947   -10536 
  -11663   -12336   -12683   -12787   -12591   -11900   -10597    -8849 
   -6918    -4984    -3223    -1815     -727      259     1302     2369 
    3400     4456     5626     6898     8181     9340    10208    10771 
   11310    12046    12769    13101    12954    12548    12217    12240 
   12552    12760    12553    11977    11257    10525     9759     8888 
    7916     6925     5929     4837     3613     2362     1198      147 
    -818    -1736    -2667    -3619    -4490    -5235    -5937    -6670 
   -7438    -8203    -8866    -9229    -9144    -8676    -8037    -7466 
   -7127    -7052    -7136    -7236    -7225    -6979    -6413    -5486 
   -4274    -2982    -1748     -508      934     2697     4715     6836 
    8920    10854    12498    13691    14285    14222    13663    13022 
   12715    12827    13163    13486    13593    13317    12609    11581 
   10403     9167     7854     6367     4708     3007     1356     -249 
   -1844    -3388    -4764    -5811    -6386    -6439    -6091    -5633 
   -5317    -5147    -4982    -4706    -4255    -3663    -3069    -2589 
   -2227    -1953    -1783    -1699    -1525     -982      105     1595 
    3100     4299     5082     5476     5599     5659     5871     6393 
    7245     8293     9374    10307    10836    10824    10346     9560 
    8718     8194     8168     8395     8469     8203     7689     7155 
    6782     6538     6207     5636     4726     3433     1863      182 
