Origin Time       2016/04/16 01:25:00
Lat.              32.753
Long.             130.762
Depth. (km)       12
Mag.              7.3
Station Code      YMG004
Station Lat.      34.3709
Station Long.     131.1820
Station Height(m) 6
Record Time       2016/04/16 01:25:39
Sampling Freq(Hz) 100Hz
Duration Time(s)  104
Dir.              N-S
Scale Factor      7845(gal)/8223790
Max. Acc. (gal)   7.551
Last Correction   2016/04/16 01:25:39
Memo.             
[...]
    -508      -21      484      689      615      549      625      822 
    1121     1520     1850     1734     1048      274      -97     -129 
    -109        5      363      743      820      672      626      815 
    1097     1291     1324     1205      994      693      328      228 
     665     1308     1642     1591     1389     1194     1053      986 
     926      789      552      131     -375     -562     -249      306 
     797     1030      978      815      621      306        4        5 
     261      473      575      677      756      606      143     -326 
    -438     -274     -184     -313     -423     -306     -178     -156 
     116      676      992      851      591      413      171     -170 
    -270      118      668      872      648      211     -261     -665 
    -819     -464      367     1139     1471     1537     1439      981 
     259     -210     -139      152      214       44     -117     -190 
    -238     -344     -442     -245      274      702      880     1159 
    1748     2425     2876     3067     3132     2982     2527     2007 
    1606     1166      560     -102     -660    -1000    -1000     -638 
    -126      297      575      741      835      828      545       -8 
    -369     -209      253      710     1038     1111      913      735 
     762      685      301       23      205      540      645      548 
     502      653      903     1057     1073     1013      869      622 
     440      546      858     1112     1244     1298     1201      907 
     526      266      275      464      581      504      317      189 
     245      448      680      861      901      770      550      376 
     422      783     1247     1449     1316     1008      579      110 
     -82      241      938     1580     1875     1819     1549     1279 
    1286     1655     2116     2250     1989     1729     1745     1871 
    1881     1850     1899     1864     1503      896      372      128 
     114      238      475      714      788      668      468      246 
     -35     -321     -457     -453     -464     -531     -579     -614 
    -720     -909     -989     -741     -211      278      529      654 
     684      473      157       93      319      525      500      292 
      37      -54      141      487      780     1016     1293     1501 
    1405     1111      870      577      125     -214     -248     -149 
     -44      180      564      938     1097      935      592      376 
     421      733     1368     2118     2546     2543     2319     2083 
    1885     1625     1297     1062      886      658      569      745 
     928     1005     1144     1331     1313      965      440      105 
     180      418      461      365      396      611      928     1256 
    1428     1345     1105      778      463      398      626      918 
    1030      807      391      103       20       32      114      272 
     417      344       11     -380     -676     -789     -648     -370 
    -108      131      229       97       21      255      517      434 
      94     -201     -346     -386     -298      -37      328      669 
     880      900      855      922     1084     1267     1431     1539 
    1655     1859     2128     2444     2786     3026     3024     2832 
    2629     2436     2222     2111     2138     2173     2222     2359 
    2505     2540     2478     2421     2485     2662     2824     2914 
    2960     2948     2836     2636     2413     2249     2200     2239 
    2276     2236     2120     1922     1637     1448     1571     1864 
    2037     2074     2121     2173     2065     1676     1152      857 
     936     1077      946      673      513      415      275      152 
     151      341      679      978     1136     1204     1202     1094 
     931      881     1038     1293     1449     1425     1304     1138 
     864      585      498      577      680      807      976     1100 
    1196     1410     1719     1935     1979     1911     1825     1788 
    1771     1714     1717     1880     2069     2045     1837     1692 
    1672     1632     1561     1560     1610     1583     1490     1530 
    1745     1906     1930     1941     1900     1744     1595     1553 
    1556     1506     1378     1252     1247     1336     1409     1444 
    1452     1422     1409     1493     1620     1570     1242      783 
     342       21      -81      -32      -28     -144     -307     -351 
    -171       93      241      246      198      141       51      -37 
      22      324      760     1144     1424     1632     1726     1634 
    1405     1161      912      642      464      460      510      464 
     313      128        0      -44      -91     -178     -193     -126 
    -143     -212     -120      211      685     1139     1441     1644 
    1865     2043     2027     1833     1688     1791     2050     2249 
    2289     2188     1985     1672     1287     1065     1177     1493 
    1723     1687     1401      981      553      255      190      328 
     488      515      418      292      287      569     1093     1580 
    1817     1799     1668     1570     1517     1445     1363     1325 
    1332     1313     1242     1193     1269     1441     1557     1528 
    1426     1359     1294     1156     1005      957     1021     1159 
    1352     1583     1823     2000     2047     1965     1791     1584 
    1420     1333     1329     1366     1354     1323     1344     1304 
    1051      696      522      661      970     1229     1398     1575 
    1742     1790     1734     1647     1509     1362     1343     1522 
    1787     1979     2142     2374     2485     2273     1883     1525 
    1206      899      726      803     1005     1078      959      873 
    1016     1247     1308     1196     1070      951      791      737 
     994     1408     1620     1588     1559     1532     1197      564 
      90       22      183      383      604      811      890      838 
     841     1030     1351     1698     1975     2085     1977     1677 
    1352     1219     1281     1367     1355     1228     1026      773 
     513      383      508      793      985      909      711      591 
     469      241       39       37      257      548      722      760 
     727      646      583      634      784      858      723      550 
     612      861     1000      893      680      506      291      -22 
    -234     -149      141      421      591      695      741      739 
     822     1026     1162     1065      832      699      764      965 
    1197     1359     1439     1462     1370     1200     1174     1409 
    1740     1880     1723     1443     1232     1107     1009      915 
     855      873      954      963      787      572      540      569 
     441      278      265      283      190       87      128      346 
     691     1120     1549     1767     1676     1413     1107      869 
     826      928     1043     1123     1098      872      553      378 
     351      284      135       40       -2      -76      -81      108 
     436      753      922      929      924      935      811      596 
     564      757      889      762      538      495      653      735 
     569      391      488      723      811      808      900     1000 
     986      926      950     1109     1329     1451     1389     1167 
     842      553      492      635      747      734      758      916 
    1058     1059     1042     1166     1331     1304     1017      641 
     411      396      378      190       41      189      513      749 
     855      882      810      687      615      602      641      738 
     820      841      864     1011     1300     1570     1644     1554 
    1543     1750     1980     1965     1777     1641     1559     1377 
    1059      726      523      529      696      892     1035     1055 
     881      562      266       65     -105     -245     -218       37 
     351      521      573      629      618      475      368      483 
     769     1031     1163     1213     1221     1175     1107     1057 
    1005      936      874      864      926     1008     1031      929 
     687      390      207      203      240      253      402      673 
     815      767      637      419      174      108      289      565 
     766      886     1026     1235     1424     1426     1237     1128 
    1243     1362     1282     1090      924      805      715      734 
     907     1139     1285     1255     1035      765      650      702 
     803      945     1138     1282     1358     1405     1371     1223 
    1086     1121     1328     1497     1428     1120      735      493 
     540      789     1039     1258     1494     1613     1476     1209 
    1005      864      687      463      283      232      322      515 
     707      747      594      326       90       -9       18      122 
     270      402      415      306      240      376      668      899 
     874      641      480      572      781      911     1050     1279 
    1310      942      436      122       31      -10     -128     -287 
    -418     -502     -459     -178      305      796     1000      785 
     348      -31     -194      -54      349      793     1028      962 
     685      365      141       35      -52     -186     -268     -172 
      74      315      422      406      324      202      114      156 
     329      545      722      882     1023      981      722      464 
     361      364      454      688      945      926      599      302 
     246      275      249      301      503      702      818      897 
     965     1003     1021     1084     1230     1325     1192      951 
     880      994     1065      974      855      838      884      908 
     949     1015     1047     1065     1084     1057     1017     1043 
    1107     1146     1125     1008      796      631      728     1074 
    1413     1579     1591     1552     1568     1586     1471     1293 
    1232     1290     1301     1215     1175     1313     1528     1640 
    1663     1691     1632     1363      986      728      714      869 
     972      886      719      606      537      513      599      785 
     959     1032     1036      986      726      297       85      178 
     212       16     -186     -209     -131      -75       37      288 
     553      702      797      951     1092     1071      929      801 
     770      908     1173     1422     1606     1691     1587     1320 
    1044      888      885     1031     1227     1337     1345     1262 
    1144     1138     1269     1410     1437     1333     1204     1115 
    1015      911      882      950     1067     1165     1185     1128 
    1034      927      855      915     1109     1291     1332     1247 
    1094      899      741      707      780      864      864      797 
     776      804      849      913      959      987     1069     1140 
    1123     1125     1225     1310     1308     1256     1198     1120 
    1034     1077     1300     1517     1606     1602     1498     1344 
    1294     1367     1476     1588     1698     1829     1966     2056 
    2106     2041     1769     1505     1431     1386     1275     1181 
    1096     1009      970     1058     1323     1553     1499     1347 
    1301     1228     1084      976      900      819      591      164 
     -83      101      359      380      413      552      471      178 
     -39     -120      -40       93      101      225      573      711 
     658      850     1123     1178     1213     1317     1348     1372 
    1455     1543     1722     1910     1826     1582     1409     1182 
     919      872      945      896      777      639      460      340 
     363      561      900     1205     1364     1474     1665     1902 
    2041     2110     2224     2308     2158     1757     1327     1069 
     954      893      923     1057     1127     1003      780      575 
     360      125      -85     -230     -278     -261     -249     -201 
     -98      -35      -85     -191     -193      -29      299      803 
    1258     1534     1837     2120     2149     2008     1904     1844 
    1688     1397     1107      916      805      747      711      704 
     691      581      429      279      160      224      436      621 
     788      955     1115     1290     1391     1345     1255     1155 
    1111     1277     1476     1413     1146      903      797      765 
     741      874     1158     1242      999      728      664      734 
     808      920     1023      945      843      903      965      953 
     958     1084     1371     1572     1559     1614     1833     1979 
    1954     1837     1722     1629     1472     1372     1485     1741 
    2085     2419     2562     2597     2654     2658     2614     2606 
    2652     2704     2663     2605     2628     2590     2382     2147 
    2064     2034     1861     1582     1264      886      553      375 
     303      297      326      344      292      207      230      253 
     126      -16     -117     -178      -47      259      508      585 
     525      370      136     -148     -369     -433     -410     -405 
    -387     -349     -349     -373     -410     -533     -728     -885 
    -978    -1161    -1602    -2107    -2349    -2442    -2613    -2648 
   -2269    -1632    -1119     -862     -648     -217      433     1206 
    2064     2872     3515     3991     4241     4251     4055     3541 
    2706     1760      767     -292    -1243    -1972    -2728    -3773 
   -4982    -6052    -6787    -7087    -6945    -6397    -5467    -4487 
   -3916    -3781    -3910    -4286    -4712    -4803    -4572    -4325 
   -4017    -3630    -3527    -3677    -3532    -2840    -1811     -727 
     212      772      591     -352    -1472    -2285    -2743    -2821 
   -2608    -2455    -2427    -2196    -1723    -1120     -221      920 
    1836     2274     2511     2839     3226     3612     3959     4068 
    3765     3078     2254     1636     1455     1752     2384     3067 
    3677     4318     4942     5398     5734     5910     5691     5103 
    4388     3589     2669     1796     1167      648      -49     -897 
   -1640    -2092    -2172    -1935    -1530    -1020     -436      105 
     533      927     1460     2300     3427     4610     5616     6258 
    6462     6385     6160     5724     5097     4523     4055     3414 
    2470     1503      807      373       51     -160     -160      -10 
      87      148      414      920     1460     1871     2042     2053 
    2121     2241     2257     2120     1904     1737     1655     1701 
    1984     2427     2801     2921     2660     2041     1306      715 
     370      325      595      989     1138      866      342      -79 
    -110      190      548      962     1524     1969     2073     1965 
    1852     1945     2371     2926     3218     2983     2203     1135 
     266        9      365     1065     1773     2139     2058     1721 
    1343     1200     1533     2215     2791     2857     2461     1975 
    1379      450     -537    -1300    -1991    -2851    -3940    -4926 
   -5196    -4660    -3817    -2974    -1982     -724      537     1457 
    2041     2416     2581     2624     2851     3505     4519     5524 
    6134     6276     6146     5918     5632     5363     5362     5680 
    5918     5800     5467     5120     4882     4777     4764     4869 
    4938     4602     3842     3073     2559     2212     1900     1606 
    1371     1143      774      282      -89      -99      194      410 
     270     -190     -897    -1794    -2736    -3526    -3994    -4074 
   -3828    -3595    -3778    -4301    -4745    -4888    -4699    -4302 
   -3997    -3924    -3962    -3981    -3917    -3682    -3279    -2867 
   -2620    -2554    -2493    -2296    -2033    -1814    -1640    -1485 
   -1378    -1440    -1786    -2224    -2411    -2296    -2038    -1750 
   -1548    -1476    -1426    -1274    -1065     -974    -1050    -1324 
   -1880    -2392    -2347    -1744     -931     -166      499     1178 
    1903     2521     2925     3106     3109     3011     2786     2374 
    1949     1652     1334      901      500      272      218      190 
     136      180      168     -186     -712    -1016     -976     -720 
    -364       91      579      913      986      923      935     1021 
    1156     1494     1995     2428     2756     3032     3213     3330 
    3485     3770     4245     4684     4669     4120     3254     2377 
    1817     1556     1418     1564     1918     1918     1460      957 
     526       20     -546    -1034    -1323    -1393    -1221     -730 
      -5      658     1058     1162     1026      719      333      109 
     287      728     1128     1425     1575     1360      876      660 
    1065     1819     2430     2763     2982     3149     3341     3712 
    4116     4197     3873     3343     2839     2334     1738     1286 
    1277     1661     2077     2124     1761     1220      588      -75 
    -449     -236      472     1364     2124     2516     2475     2056 
    1422      780      178     -430    -1104    -1719    -1880    -1447 
    -661      237      963     1247     1065      513     -205     -675 
    -511      292     1313     1930     1840     1296      668      140 
     -76      203      955     2049     3148     3738     3601     2955 
    2076     1028     -263    -1667    -2776    -3388    -3511    -3049 
   -2020     -788      206      749      812      499      125       79 
     560     1495     2620     3596     4147     4178     3827     3292 
    2713     2181     1688     1132      532       67     -152     -135 
     116      549      969     1305     1776     2497     3279     3959 
    4553     5057     5354     5297     4785     3856     2754     1822 
    1229      913      788      823      977     1138     1165     1081 
    1009      949      884      851      826      758      560       95 
    -486     -814     -772     -600     -548     -486     -128      441 
     903     1030      753      203     -459    -1150    -1714    -2061 
   -2269    -2427    -2623    -2917    -3161    -3208    -3226    -3402 
   -3672    -3954    -4176    -4225    -3963    -3150    -1709       18 
    1649     3036     4114     4823     5117     5065     4911     4874 
    4926     4864     4568     4135     3634     3009     2330     1755 
    1285      899      625      429      209     -121     -538    -1067 
   -1894    -2998    -4175    -5229    -5831    -5871    -5633    -5157 
   -4405    -3834    -3880    -4342    -4599    -4305    -3709    -3153 
   -2644    -2133    -1655    -1262    -1074    -1123    -1196    -1156 
   -1050     -922     -851     -900     -955     -845     -542     -243 
    -144     -148      -47      110      233      434      837     1436 
    2154     2862     3466     3778     3538     2938     2504     2447 
    2616     2824     3068     3397     3677     3727     3559     3312 
    2967     2373     1547      724       79     -336     -432     -225 
     141      533      635      238     -356     -797     -969     -764 
    -249      225      357       62     -456     -812     -872     -765 
    -565     -360     -294     -295     -118      450     1472     2660 
    3623     4333     4806     4803     4309     3763     3608     3901 
    4434     5040     5632     5968     5771     5050     4063     3163 
