Origin Time       2016/04/16 01:25:00
Lat.              32.753
Long.             130.762
Depth. (km)       12
Mag.              7.3
Station Code      YMG007
Station Lat.      34.1657
Station Long.     131.2064
Station Height(m) 90
Record Time       2016/04/16 01:25:35
Sampling Freq(Hz) 100Hz
Duration Time(s)  100
Dir.              E-W
Scale Factor      7845(gal)/8223790
Max. Acc. (gal)   14.882
Last Correction   2016/04/16 01:25:35
Memo.             
[...]
    -899     -928     -423      283      535      279     -210     -847 
   -1416    -1453     -815      157     1163     2137     3010     3526 
    3388     2754     2042     1337      513     -421    -1285    -1759 
   -1618     -915      203     1576     2936     4043     4783     5035 
    4583     3294     1485     -214    -1433    -2006    -1658     -394 
    1169     2354     2940     3013     2863     2770     2593     1985 
    1042      106     -766    -1586    -2096    -1973    -1190     -121 
     880     1811     2608     2914     2691     2242     1620      781 
       9     -396     -638    -1192    -2011    -2475    -2309    -1829 
   -1212     -334      735     1683     2234     2363     2347     2558 
    3030     3198     2641     1877     1456     1162      843      665 
     409     -203     -877    -1178    -1016     -585     -114      299 
     627      731      599      480      532      626      533      193 
    -160     -326     -360     -234      178      847     1540     2065 
    2374     2442     2309     2068     1651      974      124     -776 
   -1534    -1815    -1512     -896     -166      693     1652     2484 
    2936     3032     2944     2597     1927     1197      473     -459 
   -1350    -1628    -1262     -581      305     1306     2150     2708 
    3046     3107     2647     1518       20    -1237    -1965    -2262 
   -2155    -1617     -831      -81      468      747      777      687 
     608      577      657      915     1148     1107      868      685 
     672      676      508      309      379      692      846      599 
     175     -144     -356     -450     -271      159      579      846 
    1055     1286     1426     1401     1271      940      336     -230 
    -504     -660     -864     -984     -890     -760     -758     -639 
     -99      681     1259     1528     1818     2322     2679     2565 
    2272     2151     1935     1183       44     -913    -1383    -1439 
   -1221     -750       14      949     1790     2335     2458     2072 
    1169      -74    -1224    -1734    -1332     -292      739     1340 
    1582     1636     1426      859      135     -422     -837    -1413 
   -2012    -2052    -1431     -658     -103      198      334      480 
     826     1359     1833     2012     1864     1524     1201      970 
     733      540      513      491      344      272      496      959 
    1482     1975     2253     2070     1603     1256     1039      684 
     220       37      298      631      658      406       43     -337 
    -598     -550     -105      533      977     1136     1159      963 
     526       93     -414    -1221    -1966    -2029    -1244        9 
    1208     2162     2862     2940     2153     1017      197     -140 
    -202     -311     -500     -382      294     1248     2031     2400 
    2251     1593      623     -328     -989    -1274    -1242     -984 
    -506      180      931     1474     1625     1606     1695     1726 
    1381      805      463      370      228      112      167      311 
     598     1069     1595     2165     2775     3203     3287     3051 
    2682     2475     2415     2222     1894     1687     1767     2053 
    2222     2038     1614     1101      495      -98     -471     -638 
    -781     -859     -611      -45      459      581      303     -198 
    -643     -780     -545      -47      483      797      864      915 
    1148     1452     1540     1340     1051      822      745     1092 
    1971     2880     3173     2814     2193     1490      708       18 
    -314     -289     -228     -305     -326     -195      -32      191 
     518      683      430      -72     -467     -643     -591     -162 
     650     1556     2224     2506     2382     1856      900     -288 
   -1128    -1242     -876     -330      409     1279     1998     2432 
    2704     2867     2790     2419     2000     1781     1672     1568 
    1594     1736     1822     1849     1857     1757     1551     1317 
    1067      807      476      -35     -618     -980    -1011     -789 
    -398       44      368      398      144      -18      125      207 
     -78     -464     -623     -487      -67      532     1123     1620 
    2101     2581     2895     2949     2866     2702     2324     1791 
    1393     1167      965      850      932     1094     1142      969 
     707      599      610      579      591      693      689      483 
     360      622     1067     1325     1370     1368     1395     1401 
    1290     1067      746      249     -359     -774     -710     -257 
     190      504      805     1012     1086     1192     1213      889 
     375       23      -75       14      238      469      635      845 
    1177     1583     1985     2259     2201     1729     1065      469 
     -32     -364     -302       93      511      874     1286     1732 
    2085     2193     1954     1405      645     -203     -936    -1259 
    -897      112     1305     2185     2693     3006     3082     2667 
    1729      515     -758    -1806    -2259    -1965    -1038      222 
    1421     2308     2786     2822     2473     1798      801     -332 
   -1258    -1819    -1996    -1665     -810      313     1368     2089 
    2332     2141     1665      997      156     -692    -1305    -1579 
   -1371     -493      858     2223     3291     3984     4313     4170 
    3522     2635     1722      780      -51     -506     -496     -103 
     508     1133     1628     1982     2193     2116     1719     1247 
     855      550      484      718     1073     1518     2079     2554 
    2744     2669     2444     2114     1649     1028      325     -295 
    -749    -1043    -1098     -816     -216      556     1264     1717 
    1833     1606     1121      500      -32     -184      102      504 
     675      577      427      364      276       37     -211     -211 
      93      558     1051     1507     1838     2010     2141     2370 
    2627     2652     2332     1859     1433     1097      870      728 
     679      797     1048     1287     1413     1355     1088      676 
     205     -283     -688     -846     -805     -757     -621     -212 
     346      874     1294     1502     1518     1470     1285      838 
     259     -182     -400     -481     -414     -117      391      997 
    1571     1977     2037     1658     1055      565      322      301 
     445      615      731      870     1124     1554     2123     2571 
    2656     2405     1992     1518     1053      706      526      573 
     920     1447     1826     1881     1760     1694     1679     1526 
    1169      743      402      206      120       17     -129     -240 
    -207       89      599     1039     1278     1389     1312     1035 
     862      957     1092     1178     1347     1479     1281      824 
     476      361      363      436      530      537      457      373 
     368      496      715      913     1028     1034      882      530 
      86     -255     -450     -602     -737     -715     -409       87 
     633     1236     1915     2581     3084     3341     3395     3306 
    3029     2492     1771     1074      530      135      -40       75 
     289      298      172      265      623      965     1138     1139 
     889      271     -579    -1208    -1290     -890     -112      918 
    1830     2354     2565     2485     2053     1449      966      715 
     633      616      638      718      792      772      715      795 
    1081     1502     1941     2247     2236     1885     1436     1107 
     873      585      222     -124     -383     -500     -330      249 
    1121     1911     2301     2239     1811     1155      453     -139 
    -544     -707     -540      -47      579     1132     1467     1471 
    1181      808      537      373      195     -110     -572    -1085 
   -1390    -1279     -838     -282      225      573      780      932 
     976      799      438       32     -279     -373     -174      299 
     939     1602     2126     2447     2675     2872     2803     2296 
    1613     1088      738      468      363      612     1194     1761 
    2029     2049     1952     1618      966      282     -101     -187 
    -131      112      637     1244     1668     1854     1776     1386 
     824      255     -306     -769     -957     -924     -793     -421 
     252      868     1163     1301     1371     1248     1020      924 
     888      587       11     -406     -403     -197      103      727 
    1572     2178     2431     2527     2523     2350     1975     1416 
     843      533      569      691      603      373      292      446 
     723     1100     1613     2102     2281     2085     1598      784 
    -228    -1098    -1707    -2083    -2060    -1545     -707      230 
    1084     1768     2309     2570     2293     1552      712      -32 
    -688    -1120    -1133     -735      -89      702     1543     2258 
    2721     2938     2907     2558     1918     1150      427      -83 
    -195      149      801     1509     1993     2168     2185     2068 
    1632      838      -67     -731     -966     -772      -90     1004 
    2012     2538     2691     2524     1829      727     -297     -957 
   -1274    -1242     -774       27      872     1578     2139     2489 
    2501     2158     1588      922      214     -463    -1012    -1393 
   -1566    -1474    -1092     -488      139      745     1448     2089 
    2338     2142     1680     1058      240     -626    -1143    -1093 
    -626       71      934     1779     2276     2282     2006     1695 
    1453     1412     1632     1923     2100     2200     2247     2128 
    1760     1297      929      558       55     -423     -639     -553 
    -283       91      552      970     1205     1270     1217     1035 
     756      510      363      224       75       32      143      368 
     664     1009     1459     2015     2523     2782     2682     2316 
    1930     1609     1200      712      446      604      997     1352 
    1613     1684     1471     1163     1017     1005      934      746 
     521      306      136       54       93      238      313      157 
     -74     -216     -325     -361     -214        2       60     -155 
    -579    -1000    -1170    -1020     -761     -576     -495     -573 
    -804    -1039    -1193    -1208     -989     -498      203      946 
    1494     1638     1377      987      741      614      571      679 
     877     1039     1131     1159     1142     1159     1289     1493 
    1644     1677     1576     1348     1038      702      481      548 
     855     1170     1390     1606     1923     2250     2404     2427 
    2494     2492     2115     1385      657       86     -476     -965 
   -1065     -762     -268      341      981     1460     1721     1804 
    1622     1116      506       28     -413     -923    -1308    -1395 
   -1262     -980     -526       98      815     1528     2208     2767 
    2974     2697     2043     1252      572      151      -59     -259 
    -517     -631     -391      131      741     1366     1939     2272 
    2250     2011     1726     1331      657     -167     -765     -963 
    -788     -194      762     1822     2704     3213     3298     3087 
    2771     2477     2272     2089     1768     1305      903      710 
     653      627      697      895     1067     1148     1193     1185 
    1112      953      642      288      109       83       72       10 
    -120     -251     -232      -17      307      697     1074     1236 
    1123      877      584      238      -89     -291     -332     -301 
    -372     -568     -676     -564     -363     -222      -82      143 
     329      289      106       44      198      396      438      251 
    -131     -587     -908     -967     -778     -382      178      754 
    1223     1560     1742     1772     1688     1472     1053      390 
    -511    -1559    -2560    -3215    -3250    -2729    -2084    -1636 
   -1336    -1111    -1142    -1532    -2070    -2571    -3013    -3275 
   -3186    -2802    -2336    -1917    -1554    -1270    -1109     -970 
    -826     -974    -1518    -2050    -2253    -2207    -1954    -1404 
    -615      167      741     1065     1161      959      425     -261 
    -928    -1660    -2455    -2990    -3045    -2755    -2261    -1640 
   -1177    -1188    -1634    -2223    -2749    -3225    -3727    -4248 
   -4692    -4934    -4993    -5017    -5058    -5022    -4887    -4799 
   -4923    -5341    -6066    -6964    -7722    -8212    -8577    -8780 
   -8631    -8160    -7452    -6552    -5529    -4399    -3319    -2592 
   -2226    -1926    -1499     -970     -387      351     1287     2222 
    3030     3816     4646     5370     5809     5973     5940     5719 
    5367     5039     4796     4650     4769     5304     6145     7121 
    8147     9147    10034    10523    10243     9231     7874     6403 
    4887     3542     2663     2311     2258     2196     2034     1938 
    1969     1865     1382      530     -518    -1517    -2189    -2342 
   -1991    -1344     -604      199     1098     1922     2409     2419 
    1885      889     -220    -1167    -1981    -2662    -2918    -2498 
   -1525     -330      864     2004     3002     3584     3530     2928 
    1975      842     -141     -500      102     1641     3740     5922 
    7894     9460    10268    10008     8681     6447     3662      986 
    -838    -1351     -657      819     2947     5751     8876    11772 
   14150    15816    16398    15525    13115     9402     5031      978 
   -1911    -3218    -2903    -1259     1201     3870     6118     7420 
    7576     6571     4332     1093    -2386    -5413    -7605    -8691 
   -8449    -6878    -4411    -1752      542     2111     2656     2011 
     415    -1526    -3168    -4031    -4074    -3709    -3244    -2659 
   -1944    -1308     -923     -635     -249      265      920     1606 
    2228     3105     4576     6519     8561    10265    11307    11547 
   10766     8839     6127     3044     -207    -3102    -4999    -5798 
   -5733    -5279    -5059    -5227    -5433    -5366    -4981    -4425 
   -3902    -3586    -3461    -3360    -3156    -2583    -1383      139 
    1312     1815     1738     1062     -441    -2546    -4376    -5331 
   -5541    -5190    -4243    -2889    -1530     -283      943     2079 
    3015     3780     4305     4448     4203     3699     3160     2764 
    2288     1371      288     -351     -558     -733     -919     -953 
    -805     -487      252     1641     3138     3769     3358     2450 
    1289      102     -283      676     2581     4691     6328     7072 
    6930     5913     4163     2258      353    -1686    -3326    -4156 
   -4452    -4125    -2694     -445     1364     1652      338    -2107 
   -5221    -8417   -11013   -12611   -13053   -12148   -10087    -7512 
   -4739    -1968       78      846      697      353        8     -387 
    -472       95     1260     2915     4776     6332     7515     8397 
    8657     8206     7209     5830     4356     2889     1408      417 
     715     2119     3546     4341     4418     4003     3581     3317 
    3006     2640     2307     1904     1557     1521     1740     2234 
    3028     3653     3794     3757     3645     3021     1892      851 
     259      256      920     2191     4060     6224     7854     8424 
    8078     6976     5231     3304     1744     1055     1539     2752 
    3883     4383     4131     3680     3655     3797     3649     3376 
    3088     2862     3267     4563     6304     7985     9391    10566 
   11549    12121    12102    11770    11232    10085     8576     7469 
    6751     6143     5864     5944     5984     5809     5498     5229 
    5363     6054     7022     8148     9417    10380    10720    10768 
   10736    10224     8835     6824     4831     3246     2207     1691 
    1516     1719     2409     3360     4182     4382     3678     2338 
     679    -1117    -2682    -3600    -3782    -3576    -3609    -4113 
   -4456    -4043    -3129    -2232    -1534    -1243    -1677    -2592 
   -3387    -3915    -4263    -4455    -4612    -4719    -4541    -4117 
   -3734    -3624    -4055    -5015    -5806    -5846    -5451    -5008 
   -4405    -3682    -3018    -2353    -1728    -1124     -461     -120 
    -348     -652     -451      419     1887     3946     6416     8460 
    9328     9094     7897     5834     3697     2409     2203     2805 
    3763     4683     5273     5296     4754     3800     2515     1250 
     594      442       95     -529    -1210    -2147    -3198    -3854 
   -4236    -4818    -5670    -6556    -7219    -7489    -7306    -6633 
   -5414    -3653    -1603      352     1902     2698     2389      890 
   -1512    -4128    -5927    -6170    -5103    -3376    -1105     1567 
    4014     5833     6894     6972     6053     4630     3518     3295 
    3834     4772     6070     7377     8040     8054     7530     6122 
    3767      999    -1394    -2890    -3578    -3570    -2671     -926 
    1223     3223     4839     6307     7510     7537     6091     4153 
    2559     1246       95     -656     -757     -126      897     1725 
    2297     2840     3092     2686     1593       52    -1243    -1506 
    -888     -102      681     1429     1894     2211     2770     3658 
    4623     5289     5460     5248     4800     4124     3284     2346 
    1385      791     1048     2234     3834     5231     6349     7264 
    7466     6389     4360     2214      395     -835    -1229     -989 
    -459      194      789     1304     1822     2362     2843     2997 
    2764     2563     2716     3122     3665     4429     5421     6403 
    7238     8014     8545     8474     7971     7444     6841     5968 
    4939     3747     2369     1170      411      -14      -97      325 
    1256     2434     3333     3601     3492     3383     3265     2975 
    2594     2519     2913     3361     3453     3087     2126      681 
    -656    -1428    -1494     -832      303     1413     2069     2169 
    1979     1849     1742     1262      292     -765    -1657    -2623 
   -3704    -4446    -4587    -4266    -3653    -2911    -2115    -1175 
    -364     -468    -1856    -3861    -5660    -7056    -7960    -8067 
   -7315    -5829    -3661    -1053     1298     2679     3028     2586 
    1243    -1012    -3655    -5938    -7186    -7109    -5967    -4261 
   -2446     -861      271      886     1084     1062     1031      997 
     893      980     1506     2192     2651     2967     3372     3715 
    3628     2967     1826      484     -680    -1552    -2196    -2431 
   -2189    -1786    -1379    -1030     -912     -969     -978     -940 
   -1013    -1316    -1894    -2606    -3061    -2970    -2470    -1786 
    -880      162      981     1343     1194      491     -823    -2604 
   -4318    -5445    -5786    -5209    -3753    -1742      460     2593 
    4166     4550     3750     2389      957     -373    -1543    -2380 
   -2554    -2153    -1640    -1155     -646     -275     -284     -778 
   -1591    -2521    -3565    -4563    -5107    -5109    -4791    -4126 
   -2978    -1636     -616       21      491      673      438      -43 
    -778    -1900    -3057    -3723    -3928    -4003    -3971    -3747 
   -3501    -3327    -3180    -3211    -3526    -4025    -4527    -4726 
