Origin Time       2016/04/16 01:25:00
Lat.              32.753
Long.             130.762
Depth. (km)       12
Mag.              7.3
Station Code      YMG003
Station Lat.      34.3829
Station Long.     131.6002
Station Height(m) 286
Record Time       2016/04/16 01:25:40
Sampling Freq(Hz) 100Hz
Duration Time(s)  101
Dir.              N-S
Scale Factor      7845(gal)/8223790
Max. Acc. (gal)   11.477
Last Correction   2016/04/16 01:25:40
Memo.             
[...]
    5996     5827     5548     5120     4652     4170     3578     2860 
    2195     1741     1443     1224     1179     1372     1699     2066 
    2520     3064     3611     4106     4513     4757     4849     4914 
    5070     5289     5414     5358     5139     4748     4167     3440 
    2624     1823     1212      919      997     1449     2204     3065 
    3820     4345     4554     4433     4094     3723     3433     3211 
    2971     2668     2326     2031     1930     2151     2614     3114 
    3549     3931     4255     4472     4514     4336     3955     3500 
    3125     2879     2687     2454     2160     1887     1757     1794 
    1937     2173     2542     3055     3643     4159     4461     4476 
    4260     3947     3643     3381     3138     2857     2511     2097 
    1637     1198      896      810      969     1355     1908     2535 
    3138     3612     3819     3697     3358     3028     2868     2867 
    2924     2978     3017     3026     3010     3032     3192     3549 
    4058     4572     4958     5193     5263     5084     4588     3855 
    3099     2528     2184     1980     1883     1953     2258     2771 
    3369     3974     4618     5316     5972     6415     6501     6245 
    5786     5224     4590     3967     3510     3319     3376     3547 
    3684     3765     3856     3954     3956     3805     3555     3338 
    3253     3291     3339     3261     3017     2728     2524     2403 
    2344     2457     2856     3511     4236     4831     5216     5424 
    5506     5475     5325     5096     4935     4938     4984     4942 
    4820     4657     4480     4280     3978     3538     3071     2763 
    2713     2895     3188     3487     3804     4207     4661     5050 
    5354     5649     5954     6191     6297     6308     6272     6157 
    5931     5656     5364     4992     4483     3899     3384     3021 
    2798     2664     2570     2492     2485     2627     2907     3238 
    3547     3866     4295     4855     5490     6129     6673     6979 
    6930     6540     5937     5256     4542     3811     3117     2559 
    2230     2154     2257     2419     2542     2560     2432     2196 
    2034     2196     2752     3528     4266     4742     4857     4710 
    4560     4560     4684     4865     5065     5233     5332     5360 
    5362     5413     5547     5686     5727     5665     5557     5385 
    5046     4513     3921     3484     3353     3546     3955     4436 
    4870     5182     5310     5202     4900     4583     4436     4490 
    4644     4814     5008     5240     5464     5571     5491     5232 
    4831     4352     3863     3426     3099     2936     3002     3272 
    3591     3850     4047     4220     4406     4634     4920     5219 
    5414     5435     5316     5101     4828     4584     4461     4518 
    4768     5181     5701     6230     6628     6818     6804     6542 
    5984     5267     4642     4228     3970     3785     3634     3514 
    3449     3466     3577     3780     4040     4225     4189     3940 
    3620     3315     3051     2874     2820     2907     3149     3528 
    3994     4459     4850     5159     5352     5350     5154     4893 
    4699     4648     4772     5051     5377     5616     5729     5765 
    5678     5348     4761     4048     3415     3019     2960     3299 
    3932     4608     5140     5493     5734     5973     6273     6573 
    6705     6561     6204     5760     5358     5105     4978     4860 
    4685     4433     4081     3657     3268     3049     3079     3342 
    3734     4097     4347     4507     4622     4661     4576     4406 
    4266     4253     4357     4502     4638     4733     4719     4549 
    4306     4162     4207     4398     4594     4608     4318     3765 
    3106     2509     2088     1883     1867     2001     2261     2613 
    3026     3508     4063     4631     5096     5360     5386     5202 
    4895     4557     4225     3859     3439     3038     2770     2694 
    2786     2995     3291     3638     3975     4243     4433     4567 
    4630     4561     4330     3963     3537     3137     2835     2644 
    2511     2405     2377     2461     2668     3024     3484     3967 
    4429     4801     4976     4916     4710     4507     4376     4266 
    4117     3989     3954     4008     4129     4289     4413     4449 
    4418     4315     4109     3832     3577     3410     3342     3377 
    3528     3785     4109     4475     4849     5159     5308     5255 
    5054     4772     4434     4081     3813     3699     3662     3591 
    3480     3396     3368     3353     3321     3306     3312     3240 
    3038     2806     2651     2596     2658     2879     3254     3707 
    4175     4611     4956     5188     5314     5294     5060     4625 
    4099     3666     3442     3387     3418     3522     3700     3898 
    4074     4258     4499     4734     4839     4768     4558     4263 
    3937     3661     3476     3364     3345     3495     3823     4223 
    4568     4762     4757     4533     4095     3524     2971     2554 
    2319     2278     2442     2789     3221     3628     3921     4058 
    4067     4017     3946     3870     3812     3786     3798     3839 
    3828     3686     3443     3210     3056     2972     2907     2833 
    2754     2652     2527     2438     2442     2529     2713     3041 
    3476     3902     4252     4482     4519     4306     3898     3456 
    3086     2790     2569     2450     2477     2646     2870     3046 
    3137     3111     2947     2704     2500     2404     2474     2768 
    3237     3727     4151     4515     4846     5152     5385     5451 
    5308     4963     4461     3905     3411     3059     2887     2875 
    2925     2967     2999     3040     3111     3246     3451     3672 
    3831     3886     3863     3781     3603     3308     2964     2663 
    2459     2373     2392     2509     2727     3013     3273     3402 
    3362     3196     2997     2852     2792     2811     2905     3049 
    3206     3355     3526     3732     3917     4032     4101     4166 
    4233     4288     4348     4441     4535     4553     4476     4352 
    4245     4185     4126     4027     3906     3819     3773     3738 
    3690     3661     3670     3678     3615     3423     3154     3011 
    3109     3326     3480     3554     3624     3692     3712     3708 
    3759     3865     3967     4036     4048     3965     3770     3520 
    3325     3234     3225     3288     3450     3709     3991     4192 
    4298     4390     4502     4610     4723     4900     5136     5363 
    5505     5506     5331     4953     4417     3879     3488     3257 
    3125     3068     3087     3177     3350     3588     3844     4116 
    4380     4517     4402     4055     3566     2967     2355     1872 
    1611     1575     1679     1831     2027     2307     2702     3190 
    3663     3978     4060     3947     3705     3420     3211     3125 
    3118     3198     3396     3650     3874     4025     4059     3974 
    3861     3802     3846     4052     4395     4673     4687     4431 
    4050     3674     3418     3416     3723     4164     4480     4568 
    4499     4369     4248     4183     4163     4155     4164     4156 
    4040     3793     3499     3241     2995     2690     2335     2058 
    1949     1961     2014     2115     2353     2802     3451     4191 
    4864     5344     5564     5508     5212     4780     4326     3937 
    3643     3418     3217     2994     2728     2463     2250     2077 
    1927     1856     1954     2255     2724     3269     3784     4183 
    4440     4540     4459     4205     3867     3577     3407     3380 
    3553     3937     4418     4858     5169     5293     5232     5066 
    4857     4633     4428     4252     4079     3852     3507     3046 
    2612     2355     2296     2388     2586     2821     2982     2934 
    2632     2193     1815     1626     1669     1945     2420     3025 
    3655     4203     4585     4737     4641     4333     3896     3447 
    3084     2859     2801     2909     3154     3511     3958     4419 
    4814     5116     5328     5422     5393     5289     5175     5069 
    4935     4779     4622     4423     4101     3632     3117     2697 
    2434     2334     2401     2604     2874     3148     3403     3601 
    3692     3653     3530     3360     3167     3014     2995     3163 
    3501     3924     4270     4393     4263     3902     3362     2766 
    2285     2068     2174     2548     3030     3464     3782     3944 
    3908     3717     3518     3439     3524     3755     4094     4460 
    4777     5007     5138     5169     5092     4914     4681     4436 
    4178     3928     3763     3763     3962     4322     4741     5076 
    5212     5085     4698     4183     3738     3476     3375     3355 
    3369     3400     3445     3510     3584     3670     3782     3898 
    3963     3965     3950     3925     3889     3844     3771     3646 
    3480     3327     3229     3156     3028     2816     2581     2392 
    2338     2560     3129     3898     4633     5213     5605     5795 
    5830     5798     5726     5568     5262     4797     4256     3773 
    3414     3175     3088     3208     3511     3902     4284     4580 
    4788     4946     5015     4882     4499     3925     3321     2891 
    2740     2813     2991     3223     3510     3828     4113     4271 
    4247     4055     3797     3608     3613     3819     4106     4384 
    4626     4812     4926     4936     4795     4468     4035     3650 
    3411     3296     3221     3150     3114     3150     3277     3458 
    3615     3703     3713     3670     3613     3582     3639     3823 
    4098     4378     4561     4587     4453     4203     3909     3681 
    3604     3659     3789     3983     4261     4615     4988     5270 
    5374     5300     5138     5004     4956     4972     4997     5017 
    5009     4899     4618     4164     3612     3071     2633     2350 
    2270     2392     2629     2874     3060     3176     3235     3252 
    3229     3152     3007     2809     2601     2444     2400     2543 
    2915     3464     4031     4453     4653     4637     4486     4314 
    4189     4087     3977     3880     3846     3902     4085     4425 
    4901     5405     5782     5935     5871     5597     5128     4602 
    4190     3955     3880     3915     3936     3823     3591     3357 
    3200     3109     3099     3272     3689     4233     4671     4849 
    4779     4556     4284     4071     4043     4306     4814     5328 
    5572     5454     5070     4579     4060     3530     3025     2678 
    2658     2953     3321     3542     3659     3832     4041     4147 
    4137     4105     4071     4020     3959     3916     3932     4071 
    4360     4739     5080     5287     5298     5049     4546     3928 
    3354     2910     2601     2371     2116     1803     1557     1521 
    1755     2257     2992     3859     4738     5563     6311     6894 
    7198     7261     7256     7340     7547     7789     7935     7859 
    7480     6781     5814     4664     3451     2369     1610     1256 
    1236     1428     1783     2301     2952     3697     4477     5135 
    5529     5709     5802     5848     5831     5714     5414     4923 
    4393     3978     3670     3353     2921     2370     1761     1154 
     666      410      338      340      422      696     1219     1922 
    2708     3518     4302     4973     5468     5833     6087     6218 
    6273     6296     6219     5973     5568     5078     4618     4364 
    4415     4634     4770     4716     4537     4274     3850     3234 
    2498     1706      939      378      168      288      603     1036 
    1628     2409     3323     4279     5209     6022     6632     7056 
    7430     7855     8226     8332     8085     7499     6582     5422 
    4189     3038     2079     1328      676       17     -611    -1139 
   -1591    -1954    -2098    -1958    -1597    -1096     -467      383 
    1526     2876     4314     5730     6951     7835     8361     8607 
    8657     8542     8290     7929     7438     6840     6266     5767 
    5244     4644     4043     3526     3134     2832     2529     2263 
    2173     2273     2511     2921     3549     4351     5229     6025 
    6563     6732     6517     5994     5297     4568     3906     3366 
    2980     2732     2513     2201     1791     1391     1123     1013 
     946      769      434       -2     -369     -407       -5      718 
    1710     2980     4368     5629     6667     7437     7811     7704 
    7180     6382     5454     4542     3744     3082     2587     2319 
    2232     2209     2199     2215     2234     2196     2160     2247 
    2524     2933     3369     3763     4035     4140     4218     4425 
    4702     4926     5113     5327     5512     5552     5435     5244 
    5043     4852     4725     4702     4731     4765     4869     5100 
    5390     5645     5846     6018     6205     6447     6716     6948 
    7159     7458     7903     8380     8631     8451     7858     7086 
    6385     5877     5583     5491     5583     5821     6134     6489 
    6866     7144     7191     7014     6670     6137     5362     4376 
    3304     2281     1394      692      206      -60     -184     -280 
    -399     -481     -476     -441     -487     -654     -936    -1366 
   -1942    -2594    -3244    -3861    -4428    -4927    -5409    -5967 
   -6640    -7353    -7936    -8245    -8244    -7969    -7435    -6629 
   -5641    -4661    -3735    -2762    -1733     -695      421     1733 
    3269     4955     6644     8182     9450    10357    10871    11082 
   11204    11364    11416    11214    10758     9968     8735     7187 
    5598     4199     3122     2342     1755     1314     1035      955 
    1111     1422     1753     2064     2366     2594     2675     2624 
    2521     2513     2668     2847     2956     3107     3377     3665 
    3836     3825     3634     3311     2906     2467     2066     1786 
    1601     1429     1333     1455     1813     2400     3234     4248 
    5317     6277     6957     7323     7489     7570     7622     7654 
    7616     7431     7117     6779     6412     5935     5456     5202 
    5265     5597     6115     6704     7233     7638     7885     7913 
    7685     7249     6660     5922     4989     3871     2718     1741 
    1039      639      596      918     1513     2253     2992     3595 
    3954     3982     3615     2898     2061     1347      851      608 
     649      946     1422     1941     2417     2917     3492     4055 
    4486     4754     4881     4916     4954     5093     5375     5765 
    6169     6442     6448     6139     5532     4650     3541     2378 
    1422      831      638      830     1352     2083     2893     3692 
    4446     5161     5859     6582     7420     8437     9574    10675 
   11556    12032    12039    11623    10818     9729     8565     7447 
    6394     5454     4653     3910     3149     2436     1854     1471 
    1443     1798     2334     2878     3338     3676     3998     4395 
    4804     5125     5251     5152     4963     4804     4714     4725 
    4819     4899     4814     4445     3743     2772     1718      737 
     -70     -540     -577     -265      265      897     1475     1864 
    1954     1664     1005      149     -668    -1279    -1575    -1425 
    -784      176     1197     2118     2891     3541     4088     4531 
    4874     5143     5455     6042     7091     8606    10377    11998 
   13099    13522    13208    12174    10565     8567     6421     4355 
    2447      722     -704    -1630    -1941    -1750    -1282     -715 
    -184      265      715     1230     1841     2527     3244     4014 
    4881     5783     6605     7323     7950     8401     8573     8486 
    8283     8067     7794     7326     6548     5544     4595     3958 
    3753     4059     4866     5981     7107     7955     8332     8243 
    7834     7200     6377     5498     4781     4345     4243     4541 
    5211     6110     6985     7533     7581     7203     6539     5694 
    4800     4003     3419     3073     2896     2781     2717     2716 
    2701     2593     2380     2079     1715     1383     1296     1576 
    2069     2565     3028     3489     3899     4116     4031     3623 
    2934     2084     1161      238     -492     -932    -1227    -1486 
   -1680    -1784    -1791    -1713    -1621    -1567    -1441    -1113 
    -596       71      947     2069     3388     4824     6262     7560 
    8552     9082     9101     8687     7855     6527     4814     3069 
    1602      553      -54     -253     -141      117      429      796 
    1179     1478     1618     1606     1540     1547     1686     1921 
    2181     2438     2688     2886     2976     2986     2978     2938 
    2821     2686     2709     2992     3480     4041     4587     5130 
    5628     5929     5991     5861     5498     4884     4116     3283 
    2473     1859     1584     1611     1896     2434     3123     3840 
    4500     4989     5219     5140     4746     4085     3268     2461 
    1863     1606     1669     1877     2064     2134     2026     1732 
    1333      940      645      498      514      626      749      920 
    1259     1795     2458     3235     4220     5437     6748     7986 
    9062     9930    10492    10621    10224     9248     7736     5914 
    4125     2610     1447      707      480      688     1077     1378 
    1404     1063      259    -1075    -2771    -4500    -6018    -7180 
   -7892    -8095    -7766    -6886    -5495    -3811    -2154     -741 
     340     1023     1219      872       94     -854    -1738    -2417 
   -2774    -2674    -2010     -808      683     2184     3550     4688 
    5540     6131     6482     6617     6633     6613     6567     6490 
    6396     6345     6436     6727     7171     7645     8086     8542 
    9055     9620    10212    10806    11379    11867    12166    12150 
   11745    10994    10029     8997     8017     7130     6241     5250 
    4203     3194     2304     1642     1260     1206     1655     2698 
    4145     5701     7123     8256     9057     9530     9580     9078 
    8040     6686     5323     4148     3206     2505     2079     1896 
    1833     1825     1877     1992     2144     2349     2675     3218 
    4033     5101     6322     7573     8692     9482     9846     9830 
    9456     8696     7619     6318     4834     3323     2043     1143 
     602      355      388      739     1413     2328     3412     4654 
    6014     7360     8507     9283     9656     9724     9570     9194 
    8538     7551     6257     4723     3034     1328     -187    -1306 
   -1969    -2239    -2161    -1701     -888       45      784     1125 
    1042      638       86     -486    -1009    -1356    -1317     -767 
     210     1402     2584     3551     4085     4077     3646     2978 
    2135     1152      201     -510     -909     -982     -733     -248 
     382     1119     1964     2948     4033     5112     6112     7002 
    7720     8191     8384     8321     8086     7799     7574     7402 
    7159     6758     6200     5503     4696     3854     3080     2420 
    1872     1464     1233     1215     1451     1945     2635     3369 
