Origin Time       2016/04/16 01:25:00
Lat.              32.753
Long.             130.762
Depth. (km)       12
Mag.              7.3
Station Code      YMG017
Station Lat.      33.9649
Station Long.     132.1011
Station Height(m) 2
Record Time       2016/04/16 01:25:39
Sampling Freq(Hz) 100Hz
Duration Time(s)  130
Dir.              N-S
Scale Factor      7845(gal)/8223790
Max. Acc. (gal)   17.666
Last Correction   2016/04/16 01:25:39
Memo.             
[...]
   -1949    -2137    -2226    -2143    -1944    -1728    -1543    -1366 
   -1121     -734     -255      164      448      649      880     1255 
    1817     2477     3071     3445     3489     3226     2813     2463 
    2322     2392     2605     2953     3445     4036     4653     5164 
    5421     5374     5098     4707     4294     3832     3203     2404 
    1560      772       81     -542    -1167    -1780    -2272    -2560 
   -2646    -2658    -2863    -3430    -4243    -5032    -5572    -5803 
   -5803    -5667    -5395    -4949    -4376    -3813    -3350    -2983 
   -2643    -2254    -1792    -1293     -791     -287      234      735 
    1136     1394     1498     1494     1528     1692     1926     2134 
    2267     2342     2430     2581     2791     3052     3349     3681 
    4064     4483     4896     5314     5746     6108     6297     6262 
    5953     5359     4595     3819     3119     2506     1969     1495 
    1039      515     -122     -845    -1593    -2290    -2866    -3327 
   -3757    -4220    -4703    -5173    -5599    -5946    -6148    -6138 
   -5940    -5656    -5373    -5197    -5248    -5513    -5837    -6044 
   -6035    -5845    -5551    -5121    -4500    -3713    -2779    -1672 
    -382     1063     2579     4028     5255     6183     6825     7229 
    7457     7616     7801     8006     8160     8197     8116     7977 
    7835     7715     7623     7548     7458     7310     7055     6628 
    6016     5294     4556     3867     3260     2667     1987     1235 
     445     -481    -1621    -2893    -4148    -5266    -6200    -6937 
   -7461    -7827    -8151    -8490    -8862    -9262    -9598    -9768 
   -9742    -9530    -9173    -8745    -8275    -7742    -7163    -6575 
   -5989    -5400    -4799    -4163    -3431    -2569    -1636     -693 
     256     1225     2239     3329     4468     5562     6486     7118 
    7410     7449     7385     7345     7398     7553     7784     8060 
    8302     8394     8214     7705     6943     6129     5462     4969 
    4556     4128     3582     2825     1859      785     -272    -1209 
   -1980    -2652    -3316    -3955    -4473    -4814    -5031    -5209 
   -5352    -5409    -5352    -5224    -5140    -5178    -5268    -5285 
   -5181    -4980    -4752    -4584    -4487    -4393    -4275    -4145 
   -3996    -3775    -3423    -2899    -2222    -1468     -731      -87 
     429      820     1158     1560     2077     2678     3307     3874 
    4275     4483     4548     4564     4596     4637     4652     4645 
    4626     4517     4220     3754     3222     2693     2185     1729 
    1364     1078      832      562      160     -437    -1151    -1786 
   -2204    -2420    -2540    -2698    -2971    -3326    -3681    -3960 
   -4159    -4334    -4521    -4706    -4874    -5013    -5108    -5159 
   -5150    -5058    -4915    -4779    -4630    -4399    -4063    -3651 
   -3180    -2636    -1989    -1216     -349      502     1200     1687 
    2022     2305     2596     2890     3159     3377     3604     3962 
    4488     5077     5583     5940     6158     6241     6158     5896 
    5481     4982     4499     4071     3667     3271     2914     2631 
    2417     2241     2037     1753     1327      700      -83     -895 
   -1647    -2343    -2988    -3534    -3943    -4243    -4502    -4753 
   -5001    -5277    -5601    -5917    -6135    -6223    -6172    -5983 
   -5686    -5347    -5030    -4739    -4444    -4139    -3807    -3355 
   -2712    -1885     -954      -41      696     1194     1525     1790 
    2026     2242     2442     2681     3026     3442     3832     4156 
    4422     4650     4872     5131     5436     5706     5792     5579 
    5073     4440     3904     3584     3423     3281     3049     2686 
    2222     1715     1165      558      -11     -449     -785    -1127 
   -1518    -1962    -2438    -2884    -3261    -3553    -3724    -3742 
   -3636    -3497    -3387    -3317    -3307    -3349    -3426    -3511 
   -3508    -3298    -2868    -2316    -1763    -1287     -895     -526 
    -110      379      837     1111     1174     1119     1046     1005 
    1003     1013     1003      940      805      618      457      383 
     432      606      864     1144     1420     1645     1706     1535 
    1175      707      224     -151     -329     -294     -140      -27 
     -60     -257     -583     -943    -1224    -1391    -1468    -1468 
   -1414    -1345    -1289    -1205    -1024     -757     -467     -160 
     197      635     1135     1557     1755     1717     1505     1183 
     857      645      598      684      842      992     1086     1196 
    1424     1769     2137     2424     2589     2668     2731     2795 
    2853     2872     2783     2515     2107     1691     1312      905 
     441      -51     -531     -965    -1340    -1714    -2149    -2667 
   -3246    -3805    -4210    -4344    -4178    -3828    -3495    -3323 
   -3306    -3412    -3627    -3824    -3855    -3699    -3403    -3003 
   -2536    -2006    -1394     -751     -211      147      403      714 
    1165     1709     2220     2601     2875     3153     3503     3913 
    4360     4814     5254     5682     6072     6373     6575     6704 
    6777     6782     6655     6354     5908     5360     4734     4095 
    3522     3015     2543     2121     1767     1421      973      318 
    -519    -1382    -2093    -2562    -2830    -3059    -3366    -3732 
   -4085    -4401    -4680    -4882    -4915    -4738    -4393    -3962 
   -3559    -3257    -3019    -2801    -2596    -2397    -2174    -1865 
   -1452    -1016     -668     -434     -248      -59      125      334 
     648     1096     1625     2154     2656     3156     3650     4143 
    4673     5251     5877     6550     7164     7566     7703     7608 
    7321     6868     6274     5567     4776     3898     2949     2004 
    1146      419     -167     -639    -1039    -1408    -1764    -2100 
   -2427    -2758    -3092    -3391    -3574    -3599    -3497    -3350 
   -3219    -3080    -2851    -2528    -2219    -1975    -1768    -1580 
   -1429    -1320    -1256    -1244    -1263    -1256    -1133     -828 
    -337      297      987     1665     2315     2938     3484     3850 
    3973     3896     3753     3667     3665     3694     3708     3678 
    3591     3439     3213     2913     2567     2222     1887     1568 
    1291     1077      911      769      638      506      360      214 
     112       65       31      -75     -292     -566     -830    -1084 
   -1372    -1726    -2107    -2474    -2821    -3154    -3469    -3730 
   -3893    -3905    -3759    -3557    -3450    -3492    -3543    -3376 
   -2947    -2370    -1725    -1112     -684     -511     -525     -650 
    -908    -1281    -1603    -1742    -1745    -1701    -1642    -1586 
   -1554    -1513    -1318     -889     -288      361      932     1418 
    1941     2501     2960     3295     3619     4047     4585     5074 
    5297     5098     4491     3738     3087     2515     1944     1390 
     846      252     -365     -846    -1107    -1224    -1228    -1012 
    -510      140      638      780      603      356      271      298 
     221        9     -261     -657    -1240    -1911    -2478    -2836 
   -3003    -2949    -2709    -2448    -2193    -1965    -1979    -2316 
   -2701    -2758    -2343    -1632     -851     -114      565     1197 
    1702     2025     2239     2370     2370     2218     1888     1482 
    1154      810      317     -221     -583     -588     -322      -28 
     178      238      149      148      429      897     1398     1858 
    2255     2488     2380     1977     1533     1244     1251     1566 
    1965     2185     2215     2211     2100     1769     1497     1533 
    1807     2259     2799     3235     3503     3619     3627     3643 
    3669     3619     3563     3576     3631     3715     3717     3507 
    3129     2708     2363     2111     1833     1431      903      334 
    -151     -506     -727     -858    -1011    -1296    -1738    -2180 
   -2469    -2646    -2652    -2343    -1734     -935     -228       63 
      22     -129     -368     -623     -835    -1039    -1312    -1767 
   -2324    -2736    -3049    -3391    -3543    -3302    -2764    -2174 
   -1715    -1390    -1077     -796     -702     -739     -635     -364 
     -86      286      838     1459     2052     2579     3137     3742 
    4031     3767     3210     2612     2019     1566     1356     1282 
    1250     1243     1266     1487     1934     2304     2555     2860 
    3113     3231     3376     3643     3982     4305     4560     4649 
    4430     3974     3534     3171     2778     2388     2029     1487 
     608     -399    -1179    -1684    -2111    -2601    -3196    -3743 
   -3956    -3735    -3204    -2635    -2257    -1989    -1579    -1057 
    -758     -819    -1026    -1278    -1677    -2209    -2710    -3082 
   -3317    -3334    -3045    -2606    -2324    -2373    -2695    -3003 
   -2956    -2459    -1723    -1119     -816     -581     -214      131 
     309      319      207      135      210      271      265      410 
     654      607      151     -388     -733     -834     -637      -58 
     805     1757     2656     3383     3798     3866     3713     3458 
    3144     2835     2629     2583     2651     2673     2565     2452 
    2412     2336     2137     1830     1480     1177      947      683 
     302      -52     -156       44      498     1188     2001     2735 
    3321     3744     3979     4139     4384     4706     4997     5179 
    5239     5205     5111     4994     4884     4789     4748     4770 
    4704     4364     3730     2895     1949     1080      579      564 
     861     1267     1684     1985     2095     2174     2322     2417 
    2431     2361     2116     1709     1244      689      -70     -958 
   -1718    -2162    -2311    -2324    -2420    -2783    -3346    -3798 
   -3975    -3956    -3696    -3060    -2160    -1185     -289      303 
     540      635      669      548      376      305      187     -197 
    -872    -1790    -2878    -3991    -5038    -5996    -6836    -7469 
   -7871    -8244    -8843    -9612   -10235   -10557   -10702   -10840 
  -11018   -11136   -11049   -10737   -10280    -9760    -9317    -9016 
   -8715    -8284    -7734    -7082    -6334    -5478    -4523    -3511 
   -2361    -1043      201     1210     2034     2748     3487     4294 
    5043     5683     6251     6737     7129     7419     7605     7723 
    7846     8001     8110     8125     8113     8071     7902     7562 
    7075     6507     5914     5270     4494     3607     2754     2026 
    1439     1028      730      359     -157     -702    -1197    -1675 
   -2104    -2362    -2427    -2353    -2151    -1846    -1606    -1590 
   -1733    -1902    -2058    -2092    -1895    -1545    -1208    -1053 
   -1183    -1493    -1806    -2111    -2435    -2625    -2546    -2188 
   -1630    -1188    -1158    -1480    -1941    -2421    -2955    -3712 
   -4803    -6042    -7203    -8222    -9103    -9922   -10740   -11479 
  -12121   -12750   -13235   -13390   -13311   -13115   -12677   -11836 
  -10590    -9150    -7827    -6752    -5791    -4734    -3527    -2309 
   -1204     -162      946     2223     3716     5300     6601     7366 
    7685     7708     7562     7373     7160     6916     6617     6231 
    5850     5572     5358     5158     4962     4831     4908     5163 
    5354     5296     4999     4657     4456     4306     4043     3662 
    3188     2668     2201     1794     1393      919      318     -263 
    -653     -835     -915    -1078    -1405    -1844    -2299    -2544 
   -2435    -2165    -1956    -1763    -1405     -882     -355      126 
     526      757      916     1094     1216     1333     1582     1908 
    2220     2560     2929     3210     3288     3056     2482     1806 
    1348     1179     1302     1856     2847     4008     5026     5692 
    6003     6115     6133     6145     6280     6469     6513     6382 
    6184     6012     5850     5644     5483     5505     5640     5694 
    5572     5254     4695     3931     3154     2544     2107     1807 
    1610     1397     1119      868      723      684      672      643 
     621      562      418      178      -99     -233     -110      229 
     822     1775     3051     4430     5715     6804     7645     8337 
    9061     9837    10578    11218    11738    12120    12333    12360 
   12191    11807    11233    10504     9578     8395     6961     5277 
    3375     1441     -353    -1975    -3345    -4405    -5301    -6185 
   -7002    -7597    -7908    -8050    -8101    -7950    -7519    -6932 
   -6374    -5895    -5377    -4699    -3889    -3071    -2303    -1593 
    -992     -544     -197      174      618     1080     1579     2209 
    2932     3636     4351     5116     5806     6350     6782     7037 
    7047     6879     6574     6064     5310     4387     3399     2354 
    1235       52    -1171    -2389    -3585    -4793    -5998    -7153 
   -8229    -9137    -9771   -10018    -9765    -9012    -7879    -6508 
   -5007    -3439    -1840     -261     1175     2407     3495     4492 
    5420     6345     7267     8091     8725     9162     9486     9694 
    9747     9767     9850     9906     9845     9593     9070     8360 
    7600     6813     5933     4864     3646     2421     1185     -116 
   -1534    -3146    -4974    -6963    -8923   -10706   -12351   -13937 
  -15441   -16669   -17517   -18079   -18388   -18377   -17961   -17161 
  -16155   -15105   -14158   -13460   -12974   -12548   -12054   -11415 
  -10628    -9702    -8634    -7373    -5911    -4379    -2984    -1960 
   -1394    -1080     -760     -346      129      592     1000     1354 
    1587     1707     1880     2242     2763     3365     4005     4576 
    4963     5078     4855     4336     3591     2693     1830     1161 
     738      611      712      899     1140     1441     1744     2010 
    2214     2304     2236     1919     1332      603     -167     -905 
   -1552    -2111    -2527    -2781    -3059    -3541    -4286    -5266 
   -6353    -7361    -8210    -8947    -9575   -10007   -10254   -10411 
  -10557   -10763   -11028   -11277   -11445   -11487   -11329   -10970 
  -10552   -10191    -9903    -9728    -9596    -9305    -8739    -7920 
   -6901    -5827    -4870    -4095    -3485    -3013    -2632    -2272 
   -1871    -1359     -685       -4      430      526      372      180 
     144      270      502      805     1074     1197     1223     1243 
    1240     1208     1185     1196     1294     1462     1509     1348 
    1060      685      268        0       29      344      864     1457 
    1923     2172     2289     2362     2432     2497     2548     2624 
    2701     2749     2787     2774     2693     2600     2529     2489 
    2513     2635     2776     2829     2849     2925     3044     3215 
    3440     3634     3742     3744     3601     3269     2740     2062 
    1332      635      -44     -708    -1293    -1852    -2471    -3095 
   -3586    -3805    -3697    -3391    -3059    -2763    -2486    -2182 
   -1826    -1447    -1151    -1017     -946     -766     -477     -275 
    -355     -746    -1317    -1895    -2428    -3028    -3794    -4639 
   -5371    -5918    -6373    -6859    -7396    -7901    -8189    -8031 
   -7450    -6667    -5760    -4710    -3577    -2489    -1518     -575 
     460     1605     2833     4077     5227     6174     6804     7037 
    6879     6361     5521     4502     3565     2855     2297     1745 
    1085      317     -382     -838    -1031    -1065    -1088    -1170 
   -1273    -1425    -1676    -1987    -2370    -2806    -3122    -3232 
   -3246    -3302    -3384    -3288    -2893    -2347    -1902    -1780 
   -2030    -2384    -2682    -3059    -3535    -4006    -4387    -4565 
   -4554    -4446    -4170    -3646    -2887    -1938     -913       75 
     965     1636     1919     1748     1289      795      307     -292 
   -1021    -1753    -2327    -2674    -2889    -3176    -3773    -4772 
   -6014    -7276    -8464    -9529   -10465   -11304   -12024   -12627 
  -13139   -13446   -13439   -13211   -12861   -12409   -11885   -11362 
  -10953   -10708   -10514   -10234    -9810    -9293    -8775    -8262 
   -7685    -7006    -6266    -5545    -4864    -4153    -3279    -2139 
    -795      621     2020     3325     4433     5279     5884     6373 
    6880     7484     8143     8761     9308     9738     9958     9969 
    9840     9595     9263     8850     8289     7512     6531     5429 
    4337     3310     2380     1637     1088      673      402      199 
    -139     -769    -1717    -2882    -4097    -5258    -6335    -7290 
   -8100    -8756    -9304    -9815   -10266   -10670   -11092   -11537 
  -12016   -12553   -13088   -13494   -13613   -13279   -12386   -10912 
   -8924    -6609    -4156    -1668      772     3092     5200     6966 
    8326     9327    10018    10397    10527    10525    10451    10339 
   10268    10273    10372    10590    10902    11219    11502    11734 
   11908    12078    12266    12375    12368    12314    12236    12078 
   11859    11653    11452    11191    10839    10385     9744     8819 
    7588     6123     4581     3056     1587      340     -550    -1129 
   -1537    -1933    -2378    -2841    -3267    -3619    -3982    -4471 
   -5031    -5487    -5729    -5791    -5759    -5699    -5634    -5516 
   -5341    -5175    -5032    -4947    -4972    -5103    -5273    -5374 
   -5298    -5067    -4795    -4541    -4293    -3975    -3454    -2646 
   -1599     -425      760     1977     3392     5105     7040     9008 
   10813    12383    13759    14941    15863    16395    16456    16147 
   15688    15250    14813    14118    12892    11130     9049     6926 
    5059     3577     2343     1275      427     -203     -635     -990 
   -1491    -2154    -2797    -3280    -3524    -3514    -3350    -3200 
   -3148    -3184    -3249    -3276    -3235    -3088    -2822    -2550 
   -2354    -2146    -1857    -1563    -1310    -1011     -526      224 
    1250     2498     3883     5310     6632     7651     8298     8641 
    8776     8829     8892     8914     8760     8306     7460     6224 
    4723     3172     1811      778       54     -506    -1026    -1495 
   -1826    -2045    -2324    -2772    -3284    -3628    -3620    -3352 
   -3052    -2826    -2621    -2326    -2000    -1930    -2185    -2500 
   -2660    -2570    -2160    -1495     -669      368     1674     3235 
    4996     6860     8765    10671    12509    14153    15419    16213 
   16669    16966    17150    17197    17084    16760    16264    15661 
   14901    13952    12900    11844    10786     9702     8657     7701 
    6843     6043     5157     4078     2911     1821      903      136 
    -602    -1399    -2370    -3514    -4596    -5437    -6053    -6535 
   -6983    -7479    -8024    -8553    -9008    -9321    -9421    -9337 
   -9069    -8472    -7414    -5929    -4297    -2863    -1784    -1067 
    -622     -244      263      984     1960     3267     4781     6154 
    7203     8016     8711     9273     9556     9467     9084     8573 
    8064     7592     7156     6805     6579     6475     6546     6862 
    7258     7425     7219     6702     6015     5347     4862     4525 
