Origin Time       2016/04/16 01:25:00
Lat.              32.753
Long.             130.762
Depth. (km)       12
Mag.              7.3
Station Code      YMG011
Station Lat.      34.0643
Station Long.     131.0214
Station Height(m) 24
Record Time       2016/04/16 01:25:31
Sampling Freq(Hz) 100Hz
Duration Time(s)  187
Dir.              N-S
Scale Factor      7845(gal)/8223790
Max. Acc. (gal)   57.284
Last Correction   2016/04/16 01:25:31
Memo.             
[...]
   24877    24090    23067    21945    19603    15417    10361     5755 
    1903    -1043    -2126     -307     4411    10324    14521    15099 
   12521     8549     4980     2976     2679     3875     6200     8463 
    9294     8583     7967     9308    12249    14488    14458    12447 
    9616     7099     4928     1748    -2853    -6979    -8125    -5454 
    -932     2498     3832     3469     1694    -1036    -4107    -6781 
   -7728    -5968    -1878     3053     6759     7652     5694     2436 
     128      240     2826     6912    10903    13544    14600    14130 
   12703    12267    13965    16416    18081    18602    18056    17122 
   16452    15954    15878    17061    19392    21468    22243    22219 
   22596    23656    24798    25577    25714    25185    24214    22429 
   19268    15063    10810     7599     5980     5262     4183     2238 
      44    -1024      -98     2083     4021     4550     2983     -216 
   -3927    -7751   -11173   -13212   -13517   -11958    -8596    -4374 
    -495     2135     3447     4518     6292     8735    11246    13189 
   14729    16639    18805    20380    20784    19494    16363    12347 
    9046     7713     8370    10062    11722    12194    10771     7938 
    4739     1922     -359    -2481    -4595    -6295    -7484    -8630 
   -9817   -10299    -9350    -7272    -5084    -3122     -571     3103 
    6940     9513    10781    11847    13243    14766    16567    19025 
   21799    23963    25039    25122    24402    23091    21465    19801 
   18073    16101    14165    12949    13057    14436    16309    18007 
   19251    19677    19014    17544    15834    14061    11946     9238 
    6223     3927     3275     3893     4258     3096      560    -1935 
   -3223    -3568    -3984    -4837    -5813    -6597    -6914    -6763 
   -6662    -6833    -6604    -5169    -2646     -117     1441     2130 
    2859     4380     6685     9288    11734    13441    13903    13396 
   12758    12337    11469     9242     5796     2335       79     -746 
    -881     -486     1183     4066     6885     8618     9367     9884 
   10866    12726    15610    18917    21243    21841    21419    20776 
   19597    17035    13176     9506     7705     8198     9911    11408 
   12001    11583    10149     7913     5333     2937     1227      433 
     253      112     -423    -1543    -3024    -4068    -3808    -2178 
     -64     1351     1196     -459    -2199    -2403     -758     1826 
    4378     6608     8706    10516    11342    10710     9013     7319 
    6667     7287     8629    10332    12507    15106    17599    19201 
   19458    18658    17469    16204    14854    13603    12542    11487 
   10339     8958     7059     4482     1706      -63      148     2095 
    4417     5575     4564     1478    -2102    -3902    -2569     1098 
    4671     6115     5089     2756      707     -126      467     2369 
    5209     8281    10655    11729    11931    12417    13675    14798 
   14446    12201     9246     7438     7383     8133     8542     8114 
    6852     5007     3238     2644     4059     7083     9917    10878 
   10033     8587     7406     6760     6736     7234     7712     7704 
    7533     7707     8262     8993     9651    10062     9819     8023 
    4365       68    -2822    -3006     -924     1891     4186     5339 
    5356     4986     5400     7371    10208    12131    12334    11542 
   10800    11017    12461    14137    14887    14696    14090    13165 
   11453     8564     5020     2116      814     1152     2565     4464 
    6478     8182     8814     7672     5155     2762     1556     1282 
    1185      994      984     1486     2525     3928     5256     5968 
    6056     5925     5896     6219     6922     7572     7632     7098 
    6643     6843     7491     8222     9189    10527    11889    13007 
   14378    16644    19421    21534    22289    21726    20043    17859 
   16267    15774    15966    15886    14513    11812     8824     6228 
    3898     1830      493      248      735      901       29    -1255 
   -1521       56     3114     6551     9001     9258     7296     4626 
    3057     3254     4388     5337     5960     6527     6709     6029 
    4930     4645     5742     7369     8357     8500     8352     8131 
    7631     7190     7723     9637    12368    15086    17394    19082 
   19834    19448    17990    15981    14397    13869    13794    13113 
   11626     9625     7476     5724     4473     3234     1715      236 
    -696     -987     -953     -965    -1039     -627      715     2567 
    4256     5841     7831    10196    12231    13269    13181    12260 
   10902     9641     9246    10318    12525    14642    15612    15325 
   14519    13975    13643    12895    11566    10309     9922    10574 
   11750    12829    13421    13227    12083    10404     9158     8968 
    9459     9852    10035    10516    11067    10531     8550     6366 
    5555     6478     7967     8517     7809     6750     6095     5775 
    5494     5159     4653     3797     2640     1547      943     1005 
    1902     3994     7114    10115    11776    11952    11460    10916 
   10404    10164    10442    10810    10667     9871     8619     7342 
    6597     6732     7753     9454    11418    12898    13262    12526 
   11160     9718     8797     8598     8657     8669     9012    10003 
   11246    12005    11958    11365    10686    10361    10609    11323 
   12438    13848    14899    14685    12934    10154     7071     4423 
    2826     2340     2392     2250     1507      252     -958    -1509 
   -1089      388     2584     4770     6474     7754     8953    10408 
   12048    13390    14218    14744    15087    15049    14327    12992 
   11592    10514     9680     8953     8410     8301     8721     9327 
    9661     9622     9417     9208     8842     8233     7921     8459 
    9402     9753     8920     6925     4237     1516     -666    -2031 
   -2605    -2712    -2933    -3446    -3537    -2475     -625      989 
    1788     2019     2257     2809     3971     6044     8621    10983 
   13019    14850    16376    17593    18613    19214    19049    18250 
   17298    16629    16406    16431    16394    16204    16132    16484 
   17124    17478    17050    15954    14899    14503    14644    14674 
   14025    12403     9873     6943     4282     2327     1254     1034 
    1301     1435      959      -43     -881     -866       60     1543 
    3215     4726     5833     6457     6547     6093     5472     5562 
    6961     9412    12276    14935    16638    16649    14904    12395 
   10611    10134    10096     9450     8293     7499     7508     7973 
    8372     8640     8999     9414     9566     9305     8939     9061 
    9900    10866    11114    10324     8907     7514     6292     5161 
    4448     4498     5140     6056     7248     8884    10990    13162 
   14686    15282    15441    15769    16264    16401    15916    15232 
   14820    14463    13656    12505    11722    11630    11658    10883 
    8923     6188     3314      670    -1398    -2295    -1664     -151 
     909      731     -105     -382      206     1032     1849     2902 
    4225     5493     6322     6779     7474     8868    10650    12055 
   12713    12807    12479    11574    10076     8529     7820     8391 
    9807    11416    13011    14450    15261    15009    13950    13132 
   13539    14920    16058    16193    15489    14272    12401     9686 
    6502     3719     2130     1769     1891     1737     1158      519 
     187      286      800     1611     2369     2674     2714     3192 
    4414     5938     7192     8114     9013     9994    10860    11407 
   11524    11191    10476     9477     8286     7105     6191     5648 
    5726     6883     8951    11169    13038    14215    14235    13086 
   11435    10007     9124     8741     8590     8428     8056     7180 
    5676     4044     3084     3075     3705     4626     5543     6238 
    6729     7030     7028     6731     6342     6022     5688     5142 
    4276     3126     1985     1243      966      981     1209     1711 
    2620     3915     5220     6201     6994     7911     8914     9556 
    9495     9011     8791     9298    10336    11362    12333    13782 
   15828    17689    18516    18306    17608    16835    16011    15115 
   14465    14312    14278    13795    12796    11695    10996    10843 
   10840    10656    10350    10011     9583     8873     7715     6400 
    5633     5838     6639     7210     7152     6824     6710     6813 
    6739     6100     4993     4063     3842     4238     4745     4939 
    4723     4330     4197     4494     4887     5081     5300     5961 
    7082     8182     8903     9437    10127    10924    11550    11919 
   12004    11692    11038    10262     9626     9409     9530     9420 
    8748     8002     8120     9495    11348    12402    12220    11556 
   11402    11820    12158    12171    12043    11576    10230     7855 
    5085     2937     1939     1698     1520     1273     1302     1652 
    1783     1287      549      315      936     2228     3766     5347 
    7182     9397    11630    13431    14712    15649    16418    17143 
   17806    18249    18472    18559    18209    17073    15607    14596 
   14056    13347    12058    10393     8804     7555     6744     6370 
    6323     6374     6307     6177     6183     6284     6269     5973 
    5432     4961     4752     4541     4023     3288     2624     2045 
    1282       99    -1422    -2853    -3585    -3229    -1881      102 
    2385     4602     6340     7365     7723     7500     6797     6135 
    6388     8051    10743    13601    15901    17258    17690    17571 
   17431    17725    18374    18917    19180    19234    18964    18098 
   16325    13510    10169     7469     6126     5736     5594     5472 
    5304     4762     3623     2380     2121     3446     5699     7657 
    8497     8068     6840     5547     4710     4531     5012     5918 
    6601     6305     4947     3302     2346     2497     3449     4573 
    5408     5817     5933     6112     6782     8090     9702    11028 
   11678    11774    11699    11647    11626    11619    11531    11265 
   11017    11157    11658    11992    11769    11226    11003    11402 
   11947    11989    11519    11021    10670    10002     8428     6018 
    3628     2236     2185     3137     4534     5867     6840     7533 
    8149     8665     8893     8661     7786     6311     4710     3539 
    3171     3784     5233     6959     8108     8019     6798     5294 
    4384     4448     5433     6983     8494     9425     9678     9640 
    9691     9757     9467     8546     7041     5417     4311     3932 
    4129     5022     6843     9324    11728    13333    13697    12725 
   10722     8303     6192     4959     4718     5233     6255     7454 
    8460     9202     9830    10413    10882    11115    11159    11329 
   11792    12253    12280    11724    10895    10395    10760    12241 
   14712    17788    20791    22662    22538    20511    17666    15381 
   14373    14148    13832    13279    12729    12102    11155     9752 
    8063     6538     5443     4661     4228     4538     5587     6579 
    6511     4946     2273     -722    -3369    -5285    -6297    -6354 
   -5516    -4009    -2209     -530      935     2408     3977     5599 
    7330     9066    10293    10434     9344     7368     5088     3149 
    2141     2520     4375     7184    10103    12418    14053    15653 
   17671    19830    21699    23144    24151    24603    24499    24009 
   23010    21045    17968    14239    10513     7132     3886      394 
   -3160    -6165    -8291    -9649   -10451   -10594    -9664    -7418 
   -4203     -777     2323     4873     6716     7908     8870    10218 
   12293    14774    17021    18816    20470    22241    23942    25097 
   25320    24756    24165    24285    25114    25828    25528    24031 
   21879    19755    17976    16501    15272    14220    13004    11156 
    8473     5022     1015    -3287    -7726   -12037   -15612   -17868 
  -18720   -18422   -17320   -15952   -14886   -14245   -13788   -13412 
  -13007   -12260   -11038    -9740    -8872    -8341    -7619    -6361 
   -4477    -1941     1308     5169     9055    12471    15589    18553 
   20983    22324    22329    21424    20378    19552    18898    18372 
   17925    17275    16101    14457    12854    12085    12642    14354 
   16758    19782    23761    28607    33582    37894    40972    42478 
   42562    41883    41048    40104    38739    36479    32643    26844 
   19612    11989     4430    -3445   -11963   -20819   -29390   -36999 
  -42538   -44547   -41879   -34174   -22361    -9016     2380     9362 
   11415     8880     2319    -6881   -16347   -23534   -27032   -26715 
  -23143   -17389   -10767    -4197     2234     8497    13628    16622 
   18002    19550    22117    24750    26404    27154    27395    26496 
   23473    18958    14879    12544    11873    12166    13012    14208 
   15552    16845    17817    18372    18389    17205    13710     7105 
   -2111   -12152   -20710   -26094   -27954   -26125   -20136   -10974 
   -1611     5432    10169    13749    16398    17992    19130    20834 
   23592    26651    28637    28567    26406    23522    21847    22558 
   25851    30800    35877    40176    43830    47324    50433    52226 
   51973    49518    44705    36593    24439     9381    -6168   -20150 
  -31669   -40644   -46881   -50287   -51618   -51919   -51790   -51699 
  -51867   -51584   -49909   -46399   -40583   -32364   -22873   -13262 
   -3897     4626    11592    17086    21910    26665    31121    34839 
   38140    42005    47054    52795    58187    62560    65485    66487 
   65168    61570    56652    51327    45492    38778    31089    22928 
   15232     8187     1736    -3765    -8324   -11994   -14466   -15331 
  -14238   -11371    -7584    -3763     -106     3244     5487     6161 
    5818     5467     5152     3746      761    -3476    -8655   -14100 
  -19064   -23341   -26743   -28518   -27912   -24591   -18261    -9297 
    1251    12664    23949    33615    40689    45022    47032    46796 
   44132    39907    35095    29736    24220    19751    17334    16914 
   17618    18630    19075    17968    14916    10121     4017    -2678 
   -9026   -14353   -18562   -21752   -23922   -25282   -26092   -26287 
  -25933   -25308   -24506   -23735   -23113   -22064   -19872   -16274 
  -11219    -5181      552     5009     8114     9913    10388     9521 
    7439     5112     4178     5798     9880    15650    22330    28981 
   34807    39321    41943    42394    40848    37446    32606    27379 
   23195    21161    20945    21143    20623    18986    16911    15435 
   14978    15637    17315    19792    22712    25320    26608    25863 
   23259    19753    16464    13737    11368     9472     8000     6767 
    5655     4318     2802     1672     1227     1371     1908     2369 
    2016      328    -2641    -6091    -8988   -11037   -12353   -12749 
  -12114   -10068    -6041     -858     3499     5691     5752     4293 
    2004      126     -245     1011     3438     6246     8230     8336 
    6609     3802      483    -2866    -5836    -7823    -7848    -5701 
   -2351      849     2550     2380     1135     -812    -3134    -4666 
   -4561    -2901     -276     2613     5319     7825    10372    13155 
   16070    18495    19693    19240    17354    14967    12442     9371 
    5979     3299     2351     3542     6654    11294    16842    22432 
   27547    32049    35800    38905    41700    44273    46500    48255 
   49133    48748    47059    44085    40267    36240    31735    26015 
   19201    12380     6539     1590    -3160    -7801   -11982   -15589 
  -18738   -21486   -23149   -22909   -20970   -17653   -12964    -7369 
   -1609     3701     7730     9404     8259     4707      -87    -4289 
   -6625    -7088    -6601    -6577    -7936   -10930   -15169   -19291 
  -22011   -22817   -21740   -19398   -16454   -13201    -9736    -5937 
   -1552     3646     9896    17194    25050    32710    38989    42168 
   41126    36485    30261    24459    20248    18198    18466    20399 
   22594    24059    24618    24311    22999    20277    16114    11331 
    7175     5258     7068    12429    19479    26119    30672    32529 
   32398    31252    30203    30217    30977    31445    30464    26863 
   20409    11846     2465    -6133   -12614   -16187   -17478   -18767 
  -22102   -27557   -33254   -37141   -38462   -37191   -33424   -28177 
  -23080   -18562   -14029    -9707    -6367    -3905    -1849     -265 
     868     1868     2763     3362     3609     3709     3746     3850 
    4625     6249     8382    11105    14615    18819    23476    28328 
   33388    39104    45531    51645    56386    59667    61892    63337 
   63211    59717    51702    39561    25698    13491     4320    -2825 
   -8712   -12772   -14724   -15434   -15564   -15354   -15013   -13772 
  -10504    -5686    -1128     1811     2533     1071    -1826    -5689 
  -10121   -14351   -18052   -21100   -23398   -24845   -24646   -21690 
  -15433    -6484     3663    13651    22696    30316    36321    41347 
   45740    48227    47328    42628    34927    25863    16926     9622 
    5055     3014     2855     3878     5215     6164     6714     7759 
    9840    12604    15290    16880    17030    16221    14517    11461 
    7160     2786      -43     -537      731     2795     4657     5209 
    3788      106    -5246   -10369   -13883   -16341   -18627   -20385 
  -21200   -21244   -20289   -18044   -14485    -9520    -3582     2272 
    7273    11630    15773    19367    22542    26160    30195    34040 
   37501    40765    43855    46147    46629    44212    38562    31132 
   24201    18918    14740    10908     7852     6345     6181     6516 
    6949     7663     8477     8846     8841     8712     8050     6563 
    4537     2142     -708    -4421    -9387   -15109   -20710   -25870 
  -30677   -35233   -39075   -41130   -40691   -37824   -32587   -24952 
  -15315    -4729     5062    12619    17787    20977    22241    21764 
   20676    20641    22639    26268    30206    33230    34661    34225 
   31882    27884    22923    18126    14562    12702    12704    14574 
   17544    20206    21396    20862    19302    17481    15489    12961 
    9752     6196     2886      396    -1509    -3500    -5242    -6056 
   -6004    -5775    -5857    -5751    -4793    -2698      521     4364 
    8513    12761    16551    19510    21604    22952    23630    23623 
   23167    22459    21128    18647    15232    12010     9764     8166 
    7032     6739     7522     9370    11890    14493    16629    17575 
   16808    14642    11935     9412     7704     7195     7369     7488 
    7468     7636     8260     8961     8966     8051     6539     5017 
    3782     2646     1545      459     -702    -1903    -3225    -4627 
   -5863    -6782    -7231    -6985    -6016    -4464    -2400      -71 
    2072     3711     4491     4126     2763     1081       71      224 
    1360     3055     4857     6288     6866     6613     5863     5098 
    4969     5741     7600    10257    12772    14667    15711    15788 
   15345    15097    15751    17658    20845    25108    29651    33296 
