Origin Time       2016/04/16 01:25:00
Lat.              32.753
Long.             130.762
Depth. (km)       12
Mag.              7.3
Station Code      YMG005
Station Lat.      34.2904
Station Long.     130.9484
Station Height(m) 58
Record Time       2016/04/16 01:25:37
Sampling Freq(Hz) 100Hz
Duration Time(s)  100
Dir.              E-W
Scale Factor      7845(gal)/8223790
Max. Acc. (gal)   12.910
Last Correction   2016/04/16 01:25:37
Memo.             
[...]
   -6210    -6733    -7360    -7682    -7484    -6902    -6356    -6226 
   -6465    -6826    -7240    -7681    -7952    -7882    -7591    -7302 
   -7055    -6815    -6590    -6399    -6237    -6083    -6012    -6124 
   -6332    -6501    -6637    -6748    -6679    -6336    -5980    -5937 
   -6102    -6133    -5988    -5886    -5898    -5940    -5962    -5968 
   -5980    -6022    -6107    -6262    -6444    -6517    -6535    -6777 
   -7269    -7771    -8144    -8311    -8199    -7860    -7477    -7260 
   -7144    -6836    -6278    -5668    -5247    -5263    -5769    -6465 
   -6881    -6821    -6528    -6323    -6323    -6377    -6238    -5921 
   -5574    -5275    -5186    -5344    -5508    -5493    -5248    -4911 
   -4789    -4988    -5373    -5800    -6014    -5793    -5289    -4862 
   -4814    -5173    -5718    -6289    -6764    -6917    -6693    -6376 
   -6218    -6224    -6331    -6407    -6189    -5638    -5101    -4865 
   -4831    -4834    -4923    -5088    -5219    -5424    -5853    -6361 
   -6698    -6836    -6963    -7231    -7611    -7911    -7854    -7356 
   -6723    -6331    -6270    -6400    -6571    -6728    -6852    -6964 
   -7126    -7331    -7391    -7045    -6373    -5805    -5647    -5964 
   -6597    -7091    -7165    -6959    -6671    -6542    -6697    -6966 
   -7214    -7452    -7657    -7906    -8314    -8715    -8730    -8203 
   -7372    -6643    -6273    -6245    -6436    -6743    -7011    -7117 
   -7086    -7029    -6945    -6820    -6700    -6543    -6326    -6106 
   -5873    -5614    -5383    -5189    -4941    -4629    -4491    -4708 
   -5112    -5443    -5602    -5613    -5560    -5467    -5263    -4891 
   -4383    -3937    -3790    -3981    -4469    -5216    -5937    -6327 
   -6388    -6303    -6252    -6258    -6138    -5871    -5721    -5872 
   -6154    -6205    -5842    -5277    -4926    -4997    -5350    -5829 
   -6349    -6713    -6828    -6881    -7030    -7149    -6999    -6589 
   -6238    -6185    -6367    -6644    -6940    -7188    -7334    -7368 
   -7276    -7006    -6632    -6404    -6408    -6488    -6563    -6627 
   -6547    -6211    -5779    -5626    -5934    -6440    -6841    -7165 
   -7531    -7951    -8290    -8370    -8182    -7836    -7474    -7203 
   -6983    -6799    -6677    -6490    -6172    -5836    -5539    -5251 
   -4993    -4852    -4892    -5038    -5169    -5268    -5275    -5081 
   -4698    -4344    -4320    -4691    -5220    -5633    -5779    -5605 
   -5157    -4634    -4372    -4431    -4449    -4248    -4128    -4311 
   -4687    -5100    -5576    -6095    -6490    -6656    -6612    -6492 
   -6486    -6554    -6424    -6003    -5536    -5282    -5273    -5467 
   -5860    -6328    -6670    -6826    -6939    -7180    -7473    -7515 
   -7230    -6881    -6801    -7213    -7989    -8640    -8753    -8235 
   -7330    -6473    -5958    -5852    -6056    -6264    -6151    -5719 
   -5232    -4888    -4715    -4742    -5067    -5656    -6241    -6488 
   -6309    -6049    -6060    -6304    -6621    -7007    -7454    -7754 
   -7789    -7742    -7712    -7597    -7408    -7353    -7601    -8064 
   -8509    -8797    -8876    -8715    -8336    -7803    -7284    -6853 
   -6392    -5848    -5339    -5017    -4916    -4935    -5080    -5410 
   -5810    -6056    -6043    -5949    -5984    -6108    -6168    -6002 
   -5541    -5034    -4818    -4868    -4936    -4947    -5004    -5185 
   -5404    -5611    -5927    -6305    -6517    -6525    -6558    -6831 
   -7241    -7480    -7466    -7345    -7168    -6886    -6539    -6273 
   -6192    -6195    -6141    -6147    -6353    -6628    -6751    -6705 
   -6643    -6635    -6585    -6480    -6463    -6598    -6733    -6647 
   -6285    -5800    -5422    -5327    -5485    -5707    -5838    -5819 
   -5680    -5524    -5470    -5568    -5753    -5957    -6176    -6326 
   -6289    -6080    -5763    -5389    -5058    -4880    -4869    -5022 
   -5271    -5456    -5495    -5427    -5316    -5323    -5549    -5848 
   -5989    -5887    -5671    -5512    -5462    -5584    -5960    -6467 
   -6856    -7053    -7209    -7479    -7827    -8032    -7996    -7886 
   -7863    -7870    -7717    -7310    -6782    -6282    -5906    -5811 
   -6018    -6285    -6367    -6186    -5917    -5852    -6046    -6340 
   -6652    -6960    -7182    -7209    -6983    -6605    -6227    -5860 
   -5518    -5386    -5616    -6022    -6258    -6242    -6133    -5967 
   -5699    -5400    -5071    -4677    -4398    -4426    -4707    -5111 
   -5557    -5994    -6293    -6293    -6061    -5900    -5975    -6122 
   -6104    -5927    -5830    -5953    -6189    -6382    -6475    -6459 
   -6343    -6227    -6297    -6610    -6985    -7207    -7236    -7249 
   -7358    -7380    -7160    -6786    -6404    -6122    -5956    -5873 
   -5867    -5848    -5688    -5397    -5074    -4819    -4710    -4750 
   -4903    -5144    -5439    -5710    -5868    -5864    -5738    -5632 
   -5667    -5771    -5815    -5859    -5984    -6129    -6212    -6241 
   -6356    -6640    -6906    -6980    -6875    -6651    -6435    -6354 
   -6392    -6524    -6751    -7007    -7188    -7260    -7306    -7345 
   -7248    -6967    -6628    -6303    -5925    -5541    -5344    -5400 
   -5601    -5876    -6219    -6561    -6789    -6890    -6993    -7157 
   -7279    -7264    -7134    -6964    -6770    -6515    -6241    -6015 
   -5751    -5332    -4923    -4882    -5285    -5840    -6200    -6272 
   -6238    -6272    -6415    -6654    -6833    -6789    -6567    -6300 
   -6122    -6184    -6486    -6886    -7268    -7535    -7570    -7295 
   -6764    -6178    -5671    -5211    -4823    -4675    -4834    -5188 
   -5609    -6031    -6426    -6797    -7126    -7393    -7666    -7948 
   -7997    -7595    -6916    -6354    -6060    -5953    -6038    -6359 
   -6767    -6994    -6967    -6770    -6435    -6099    -5991    -6118 
   -6328    -6585    -6894    -7140    -7165    -6936    -6555    -6165 
   -5894    -5776    -5719    -5680    -5705    -5753    -5737    -5652 
   -5533    -5424    -5395    -5501    -5656    -5671    -5436    -5093 
   -4936    -5178    -5784    -6504    -7056    -7294    -7233    -7013 
   -6836    -6817    -6894    -6914    -6813    -6729    -6804    -6943 
   -6936    -6739    -6527    -6470    -6550    -6616    -6615    -6586 
   -6504    -6366    -6247    -6186    -6212    -6299    -6373    -6502 
   -6698    -6733    -6548    -6370    -6355    -6430    -6394    -6193 
   -5946    -5671    -5287    -4896    -4765    -5012    -5475    -5940 
   -6308    -6581    -6817    -7018    -7123    -7127    -7075    -6913 
   -6540    -6070    -5787    -5788    -5953    -6164    -6358    -6465 
   -6473    -6399    -6257    -6135    -6115    -6165    -6277    -6393 
   -6427    -6484    -6617    -6679    -6600    -6465    -6361    -6223 
   -5915    -5543    -5366    -5425    -5609    -5868    -6134    -6230 
   -6033    -5640    -5263    -5097    -5238    -5594    -6012    -6399 
   -6690    -6978    -7501    -8218    -8734    -8748    -8355    -7900 
   -7604    -7426    -7252    -6994    -6628    -6254    -5971    -5783 
   -5637    -5514    -5494    -5656    -5948    -6265    -6512    -6586 
   -6500    -6419    -6427    -6439    -6318    -5985    -5579    -5351 
   -5366    -5540    -5760    -5879    -5814    -5574    -5246    -5017 
   -5058    -5409    -5979    -6606    -7169    -7546    -7584    -7294 
   -6925    -6651    -6469    -6361    -6313    -6254    -6093    -5879 
   -5772    -5888    -6166    -6413    -6554    -6743    -7096    -7507 
   -7816    -7947    -7908    -7708    -7319    -6817    -6413    -6181 
   -6031    -5996    -6185    -6505    -6729    -6806    -6845    -6858 
   -6739    -6427    -6030    -5740    -5656    -5798    -6157    -6652 
   -7126    -7346    -7225    -6949    -6659    -6349    -6124    -6085 
   -6143    -6153    -6030    -5840    -5699    -5551    -5279    -4920 
   -4595    -4386    -4301    -4392    -4766    -5355    -5891    -6146 
   -6114    -6002    -6000    -6095    -6192    -6242    -6166    -5953 
   -5791    -5908    -6327    -6782    -7001    -7013    -6966    -6918 
   -6912    -6878    -6733    -6551    -6349    -6096    -5953    -6091 
   -6460    -6817    -6919    -6839    -6817    -6855    -6809    -6633 
   -6365    -6065    -5736    -5414    -5298    -5404    -5526    -5641 
   -5845    -6104    -6237    -6060    -5633    -5224    -5040    -5202 
   -5713    -6354    -6804    -6886    -6628    -6123    -5535    -5081 
   -4866    -4874    -5043    -5258    -5478    -5741    -5998    -6173 
   -6353    -6662    -7029    -7226    -7192    -7137    -7200    -7273 
   -7219    -7051    -6909    -6980    -7312    -7707    -7867    -7682 
   -7241    -6714    -6319    -6183    -6191    -6137    -5946    -5756 
   -5786    -6097    -6602    -7163    -7522    -7427    -7006    -6670 
   -6628    -6785    -6984    -7127    -7125    -6924    -6628    -6427 
   -6323    -6192    -5996    -5757    -5536    -5474    -5630    -5890 
   -6104    -6197    -6143    -5984    -5859    -5864    -5894    -5831 
   -5769    -5837    -5988    -6039    -5926    -5796    -5788    -5914 
   -6164    -6404    -6408    -6161    -5913    -5900    -6147    -6523 
   -6840    -6889    -6612    -6205    -5886    -5727    -5732    -5838 
   -6014    -6232    -6446    -6616    -6690    -6663    -6606    -6559 
   -6528    -6463    -6278    -6029    -5869    -5888    -6099    -6361 
   -6478    -6450    -6397    -6389    -6446    -6544    -6693    -6852 
   -6952    -6990    -6960    -6818    -6559    -6228    -5957    -5915 
   -6119    -6367    -6439    -6261    -5850    -5344    -5046    -5157 
   -5555    -6021    -6404    -6569    -6507    -6323    -6115    -5965 
   -5899    -5852    -5818    -5918    -6252    -6717    -7033    -7069 
   -6963    -6860    -6767    -6628    -6421    -6151    -5793    -5321 
   -4774    -4338    -4270    -4641    -5273    -6016    -6817    -7510 
   -7847    -7825    -7682    -7616    -7663    -7732    -7695    -7510 
   -7159    -6648    -6110    -5672    -5408    -5290    -5197    -5151 
   -5285    -5576    -5942    -6380    -6847    -7222    -7404    -7410 
   -7402    -7507    -7649    -7735    -7823    -7919    -7928    -7843 
   -7761    -7796    -7964    -8082    -7951    -7614    -7242    -6960 
   -6748    -6515    -6273    -6053    -5838    -5703    -5725    -5829 
   -5895    -5881    -5823    -5841    -6015    -6254    -6432    -6582 
   -6777    -7002    -7148    -7168    -7144    -7180    -7346    -7636 
   -7869    -7874    -7750    -7681    -7634    -7466    -7252    -7223 
   -7406    -7566    -7604    -7730    -8100    -8497    -8598    -8368 
   -7998    -7586    -7148    -6755    -6579    -6781    -7246    -7628 
   -7697    -7462    -7113    -6851    -6805    -7018    -7345    -7510 
   -7402    -7148    -6944    -6868    -6941    -7155    -7435    -7665 
   -7770    -7840    -8001    -8257    -8505    -8557    -8365    -8168 
   -8133    -8182    -8272    -8424    -8563    -8561    -8319    -7903 
   -7485    -7121    -6813    -6635    -6662    -6930    -7422    -8012 
   -8576    -9023    -9213    -9115    -8889    -8672    -8549    -8543 
   -8453    -8122    -7712    -7418    -7242    -7101    -6925    -6702 
   -6488    -6338    -6204    -5927    -5377    -4550    -3604    -2839 
   -2473    -2536    -2844    -3080    -3100    -3036    -3024    -3142 
   -3496    -4174    -5065    -5852    -6369    -6662    -6601    -5989 
   -5065    -4452    -4639    -5498    -6400    -6901    -6956    -6632 
   -6008    -5287    -4770    -4587    -4514    -4263    -3919    -3811 
   -3987    -4175    -4236    -4340    -4619    -4956    -5217    -5414 
   -5505    -5401    -5302    -5620    -6455    -7493    -8380    -8916 
   -8965    -8401    -7227    -5744    -4402    -3510    -3137    -3144 
   -3346    -3634    -3909    -4071    -4074    -4006    -4024    -4170 
   -4388    -4639    -4830    -4796    -4426    -3751    -2890    -1941 
   -1020     -392     -398    -1212    -2605    -3915    -4514    -4289 
   -3526    -2586    -1899    -1842    -2413    -3329    -4391    -5506 
   -6507    -7080    -6917    -6061    -4835    -3542    -2556    -2181 
   -2373    -2959    -3800    -4671    -5275    -5377    -4931    -4156 
   -3505    -3470    -4222    -5644    -7543    -9691   -11880   -13925 
  -15529   -16180   -15408   -13352   -10840    -8785    -7558    -6966 
   -6743    -6698    -6471    -5796    -4922    -4320    -4145    -4243 
   -4488    -4923    -5617    -6447    -7118    -7423    -7558    -8004 
   -8972   -10239   -11346   -12002   -12393   -12860   -13412   -13714 
  -13576   -13207   -12684   -11807   -10760   -10223   -10585   -11412 
  -11921   -11805   -11115    -9853    -8147    -6393    -5027    -4180 
   -3572    -2917    -2266    -1865    -1863    -2111    -2272    -2304 
   -2629    -3582    -5034    -6444    -7296    -7682    -8064    -8579 
   -9062    -9366    -9526    -9738    -9992   -10092   -10138   -10300 
  -10449   -10482   -10578   -10970   -11638   -12297   -12637   -12614 
  -12411   -12190   -11994   -11758   -11464   -11232   -11091   -10989 
  -10886   -10650   -10216    -9684    -9128    -8598    -8185    -7929 
   -7838    -7985    -8337    -8612    -8633    -8467    -8113    -7354 
   -6081    -4657    -3572    -2924    -2717    -3154    -4143    -5155 
   -5829    -6048    -5780    -5204    -4494    -3595    -2582    -1815 
   -1533    -1656    -1956    -2147    -2110    -1892    -1507    -1038 
    -429      702     2440     4336     5842     6708     7107     7264 
    7032     5991     3738      409    -3141    -6122    -8401   -10147 
  -11383   -11873   -11246    -9432    -6995    -5043    -4587    -5756 
   -7674    -8912    -8459    -6824    -5533    -5505    -6604    -8201 
   -9609   -10301   -10242    -9944    -9857    -9786    -8989    -6971 
   -4182    -1601       97      662       35    -1614    -3744    -5665 
   -6959    -7560    -7361    -6008    -3601     -996     1197     3046 
    4459     4887     4097     2600     1213      548      579      591 
      54     -737    -1336    -1841    -2486    -3109    -3573    -4332 
   -5734    -7242    -8089    -8132    -7827    -7654    -7662    -7848 
   -8322    -8932    -9390    -9552    -9325    -8723    -7912    -7071 
   -6434    -6278    -6528    -6777    -6791    -6566    -6201    -5879 
   -5802    -6166    -7055    -8071    -8464    -8089    -7518    -7114 
   -6875    -6839    -6990    -7207    -7245    -6791    -5848    -4850 
   -4337    -4571    -5225    -5784    -6120    -6141    -5668    -4959 
   -4414    -4118    -4009    -4005    -4021    -3955    -3685    -3244 
   -3036    -3588    -4837    -6266    -7614    -8785    -9566    -9871 
  -10037   -10458   -10821   -10239    -8297    -5576    -3115    -1626 
   -1287    -1929    -3159    -4363    -5084    -5512    -6052    -6639 
   -6782    -6095    -4753    -3115    -1370       99      908     1093 
     966      890      854      365     -837    -2538    -4480    -6252 
   -7357    -7869    -8203    -8360    -8056    -7144    -5829    -4591 
   -3659    -2884    -2347    -2424    -3186    -4477    -6356    -8789 
  -11121   -12224   -11527    -9705    -7967    -6885    -6204    -5686 
   -5440    -5296    -4984    -4861    -5386    -6493    -7873    -9209 
  -10449   -11759   -12798   -12958   -12290   -11234   -10106    -9134 
   -8532    -8441    -8725    -8837    -8387    -7627    -6987    -6505 
   -6030    -5701    -5918    -6820    -8013    -8824    -8822    -8093 
   -6929    -5568    -4468    -4232    -5015    -6241    -6970    -6723 
   -5775    -4664    -3743    -3150    -2906    -2976    -3289    -3786 
   -4295    -4573    -4683    -4837    -5179    -5821    -6651    -7323 
   -7472    -6860    -5621    -4209    -3030    -2340    -2232    -2374 
   -2134    -1340     -464      171      776     1556     2262     2420 
    1890      920     -210    -1296    -2114    -2438    -2313    -2319 
   -3003    -4241    -5481    -6366    -7164    -8222    -9250    -9695 
   -9274    -8051    -6520    -5285    -4615    -4423    -4382    -4217 
   -4074    -4352    -5054    -5756    -6197    -6455    -6563    -6511 
   -6439    -6484    -6725    -7186    -7495    -7183    -6327    -5265 
   -4068    -2677    -1117      411     1599     2241     2365     2162 
    1776     1105      -52    -1564    -2936    -3959    -4968    -6254 
   -7654    -8860    -9729   -10058    -9532    -8198    -6593    -5408 
   -5101    -5610    -6597    -7924    -9377   -10427   -10767   -10719 
  -10831   -11325   -12077   -12942   -13832   -14485   -14656   -14524 
  -14361   -14189   -14084   -14216   -14415   -14227   -13602   -12910 
  -12287   -11643   -10955   -10204    -9435    -8680    -7770    -6663 
   -5519    -4274    -2798    -1456     -986    -1714    -3065    -4054 
   -4243    -3842    -3186    -2745    -3009    -4097    -5652    -7021 
   -7731    -7844    -7776    -7847    -7982    -7756    -6836    -5425 
   -4047    -3045    -2481    -2182    -1956    -1830    -2010    -2759 
   -4106    -5521    -6389    -6610    -6465    -6252    -6081    -5802 
   -5301    -4730    -4311    -4133    -4392    -5452    -7335    -9502 
  -11319   -12394   -12636   -12263   -11538   -10592    -9555    -8668 
   -8098    -7713    -7284    -6771    -6124    -5231    -4215    -3377 
   -2860    -2662    -2775    -3071    -3335    -3645    -4329    -5351 
   -6223    -6744    -7244    -7919    -8530    -8807    -8918    -9182 
   -9467    -9420    -9088    -8907    -9027    -8922    -8124    -6902 
   -5817    -5240    -5182    -5483    -6185    -7078    -7504    -7264 
   -6763    -6224    -5644    -5080    -4577    -4124    -3662    -3198 
   -3073    -3555    -4271    -4661    -4608    -4371    -4360    -4878 
   -5830    -6921    -7874    -8382    -8316    -7935    -7597    -7427 
   -7376    -7491    -7909    -8542    -9161    -9791   -10500   -11082 
  -11353   -11292   -10970   -10555   -10170    -9778    -9297    -8792 
   -8424    -8226    -8177    -8334    -8730    -9196    -9416    -9398 
   -9367    -9109    -8324    -7314    -6488    -5782    -4905    -3750 
   -2593    -1838    -1644    -2026    -3046    -4604    -6227    -7431 
   -8252    -9054   -10022   -11097   -12112   -12903   -13294   -13155 
  -12606   -12075   -11966   -12175   -12186   -11713   -10913   -10137 
   -9720    -9691    -9841    -9927    -9678    -9019    -8151    -7245 
   -6480    -6070    -6033    -6214    -6488    -6820    -7157    -7285 
   -6907    -5975    -4865    -4104    -3931    -4261    -4864    -5466 
   -5853    -5949    -5848    -5759    -5818    -5933    -5880    -5676 
   -5675    -6026    -6477    -6879    -7267    -7553    -7672    -7743 
   -7917    -8202    -8469    -8586    -8559    -8434    -8307    -8391 
   -8789    -9448   -10228   -10798   -10833   -10372    -9709    -9084 
   -8704    -8750    -9174    -9702   -10053   -10130   -10050    -9855 
   -9375    -8540    -7541    -6675    -6118    -5755    -5374    -4978 
   -4777    -4916    -5229    -5555    -6018    -6623    -7118    -7372 
   -7470    -7539    -7572    -7484    -7338    -7329    -7470    -7431 
   -6919    -6118    -5375    -4702    -3905    -3029    -2359    -2087 
   -2097    -2257    -2666    -3373    -4122    -4637    -4912    -5108 
   -5239    -5192    -5003    -4787    -4571    -4340    -4122    -3943 
