Origin Time       2016/04/16 01:25:00
Lat.              32.753
Long.             130.762
Depth. (km)       12
Mag.              7.3
Station Code      YMG008
Station Lat.      34.0121
Station Long.     131.4042
Station Height(m) 4
Record Time       2016/04/16 01:25:31
Sampling Freq(Hz) 100Hz
Duration Time(s)  112
Dir.              N-S
Scale Factor      7845(gal)/8223790
Max. Acc. (gal)   21.850
Last Correction   2016/04/16 01:25:32
Memo.             
[...]
   -4730    -7152    -8040    -7226    -5362    -3029     -584     1722 
    3591     4734     5161     5007     4365     3554     2792     1622 
    -356    -2398    -3530    -4102    -5120    -6388    -6655    -5393 
   -3033       37     3248     5390     5463     3699     1593      282 
    -908    -2698    -3804    -3045    -1769    -1802    -2608    -2085 
     476     3115     3727     2948     2681     3144     3257     2327 
     375    -1946    -3746    -4425    -3807    -2434    -1154     -109 
     928     1663     1692     1424     1688     2516     3164     3222 
    2832     2317     1914     1351      203    -1124    -1684    -1154 
     -91      498      -43    -1174    -1745    -1324     -287      602 
     872     1125     2016     3106     3678     3566     3434     4175 
    5248     5017     3018      595     -861    -1729    -3375    -5892 
   -7986    -8621    -7708    -5633    -3142    -1252     -342      201 
    1136     2695     4410     5343     5019     3878     2371      549 
   -1008    -1385     -692     -259    -1381    -3578    -4704    -3964 
   -2794    -1721      -45     1451     1391      440      225      923 
    1429     1096      488      396      811     1321     1518     1055 
     217     -317     -309      313     1412     2184     2053     1075 
    -785    -2870    -3634    -3011    -2295    -1521       86     2241 
    3697     3650     2794     2087     1229     -259    -2001    -3298 
   -3450    -2209     -369     1109     2018     2176     1435      508 
     162       98     -456    -1706    -2953    -3156    -2006       20 
    2438     4727     6164     6369     5686     4699     3699     2663 
    1174    -1252    -3906    -5108    -4313    -2550     -677     1323 
    3338     4766     5279     4993     4114     3107     2335     1197 
    -963    -3330    -4633    -4750    -4050    -2647     -803     1065 
    2558     3271     3187     2798     2293     1162     -977    -3665 
   -5778    -6548    -6502    -6154    -4353     -380     4107     7446 
    9705    11145    11037     8569     4352      430    -1888    -3469 
   -5224    -6374    -6355    -5618    -4288    -2295      218     2972 
    5300     6886     8071     8731     8322     6728     4324     1772 
    -328    -1806    -2801    -3397    -3659    -3840    -3717    -2465 
    -198     1964     3828     6064     8276     8962     7527     5022 
    2763     1148     -164    -1327    -2081    -2459    -2489    -1660 
     101     1985     3459     4683     5697     5876     4483     2018 
     -37    -1031    -1366    -1377     -985       14     1613     3213 
    3984     3682     2768     1883     1390     1143      618     -589 
   -2204    -3459    -3916    -3469    -2119     -396     1063     2334 
    3499     3965     3392     2515     2222     2137     1313      -21 
    -819     -789     -322      361      874      710      525     1491 
    3079     3937     4393     5200     5481     4456     3019     2307 
    2235     2049     1351       28    -1838    -3438    -3694    -2369 
    -172     1771     2658     2578     2293     2431     2971     3580 
    4203     4564     3840     2092      767      943     2178     3094 
    2683     1437      519      -35     -689    -1219    -1489    -1769 
   -1972    -1641     -681      383      938      992     1113     1544 
    2187     3176     4233     4448     3582     2173      456    -1471 
   -2980    -3488    -3202    -2556    -1714     -761      660     2714 
    4003     3168     1152     -190     -546     -672     -639      -54 
     711      868      625      945     1648     1571      753      153 
    -129     -422     -514      -72      877     1822     2365     2915 
    3674     3861     3060     1680     -102    -2319    -4457    -5506 
   -4874    -3118    -1138      874     2853     4222     4619     4419 
    4088     3781     3298     1911     -591    -3051    -4301    -4431 
   -3987    -2849     -645     2052     3959     4645     4787     4722 
    3793     1658     -577    -1752    -2311    -2929    -2970    -1884 
    -279     1185     2438     3788     5266     5890     4888     3198 
    1910      718    -1100    -3558    -5683    -6381    -5861    -4850 
   -3051     -423     1786     3086     4278     5317     5333     4048 
    1714     -822    -2413    -2934    -2766    -1734     -236      746 
    1300     1954     2439     2397     1958     1522     1251      756 
      22     -245       98      427      488      618      970     1456 
    2079     2558     2578     2436     2255     1521      295     -560 
    -680     -575    -1117    -2735    -4391    -4483    -2870     -718 
    1053     2319     3283     3669     3150     2247     1580     1161 
     673     -124     -797     -526      728     2007     2390     2095 
    1610      692     -432     -702      139     1092     1020     -137 
   -1120     -792      342     1030     1019      799      514      209 
     228      666     1107     1062      441     -309     -877    -1471 
   -2007    -1790     -588      619      905      714      706      441 
    -537    -1705    -2157    -1636    -1119    -1636    -2771    -3647 
   -4005    -3846    -3223    -1838      708     3586     5377     5771 
    4986     3092     1004       -2     -251    -1158    -2875    -4185 
   -4383    -3724    -2521     -706     1833     4348     5555     5138 
    3823     2506     1606      828       14     -451     -530     -414 
     -21      237     -317    -1386    -2169    -2230    -1351      271 
    1881     2756     2749     2196     1314      189     -685     -696 
      97     1070     1935     2940     3846     3854     3002     2200 
    1819     1663     1521      876     -548    -1896    -2134    -1290 
    -222      288      276      413      815      675     -168     -421 
     471     1039      286     -774    -1227    -1506    -1942    -1975 
   -1382    -1069    -1512    -1680     -668      984     2100     2235 
    1896     1177     -399    -2299    -3304    -3258    -2855    -2299 
   -1323      129     2047     4232     5678     5216     3034      513 
   -1412    -2810    -3819    -3991    -3109    -1818     -637      503 
    1703     3165     4608     4916     3732     1602    -1242    -4301 
   -6604    -7542    -6902    -5127    -3059     -749     1982     4352 
    5463     5439     4903     4117     3094     1969      889       22 
    -467     -903    -1686    -2601    -3388    -3899    -3634    -2546 
   -1436     -814     -473      -99      342      676     1032     1980 
    3700     5290     5425     3886     1836      419     -306     -908 
   -1428    -1478    -1221    -1089     -874     -406     -359    -1020 
   -1424     -858       51      498      660      990     1289     1169 
     602     -373    -1665    -2811    -3369    -3507    -3470    -3040 
   -2261    -1537     -588     1208     3430     4781     4657     3611 
    2284      808     -837    -2380    -3265    -3157    -2425    -2014 
   -2272    -2168     -926      700     1899     2490     2187     1148 
     214     -237     -382     -233      236      814     1264     1653 
    2065     1998     1105      163     -203     -579    -1537    -2587 
   -2801    -1892     -514      333      263       64      892     2590 
    3677     3626     3431     3148     1632     -738    -2319    -2894 
   -3326    -3669    -3547    -2963    -2158    -1431     -571      769 
    2020     2393     1993     1377      950      882     1032      949 
     126    -1328    -2459    -2747    -2754    -2837    -2525    -1578 
    -506      388     1393     2562     3653     4379     4515     4256 
    3672     2200     -207    -2373    -3099    -2536    -1661     -646 
    1034     3042     4548     5590     6430     6477     4997     2282 
    -508    -2562    -3886    -4580    -4428    -3404    -2277    -2098 
   -2479    -1908     -315     1101     2006     2592     2713     2493 
    2259     2027     1981     2486     3360     4197     5066     5952 
    6038     4550     2181      592      259      238      288     1262 
    3005     3859     2875     1372     1371     2870     4059     3986 
    3393     3038     2628     1645      182     -994    -1116     -421 
     445     1645     3406     5186     6148     5863     5036     4870 
    5220     5059     4330     3790     3736     3771     3638     3728 
    4403     5198     5602     5915     6193     5670     4200     2743 
    2016     1991     2288     2565     2830     3034     2584     1113 
    -526    -1101     -834    -1042    -1954    -2652    -2876    -3249 
   -3724    -3451    -2312    -1071     -136      566     1167     1876 
    2822     3842     4484     4266     3561     3510     4274     4683 
    4117     3167     2384     1696     1005      653      864      918 
      98     -934    -1232    -1255    -1792    -2363    -2322    -2254 
   -2976    -4166    -4696    -3991    -2548    -1135      -83      606 
     993      961      336     -731    -1888    -2808    -3242    -3323 
   -3045    -2042     -648      526     1732     3213     4531     5277 
    5341     4482     2535      236    -1398    -2380    -3022    -2909 
   -1642      378     2227     3272     3836     4330     4145     2894 
    1296     -542    -3379    -6785    -9292   -10033    -8957    -6511 
   -3256      583     4649     7874     9173     8093     4649     -309 
   -5138    -8905   -11937   -14084   -13803   -10358    -5582    -1945 
     136     1815     3052     2392     -112    -2602    -4085    -4738 
   -4595    -3820    -3154    -3013    -3063    -3103    -3130    -2847 
   -1833      529     4190     7557     9215     8996     7110     3984 
      76    -4549    -9752   -14570   -17713   -18810   -17617   -13020 
   -4918     4368    11700    15545    16502    15083    10755     4374 
   -1687    -6899   -12625   -18341   -20881   -17980   -10917    -3153 
    3159     8125    11585    12441    10845     7951     4299      419 
   -2880    -5255    -6569    -6602    -5665    -4864    -4923    -5364 
   -5108    -3079      787     4911     7242     6802     4322     1784 
     749      850     1094     1938     4194     7425    10408    12241 
   12976    12691    10374     5574       85    -3986    -6195    -7179 
   -8189    -9562    -9209    -5689     -603     3974     7022     7803 
    6261     3358      545     -773     -117     2019     4920     7406 
    8121     6980     4920     2430     -156    -2046    -2965    -3154 
   -2724    -2174    -1738     -862      432     1987     4654     8340 
   11082    11466     9717     6669     3507     1771     2195     4168 
    6496     7805     7333     5827     4545     3771     2664     -338 
   -6030   -12645   -17486   -19441   -17982   -12652    -4733     2666 
    6697     7076     6083     5930     6806     7726     8027     6693 
    2496    -3365    -7738    -9051    -7879    -5593    -3349    -1024 
    1773     4469     7040     9846    10970     7809     1101    -6408 
  -13402   -19153   -21305   -17342    -8591     -525     2728     2359 
    1672     1768     2578     3766     3018    -1729    -8317   -11790 
   -9506    -3391     2967     7601     9868     9023     4843     -565 
   -4291    -5957    -6586    -5934    -3684    -1094      367      700 
     638      370     -136     -630     -662     -112     -229    -2219 
   -4482    -5116    -5240    -6238    -7406    -7373    -5688    -3153 
    -499     1792     2636     1880      387    -1859    -4167    -4247 
   -2007     -222     -706    -2435    -3154    -2457    -1570     -315 
    2265     5462     7646     8467     8673     8226     6563     3956 
    1221     -468      -60     1375     1328     -417    -1755    -1290 
     791     3133     4855     6971     9865    11087     8029     1179 
   -6403   -11547   -12972   -12127   -11186   -10327    -8974    -7425 
   -5211    -1364     2841     5100     6093     8500    11672    11913 
    8549     4372      781    -2234    -3137     -726     3187     6288 
    7715     6760     3013    -2497    -7059    -7958    -5439    -2172 
     261     1896     2118      810      677     3547     7349     9911 
   11290    11827    11007     7958     2986    -1677    -4297    -5663 
   -7047    -7456    -5279    -1665      731     1683     3227     5933 
    7744     7218     5840     4816     1930    -4600   -12437   -17875 
  -18752   -15341    -9918    -3878     2481     7777    10795    11967 
   12309    12137    10886     8519     5971     3618      662    -3834 
   -9599   -14789   -17202   -16019   -12195    -7249    -2224     2606 
    7045     9691     9567     7969     5665     1081    -6419   -14126 
  -18647   -19566   -18536   -16206   -12043    -6239     -487     3140 
    3704     2155     1078     2500     5406     7022     6066     3075 
    -675    -3670    -5458    -6980    -8403    -8436    -6693    -3994 
    -364     4368     8615     9855     7206     1979    -3863    -8567 
  -10309    -8237    -4228    -1233       23      800     1861     2570 
    1911     -103    -2521    -4972    -7595    -9713   -10189    -8063 
   -3234     2101     5020     5038     3890     3268     3484     3601 
    2574      438    -1455    -1858     -912      625     2706     5097 
    5908     4102     1740      295    -2031    -6231    -9061    -6879 
    -660     5670    10073    13020    14377    12804     8969     5400 
    2505     -974    -4750    -7855   -10436   -12647   -14073   -14501 
  -13884   -12220    -9944    -7607    -4378     1632    10404    18837 
   23184    22566    19217    14739     9254     4077      841    -1320 
   -4399    -8793   -13801   -18067   -19159   -15919   -10230    -4406 
     518     3738     5788     8783    12677    14827    14014    11001 
    6203      648    -3025    -3899    -4315    -6122    -8274    -8843 
   -7708    -5979    -3808    -1170      920     1503      434    -1323 
   -2690    -3708    -4320    -4437    -4604    -4088    -1690     1713 
    4714     6723     7107     6186     4660     1533    -3160    -6669 
   -7755    -8239    -9339    -9771    -7619    -2668     2770     6056 
    7356     7900     7340     6038     5231     4702     4359     4515 
    3659      720    -2142    -2513    -1574    -2327    -4842    -6586 
   -6621    -5574    -2573     4043    12641    18233    17779    12559 
    5867      799    -1880    -3613    -4594    -4283    -4347    -5940 
   -7155    -6019    -2756     1468     5616     8573     9629     8787 
    6165     2810      656     -318    -2245    -5128    -5925    -4093 
   -3007    -3847    -4032    -1949      575      719    -1059    -1780 
    -728      697     1675     1570      329     -611     -175     1098 
    2457     3958     5386     5759     4783     2739     -406    -3500 
   -4502    -3049     -302     2247     3669     4779     6087     6497 
    6006     5555     5105     4353     3100     1026    -2203    -6389 
   -9497    -9508    -7570    -5383    -1989     3335     8497    11260 
   11556    10400     8850     6687     2401    -3055    -6711    -8063 
   -8047    -6643    -3948     -683     2467     5606     9322    12484 
   12900    10621     7295     3882      807    -1836    -4293    -5852 
   -4484       68     4984     8424    10706    11361     9856     7096 
    3916      657    -2269    -4946    -7655    -9832   -10598    -9289 
   -5464     -270     4278     8147    12170    15110    14898    11673 
    7410     3190    -1544    -7315   -12893   -16147   -16632   -15267 
  -12016    -6593     -517     4783     9861    14326    16020    14098 
    9436     3781     -951    -4382    -7028    -8289    -7442    -5471 
   -3807    -2606    -1221      814     2805     3516     3676     4326 
    3709      606    -2702    -3984    -3530    -2694    -2346    -2203 
   -1911    -1908    -2001    -1881    -2624    -4510    -5875    -5836 
   -4923    -3125     -425     1777     2569     3001     3867     4845 
    5727     6029     5190     3256      229    -3361    -6044    -7110 
   -7013    -5992    -4086    -1934     -159     1192     2223     3006 
    3489     3839     4384     4513     3673     3187     4261     5711 
    5983     4956     2740     -287    -2913    -4353    -4215    -2012 
    1132     2725     2161     1356     1810     3049     3861     4072 
    4500     5060     4774     3466     1641     -256    -2060    -3946 
   -6127    -8154    -8796    -7607    -4923     -480     5125     9628 
   11372    10612     8892     7406     5709     3067       74    -2334 
   -4380    -7231   -10679   -11838    -9153    -5213    -2712    -1441 
      65     2235     3828     4140     4271     4851     5053     4545 
    3964     3454     2794     2276     1981     1138     -962    -3738 
   -5242    -4266    -2300    -1509    -1939    -2334    -1949     -434 
    2635     6879    10704    12672    12452    10072     5533       64 
   -4055    -6122    -7276    -8159    -8333    -7510    -6089    -4252 
   -1351     2528     5589     6787     7593     9047     9626     7959 
    4691     1243    -1312    -2975    -4258    -4838    -4355    -3311 
   -2025     -417     1232     2967     5173     6770     6285     4949 
    4985     5803     5246     3123     1243      633      298     -422 
     -93     2064     3916     3655     2486     2096     2606     3437 
    3929     3589     2517     1491     1162     1320     1725     2421 
    2811     2328     1821     2496     3932     4608     4192     3824 
    3869     3311     2097     1707     2574     3510     3794     3519 
    2979     2797     2898     2247      767     -418     -673       11 
    1443     2602     2609     1927      909     -457    -1439    -1602 
   -1055      477     2415     3156     2759     3013     4148     4348 
    2825      680    -1334    -3360    -5173    -6146    -5991    -4930 
   -3412    -1927     -614     1173     3449     4482     3223     1173 
    -103    -1200    -2839    -4067    -4059    -3728    -4248    -4984 
   -4525    -3257    -2324    -1246      649     2450     3071     2174 
     125    -1989    -3770    -5689    -7411    -8043    -7515    -6389 
   -4889    -3154    -1687     -268     1622     3202     3688     3322 
    2349     1088     -378    -2262    -3693    -3742    -3152    -2695 
   -1903     -572      607     1142     1433     2107     2688     2193 
    1155     1094     2083     2754     2214      746     -683    -1150 
    -307     1414     3300     4878     5610     5080     3578     1768 
     175    -1032    -1813    -2176    -2473    -2513    -1366      715 
    1732      166    -3005    -5455    -6389    -6366    -5179    -2756 
    -125     2299     4417     5270     5081     5310     5736     5112 
    3258      695    -1694    -3194    -4195    -4838    -4136    -2050 
     -93      648      749     1509     2826     3307     2474     1046 
    -400    -1891    -3221    -3650    -3365    -3317    -3368    -2839 
   -1941    -1711    -2484    -2502     -326     2592     4360     4661 
    3778     2390     1039     -195     -766     -604     -841    -1702 
   -2074    -1755    -1687    -1807    -1098      244      799     -133 
   -1316    -1008      282      533     -615    -1634    -1358     -116 
     901     1300     2052     3122     2922     1289     -303    -1005 
   -1119    -1494    -2269    -2481    -1684     -626      194      876 
    1094      517     -349     -927    -1136    -1069     -959    -1113 
