Origin Time       2016/04/16 01:25:00
Lat.              32.753
Long.             130.762
Depth. (km)       12
Mag.              7.3
Station Code      YMG014
Station Lat.      34.0544
Station Long.     131.8077
Station Height(m) 15
Record Time       2016/04/16 01:25:37
Sampling Freq(Hz) 100Hz
Duration Time(s)  125
Dir.              E-W
Scale Factor      7845(gal)/8223790
Max. Acc. (gal)   14.144
Last Correction   2016/04/16 01:25:37
Memo.             
[...]
    5428     5498     5377     5220     5198     5294     5310     5090 
    4730     4428     4217     4031     3816     3593     3456     3477 
    3592     3535     3169     2708     2411     2369     2596     3030 
    3450     3672     3754     3813     3874     3979     4155     4327 
    4415     4369     4186     3948     3782     3766     3875     4009 
    4129     4337     4685     5046     5297     5535     5864     6199 
    6363     6328     6151     5861     5544     5321     5200     5096 
    4965     4849     4792     4842     5036     5310     5506     5544 
    5441     5247     5022     4747     4393     4081     3897     3705 
    3377     3015     2724     2420     2023     1601     1255     1021 
     922     1011     1316     1740     2084     2245     2311     2417 
    2600     2776     2878     2945     3040     3098     3071     3055 
    3059     2978     2786     2565     2417     2412     2455     2394 
    2263     2192     2212     2304     2424     2517     2641     2934 
    3372     3796     4178     4577     4923     5154     5352     5491 
    5344     4841     4139     3375     2656     2143     1890     1858 
    2034     2389     2863     3349     3701     3870     3906     3877 
    3917     4125     4415     4687     4887     4943     4889     4854 
    4770     4413     3796     3150     2616     2201     1902     1710 
    1628     1714     1952     2203     2419     2650     2849     2965 
    3094     3304     3484     3431     3142     2789     2504     2448 
    2724     3196     3684     4152     4529     4652     4521     4266 
    3965     3653     3346     3105     3018     3111     3283     3454 
    3647     3865     4125     4423     4723     4988     5109     5057 
    4956     4981     5135     5239     5215     5066     4842     4641 
    4467     4286     4106     3990     3937     3828     3663     3558 
    3487     3369     3199     3038     2961     2953     2914     2745 
    2542     2539     2718     2905     3082     3314     3595     3873 
    4139     4379     4546     4587     4479     4305     4079     3747 
    3423     3360     3670     4190     4619     4746     4592     4406 
    4425     4627     4838     4947     4938     4822     4622     4367 
    4060     3634     3065     2502     2166     2118     2176     2116 
    1941     1802     1715     1568     1347     1055      670      357 
     314      523      912     1405     1795     1927     1873     1752 
    1636     1605     1649     1728     1930     2308     2673     2814 
    2720     2463     2218     2286     2771     3419     3998     4486 
    4880     5166     5310     5248     4989     4702     4573     4606 
    4734     4920     5036     4989     4909     4942     5034     5026 
    4819     4463     4117     3888     3639     3184     2598     2079 
    1648     1235      889      774      880     1004     1057     1073 
    1031      978     1097     1452     1964     2565     3175     3673 
    3987     4082     3936     3649     3393     3237     3194     3345 
    3642     3798     3620     3284     3030     2866     2717     2536 
    2293     2081     2058     2173     2272     2365     2532     2724 
    2844     2874     2814     2695     2641     2721     2811     2814 
    2803     2857     2999     3200     3302     3165     2910     2775 
    2828     2930     2961     2974     3051     3079     2909     2600 
    2265     1941     1726     1737     1880     1960     1887     1674 
    1412     1242     1277     1534     1929     2350     2763     3138 
    3406     3535     3599     3678     3751     3763     3765     3798 
    3812     3750     3611     3433     3249     3095     3003     2941 
    2826     2666     2569     2606     2695     2662     2447     2165 
    1973     1921     1953     2064     2270     2554     2866     3087 
    3137     3092     3063     3095     3180     3241     3192     3073 
    3044     3258     3716     4199     4455     4434     4270     4121 
    4083     4088     4024     3944     3977     4104     4185     4136 
    3947     3628     3254     2915     2654     2477     2381     2338 
    2338     2442     2608     2648     2511     2338     2232     2181 
    2218     2412     2706     2999     3314     3705     4118     4455 
    4675     4747     4675     4600     4581     4464     4238     4079 
    4012     3916     3754     3544     3281     3001     2792     2702 
    2700     2725     2755     2839     3063     3445     3808     3899 
    3680     3376     3245     3330     3454     3443     3331     3256 
    3276     3412     3642     3789     3696     3418     3175     3118 
    3179     3169     3009     2798     2682     2682     2687     2604 
    2447     2340     2376     2539     2710     2779     2720     2598 
    2540     2663     3011     3485     3863     4005     4036     4136 
    4213     4060     3665     3153     2671     2354     2241     2235 
    2188     2069     1966     2069     2552     3260     3809     4069 
    4215     4379     4504     4558     4612     4699     4797     4904 
    5057     5247     5351     5298     5161     4955     4637     4255 
    3929     3658     3330     2941     2552     2235     2130     2272 
    2498     2641     2641     2573     2582     2747     3010     3246 
    3397     3507     3623     3751     3866     3931     3951     4010 
    4153     4306     4401     4409     4271     3990     3600     3109 
    2629     2316     2196     2218     2342     2494     2619     2737 
    2809     2772     2725     2778     2928     3213     3719     4382 
    5015     5505     5926     6326     6588     6619     6389     5864 
    5158     4544     4163     3942     3819     3771     3736     3734 
    3805     3856     3808     3743     3728     3681     3535     3341 
    3192     3150     3173     3180     3140     3078     2964     2729 
    2415     2135     1960     1863     1783     1783     1915     2089 
    2208     2259     2222     2104     2066     2228     2490     2710 
    2889     3100     3333     3541     3747     3927     3944     3802 
    3685     3682     3738     3809     3878     3939     4003     4058 
    4098     4182     4270     4256     4155     4068     4083     4220 
    4360     4310     4054     3820     3852     4158     4507     4669 
    4646     4641     4784     5008     5196     5297     5285     5162 
    4993     4777     4418     3923     3468     3183     3055     3049 
    3113     3169     3268     3532     3890     4074     3996     3856 
    3808     3808     3809     3832     3883     3943     3978     3996 
    4014     4017     3975     3874     3755     3686     3708     3776 
    3815     3861     3997     4081     3915     3604     3403     3312 
    3202     3034     2837     2718     2818     3132     3520     3880 
    4122     4144     3974     3712     3388     3041     2744     2554 
    2474     2439     2261     1814     1266      864      606      359 
     148       75      140      288      486      741     1065     1416 
    1830     2435     3148     3681     3962     4170     4415     4633 
    4714     4698     4716     4780     4806     4819     4820     4630 
    4200     3788     3588     3526     3500     3511     3554     3578 
    3636     3842     4125     4253     4102     3738     3310     2955 
    2766     2747     2743     2658     2662     2902     3234     3447 
    3487     3402     3289     3223     3144     2907     2408     1692 
    1047      684      446      176        2        4      109      329 
     662      951     1139     1364     1641     1829     1825     1554 
    1023      472      237      324      402      284       98       16 
      60      135      118       -2      -82       32      436     1115 
    1788     2107     2047     1921     2052     2365     2513     2482 
    2505     2540     2493     2451     2319     2027     1960     2359 
    2951     3588     4294     4854     5097     5189     5347     5667 
    6083     6370     6427     6399     6311     5923     5175     4410 
    3894     3492     2991     2397     1759     1196      900      756 
     550      410      417      407      437      733     1138     1243 
    1093     1127     1471     1917     2350     2720     2994     3248 
    3523     3828     4159     4426     4568     4612     4715     5090 
    5590     5757     5454     5004     4584     4101     3788     3842 
    3716     3049     2435     2285     2196     1888     1528     1183 
     800      481      311      221      170      126       35        4 
     178      388      387      178     -144     -481     -685     -800 
    -981    -1105    -1046    -1035    -1161    -1094     -857     -797 
    -774     -533     -261       14      483      920     1107     1352 
    1868     2451     2998     3491     3834     4094     4363     4563 
    4785     5302     6000     6407     6451     6458     6531     6531 
    6367     6123     5952     5842     5744     5611     5298     4837 
    4433     4176     4067     4024     3869     3483     2949     2617 
    2783     3306     3880     4529     5347     6114     6606     6881 
    6932     6731     6617     6859     7159     7106     6585     5660 
    4567     3592     2749     1953     1424     1389     1595     1669 
    1622     1788     2520     3727     4959     6234     7799     9238 
   10100    10675    11171    11275    10809     9888     8621     7109 
    5537     4155     3179     2693     2442     2076     1826     1996 
    2074     1566      959      882     1058     1123     1424     2146 
    2906     3530     4091     4660     5410     6300     6889     6910 
    6528     5989     5582     5533     5748     6083     6475     6767 
    6961     7236     7515     7646     7890     8451     8811     8626 
    8513     8849     9150     9158     9109     8980     8550     8001 
    7634     7411     7245     7160     7063     6880     6775     6752 
    6552     6262     6381     6837     6967     6686     6313     5732 
    4843     3786     2600     1594     1073      657       59     -355 
    -471     -673    -1093    -1632    -2262    -2767    -3018    -3159 
   -3010    -2477    -2049    -1825    -1363     -757     -492     -429 
      49     1024     1991     2781     3754     5100     6548     7801 
    8802     9416     9377     8716     7805     6949     6292     5863 
    5409     4824     4720     5437     6214     6623     7136     7635 
    7581     7371     7618     8147     8789     9634    10250    10284 
   10087     9705     8745     7466     6382     5317     4036     2641 
     986    -1000    -2768    -3885    -4644    -5535    -6741    -8117 
   -9290   -10075   -10604   -10766   -10146    -8765    -7037    -5163 
   -3199    -1321      359     1961     3458     4592     5389     6046 
    6447     6432     6012     5157     3983     2811     1807      880 
     -79     -954    -1572    -2058    -2548    -2951    -3164    -3059 
   -2493    -1544     -422      719     1649     2134     2413     2926 
    3511     3711     3538     3329     3180     2781     1744      284 
    -908    -1609    -2176    -2835    -3392    -3665    -3727    -3643 
   -3464    -3272    -2890    -2083    -1057     -108      903     2177 
    3392     4248     5005     5829     6490     6921     7353     8017 
    8881     9618     9965     9987     9887     9680     9189     8266 
    6947     5471     4125     3090     2412     1996     1599     1100 
     638      240     -299    -1007    -1634    -2107    -2538    -2792 
   -2675    -2412    -2313    -2270    -2104    -1939    -1850    -1772 
   -1701    -1474    -1020     -765     -884     -864     -480     -191 
    -313     -648     -950    -1074     -832     -187      625     1224 
    1375     1274     1274     1533     2066     2702     3308     4083 
    5035     5829     6307     6463     6392     6354     6511     6847 
    7206     7283     6874     6239     5895     5902     5868     5605 
    5270     5026     4851     4509     3748     2659     1661     1028 
     737      795     1267     2020     2955     4185     5618     6978 
    8237     9536    10854    12005    12868    13491    13890    14115 
   14293    14303    13963    13432    12866    12070    10847     9401 
    8048     6637     4926     3331     2262     1391      595      422 
     982     1763     2651     3817     5022     6003     6975     8067 
    8965     9528     9946    10069     9563     8612     7480     6037 
    4351     2764     1230     -394    -1752    -2594    -3245    -3866 
   -4307    -4710    -5162    -5317    -5009    -4554    -4166    -3612 
   -2768    -1876     -913      336     1636     2693     3647     4541 
    5107     5386     5660     5838     5838     5962     6345     6847 
    7462     8279     9325    10461    11518    12449    13169    13643 
   13994    14257    14319    14156    13909    13621    13193    12505 
   11408     9886     8163     6561     5371     4746     4625     4893 
    5456     6130     6721     7202     7647     7993     8159     8305 
    8477     8483     8319     8090     7753     7350     7087     7123 
    7427     7789     8006     7967     7750     7608     7581     7450 
    7115     6731     6561     6706     6990     7140     7105     6974 
    6627     5944     5136     4448     3874     3292     2654     2070 
    1696     1598     1726     1965     2331     2886     3534     4213 
    4966     5842     6930     8235     9660    11236    13000    14697 
   16015    16984    17755    18181    17991    17118    15742    14202 
   12683    11169     9679     8149     6493     4905     3653     2710 
    1846      957      128     -653    -1507    -2417    -3254    -3936 
   -4395    -4556    -4374    -3790    -2792    -1547     -263     1036 
    2424     3770     4946     5946     6678     7086     7141     6709 
    5861     4868     3717     2303      808     -515    -1547    -2317 
   -3013    -3755    -4473    -5032    -5418    -5714    -5867    -5676 
   -5088    -4286    -3354    -2214     -981      131     1065     1755 
    2130     2187     2042     1892     1705     1314      673     -253 
   -1470    -2859    -4247    -5498    -6613    -7632    -8484    -9046 
   -9256    -9103    -8640    -8024    -7290    -6277    -5177    -4419 
   -3947    -3457    -2914    -2303    -1451     -318      919     2134 
    3315     4329     5036     5541     5861     5833     5647     5730 
    6093     6435     6673     6886     7044     7126     7253     7497 
    7827     8139     8310     8338     8379     8436     8365     8213 
    7940     7271     6192     5043     4101     3470     3156     2941 
    2652     2420     2155     1509      529     -326     -832    -1125 
   -1161     -765     -151      444     1212     2301     3459     4476 
    5327     5967     6501     7121     7758     8324     8926     9563 
    9988    10065    10019     9950     9578     8893     8221     7703 
    7504     7869     8548     9069     9386     9518     9293     8756 
    8163     7780     7657     7565     7481     7619     7851     7882 
    7774     7723     7755     7815     7712     7157     6230     5282 
    4336     3184     2020     1273      957      835      724      399 
     -90     -469     -770    -1015    -1078    -1075    -1109     -997 
    -550      112      730     1251     1823     2486     3118     3696 
    4391     5285     6282     7267     8203     9045     9662    10106 
   10554    10972    11267    11433    11427    11338    11354    11395 
   11254    10921    10525    10172     9821     9293     8553     7797 
    6982     5972     5012     4200     3283     2324     1597     1053 
     557      156     -101     -317     -700    -1182    -1323    -1000 
    -513       -5      399      515      500      661     1090     1769 
    2501     2994     3315     3820     4675     5853     7153     8252 
    9073     9814    10542    11171    11762    12422    13003    13327 
   13487    13618    13636    13432    13034    12432    11627    10797 
   10066     9343     8594     7942     7512     7365     7425     7450 
    7323     7296     7481     7527     7287     6959     6546     6019 
    5528     5081     4623     4297     4107     3784     3284     2887 
    2587     2176     1753     1503     1443     1525     1664     1826 
    2042     2239     2290     2226     2180     2200     2199     2001 
    1584     1209      987      696      310       54     -125     -399 
    -692     -828     -769     -546     -190      222      722     1366 
    1890     2126     2342     2636     2809     2799     2708     2570 
    2425     2354     2232     1842     1252      697      225     -315 
    -928    -1343    -1517    -1618    -1611    -1479    -1317    -1094 
    -774     -519     -409     -265      -51      -23     -259     -469 
    -540     -643     -793     -929    -1188    -1453    -1334    -1043 
   -1179    -1642    -1953    -2110    -2207    -2114    -1880    -1655 
   -1345     -903     -557     -464     -479     -437     -359     -263 
     -65      222      422      464      484      558      591      572 
     566      446      120     -252     -545     -658     -529     -433 
    -634     -986    -1244    -1314    -1150     -719     -170      203 
     399      765     1443     2072     2288     2323     2646     3261 
    3960     4734     5493     6139     6752     7165     7099     6758 
    6469     6151     5791     5665     5746     5767     5763     5782 
    5640     5404     5273     5220     5260     5454     5692     6006 
    6543     7175     7618     7820     7894     7870     7723     7470 
    7183     6914     6547     5887     5016     4266     3809     3450 
    2979     2587     2458     2421     2338     2255     2267     2496 
    2984     3653     4387     5060     5595     5962     6115     6142 
    6269     6527     6831     7238     7716     8105     8479     8964 
    9354     9435     9336     9094     8467     7573     6802     6234 
    5721     5113     4302     3275     2101      877     -330    -1364 
   -2026    -2394    -2666    -2868    -2971    -2952    -2792    -2501 
   -2038    -1356     -622      -58      405      815      954      814 
     685      638      442      -81     -916    -1944    -2957    -3670 
   -3982    -4044    -3936    -3661    -3323    -3115    -3114    -3218 
   -3406    -3673    -3678    -3057    -1999    -1058     -484     -178 
     -94     -180     -326     -600    -1026    -1277    -1142     -924 
    -962    -1204    -1324     -945      148     1637     2682     2866 
    2581     2219     1787     1264      731      248     -191     -618 
   -1155    -1781    -1988    -1463     -587      268     1161     2062 
    2646     2781     2668     2338     1564      310    -1210    -2702 
   -3781    -4228    -4190    -3886    -3349    -2573    -1690     -834 
     -11      661      820      337     -291     -577     -589     -548 
    -557     -841    -1544    -2470    -3221    -3440    -3042    -2273 
   -1464     -793     -221      310      749     1162     1690     2290 
    2899     3497     3923     4027     3886     3557     3084     2824 
    3163     4086     5416     6916     8073     8509     8513     8622 
    8870     9135     9593    10164    10509    10646    10561     9941 
    8927     7831     6354     4515     3203     2778     2706     2716 
