Origin Time       2016/04/16 01:25:00
Lat.              32.753
Long.             130.762
Depth. (km)       12
Mag.              7.3
Station Code      YMG012
Station Lat.      33.9941
Station Long.     131.2181
Station Height(m) 2
Record Time       2016/04/16 01:25:32
Sampling Freq(Hz) 100Hz
Duration Time(s)  181
Dir.              E-W
Scale Factor      7845(gal)/8223790
Max. Acc. (gal)   53.039
Last Correction   2016/04/16 01:25:32
Memo.             
[...]
   -8289    -6382    -5232    -4545    -4069    -3716    -3407    -3362 
   -3638    -3676    -2957    -1507      326     1840     2076      903 
    -423     -561      854     3638     7191    10345    12075    12155 
   11149    10080     9580     9468     9468     9485     9208     8484 
    7685     7044     6290     5217     3836     2253      842        5 
    -272     -176      211      626      792      965     1588     2573 
    3537     4298     4648     4379     3908     3784     3963     4322 
    4710     4661     3965     2844     1554      291     -827    -1776 
   -2681    -3643    -4469    -5053    -5571    -5999    -6223    -6250 
   -5977    -5368    -4533    -3603    -2721    -1732     -413      943 
    1985     2658     2675     1869      811      147       49      646 
    1965     3483     4748     6029     7551     8988     9895     9996 
    9242     7870     6370     5146     4191     3396     2811     2363 
    1935     1818     2504     4099     6218     8286     9782    10291 
    9714     8337     6501     4436     2386      681     -502    -1323 
   -1741    -1355     -422      163      120     -245     -832    -1653 
   -2674    -3935    -5418    -7010    -8627   -10193   -11507   -12096 
  -11435    -9516    -6801    -3865    -1243      838     2511     3913 
    4953     5406     5370     5200     4970     4804     5157     6165 
    7510     8660     9146     9067     8895     8950     9398    10107 
   10426     9691     8025     6173     4645     3712     3672     4356 
    5185     6053     7304     8941    10443    10910     9263     5289 
     383    -3562    -5822    -6727    -6524    -5428    -4233    -3589 
   -3145    -2335    -1363     -731     -560     -869    -1798    -3289 
   -5057    -6673    -7493    -7092    -5614    -3508    -1116     1495 
    4136     6404     8248     9649    10116     9528     8517     7685 
    7346     7607     8137     8477     8507     8275     7630     6440 
    5017     3832     3067     2667     2278     1343      -43     -920 
    -621      631     2118     2839     2076       47    -2525    -4918 
   -6610    -7623    -8062    -7588    -6023    -3927    -2046     -573 
     746     2211     3915     5622     6951     7456     6814     5273 
    3519     2207     1764     2342     3750     5605     7584     9339 
   10296    10116     9107     7693     6242     5259     4922     4869 
    4806     4765     4666     4186     3357     2671     2361     2261 
    2247     2289     2316     2214     1807      873     -464    -1460 
   -1441     -621      245      625      383     -341    -1086    -1178 
    -387      810     1830     2413     2490     2088     1445      873 
     491      357      637     1290     1880     1944     1312      275 
    -318      380     2413     5049     7261     8228     7860     6729 
    5522     4669     4164     4013     4522     5684     6999     8035 
    8519     8156     6936     5259     3582     2276     1634     1647 
    1934     2130     2098     1856     1605     1622     1984     2428 
    2392     1410     -425    -2598    -4286    -4684    -3821    -2577 
   -1755    -1571    -1838    -2142    -2003    -1381     -604      359 
    1737     3299     4676     5792     6531     6655     6361     6259 
    6605     7294     8278     9254     9629     9275     8599     7884 
    7105     6301     5582     4789     3794     2857     2207     1755 
    1431     1267     1024      283     -905    -1826    -1917    -1324 
    -423      464      826      318     -687    -1560    -2084    -2396 
   -2687    -3095    -3544    -3612    -2960    -2001    -1345     -916 
    -427      125      738     1329     1598     1340      800      311 
    -194     -743     -884      -97     1845     4801     8108    10804 
   12348    12874    12645    11692    10281     9093     8590     8739 
    9316    10012    10673    11480    12505    13350    13440    12478 
   10435     7577     4676     2533     1181      149     -739    -1278 
   -1262     -652      387     1363     1601      772     -834    -2523 
   -3549    -3534    -2745    -1907    -1755    -2631    -4135    -5263 
   -5167    -3875    -2214    -1065     -812    -1332    -2180    -2766 
   -2587    -1554      -37     1444     2511     3152     3676     4167 
    4492     4712     4904     4959     4899     4896     4770     4153 
    3152     2199     1598     1537     2130     3217     4243     4633 
    4166     3098     2133     1868     2255     2963     3828     4716 
    5306     5273     4635     3835     3330     3326     3901     4873 
    5556     5331     4320     3022     1781      797      240      163 
     380      722     1193     1680     1917     1707     1081      378 
      68      292      733     1080     1464     2137     3060     4167 
    5516     7102     8688     9790    10099     9738     8808     7460 
    6186     5379     5043     5017     5005     4754     4413     4218 
    4132     4013     3834     3511     2909     2272     2046     2211 
    2340     2027     1042     -450    -1811    -2574    -2867    -2970 
   -3029    -3098    -2971    -2362    -1495    -1007    -1200    -1777 
   -2180    -1965    -1136      -65     1035     2204     3335     4199 
    4737     5007     5062     5032     5140     5614     6575     7898 
    9273    10405    11159    11595    11601    10864     9487     7889 
    6258     4657     3210     1956      855       21     -221      168 
     784     1354     1858     2134     2015     1663     1312      792 
    -170    -1328    -2180    -2428    -1995     -966      396     1675 
    2421     2455     2007     1534     1331     1298     1113      592 
    -117     -502       54     1648     3755     5675     6821     7052 
    6764     6272     5470     4271     2965     2126     2262     3435 
    5201     6833     7688     7646     7186     6737     6145     5096 
    3546     1516     -714    -2367    -2907    -2625    -2062    -1472 
    -954     -499        4      471      669      510        4     -837 
   -1764    -2296    -2245    -1795     -889      670     2552     4086 
    4865     4874     4356     3516     2470     1417      598      186 
     305      896     1703     2579     3597     4899     6467     8039 
    9155     9320     8410     7022     5994     5719     6158     6993 
    7700     7838     7290     6343     5476     4922     4568     4243 
    3755     2802     1389       65     -831    -1563    -2199    -2465 
   -2420    -2315    -2138    -1872    -1674    -1568    -1437    -1320 
   -1235     -892     -122      824     1804     2997     4379     5462 
    5803     5409     4479     3265     2196     1629     1512     1436 
    1117      706      421      356      607      989     1060      734 
     379      261      283      248       23     -491    -1100    -1317 
   -1003     -417      307     1228     2246     3051     3372     3123 
    2600     2408     2806     3591     4433     4866     4502     3534 
    2531     1849     1590     1772     2091     2100     1891     1923 
    2370     3051     3674     4050     4203     4314     4518     4779 
    4949     5040     5178     5309     5304     5239     5362     5902 
    6937     8187     8986     8688     7188     4938     2717     1318 
     899      835      535      116       41      429     1031     1513 
    1512      803     -414    -1667    -2656    -3223    -3187    -2717 
   -2245    -1807    -1229     -643     -283      -28      421     1077 
    1741     2281     2498     2282     1896     1640     1540     1528 
    1642     1902     2177     2442     2822     3107     2976     2639 
    2474     2540     2851     3422     4002     4280     4349     4511 
    4777     5011     5098     4718     3701     2444     1399      769 
     783     1413     2073     2322     2247     1952     1522     1293 
    1518     2114     2798     3184     2863     1792      531     -232 
    -220      600     2157     3977     5316     5859     5875     5566 
    4833     3902     3342     3338     3686     4289     4909     4966 
    4261     3271     2440     1921     1823     2165     2870     3940 
    5134     5755     5309     4087     2891     2322     2396     2782 
    3075     2758     1610      294     -175      442     1568     2550 
    2890     2419     1533      687      -70     -741    -1188    -1382 
   -1391    -1212     -803     -297       -9     -109     -400     -546 
    -244      684     2045     3159     3298     2343      884     -390 
   -1000     -572      851     2565     3813     4395     4476     4186 
    3743     3520     3680     4101     4621     5011     5116     5015 
    4662     3846     2674     1590      982      874     1034     1460 
    2224     3079     3809     4375     4735     4873     4708     4005 
    2598      688    -1109    -2312    -2887    -2874    -2447    -2038 
   -1752    -1405    -1013     -542      193     1213     2411     3580 
    4334     4380     3759     2844     2141     2098     2986     4630 
    6556     8421    10055    11404    12395    12640    11797    10154 
    8349     6897     6122     6095     6424     6285     5104     3217 
    1393      -54    -1138    -1752    -1933    -2039    -2293    -2663 
   -3303    -4305    -5360    -6385    -7493    -8383    -8673    -8414 
   -7862    -7094    -6139    -5139    -3993    -2461     -846      205 
     472      341      382      808     1347     1660     1845     2343 
    3464     5173     7188     9142    10558    10963    10301     8955 
    7340     5772     4556     3867     3555     3213     2571     1543 
     105    -1408    -2400    -2579    -2114    -1466    -1086    -1102 
   -1501    -2401    -3705    -4820    -5182    -4730    -3734    -2586 
   -1698    -1345    -1545    -2130    -3009    -4158    -5393    -6438 
   -7061    -7009    -6164    -4963    -4230    -4360    -5053    -5768 
   -6049    -5888    -5960    -6758    -7933    -8976    -9629    -9741 
   -9454    -9086    -8707    -8370    -8175    -8044    -8006    -8326 
   -8986    -9641   -10102   -10434   -10554   -10180    -9124    -7420 
   -5312    -3083     -832     1518     4047     6502     8307     9066 
    8845     8129     7735     8428    10369    12949    15423    17525 
   19172    20262    20958    21583    22303    23167    24142    24942 
   25091    24235    22261    19403    16553    14844    14701    15782 
   17478    19052    19695    18839    16464    13004     9001     5304 
    3136     3183     4858     6899     8174     7836     5837     3299 
    1424      430       52       10     -301    -1552    -3781    -6416 
   -8838   -10768   -12249   -13362   -14222   -15114   -16232   -17470 
  -18559   -19225   -19380   -19090   -18534   -18261   -18925   -20428 
  -21780   -21826   -19788   -15346    -8874    -1831     3879     7109 
    7751     6459     4252     2282     1595     2385     4200     6613 
    8874    10357    11294    12131    13096    14169    15033    15400 
   15111    14177    12850    11302     9444     7298     5208     3689 
    3111     3514     4560     5647     6426     6978     7284     7249 
    7125     7148     7075     6569     5800     5364     5800     7418 
   10145    13198    15363    15535    13113     8572     3462     -379 
   -1453      726     5235    10308    14288    16357    16621    15647 
   14312    13844    15213    18235    21622    24030    24879    24308 
   22825    21037    19399    18299    18295    19808    22415    25023 
   26612    26342    23666    18640    11880     4548    -1723    -5335 
   -5601    -3107     1036     5576     8919     9514     6535      592 
   -6386   -12619   -16906   -18461   -17513   -14769   -10654    -6016 
   -2037      575     1449      673     -615     -838      815     4005 
    7442     9671     9913     8236     5323     2409      858     1102 
    2768     5294     7696     9444    10666    10578     7903     2486 
   -4679   -11932   -17431   -19992   -19526   -16879   -13552   -10944 
   -9448    -8749    -9137   -11292   -14870   -18589   -21009   -21065 
  -18469   -13703    -7940    -2535     1702     4488     6170     7609 
    8995     9549     8529     5749     1578    -3069    -6771    -8474 
   -8548    -7902    -6972    -5979    -5088    -4455    -4303    -4842 
   -6201    -8487   -11755   -15592   -19236   -22214   -24231   -24740 
  -23026   -18779   -12784    -6407     -504     4440     7981     9845 
   10191     9590     8324     6192     3223      355     -411     2820 
   10038    19283    28209    34884    38024    37601    34844    31383 
   28313    26069    24740    23857    23071    23008    24121    25945 
   27876    29292    29574    28580    26599    23836    19903    14272 
    7176     -693    -8937   -16977   -23502   -27814   -30132   -29990 
  -27292   -23449   -19674   -16599   -14955   -15473   -18233   -22114 
  -25671   -27580   -26550   -22323   -15655    -7715     -265     5422 
    9703    13644    17940    22609    27081    30743    33092    33619 
   32285    29732    27041    25361    25401    27241    30310    33339 
   35195    35577    34527    32124    28467    23292    16254     7705 
   -1267    -9321   -15233   -18256   -18341   -16178   -13030   -10350 
   -9494   -11269   -15360   -20560   -25697   -30063   -33291   -34966 
  -34643   -32733   -30518   -29197   -29286   -30204   -31012   -31172 
  -29810   -25909   -19646   -12414    -5737     -699     2074     2972 
    3701     6482    12663    21798    32186    41978    49821    55159 
   57863    58056    56604    54625    52602    50342    47478    44005 
   40178    36312    32977    30651    28966    26465    21865    15381 
    7948      579    -5551    -9845   -12719   -14976   -17081   -18889 
  -19681   -18879   -16972   -15261   -14925   -16692   -20344   -23961 
  -25285   -23742   -19823   -14134    -8236    -4170    -2228    -1084 
     184     2012     5158     9884    15307    20548    25400    29641 
   32745    34319    34709    34973    36094    38445    41242    43042 
   43282    42029    39390    36251    33520    30792    27170    22326 
   16463    10362     5159     1293    -1576    -3855    -6138    -8893 
  -12040   -15411   -18430   -20031   -19649   -17671   -15190   -13240 
  -12557   -13497   -15217   -16371   -16534   -15817   -14517   -13250 
  -12604   -12706   -12762   -11537    -8673    -4997    -1575      942 
    2284     2295     1034    -1039    -3492    -6077    -8272    -9290 
   -8599    -6486    -3804     -892     2332     5370     7604     9082 
   10044    10660    11296    11836    11300     9269     6338     3137 
     508     -342     1185     4509     7842     8928     6470      974 
   -5458   -10389   -12818   -13301   -12838   -12464   -12685   -13034 
  -12725   -11719   -10685    -9818    -8868    -8098    -8039    -8696 
   -9441    -9340    -7817    -5136    -1773     1884     5076     6913 
    6870     5027     2475      669      211      959     2579     4760 
    7160     9112    10075    10091     9563     9258     9936    11649 
   13857    15939    17416    18274    18997    19662    20254    21397 
   22906    23734    23562    22475    20522    17940    15315    13304 
   11911    10963    10320     9238     7353     5071     2308    -1092 
   -4761    -8579   -12406   -15541   -17555   -18562   -18673   -18392 
  -18211   -17701   -17027   -17419   -19225   -21855   -24916   -28080 
  -30596   -31349   -29749   -26215   -21451   -16563   -12723    -9792 
   -7087    -4407    -1566     1557     4726     7468     9391    10689 
   12027    13888    16573    20187    24004    27168    29721    31733 
   33165    34514    35977    37184    37331    34998    29334    21444 
   14042     8962     5335     2173      237     -457    -1023    -1956 
   -3646    -6380    -9502   -12178   -13948   -14692   -14565   -13686 
  -12579   -12135   -12509   -13332   -14508   -15673   -15913   -14960 
  -13400   -11859   -10415    -8719    -7101    -5788    -4307    -2552 
    -201     2929     6214     9443    12691    15827    18581    20646 
   21859    21890    20965    20488    21343    22931    24652    26481 
   28406    30059    30462    29440    27994    26068    22242    16648 
   11663     8029     4387     1123     -545    -1030     -977     -778 
    -693     -112      669      128    -2578    -7312   -12437   -16078 
  -18019   -18538   -18184   -17913   -17880   -18027   -18717   -19781 
  -20282   -19367   -17201   -15102   -13990   -13371   -12329   -10376 
   -7537    -3982       45     3759     6729     9568    12496    15151 
   17589    19926    21897    23291    24552    26202    27727    28617 
   29228    29643    29713    29625    29247    28023    25506    22138 
   18918    15790    12086     7990     4225      747    -3442    -8426 
  -12866   -16349   -19788   -23323   -26515   -29367   -31750   -33655 
  -35415   -37269   -39407   -41658   -43414   -44016   -43009   -40656 
  -37773   -34844   -32154   -30291   -29282   -28117   -25928   -22600 
  -18717   -15173   -11996    -8330    -3701     2020     9082    16981 
   24399    30399    34585    37116    38638    39638    40528    41481 
   42244    42453    41548    39545    37405    35807    34681    33876 
   33439    32811    30755    27151    23240    19739    16416    13024 
    9693     6573     3515      581    -1892    -4135    -6679    -9707 
  -13063   -16474   -19742   -22590   -24914   -27067   -29259   -31429 
  -33288   -34314   -34152   -32586   -29597   -25353   -20068   -14538 
   -9907    -6600    -4167    -2134      -47     2728     6156     9657 
   13043    16152    18648    20428    21747    23197    25151    27549 
   30213    32759    34780    36177    36873    36510    34938    32645 
   30276    28381    27321    26851    26308    25203    23404    21050 
   18334    15457    12783    10114     6629     2440    -1833    -6241 
  -10489   -13805   -15900   -17084   -17913   -18875   -20175   -21867 
  -24240   -27265   -30268   -32736   -34564   -35721   -36054   -35590 
  -34535   -32636   -29528   -25274   -20105   -14698   -10102    -6632 
   -3692     -784     2185     5524     9383    13201    16357    18793 
   20780    22486    24221    26300    28204    29687    31792    34727 
   37354    39005    39366    38145    35729    32771    29604    26277 
   22427    17986    13832    10598     7990     5672     3738     2238 
     778     -923    -2817    -5289    -8964   -13425   -17529   -20748 
  -22852   -23579   -23145   -22179   -21373   -20938   -20679   -20515 
  -20098   -18905   -16771   -13968   -11020    -8029    -4943    -2299 
    -311     1525     3440     5537     8251    11574    15005    17945 
   19564    19579    18770    18007    17571    17254    16829    16194 
   15209    13863    12244    10465     8777     7414     6336     5090 
    3037      317    -2111    -3762    -4930    -5796    -6208    -6195 
   -6022    -5859    -5672    -5462    -5437    -5751    -6282    -6779 
   -7126    -7512    -8056    -8595    -9027    -9252    -9128    -8573 
   -7472    -5934    -4546    -3735    -3204    -2621    -2056    -1507 
    -918     -112     1262     3177     5324     7488     9417    11055 
   12521    13728    14536    15001    15344    15541    15191    14426 
   13671    12825    12152    12048    12150    11939    11037     9393 
    7395     5454     3731     2101      540     -685    -1431    -1845 
