Origin Time       2016/04/16 01:25:00
Lat.              32.753
Long.             130.762
Depth. (km)       12
Mag.              7.3
Station Code      YMG015
Station Lat.      34.0966
Station Long.     132.0758
Station Height(m) 64
Record Time       2016/04/16 01:25:39
Sampling Freq(Hz) 100Hz
Duration Time(s)  116
Dir.              N-S
Scale Factor      7845(gal)/8223790
Max. Acc. (gal)   11.218
Last Correction   2016/04/16 01:25:40
Memo.             
[...]
    5017     4993     4970     4780     4336     3771     3262     2887 
    2631     2415     2143     1813     1586     1615     1796     1944 
    2083     2309     2610     2940     3314     3765     4189     4369 
    4191     3744     3276     3019     3005     3109     3192     3199 
    3169     3223     3431     3699     3897     3964     3874     3655 
    3400     3137     2843     2575     2378     2234     2162     2201 
    2303     2439     2714     3145     3524     3692     3662     3527 
    3358     3187     3079     3065     3083     3164     3385     3650 
    3780     3709     3566     3474     3415     3348     3254     3109 
    2920     2774     2745     2759     2752     2805     2959     3222 
    3524     3673     3659     3642     3626     3596     3703     4087 
    4679     5215     5427     5281     4988     4689     4402     4225 
    4152     3935     3541     3115     2724     2562     2687     2889 
    3129     3244     2922     2447     2220     2038     1703     1514 
    1644     1979     2478     2855     2766     2461     2349     2569 
    3194     3936     4243     3835     2683     1526     1518     2592 
    3767     4261     3747     2763     2423     3065     3939     4529 
    4831     4806     4706     4594     4036     3211     2882     3253 
    3967     4685     5001     4537     3435     2497     2423     2943 
    3329     3180     2556     1861     1468     1426     1524     1578 
    1579     1621     1903     2431     2817     2884     3071     3573 
    3956     4109     4175     3880     3198     2702     2732     3156 
    3754     4101     3708     2905     2613     2940     3426     3761 
    3429     2528     2053     2442     3289     3747     3244     2412 
    2168     2556     3164     3435     2995     2251     1939     2392 
    3213     3528     3121     2755     3157     4171     4882     4872 
    4666     4672     5001     5626     5873     5147     3711     2311 
    1825     2397     2932     2492     1425      532      157      353 
     985     1584     1755     1694     1868     2303     2548     2565 
    3002     3923     4561     4729     4676     4332     3856     3704 
    3870     4099     4333     4450     4383     4336     4448     4648 
    4873     5078     5206     5259     5184     4909     4502     4041 
    3508     2959     2459     2008     1706     1675     1794     1848 
    1844     1996     2351     2698     2953     3204     3418     3523 
    3520     3395     3194     3045     2941     2794     2579     2281 
    1975     1810     1852     2064     2299     2529     2894     3306 
    3554     3607     3453     3171     3044     3192     3454     3686 
    3880     4079     4348     4669     4870     4837     4683     4596 
    4563     4490     4450     4477     4488     4538     4707     4934 
    5116     5155     4984     4661     4291     3873     3403     2921 
    2403     1907     1630     1553     1518     1587     1875     2295 
    2708     3009     3094     2953     2756     2767     3111     3615 
    3993     4129     4128     4126     4113     4006     3899     3882 
    3947     4159     4428     4527     4480     4438     4422     4378 
    4238     3958     3534     3021     2550     2251     2142     2147 
    2187     2222     2322     2550     2868     3262     3700     4052 
    4305     4557     4783     4874     4806     4584     4311     4200 
    4349     4650     4927     5030     4942     4812     4800     4860 
    4734     4348     3894     3433     3071     3011     3100     3207 
    3423     3538     3395     3188     2953     2644     2346     2060 
    1842     1840     2029     2282     2556     2880     3242     3563 
    3850     4148     4356     4456     4549     4583     4550     4602 
    4715     4789     4826     4839     4865     4897     4811     4595 
    4414     4317     4209     4032     3775     3415     2965     2536 
    2218     1972     1844     1925     2089     2278     2651     3183 
    3730     4248     4695     4989     5058     4842     4422     4036 
    3869     3835     3735     3547     3355     3273     3465     3893 
    4215     4232     4032     3738     3554     3638     3828     3879 
    3738     3446     3090     2851     2828     2938     3117     3373 
    3607     3747     3924     4205     4514     4841     5120     5201 
    5159     5159     5184     5242     5414     5611     5719     5786 
    5813     5705     5490     5263     5017     4719     4417     4088 
    3640     3138     2736     2467     2315     2250     2228     2308 
    2524     2754     2922     3082     3253     3372     3350     3210 
    3037     2932     3052     3431     3852     4121     4218     4209 
    4237     4457     4835     5142     5200     5020     4687     4286 
    3943     3727     3597     3500     3352     3038     2624     2300 
    2149     2184     2390     2616     2766     2918     3096     3268 
    3491     3786     4048     4175     4182     4112     3997     3942 
    3996     4082     4145     4163     4147     4137     4117     4091 
    4081     4005     3831     3681     3693     3856     4044     4129 
    4060     3886     3685     3511     3383     3280     3187     3088 
    2955     2787     2717     2895     3252     3586     3780     3782 
    3581     3267     3009     2896     2905     2965     2972     2852 
    2694     2608     2589     2609     2685     2860     3138     3393 
    3523     3620     3763     3877     3901     3800     3495     3067 
    2756     2646     2604     2586     2662     2791     2957     3257 
    3612     3859     4005     4088     4129     4153     4118     4001 
    3896     3939     4148     4318     4245     3981     3731     3653 
    3757     3951     4126     4158     4031     3912     3834     3645 
    3341     3068     2921     2948     3125     3294     3304     3179 
    3033     2928     2839     2751     2655     2505     2301     2101 
    1987     2012     2111     2199     2317     2543     2880     3222 
    3294     2952     2497     2334     2504     2835     3210     3497 
    3703     4033     4473     4803     4985     5017     4826     4590 
    4575     4693     4723     4668     4577     4401     4233     4162 
    4008     3740     3623     3663     3634     3516     3439     3412 
    3384     3354     3249     3002     2713     2463     2261     2172 
    2215     2334     2533     2859     3317     3908     4506     4864 
    4899     4801     4715     4638     4568     4468     4297     4202 
    4360     4795     5385     5868     6079     6135     6134     6053 
    5945     5827     5697     5630     5582     5358     4973     4676 
    4596     4693     4942     5252     5386     5229     4973     4845 
    4918     5186     5397     5196     4633     4121     3893     3840 
    3821     3859     3909     3850     3754     3703     3653     3657 
    3766     3906     4059     4322     4699     5008     5123     5152 
    5267     5476     5640     5714     5838     5954     5755     5211 
    4554     3869     3269     3028     3038     2887     2589     2423 
    2340     2209     2074     1887     1528      996      413      -11 
     -70      241      719     1217     1687     2039     2272     2515 
    2836     3215     3636     3991     4104     3937     3593     3192 
    2929     2953     3114     3121     2893     2543     2126     1714 
    1493     1537     1706     1857     1925     1899     1875     1849 
    1652     1343     1248     1452     1769     2060     2169     1939 
    1540     1321     1393     1741     2381     3154     3861     4565 
    5416     6335     7137     7705     7951     7908     7834     7848 
    7769     7487     7101     6779     6678     6797     6910     6821 
    6608     6389     6052     5454     4621     3680     2921     2536 
    2269     1825     1236      529     -314    -1183    -1956    -2562 
   -2940    -3094    -3078    -2955    -2768    -2579    -2396    -2135 
   -1725    -1179     -654     -337     -162      183      800     1459 
    1988     2457     2961     3495     3987     4479     5164     6123 
    7080     7688     7897     7911     7989     8291     8793     9340 
    9753     9911     9841     9632     9306     8818     8164     7431 
    6673     5837     4912     4063     3435     3007     2727     2617 
    2613     2539     2413     2378     2299     1993     1669     1528 
    1459     1413     1451     1472     1374     1270     1339     1599 
    1939     2226     2316     2135     1867     1798     2003     2354 
    2688     2906     3022     3164     3447     3866     4406     5104 
    5821     6346     6691     6940     7102     7279     7605     8068 
    8540     8819     8712     8248     7685     7159     6637     6212 
    5992     5864     5703     5532     5333     5084     4941     5015 
    5101     4955     4637     4364     4199     4102     4120     4309 
    4650     5050     5324     5397     5391     5441     5575     5691 
    5541     4984     4192     3447     2853     2424     2200     2107 
    1965     1736     1544     1399     1156      776      410      175 
     103      229      493      715      773      687      492      193 
    -166     -518     -861    -1219    -1559    -1837    -1966    -1846 
   -1491     -993     -394      283      962     1586     2107     2448 
    2627     2805     3078     3391     3681     3916     4043     4060 
    4051     4008     3754     3118     2111      916     -248    -1182 
   -1818    -2319    -2915    -3608    -4176    -4417    -4303    -3978 
   -3678    -3537    -3440    -3260    -3015    -2709    -2270    -1719 
   -1135     -537       32      518      943     1363     1710     1868 
    1922     2120     2589     3279     4114     4985     5826     6802 
    8068     9439    10536    11140    11277    11156    11038    11029 
   10972    10656    10062     9335     8644     8071     7614     7267 
    6978     6744     6683     6774     6840     6781     6571     6251 
    5899     5467     4874     4209     3665     3403     3504     3974 
    4638     5201     5551     5711     5683     5644     5846     6239 
    6616     6903     7082     7160     7294     7523     7677     7716 
    7685     7444     7007     6602     6216     5694     5123     4610 
    4047     3358     2628     1846      940      -71    -1192    -2484 
   -3871    -5152    -6211    -7011    -7489    -7678    -7696    -7452 
   -6673    -5258    -3429    -1590        5     1416     2822     4282 
    5745     7127     8263     9065     9666    10187    10570    10702 
   10547    10098     9400     8618     7884     7173     6446     5732 
    5035     4287     3437     2506     1590      822      279      -23 
     -93       49      351      766     1247     1729     2199     2646 
    2982     3136     3188     3256     3388     3659     4155     4838 
    5605     6343     6897     7210     7388     7456     7312     6955 
    6471     5849     5103     4440     4035     3817     3630     3403 
    3134     2960     3145     3672     4171     4384     4320     4099 
    3936     3973     4191     4573     5013     5273     5305     5270 
    5265     5294     5341     5300     5039     4621     4238     3908 
    3554     3256     3136     3190     3294     3343     3377     3483 
    3651     3767     3678     3392     3098     2947     2965     3186 
    3659     4403     5373     6401     7241     7780     8050     8048 
    7756     7236     6615     6080     5827     5842     5907     5880 
    5715     5391     4973     4483     3867     3194     2582     2050 
    1658     1467     1417     1489     1732     2182     2814     3488 
    4023     4322     4450     4625     5035     5698     6469     7074 
    7350     7400     7393     7430     7564     7815     8124     8368 
    8463     8391     8083     7484     6648     5585     4298     2955 
    1734      653     -348    -1273    -2091    -2792    -3381    -3850 
   -4133    -4166    -3982    -3636    -3134    -2560    -2029    -1557 
   -1155     -886     -777     -695     -477     -135      265      714 
    1140     1463     1741     2111     2643     3335     4116     4818 
    5386     5973     6673     7362     7865     8081     8014     7751 
    7402     7064     6739     6427     6269     6354     6569     6777 
    6944     7172     7636     8431     9504    10706    11896    12949 
   13736    14191    14366    14303    13950    13339    12638    11914 
   11097    10173     9184     8116     6948     5719     4494     3300 
    2161     1074       10    -1017    -2029    -3080    -4071    -4896 
   -5652    -6335    -6762    -6890    -6799    -6542    -6212    -5972 
   -5779    -5387    -4803    -4263    -3774    -3183    -2442    -1561 
    -656       -5      289      486      776     1173     1682     2219 
    2641     2963     3348     3993     4984     6141     7140     7786 
    8148     8387     8575     8752     8873     8822     8642     8459 
    8260     7923     7276     6210     4824     3334     1903      681 
    -225     -846    -1294    -1593    -1611    -1321     -838     -214 
     532     1329     2180     3140     4159     5076     5729     5975 
    5778     5356     4973     4679     4438     4228     3993     3688 
    3399     3217     3038     2713     2238     1676     1101      561 
      52     -493    -1111    -1729    -2273    -2712    -3105    -3539 
   -3998    -4415    -4795    -5152    -5472    -5769    -6070    -6327 
   -6516    -6751    -7102    -7466    -7801    -8117    -8271    -8148 
   -7857    -7492    -6956    -6092    -4816    -3127    -1138      947 
    2951     4760     6327     7652     8706     9379     9562     9242 
    8553     7738     7018     6508     6193     5988     5782     5491 
    5096     4599     4044     3515     3079     2710     2331     1911 
    1521     1243     1140     1323     1836     2481     2986     3219 
    3141     2792     2312     1767     1096      302     -523    -1352 
   -2177    -2920    -3450    -3674    -3592    -3256    -2724    -2111 
   -1520     -929     -357      108      493      893     1302     1752 
    2335     3021     3688     4258     4688     4905     4858     4544 
    3929     3045     2079     1196      464      -63     -448     -760 
    -940     -980     -999    -1055    -1053     -870     -495       16 
     623     1255     1804     2219     2539     2859     3184     3451 
    3678     3863     3937     3901     3824     3794     3915     4256 
    4822     5503     6185     6858     7503     8020     8387     8691 
    8996     9252     9342     9205     8820     8255     7688     7190 
    6709     6249     5868     5593     5348     5026     4703     4544 
    4550     4591     4504     4125     3423     2623     1982     1583 
    1404     1381     1374     1334     1451     1836     2394     3068 
    3775     4360     4873     5458     6027     6423     6639     6691 
    6552     6280     5940     5499     4928     4215     3343     2413 
    1640     1165     1015     1129     1351     1518     1609     1729 
    1923     2068     2062     1911     1655     1410     1320     1397 
    1574     1841     2191     2565     2965     3433     3886     4228 
    4482     4714     4914     4977     4793     4407     4003     3694 
    3473     3308     3235     3358     3746     4351     4984     5397 
    5497     5344     5003     4572     4225     4107     4233     4511 
    4780     4891     4779     4560     4342     4094     3797     3476 
    3080     2520     1749      819     -186    -1194    -2008    -2404 
   -2407    -2215    -1946    -1545     -934     -153      679     1425 
    1968     2277     2409     2425     2292     1999     1660     1333 
     999      680      386      162      153      382      670      861 
     888      761      579      421      259       22     -368     -947 
   -1649    -2386    -3082    -3666    -4113    -4386    -4514    -4585 
   -4565    -4342    -3878    -3164    -2288    -1476     -876     -413 
     -54       98       71       14      -14       10      162      440 
     781     1161     1583     2016     2408     2756     3069     3277 
    3306     3203     3024     2747     2435     2258     2280     2409 
    2575     2785     2984     3087     3121     3167     3241     3376 
    3601     3861     4155     4548     5030     5587     6207     6791 
    7263     7723     8329     9080     9867    10573    11088    11392 
   11572    11651    11539    11222    10783    10276     9698     9090 
    8494     7884     7287     6817     6528     6409     6409     6427 
    6416     6382     6261     5948     5435     4764     3931     2929 
    1842      866      162     -190      -94      480     1372     2286 
    2953     3300     3404     3333     3234     3299     3554     3954 
    4541     5302     6088     6782     7385     7908     8332     8645 
    8791     8695     8433     8158     7875     7574     7346     7186 
    6947     6535     5935     5201     4469     3842     3264     2620 
    1902     1192      589      183      -32     -112      -20      299 
     787     1362     2049     2833     3595     4279     5003     5892 
    6976     8193     9413    10458    11178    11541    11593    11356 
   10866    10183     9396     8700     8302     8251     8426     8631 
    8734     8721     8548     8144     7527     6716     5725     4707 
    3861     3252     2857     2654     2573     2558     2551     2465 
    2277     2034     1769     1456     1058      625      311      217 
     318      550      777      947     1239     1795     2612     3665 
    4847     5919     6693     7172     7437     7523     7446     7186 
    6744     6270     5927     5725     5567     5359     5059     4757 
    4653     4804     4989     4850     4200     3187     2163     1522 
    1501     2058     3022     4205     5382     6378     7179     7938 
    8766     9560    10102    10281    10195    10003     9787     9570 
    9383     9292     9333     9414     9364     9104     8681     8251 
    7960     7751     7339     6571     5644     4828     4186     3686 
    3308     2955     2529     2065     1636     1264     1009     1016 
    1321     1742     2123     2492     2953     3615     4522     5567 
    6559     7340     7865     8139     8210     8198     8278     8533 
    8872     9227     9614     9973    10169    10164    10003     9717 
    9336     8896     8314     7501     6631     6026     5786     5767 
    5791     5645     5215     4619     3982     3294     2490     1513 
     409     -695    -1667    -2357    -2592    -2250    -1352      -47 
    1413     2756     3828     4630     5150     5387     5428     5401 
    5383     5393     5431     5472     5447     5323     5174     5040 
    4878     4649     4338     3889     3271     2584     2023     1703 
    1630     1773     2079     2492     2964     3415     3753     3954 
    4079     4223     4434     4710     5059     5485     5894     6137 
    6200     6259     6494     6901     7345     7630     7628     7487 
    7472     7676     8056     8497     8854     9031     8955     8625 
    8171     7758     7507     7453     7537     7722     7996     8235 
    8344     8397     8401     8257     7947     7500     6937     6311 
    5699     5235     5032     5060     5212     5364     5420     5374 
