Origin Time       2016/04/16 01:25:00
Lat.              32.753
Long.             130.762
Depth. (km)       12
Mag.              7.3
Station Code      YMG009
Station Lat.      34.2319
Station Long.     131.8169
Station Height(m) 375
Record Time       2016/04/16 01:25:40
Sampling Freq(Hz) 100Hz
Duration Time(s)  109
Dir.              E-W
Scale Factor      7845(gal)/8223790
Max. Acc. (gal)   7.203
Last Correction   2016/04/16 01:25:40
Memo.             
[...]
   -1200    -1021    -1000    -1098    -1271    -1499    -1728    -1917 
   -2083    -2212    -2250    -2242    -2243    -2196    -2023    -1765 
   -1587    -1606    -1753    -1871    -1875    -1729    -1436    -1071 
    -800     -777    -1047    -1480    -1811    -1814    -1545    -1333 
   -1404    -1640    -1859    -2027    -2066    -1887    -1664    -1640 
   -1687    -1601    -1534    -1658    -1788    -1672    -1383    -1190 
   -1204    -1375    -1672    -2030    -2357    -2555    -2500    -2193 
   -1881    -1741    -1695    -1703    -1888    -2278    -2728    -3051 
   -3111    -2949    -2751    -2609    -2508    -2440    -2389    -2335 
   -2319    -2398    -2525    -2584    -2582    -2610    -2698    -2789 
   -2882    -3040    -3187    -3136    -2872    -2567    -2299    -2065 
   -1915    -1852    -1794    -1680    -1524    -1398    -1354    -1360 
   -1416    -1571    -1822    -2081    -2246    -2261    -2162    -2081 
   -2126    -2226    -2263    -2246    -2245    -2255    -2266    -2269 
   -2263    -2365    -2656    -2976    -3103    -2967    -2629    -2243 
   -1971    -1848    -1822    -1849    -1917    -1993    -2034    -2038 
   -2061    -2178    -2334    -2359    -2241    -2144    -2147    -2158 
   -2135    -2133    -2158    -2193    -2317    -2528    -2688    -2798 
   -2965    -3149    -3254    -3341    -3456    -3480    -3319    -3121 
   -3144    -3354    -3454    -3276    -2882    -2421    -2022    -1705 
   -1509    -1541    -1725    -1872    -1926    -1921    -1906    -1933 
   -1962    -1962    -2003    -2106    -2214    -2316    -2440    -2593 
   -2778    -2940    -2951    -2801    -2651    -2597    -2593    -2574 
   -2502    -2439    -2452    -2405    -2154    -1795    -1440    -1105 
    -928    -1069    -1429    -1795    -2115    -2389    -2516    -2396 
   -2116    -1868    -1711    -1572    -1408    -1258    -1201    -1270 
   -1460    -1779    -2184    -2575    -2905    -3121    -3079    -2724 
   -2228    -1765    -1379    -1036     -778     -776    -1030    -1262 
   -1360    -1498    -1695    -1837    -1915    -1907    -1784    -1692 
   -1755    -1873    -1960    -2095    -2357    -2639    -2779    -2745 
   -2627    -2540    -2508    -2403    -2173    -1942    -1764    -1601 
   -1468    -1409    -1405    -1389    -1306    -1236    -1308    -1459 
   -1554    -1671    -1844    -1938    -1895    -1775    -1648    -1599 
   -1669    -1858    -2193    -2586    -2801    -2728    -2508    -2273 
   -1934    -1440    -1055    -1043    -1294    -1566    -1744    -1796 
   -1790    -1861    -2025    -2154    -2173    -2114    -2011    -1867 
   -1692    -1486    -1254    -1093    -1039     -949     -780     -653 
    -585     -537     -569     -774    -1138    -1459    -1559    -1522 
   -1471    -1394    -1318    -1306    -1289    -1192    -1074    -1044 
   -1112    -1185    -1174    -1081     -986     -920     -866     -892 
   -1085    -1301    -1363    -1341    -1324    -1224    -1026     -831 
    -720     -795    -1075    -1416    -1713    -1961    -2095    -2111 
   -2149    -2284    -2448    -2473    -2187    -1588     -864     -243 
      87       18     -425    -1090    -1683    -1921    -1796    -1497 
   -1161     -870     -712     -730     -900    -1140    -1356    -1455 
   -1387    -1216    -1062     -990    -1017    -1074    -1005     -800 
    -643     -621     -649     -681     -772     -970    -1228    -1439 
   -1559    -1630    -1676    -1632    -1433    -1173    -1016    -1009 
   -1071    -1162    -1312    -1518    -1709    -1818    -1809    -1668 
   -1457    -1298    -1242    -1271    -1395    -1603    -1858    -2137 
   -2342    -2327    -2138    -1964    -1856    -1728    -1564    -1426 
   -1390    -1463    -1557    -1628    -1703    -1809    -1954    -2116 
   -2231    -2292    -2313    -2286    -2249    -2259    -2326    -2403 
   -2404    -2273    -2077    -1929    -1852    -1833    -1892    -2042 
   -2218    -2300    -2251    -2135    -1985    -1830    -1764    -1844 
   -2011    -2139    -2092    -1807    -1375     -977     -719     -619 
    -733     -993    -1169    -1225    -1352    -1560    -1722    -1910 
   -2224    -2521    -2636    -2584    -2376    -2003    -1561    -1165 
    -924     -951    -1210    -1528    -1806    -2043    -2241    -2363 
   -2392    -2311    -2149    -2006    -1914    -1840    -1836    -1954 
   -2134    -2300    -2384    -2305    -2100    -1887    -1705    -1601 
   -1657    -1845    -2033    -2107    -2058    -2012    -2034    -1993 
   -1795    -1534    -1298    -1073     -831     -618     -544     -614 
    -727     -873    -1121    -1440    -1718    -1881    -1895    -1817 
   -1815    -1961    -2149    -2292    -2385    -2428    -2440    -2403 
   -2259    -2074    -1991    -2043    -2162    -2251    -2277    -2351 
   -2528    -2673    -2724    -2728    -2632    -2416    -2223    -2101 
   -1958    -1817    -1788    -1825    -1790    -1677    -1598    -1618 
   -1709    -1783    -1768    -1690    -1638    -1680    -1841    -2062 
   -2215    -2215    -2092    -1917    -1695    -1395    -1133    -1086 
   -1258    -1521    -1799    -2087    -2397    -2694    -2866    -2839 
   -2678    -2509    -2370    -2219    -2070    -1972    -1904    -1826 
   -1738    -1651    -1605    -1644    -1781    -1973    -2162    -2332 
   -2482    -2567    -2551    -2511    -2521    -2544    -2548    -2600 
   -2729    -2879    -2986    -3013    -2929    -2721    -2442    -2207 
   -2100    -2065    -1995    -1890    -1810    -1752    -1641    -1502 
   -1493    -1703    -2045    -2382    -2620    -2704    -2641    -2513 
   -2371    -2218    -2081    -2030    -2053    -2043    -1956    -1869 
   -1811    -1718    -1566    -1445    -1490    -1717    -2003    -2218 
   -2322    -2308    -2230    -2246    -2463    -2737    -2875    -2913 
   -2992    -3090    -3080    -2911    -2700    -2602    -2646    -2739 
   -2785    -2740    -2574    -2235    -1796    -1433    -1192    -1023 
    -986    -1139    -1386    -1587    -1706    -1806    -1942    -2045 
   -2001    -1861    -1769    -1773    -1792    -1768    -1780    -1907 
   -2038    -2064    -2046    -2049    -2061    -2115    -2261    -2458 
   -2631    -2748    -2810    -2806    -2677    -2411    -2111    -1852 
   -1638    -1543    -1665    -1969    -2300    -2528    -2627    -2621 
   -2517    -2376    -2312    -2351    -2415    -2421    -2326    -2143 
   -1930    -1776    -1729    -1676    -1493    -1289    -1228    -1306 
   -1381    -1310    -1077     -822     -676     -714     -984    -1436 
   -1908    -2267    -2484    -2635    -2836    -3061    -3186    -3149 
   -2974    -2679    -2289    -1831    -1348     -936     -787     -987 
   -1368    -1718    -2018    -2301    -2515    -2598    -2571    -2501 
   -2434    -2359    -2263    -2178    -2143    -2141    -2137    -2110 
   -2042    -1885    -1648    -1431    -1317    -1332    -1485    -1740 
   -2070    -2469    -2848    -3087    -3149    -3033    -2762    -2446 
   -2250    -2259    -2405    -2511    -2425    -2169    -1873    -1655 
   -1559    -1564    -1629    -1733    -1852    -2003    -2224    -2447 
   -2454    -2151    -1714    -1341    -1112    -1111    -1348    -1674 
   -1938    -2089    -2101    -2019    -1945    -1903    -1852    -1826 
   -1878    -2011    -2207    -2428    -2640    -2847    -3033    -3122 
   -3052    -2844    -2602    -2440    -2408    -2450    -2461    -2389 
   -2250    -2064    -1867    -1796    -1985    -2340    -2602    -2640 
   -2529    -2349    -2135    -1939    -1836    -1872    -1982    -2034 
   -1985    -1910    -1872    -1871    -1881    -1904    -1871    -1651 
   -1274     -939     -777     -766     -849     -976    -1102    -1247 
   -1412    -1534    -1641    -1826    -2041    -2130    -2079    -2025 
   -2052    -2068    -1998    -1921    -1930    -1968    -1964    -2018 
   -2249    -2573    -2816    -2889    -2755    -2430    -2033    -1699 
   -1543    -1636    -1840    -1904    -1821    -1719    -1582    -1389 
   -1269    -1308    -1404    -1413    -1368    -1441    -1729    -2158 
   -2563    -2810    -2849    -2733    -2531    -2273    -2004    -1792 
   -1698    -1732    -1856    -1946    -1885    -1767    -1783    -1952 
   -2219    -2627    -3154    -3636    -3893    -3839    -3535    -3137 
   -2751    -2442    -2282    -2219    -2120    -2018    -1985    -1922 
   -1771    -1677    -1738    -1880    -2004    -2096    -2168    -2192 
   -2098    -1917    -1783    -1752    -1772    -1833    -1933    -1979 
   -1919    -1830    -1825    -1942    -2120    -2231    -2211    -2151 
   -2114    -1988    -1705    -1439    -1426    -1696    -2060    -2270 
   -2236    -2073    -1876    -1644    -1449    -1422    -1567    -1746 
   -1810    -1706    -1522    -1371    -1302    -1331    -1428    -1570 
   -1787    -2064    -2295    -2390    -2369    -2303    -2226    -2110 
   -1944    -1773    -1660    -1605    -1560    -1512    -1478    -1478 
   -1532    -1553    -1417    -1171     -989     -963    -1105    -1405 
   -1794    -2123    -2259    -2165    -1907    -1632    -1497    -1524 
   -1586    -1609    -1606    -1559    -1490    -1509    -1651    -1857 
   -2079    -2251    -2311    -2296    -2289    -2285    -2280    -2303 
   -2319    -2272    -2173    -2092    -2057    -2066    -2155    -2336 
   -2517    -2590    -2512    -2297    -2001    -1701    -1449    -1300 
   -1291    -1397    -1580    -1841    -2119    -2299    -2317    -2211 
   -2057    -1902    -1763    -1652    -1551    -1405    -1197     -997 
    -905     -946    -1053    -1185    -1358    -1548    -1741    -1949 
   -2118    -2178    -2189    -2245    -2327    -2326    -2227    -2124 
   -2014    -1831    -1660    -1622    -1669    -1702    -1694    -1660 
   -1656    -1715    -1776    -1752    -1606    -1375    -1206    -1251 
   -1489    -1760    -1973    -2180    -2392    -2489    -2400    -2235 
   -2111    -1995    -1852    -1761    -1792    -1849    -1794    -1655 
   -1557    -1564    -1671    -1822    -1949    -2012    -2007    -1958 
   -1934    -1987    -2060    -2069    -2041    -2022    -1938    -1733 
   -1499    -1348    -1300    -1312    -1368    -1494    -1669    -1840 
   -1968    -2053    -2161    -2344    -2501    -2524    -2481    -2392 
   -2199    -1981    -1869    -1859    -1918    -2065    -2247    -2343 
   -2290    -2077    -1761    -1522    -1471    -1490    -1494    -1544 
   -1626    -1671    -1645    -1552    -1528    -1703    -1925    -2057 
   -2215    -2463    -2679    -2752    -2673    -2529    -2403    -2261 
   -2052    -1822    -1637    -1525    -1552    -1744    -2034    -2393 
   -2763    -3075    -3380    -3595    -3500    -3176    -2805    -2359 
   -1885    -1528    -1310    -1308    -1593    -2026    -2413    -2601 
   -2511    -2247    -1927    -1630    -1564    -1804    -2134    -2361 
   -2442    -2361    -2169    -2001    -1964    -2073    -2276    -2474 
   -2550    -2466    -2322    -2205    -2081    -1914    -1817    -1956 
   -2290    -2608    -2829    -2999    -3146    -3321    -3459    -3410 
   -3244    -3153    -3169    -3269    -3404    -3445    -3406    -3393 
   -3315    -3130    -2991    -2868    -2667    -2474    -2323    -2243 
   -2351    -2658    -3056    -3335    -3311    -3092    -2874    -2655 
   -2438    -2338    -2330    -2218    -1961    -1732    -1517    -1246 
   -1109    -1224    -1445    -1738    -2160    -2551    -2694    -2623 
   -2465    -2188    -1852    -1734    -1896    -2052    -2053    -2045 
   -2046    -1930    -1746    -1651    -1664    -1726    -1833    -2000 
   -2178    -2313    -2435    -2577    -2675    -2633    -2452    -2290 
   -2300    -2405    -2461    -2474    -2474    -2389    -2119    -1810 
   -1775    -1910    -1904    -1938    -2196    -2326    -2193    -2098 
   -2008    -1729    -1460    -1316    -1133     -965     -927     -927 
    -989    -1270    -1734    -2196    -2536    -2755    -2840    -2721 
   -2447    -2168    -1965    -1877    -1910    -1961    -1884    -1721 
   -1694    -1891    -2282    -2844    -3387    -3630    -3580    -3414 
   -3118    -2778    -2718    -2839    -2694    -2262    -1795    -1359 
    -974     -819    -1000    -1374    -1831    -2308    -2517    -2286 
   -1837    -1368     -893     -522     -438     -646    -1038    -1478 
   -1773    -1836    -1734    -1587    -1493    -1556    -1937    -2584 
   -3098    -3373    -3692    -3879    -3634    -3240    -2956    -2647 
   -2331    -2146    -2072    -2096    -2160    -2196    -2311    -2463 
   -2548    -2766    -3163    -3449    -3495    -3312    -3044    -2951 
   -3049    -3144    -3117    -3137    -3549    -4124    -4282    -4199 
   -4360    -4573    -4496    -4263    -4162    -4376    -4888    -5481 
   -6010    -6386    -6508    -6454    -6394    -6320    -6023    -5377 
   -4634    -4133    -3728    -3202    -2762    -2621    -2754    -3118 
   -3716    -4526    -5314    -5672    -5516    -5177    -4818    -4405 
   -4093    -3975    -3835    -3595    -3469    -3434    -3298    -3267 
   -3588    -4047    -4414    -4780    -5130    -5265    -5259    -5400 
   -5764    -6216    -6601    -6815    -6831    -6598    -6066    -5373 
   -4661    -3855    -2975    -2292    -1985    -1896    -1705    -1347 
   -1000     -643      -83      553      903      928      892      784 
     392     -136     -461     -568     -430      257     1494     2852 
    3987     4712     4860     4341     3273     2062     1101      346 
    -341     -834    -1055     -967     -299      982     2450     3746 
    4780     5439     5611     5431     5130     4748     4266     3717 
    3082     2377     1721     1197      881      849      973     1038 
    1102     1267     1312     1039      622      337      288      367 
     537     1024     1780     2226     2027     1298      109    -1398 
   -2836    -3796    -4147    -4098    -3836    -3279    -2450    -1721 
   -1351    -1112     -758     -434     -383     -627     -943    -1150 
   -1221    -1113     -942    -1062    -1548    -2200    -3063    -4245 
   -5385    -6010    -6158    -6037    -5590    -4820    -4023    -3419 
   -2909    -2461    -2169    -1988    -1890    -1823    -1549    -1057 
    -702     -738    -1201    -2220    -3753    -5414    -6952    -8224 
   -9018    -9359    -9305    -8770    -7786    -6426    -4745    -2991 
   -1466     -243      625      953      692      -29    -1036    -2049 
   -2917    -3757    -4580    -5169    -5333    -5030    -4326    -3346 
   -2114     -518     1317     2924     3960     4445     4557     4388 
    3917     3200     2386     1606      754     -321    -1334    -1975 
   -2346    -2509    -2466    -2405    -2411    -2405    -2265    -1823 
   -1105     -252      765     1878     2779     3366     3774     4033 
    4140     4105     3835     3357     2868     2538     2488     2556 
    2461     2319     2212     1930     1502     1230     1224     1182 
    1003      903      730      232     -454    -1286    -2253    -3053 
   -3483    -3520    -3173    -2731    -2565    -2787    -3414    -4215 
   -4727    -4696    -3983    -2512     -639     1179     2704     3524 
    3336     2461     1374      182    -1026    -2011    -2729    -3250 
   -3565    -3735    -3785    -3657    -3407    -3022    -2494    -2134 
   -2158    -2370    -2633    -3061    -3658    -4311    -5103    -6107 
   -7060    -7744    -8193    -8314    -7959    -7217    -6297    -5386 
   -4592    -3917    -3438    -3330    -3569    -3950    -4379    -4726 
   -4891    -5090    -5348    -5328    -5088    -4905    -4677    -4171 
   -3362    -2393    -1485     -945     -970    -1425    -2042    -2678 
   -3300    -3925    -4446    -4714    -4750    -4594    -4255    -3871 
   -3522    -3137    -2623    -2007    -1494    -1227    -1165    -1293 
   -1686    -2324    -3044    -3717    -4324    -4839    -5136    -4926 
   -4203    -3510    -3225    -3338    -3705    -3993    -3906    -3411 
   -2478    -1062      568     2042     3144     3523     2844     1279 
    -715    -2743    -4388    -5304    -5364    -4774    -4010    -3369 
   -2759    -2141    -1783    -1852    -2072    -2158    -2238    -2481 
   -2959    -3711    -4592    -5421    -6004    -6025    -5526    -4982 
   -4572    -4171    -3896    -3885    -3906    -3634    -2965    -1989 
    -955      -65      669     1197     1467     1660     1871     1865 
    1431      537     -723    -2123    -3414    -4363    -4783    -4687 
   -4345    -4055    -3904    -3897    -4063    -4230    -4122    -3638 
   -2801    -1725     -598      481     1343     1583     1011      -39 
   -1047    -1718    -1954    -1746    -1274     -715      -65      584 
    1003     1124     1004      658      122     -526    -1152    -1588 
   -1807    -1881    -1806    -1535    -1039     -268      662     1452 
    1996     2362     2466     2215     1680      886     -199    -1554 
   -3183    -4992    -6561    -7346    -7037    -5670    -3611    -1402 
     449     1649     2169     2176     2045     2092     2251     2332 
    2242     1891     1165       -8    -1391    -2558    -3443    -4147 
   -4441    -4131    -3393    -2471    -1399     -229      685      969 
     702      238     -197     -568     -882    -1101    -1188    -1185 
   -1116     -926     -621     -234      133      344      518      832 
    1197     1652     2373     3032     3176     2862     2147      927 
    -635    -2245    -3607    -4414    -4661    -4611    -4422    -4172 
   -4041    -4194    -4554    -4850    -4881    -4619    -4214    -3965 
   -4074    -4486    -4996    -5275    -4801    -3307    -1225      812 
    2542     3851     4594     4837     4808     4553     4048     3462 
    2848     2083     1285      685      334      302      598      870 
     807      540      288       23     -238     -427     -575     -684 
    -792    -1073    -1476    -1734    -1798    -1775    -1656    -1381 
    -876     -129      660     1362     2106     2853     3298     3327 
    3084     2797     2698     2867     3213     3570     3697     3426 
    2798     2030     1378      934      623      368       83     -387 
   -1096    -1806    -2192    -2180    -1863    -1251     -419      315 
     654      591      291      -90     -410     -553     -526     -483 
    -604     -919    -1235    -1358    -1301    -1162    -1004     -949 
   -1244    -2007    -2938    -3604    -3839    -3674    -3207    -2565 
   -1944    -1687    -1937    -2447    -3117    -3946    -4603    -4877 
   -4927    -4765    -4336    -3788    -3226    -2659    -2107    -1598 
   -1150     -864     -943    -1448    -2178    -2980    -3730    -4243 
   -4419    -4240    -3817    -3312    -2720    -2065    -1564    -1341 
   -1410    -1798    -2359    -2840    -3227    -3496    -3407    -3048 
   -2778    -2575    -2219    -1682    -1026     -508     -330     -153 
     248      514      487      414      313       17     -383     -650 
    -708     -737     -959    -1302    -1470    -1490    -1651    -1969 
   -2200    -2155    -1908    -1726    -1625    -1352     -851     -299 
     191      625      999     1258     1323     1198     1062     1023 
     855      380     -178     -652    -1228    -1908    -2366    -2535 
   -2668    -2924    -3277    -3601    -3713    -3559    -3240    -2870 
   -2542    -2301    -2165    -2095    -1956    -1717    -1605    -1844 
   -2389    -3088    -3738    -4112    -4245    -4306    -4369    -4603 
