Origin Time       2016/04/16 01:25:00
Lat.              32.753
Long.             130.762
Depth. (km)       12
Mag.              7.3
Station Code      YMG003
Station Lat.      34.3829
Station Long.     131.6002
Station Height(m) 286
Record Time       2016/04/16 01:25:40
Sampling Freq(Hz) 100Hz
Duration Time(s)  101
Dir.              E-W
Scale Factor      7845(gal)/8223790
Max. Acc. (gal)   16.879
Last Correction   2016/04/16 01:25:40
Memo.             
[...]
    1483     1371     1630     2119     2643     3157     3689     4159 
    4422     4459     4410     4390     4345     4125     3627     2933 
    2308     1975     1966     2193     2551     2948     3292     3535 
    3711     3789     3689     3434     3084     2605     2042     1563 
    1296     1278     1431     1587     1653     1644     1597     1509 
    1444     1576     1972     2481     2972     3427     3842     4205 
    4421     4351     4014     3530     2972     2484     2289     2428 
    2718     3042     3403     3821     4306     4779     5081     5146 
    5020     4764     4433     4102     3798     3515     3238     2890 
    2397     1844     1441     1327     1443     1641     1831     1982 
    2101     2212     2301     2346     2397     2538     2682     2609 
    2209     1613     1093      896     1073     1509     2098     2755 
    3334     3717     3869     3796     3566     3343     3304     3416 
    3407     3115     2652     2219     1934     1810     1764     1736 
    1791     2057     2555     3132     3586     3820     3842     3735 
    3615     3523     3406     3211     2979     2779     2610     2416 
    2214     2160     2396     2880     3427     3824     3947     3807 
    3470     2986     2423     1868     1468     1401     1687     2162 
    2594     2783     2678     2423     2166     1949     1763     1591 
    1429     1343     1428     1653     1927     2235     2540     2792 
    3064     3415     3786     4126     4415     4608     4650     4456 
    3987     3355     2752     2303     2052     2011     2151     2359 
    2500     2550     2596     2655     2647     2579     2609     2857 
    3250     3568     3631     3477     3316     3335     3615     4104 
    4604     4942     5086     5080     4927     4600     4132     3694 
    3472     3495     3646     3817     3987     4113     4118     3994 
    3784     3542     3325     3142     2984     2860     2767     2713 
    2728     2798     2878     2952     3064     3281     3591     3861 
    3971     3901     3690     3418     3188     3059     3042     3115 
    3199     3196     3084     2920     2794     2805     3021     3379 
    3655     3632     3316     2922     2646     2520     2482     2474 
    2509     2659     2990     3508     4118     4658     4980     5040 
    4916     4710     4455     4135     3774     3402     3034     2717 
    2528     2542     2759     3107     3461     3681     3676     3566 
    3604     3840     4090     4202     4175     4104     4095     4180 
    4301     4453     4662     4824     4807     4608     4306     3971 
    3672     3423     3154     2785     2334     1944     1732     1706 
    1836     2073     2370     2721     3115     3483     3754     3905 
    3942     3879     3744     3573     3381     3156     2907     2685 
    2536     2469     2511     2704     2983     3215     3336     3334 
    3240     3137     3094     3126     3252     3433     3577     3674 
    3744     3757     3694     3554     3345     3109     2776     2226 
    1547     1035      934     1271     1883     2524     2994     3253 
    3342     3316     3295     3368     3504     3663     3852     4021 
    4036     3855     3572     3335     3252     3280     3291     3261 
    3204     3065     2909     2902     3088     3395     3743     4088 
    4433     4733     4876     4814     4664     4592     4648     4720 
    4689     4538     4326     4126     3946     3726     3491     3300 
    3121     2871     2533     2180     1911     1784     1854     2128 
    2493     2830     3107     3368     3659     3901     3928     3704 
    3350     2999     2686     2440     2355     2496     2797     3090 
    3245     3271     3245     3203     3160     3122     3059     2949 
    2818     2705     2633     2623     2690     2799     2890     2902 
    2816     2704     2679     2758     2849     2863     2806     2763 
    2797     2915     3079     3194     3208     3163     3129     3168 
    3300     3505     3762     4041     4255     4274     4047     3696 
    3358     3037     2713     2457     2308     2234     2234     2332 
    2478     2598     2701     2797     2805     2652     2385     2119 
    1948     1887     1896     1956     2111     2373     2669     2895 
    3041     3175     3265     3196     2943     2601     2311     2172 
    2215     2434     2813     3283     3734     4045     4124     4002 
    3838     3748     3717     3645     3453     3141     2799     2556 
    2502     2609     2731     2770     2776     2810     2840     2833 
    2813     2814     2852     2921     2972     2955     2870     2737 
    2575     2435     2362     2358     2409     2515     2686     2887 
    3007     2972     2860     2856     3075     3410     3645     3681 
    3572     3429     3295     3100     2766     2288     1761     1351 
    1179     1281     1638     2174     2727     3173     3474     3636 
    3727     3825     3967     4152     4315     4407     4449     4456 
    4383     4256     4210     4325     4527     4626     4469     4091 
    3607     3060     2500     2011     1652     1444     1363     1418 
    1675     2121     2648     3127     3451     3532     3360     3024 
    2679     2474     2493     2702     2979     3219     3411     3541 
    3572     3561     3623     3775     3950     4081     4168     4271 
    4422     4612     4864     5202     5549     5737     5645     5282 
    4745     4133     3514     2929     2420     2023     1752     1566 
    1387     1177      986      927     1026     1188     1333     1448 
    1525     1605     1753     1969     2203     2463     2781     3106 
    3365     3497     3457     3249     2941     2600     2299     2126 
    2097     2137     2169     2218     2323     2474     2662     2921 
    3281     3716     4137     4437     4553     4502     4345     4112 
    3835     3572     3381     3299     3287     3244     3109     2949 
    2871     2893     2949     2990     3007     3006     2972     2906 
    2840     2781     2668     2486     2305     2189     2174     2288 
    2524     2829     3140     3403     3603     3761     3869     3886 
    3807     3622     3334     3018     2766     2581     2448     2388 
    2413     2516     2698     2988     3380     3793     4064     4036 
    3685     3127     2539     2037     1665     1483     1489     1588 
    1726     1919     2160     2447     2866     3456     4072     4502 
    4673     4630     4410     4021     3524     3055     2712     2458 
    2238     2124     2238     2583     3056     3539     3920     4093 
    3991     3615     3069     2579     2353     2380     2481     2519 
    2481     2442     2469     2577     2782     3049     3307     3530 
    3712     3811     3816     3757     3738     3886     4172     4372 
    4282     3917     3473     3103     2817     2616     2562     2687 
    2965     3329     3692     3987     4203     4345     4415     4415 
    4306     3964     3331     2586     1948     1468     1177     1161 
    1453     2000     2668     3268     3661     3874     4000     4048 
    3977     3781     3549     3393     3353     3369     3325     3113 
    2794     2592     2651     2930     3357     3869     4295     4437 
    4228     3762     3229     2814     2570     2459     2458     2521 
    2532     2376     2073     1814     1749     1822     1891     1906 
    1911     1993     2223     2596     3059     3520     3866     4001 
    3916     3680     3366     3033     2740     2555     2523     2590 
    2659     2718     2801     2894     3036     3339     3838     4419 
    4920     5204     5225     5043     4781     4558     4409     4260 
    4027     3694     3319     2990     2772     2673     2640     2620 
    2602     2627     2705     2811     2941     3080     3179     3190 
    3092     2921     2728     2529     2328     2153     2026     1960 
    1989     2123     2316     2556     2875     3245     3574     3762 
    3731     3477     3096     2701     2378     2228     2343     2712 
    3192     3588     3792     3813     3716     3561     3373     3111 
    2774     2465     2332     2452     2783     3217     3646     3964 
    4090     4031     3850     3578     3242     2891     2604     2450 
    2405     2371     2316     2278     2284     2331     2419     2542 
    2664     2735     2724     2685     2712     2857     3119     3468 
    3812     4048     4147     4112     3960     3757     3580     3507 
    3586     3754     3908     3997     3971     3785     3477     3184 
    3018     2976     3006     3080     3187     3312     3407     3400 
    3272     3053     2752     2393     2069     1863     1798     1871 
    2053     2303     2598     2872     3038     3109     3194     3338 
    3491     3615     3717     3775     3712     3528     3339     3295 
    3456     3715     3878     3848     3658     3392     3184     3129 
    3199     3322     3470     3643     3793     3820     3674     3426 
    3227     3172     3218     3269     3291     3292     3284     3310 
    3434     3673     3977     4283     4500     4525     4337     4008 
    3615     3242     2988     2896     2914     2947     2907     2747 
    2490     2227     2027     1934     1985     2196     2546     2986 
    3411     3693     3809     3813     3708     3489     3215     2956 
    2772     2714     2736     2735     2691     2647     2644     2717 
    2855     3017     3194     3361     3476     3524     3511     3458 
    3360     3156     2824     2447     2138     1975     1987     2144 
    2355     2506     2550     2539     2540     2546     2548     2613 
    2805     3107     3399     3507     3352     3017     2655     2376 
    2236     2251     2393     2604     2767     2739     2479     2111 
    1814     1722     1852     2137     2486     2856     3211     3526 
    3828     4156     4459     4644     4656     4514     4314     4136 
    3998     3899     3856     3885     3969     4043     4033     3924 
    3754     3522     3208     2932     2836     2868     2843     2678 
    2496     2455     2538     2584     2512     2354     2163     1962 
    1780     1669     1657     1722     1844     2008     2182     2311 
    2347     2281     2173     2081     1991     1872     1790     1861 
    2110     2413     2624     2695     2669     2606     2538     2470 
    2455     2606     2933     3245     3304     3028     2517     1987 
    1621     1497     1606     1891     2205     2381     2359     2231 
    2135     2120     2161     2249     2373     2497     2563     2539 
    2444     2305     2111     1892     1740     1729     1880     2157 
    2493     2801     3017     3138     3160     3076     2948     2855 
    2824     2820     2740     2486     2106     1792     1695     1817 
    2057     2304     2484     2602     2716     2847     2951     2975 
    2955     2980     3094     3250     3311     3154     2808     2386 
    1958     1528     1069      565       62     -355     -638     -777 
    -792     -670     -342      155      648     1032     1306     1466 
    1543     1570     1533     1443     1323     1182     1065      976 
     832      599      333      106      -18       -1      178      450 
     691      830      874      804      669      627      796     1158 
    1625     2111     2567     2956     3273     3569     3863     4101 
    4301     4519     4710     4824     4885     4918     4970     5082 
    5228     5348     5375     5297     5213     5197     5206     5189 
    5111     4922     4673     4523     4564     4750     4918     4928 
    4783     4494     3923     2957     1710      442     -553    -1055 
   -1063     -780     -392       11      421      886     1428     2004 
    2598     3179     3622     3852     3912     3797     3539     3317 
    3260     3396     3762     4293     4824     5220     5413     5455 
    5432     5306     5004     4611     4293     4106     3984     3855 
    3713     3593     3522     3499     3481     3412     3271     3040 
    2724     2376     2026     1702     1412     1101      773      598 
     704      982     1229     1382     1387     1189      901      661 
     471      369      398      518      753     1084     1409     1742 
    2150     2567     2918     3202     3418     3593     3788     4052 
    4429     4928     5452     5880     6242     6664     7179     7680 
    8054     8299     8421     8343     8035     7558     6919     6191 
    5490     4762     3905     3009     2155     1354      708      319 
     139      121      301      646     1011     1334     1737     2254 
    2759     3100     3144     2866     2438     2052     1814     1741 
    1761     1779     1732     1588     1356     1093      886      781 
     756      747      657      414       86     -199     -356     -353 
    -246     -109       85      348      513      425      225      148 
     237      421      626      777      810      672      344      -82 
    -479     -800    -1065    -1312    -1587    -1864    -2057    -2142 
   -2154    -2130    -2092    -2069    -2118    -2273    -2479    -2610 
   -2577    -2421    -2277    -2236    -2295    -2349    -2322    -2227 
   -2039    -1680    -1173     -619     -116      246      430      446 
     349      225       93      -58     -129      -13      352      986 
    1776     2587     3483     4573     5764     6833     7713     8533 
    9412    10327    11169    11869    12492    13158    13938    14866 
   15912    16975    17976    18913    19761    20416    20752    20694 
   20286    19722    19168    18650    18110    17541    16958    16322 
   15595    14825    14079    13367    12642    11863    11017    10092 
    9097     8082     7061     6084     5262     4629     4159     3875 
    3704     3457     3065     2590     2076     1494      827      168 
    -348     -649     -697     -503     -114      394      943     1557 
    2307     3148     3974     4683     5217     5594     5834     5929 
    5876     5687     5417     5074     4602     3987     3271     2489 
    1744     1173      862      834     1009     1212     1273     1097 
     607     -229    -1356    -2673    -4040    -5346    -6592    -7817 
   -8959    -9867   -10411   -10571   -10407    -9950    -9212    -8270 
   -7253    -6259    -5374    -4688    -4199    -3811    -3397    -2866 
   -2254    -1676    -1081     -356      472     1331     2133     2803 
    3393     3998     4631     5227     5701     6056     6403     6782 
    7130     7462     7885     8345     8611     8576     8324     7963 
    7566     7180     6835     6643     6690     6874     7018     7013 
    6801     6405     5938     5503     5135     4846     4693     4748 
    5044     5519     6016     6411     6682     6836     6829     6627 
    6299     5983     5788     5795     6022     6397     6759     6863 
    6574     5958     5078     3970     2811     1833     1151      774 
     603      519      575      923     1624     2648     3920     5225 
    6255     6791     6764     6228     5316     4144     2808     1418 
      89    -1111    -2158    -3061    -3781    -4220    -4363    -4337 
   -4248    -4062    -3703    -3184    -2551    -1817     -997     -210 
     388      758      986     1150     1279     1410     1528     1567 
    1475     1246      986      896     1094     1636     2625     4085 
    5760     7227     8182     8569     8549     8330     8002     7573 
    7055     6463     5827     5228     4839     4904     5498     6401 
    7284     7901     8113     7859     7202     6389     5732     5324 
    5119     5054     4947     4614     4107     3613     3333     3400 
    3692     3932     3924     3632     3152     2600     2056     1549 
    1080      691      438      307      302      510      985     1701 
    2604     3634     4693     5661     6405     6839     7038     7209 
    7420     7635     7873     8056     7933     7342     6315     5031 
    3751     2701     2072     1921     1985     1888     1474      828 
      97     -699    -1595    -2489    -3191    -3603    -3730    -3595 
   -3229    -2613    -1753     -787      141      984     1738     2408 
    2955     3295     3422     3456     3576     3950     4675     5711 
    6843     7798     8372     8441     8056     7388     6644     6119 
    6002     6183     6423     6569     6590     6485     6226     5818 
    5327     4838     4449     4183     3929     3612     3319     3210 
    3392     3809     4241     4499     4584     4581     4544     4545 
    4704     5086     5663     6389     7192     7894     8364     8677 
    8947     9144     9188     9027     8685     8303     7990     7704 
    7460     7333     7304     7314     7280     7056     6627     6161 
    5841     5802     6104     6604     7103     7655     8428     9325 
    9988    10114     9705     9070     8473     7929     7307     6473 
    5370     4087     2763     1545      542     -229     -784    -1092 
   -1081     -707      -52      708     1494     2280     2986     3511 
    3757     3634     3102     2182     1005     -197    -1220    -1982 
   -2517    -2928    -3281    -3566    -3736    -3697    -3353    -2718 
   -1854     -826      182      926     1324     1429     1254      774 
       4    -1051    -2388    -3902    -5375    -6515    -7094    -7022 
   -6273    -4916    -3137    -1128      899     2690     4055     4893 
    5164     4962     4409     3554     2471     1348      429        1 
     253     1105     2307     3611     4774     5574     5884     5773 
    5428     5003     4568     4176     3856     3607     3387     3106 
    2682     2134     1564     1119      987     1358     2285     3634 
    5243     7025     8827    10368    11419    11929    11931    11461 
   10590     9487     8355     7299     6431     5949     5987     6489 
    7252     8016     8652     9216     9763    10174    10287    10015 
    9329     8281     7006     5636     4314     3244     2625     2582 
    3034     3646     4094     4263     4213     4120     4074     3923 
    3554     3075     2587     2101     1614     1055      427      -89 
    -369     -472     -463     -405     -395     -444     -535     -708 
    -926    -1094    -1065     -662       90     1016     2057     3191 
    4327     5391     6278     6825     6952     6693     6056     5032 
    3754     2486     1437      728      390      357      584     1078 
    1765     2447     2982     3376     3688     3929     4020     3879 
    3569     3163     2648     2107     1706     1501     1482     1613 
    1826     2141     2573     3018     3385     3651     3780     3765 
    3626     3383     3119     2917     2772     2656     2620     2781 
    3176     3703     4217     4611     4872     5062     5184     5150 
    4904     4511     4124     3874     3828     4006     4383     4947 
    5701     6558     7353     7919     8144     8007     7564     7009 
    6581     6349     6266     6290     6295     6148     5848     5317 
    4429     3235     1930      688     -375    -1201    -1779    -2119 
   -2235    -2097    -1677    -1065     -369      375     1124     1773 
    2258     2538     2647     2743     2930     3136     3246     3203 
    3028     2832     2686     2554     2432     2405     2527     2789 
    3161     3611     4120     4698     5352     6060     6743     7256 
