Origin Time       2016/04/16 01:25:00
Lat.              32.753
Long.             130.762
Depth. (km)       12
Mag.              7.3
Station Code      YMG013
Station Lat.      34.0310
Station Long.     131.5348
Station Height(m) 3
Record Time       2016/04/16 01:25:32
Sampling Freq(Hz) 100Hz
Duration Time(s)  139
Dir.              E-W
Scale Factor      7845(gal)/8223790
Max. Acc. (gal)   59.690
Last Correction   2016/04/16 01:25:32
Memo.             
[...]
    3906     4036     3680     2677     1298      251     -248     -545 
    -722     -738     -805    -1104    -1359    -1144     -784     -869 
   -1206    -1210     -449      926     2022     2471     2814     3154 
    3130     3001     3377     4326     5306     5953     6513     6983 
    6720     5377     3369     1429       72     -718    -1306    -2068 
   -3153    -4213    -4710    -4734    -4753    -4779    -4600    -4202 
   -3603    -2949    -2474    -2062    -1405     -427      719     1764 
    2523     2934     2982     2866     2844     2809     2342     1198 
     -43     -415      232     1486     2907     3886     4197     4195 
    4205     4502     5134     5598     5424     4845     4429     4113 
    3234     1561     -402    -1996    -2791    -2808    -2563    -2502 
   -2532    -2438    -2208    -1642     -518      784     1611     1846 
    1984     2664     4129     5863     7099     7689     7796     7319 
    6196     4634     2894     1263       95     -531     -854     -815 
    -292      351      946     1896     3296     4471     4837     4576 
    4106     3578     2814     1354     -869    -3319    -5455    -6824 
   -7168    -6535    -5123    -3416    -1894     -467     1301     3377 
    5049     5780     5729     5371     5228     5481     5651     5327 
    4634     3553     2097     1127     1441     2466     2967     2617 
    2079     1722     1069     -203    -1412    -1804    -1688    -1296 
     -76     1621     2523     2470     2259     2016     1397      526 
    -198     -661    -1080    -1938    -3492    -5001    -5319    -4457 
   -3133    -1345      824     2371     2732     2596     2683     2891 
    2879     2709     2548     2277     1992     2120     2708     3576 
    4463     4909     4927     4807     4452     3959     3542     2932 
    2042     1155      153    -1194    -2450    -2956    -2792    -2438 
   -1800     -675      475     1306     2180     3219     3835     3653 
    3319     3538     3738     3038     1941     1688     2471     3277 
    3476     3530     3819     4014     3790     3064     1887      525 
    -569     -913     -571     -330     -838    -1985    -3060    -3238 
   -2354    -1200     -741    -1193    -1800    -1582     -402     1015 
    1966     2381     2563     2613     2621     2870     3164     3002 
    2575     2415     2500     2716     3203     3686     3681     3491 
    3724     4215     4584     5051     5455     4792     2868      999 
     517     1614     3503     5039     5456     4852     3910     3295 
    3187     3041     2130      504    -1085    -2144    -2706    -2913 
   -2660    -1903    -1161     -897     -781     -328      579     1807 
    2929     3495     3360     2593     1522      811     1074     2196 
    3352     4032     4419     4752     5146     5756     6471     6718 
    6193     5481     5213     5154     4797     4183     3591     3086 
    2538     1651       81    -2018    -3869    -4799    -4803    -4398 
   -3852    -2862    -1370      244     1748     2917     3519     3585 
    3325     2948     2540     2224     2432     3407     4665     5611 
    6214     6594     6686     6389     5640     4490     3123     1698 
     298     -731     -804      -43      654      889      994     1278 
    1795     2519     3148     2918     1381     -762    -2389    -3325 
   -4064    -4268    -3137    -1019     1215     3349     5060     5656 
    5189     4722     5198     6403     7697     9028    10187    10476 
    9809     8830     7885     6632     4768     2536      140    -2404 
   -4584    -5584    -5258    -4548    -4415    -4541    -4140    -3061 
   -1358      622     1949     1999     1013      -82     -297      708 
    2538     4391     5630     6319     6673     6489     5753     4765 
    3759     3056     2710     2392     2161     2269     2558     2868 
    3248     3488     3138     2191     1213      349     -903    -2536 
   -3937    -4807    -5184    -5200    -5015    -4453    -3253    -1452 
     838     3291     5235     6378     7110     7732     7969     7553 
    6831     6250     5603     4421     2918     1811     1294     1185 
    1572     2191     2286     1829     1590     2111     3261     4348 
    4652     3937     2416      618     -787    -1399    -1318     -989 
    -947    -1370    -1821    -2049    -2454    -2953    -2835    -1956 
    -845      -95       13     -166       43     1060     2781     4585 
    5763     6161     6178     6084     5859     5543     5217     4735 
    3847     2752     1944     1368      673      178      498     1377 
    1999     2205     2452     2879     3129     2673     1224     -706 
   -1977    -2008    -1279     -453      294      885     1177     1439 
    2111     2957     3172     2259      499    -1121    -1567     -687 
     719     1736     1953     1694     1603     2004     2832     3693 
    3935     3099     1431     -155     -900     -828     -396      268 
    1429     2964     4215     4868     5046     4649     3532     2064 
     677     -738    -2211    -3145    -3138    -2563    -2161    -2542 
   -3650    -4440    -3904    -2246     -261     1658     3240     4090 
    4473     5142     6231     7317     8182     8888     9301     8926 
    7294     4333      560    -2943    -5337    -6546    -6542    -4963 
   -1999     1120     3157     3946     4086     4136     4348     4657 
    4779     4502     3854     3122     2721     2848     3281     3588 
    3526     3169     2675     2041     1109     -141    -1703    -3582 
   -5339    -6305    -6250    -5335    -3789    -1651     1084     3847 
    5741     6401     5914     4446     2412      315    -1464    -2532 
   -2431     -929     1513     3875     5467     6130     5814     4812 
    3925     3514     3059     2160     1259     1023     1456     2019 
    2251     1817      739     -256     -467       20      561      461 
    -546    -2003    -3096    -3375    -2879    -1942    -1024     -421 
      16      675     1441     1799     1861     2111     2382     2251 
    1956     2022     2488     3117     3640     3586     2949     2652 
    3391     4860     6397     7380     7098     5290     2821      905 
    -102     -493     -719    -1362    -2401    -2925    -2533    -2134 
   -2535    -3308    -3620    -3138    -1868       21     1988     3156 
    2955     1995     1699     2570     3680     4197     4081     3315 
    2107     1341     1278     1190      976     1185     1767     2319 
    2681     2659     2236     1937     2118     2311     1861      841 
    -159     -934    -1973    -3707    -5609    -6539    -6043    -4509 
   -2284      298     2536     3927     4639     5012     4985     4392 
    3484     2578     1675      881      321      -36      216     1448 
    3111     4455     5298     5734     5900     5922     5622     4619 
    2882      842    -1013    -2308    -2695    -2211    -1513     -977 
    -344      193      135     -153      159     1170     2134     2324 
    1702      657     -332     -697     -344      114      394      754 
    1105     1246     1491     2043     2528     2756     3241     4364 
    5796     7163     8375     9150     9055     7938     5894     3198 
     391    -2012    -3943    -5470    -6409    -6551    -5790    -4045 
   -1634      548     1858     2438     2636     2605     2528     2524 
    2417     2188     2053     1919     1682     1710     2056     2230 
    2138     2033     1902     1741     1728     2006     2570     3194 
    3419     2938     2265     2289     2975     3554     3713     3530 
    2964     2093     1131      -54    -1757    -3646    -4873    -5174 
   -4965    -4378    -3272    -1948     -984     -573     -529     -832 
   -1532    -2097    -1779     -544     1112     3042     5238     7182 
    8408     9070     9386     9358     8927     7903     6272     4529 
    3071     1852      958      693      992     1308     1078      197 
   -1104    -2832    -4784    -5826    -5053    -2991     -936      202 
     461      407      355      495     1039     1736     2173     2471 
    3071     4151     5309     5911     5883     5660     5350     4687 
    3608     2297      800     -877    -2231    -2659    -2242    -1489 
    -764     -152      519     1431     2606     3950     5004     5213 
    4541     3196     1236    -1177    -3530    -5084    -5448    -4881 
   -3667    -1878      -47      987     1275     1750     2906     4340 
    5548     6467     7102     7163     6569     5691     4923     4418 
    3880     2907     1687      566     -588    -1792    -2579    -2775 
   -2687    -2408    -1922    -1460     -969     -153      815     1707 
    2675     3661     4340     4638     4498     3738     2515     1394 
     738      394       67     -353     -858    -1290    -1339     -641 
     668     1717     1944     1715     1549     1584     1783     2204 
    2835     3276     3249     2930     2482     2037     1826     1786 
    1736     1852     2165     2141     1551      888      364     -270 
    -815     -765      -58      959     1918     2614     2934     2972 
    3213     4027     5131     5952     6114     5328     3396      780 
   -1611    -3391    -4611    -5059    -4376    -2605     -206     2444 
    5166     7503     8573     7782     5714     3544     1528     -760 
   -3180    -5394    -7778   -10694   -13405   -14563   -13397   -10084 
   -5470     -838     2529     4225     4905     5435     6018     6195 
    5460     3805     1618     -669    -2717    -4342    -5582    -6602 
   -7515    -8307    -8915    -9266    -9036    -7797    -5840    -4110 
   -3115    -2669    -2512    -2558    -2648    -2498    -2138    -2053 
   -2592    -3632    -4889    -6392    -8378   -10612   -12441   -13613 
  -14361   -14732   -14287   -12885   -11211    -9753    -8251    -6581 
   -5097    -3970    -2914    -1453      598     2729     4279     5328 
    6110     6404     6455     7118     8641    10525    12405    14264 
   15946    17167    18027    18881    19727    20186    20004    19099 
   17284    14589    11553     8849     6805     5081     2967       25 
   -3692    -7663   -11214   -14045   -16005   -16609   -15480   -13019 
   -9968    -6604    -3049        1     1737     2211     2235     2354 
    2612     3315     5131     8181    11863    15849    20151    24185 
   27013    28424    28892    28813    28166    26570    23494    18473 
   11275     2250    -7510   -16409   -22808   -25897   -26147   -24700 
  -22701   -20822   -18839   -16051   -12044    -7202    -2728      373 
    1992     2690     3524     5283     7514     8905     8542     6714 
    4781     4109     5098     7074     8772     9161     8164     6629 
    5417     4680     4167     3659     2791     1378      259      583 
    2500     5478     8753    11277    12214    11592    10478     9941 
    9940    10060    10006     9124     7092     4513     1954     -650 
   -3279    -4942    -4137     -301     5756    12630    19056    24552 
   29299    33058    34910    33767    28964    21159    12144     3057 
   -6380   -16588   -26804   -35298   -40486   -41555   -38157   -30388 
  -19278    -6731     5067    14872    22755    28941    33405    35731 
   35147    31754    26379    19548    11821     4163    -2050    -5574 
   -5448     -544     8608    18692    26609    31329    32850    31118 
   25851    18507    12564     9300     6880     4055      438    -4872 
  -12117   -20582   -28663   -34258   -36842   -37210   -36192   -34696 
  -32985   -30936   -29313   -28597   -27552   -25262   -22399   -19090 
  -14655    -9243    -3705      658     2986     4364     6463    10370 
   17232    26989    37627    46475    51066    50317    45439    37920 
   27781    16059     5232    -4602   -14416   -22950   -29295   -33242 
  -33731   -31240   -26758   -20563   -14747   -11146    -9483    -9377 
  -10127   -11171   -12769   -14463   -15313   -14928   -13041    -9570 
   -4989     -167     3834     6515     8048     8181     7107     6162 
    6041     7018     9458    12239    13653    13053    10697     7618 
    4261      265    -3133    -4266    -3574    -1859     1008     5019 
    9609    13740    16983    20148    24140    28872    32876    34318 
   32602    27558    18701     6809    -5331   -14373   -18786   -19495 
  -17548   -14207   -12132   -12004   -12216   -12276   -11480    -8758 
   -4950    -1533     -136    -1867    -5071    -7069    -6878    -4716 
   -1105     3092     6701     8807     9610     9828     9198     6606 
    2165    -1544    -2066      526     5067    10824    17238    22713 
   24885    23167    19118    13968     8306     3755     1390     -201 
   -2944    -7411   -12394   -15854   -17537   -18365   -18112   -16538 
  -14293   -11884    -9902    -9239   -10455   -13293   -16429   -18520 
  -18981   -17381   -13392    -7241      -85     6515    11751    15402 
   17554    18787    19620    19963    19164    16499    11885     6380 
    1395    -2578    -5232    -5576    -2898     2413     9261    16540 
   23152    28591    33664    39043    43937    46936    47085    44189 
   38017    28094    15647     3183    -8646   -20785   -33168   -44527 
  -53585   -59266   -61041   -59521   -55051   -46600   -33879   -18666 
   -3403    10120    21543    30981    37841    42048    43987    43173 
   39615    34423    27928    20274    13211     8977     8338     9729 
   11384    14008    17933    21643    24962    28221    30500    30782 
   28237    22967    15827     6673    -4032   -14887   -26397   -38832 
  -49989   -57823   -61063   -59171   -53090   -43352   -30186   -15516 
   -1298    11603    22150    30261    36593    39760    38033    31414 
   19975     5190    -8858   -19156   -25354   -27891   -26253   -19191 
   -7754     4980    17074    27577    36162    42357    45172    44597 
   39806    30106    17373     2543   -13798   -28921   -41031   -49492 
  -53493   -53152   -48554   -39904   -28661   -15923    -2084    12096 
   25224    35233    40845    41964    38770    32393    24586    16949 
   10586     5125      -51    -4261    -6628    -6837    -5206    -2490 
    1576     6936    10709    10542     7697     4066     -626    -7758 
  -17278   -26650   -32972   -35325   -33862   -29122   -22574   -16090 
  -11427    -8769    -6679    -3994      -71     4180     6723     7391 
    7547     8236     9240     9224     7769     5101     1370    -1787 
   -2475     -234     4334     9598    14846    20471    25350    29172 
   32606    34600    35550    35522    32238    27280    22434    15047 
    4994    -5282   -14952   -23286   -30030   -35815   -40390   -42907 
  -42287   -37230   -28169   -17890    -8696     -675     6739    13277 
   18291    22076    25517    28372    29697    29234    27275    24679 
   22770    22056    22227    22990    24147    25737    27184    26640 
   23479    19604    16193    12951    10552     9108     7380     4968 
    1740    -2245    -6609   -11982   -18180   -23377   -26758   -28476 
  -28507   -27560   -26840   -26491   -25513   -22883   -18202   -12046 
   -6165    -2143     -143      692     1394     2581     4429     7187 
   11242    16575    22675    29074    35270    39943    41855    41994 
   41987    41389    39145    35334    30422    24314    16303     6525 
   -3022   -10573   -16123   -19668   -21178   -21720   -21641   -20765 
  -20136   -20339   -20849   -21417   -21744   -21478   -20515   -18831 
  -16983   -15487   -14288   -13456   -12580   -10432    -6184      152 
    7680    14988    21348    26698    31247    35314    38357    39173 
   37528    34474    31252    27683    22229    14736     6547    -1568 
   -8529   -13610   -17369   -19534   -20285   -20468   -19323   -16615 
  -13491   -11076   -10055    -9647    -9212    -9459    -9896    -9282 
   -7942    -6592    -5483    -4635    -2884      493     4278     7892 
   11826    16217    20780    24341    26061    25959    23989    21060 
   18291    15828    13969    12495    10544     8058     5085     1551 
   -2312    -6477   -10539   -13751   -16131   -18064   -19784   -21560 
  -23004   -23218   -21915   -19480   -16705   -14447   -12837   -11434 
   -9890    -8001    -5625    -2805       81     2770     5795     9579 
   13597    17342    20596    23043    24397    24159    21946    18542 
   14908    10990     7040     3388     -653    -5146    -9254   -12282 
  -13408   -12515   -10474    -8451    -7415    -7207    -7365    -8021 
   -9046    -9860    -9774    -8980    -8506    -8137    -6720    -4074 
    -737     2825     6139     8743    10490    11873    13514    15429 
   17197    18219    17756    15604    12646    10110     8483     7373 
    6401     5727     5107     3879     2398     1629     1823     2879 
    4644     6134     5857     3171    -1224    -5853    -9647   -12376 
  -14083   -15079   -15747   -15754   -14478   -11937    -8230    -2951 
    3397     8899    12437    14520    15812    16645    17404    18377 
   19491    20036    18639    14677     9618     5498     2841     1314 
    1075     2309     4326     6031     6979     7248     6690     4792 
    1175    -3638    -8606   -13246   -17204   -19661   -19975   -18186 
  -15171   -12039    -8993    -5751    -2191     2123     7153    11854 
   15496    17633    17988    17228    16038    14777    14119    14112 
   13954    12988    11214     9678     9535    10623    11819    12147 
   11415     9813     7381     4388     1038    -2880    -7264   -11614 
  -15331   -17764   -18530   -17702   -16110   -14848   -14214   -14090 
  -14095   -13181   -10555    -6251     -924     4140     7726     9606 
   10436    11010    11708    12444    12688    11889    10196     8121 
    6026     4378     3438     3049     3237     4006     4901     5348 
    4747     2776       22    -2763    -5424    -7635    -9130   -10424 
  -11662   -12204   -12243   -12679   -13489   -13890   -13194   -11167 
   -8251    -4997    -1923      261     1632     2856     3983     4743 
    5119     5316     5526     5641     5428     4707     3283     1502 
     303      -98     -259     -508    -1144    -2317    -3771    -5440 
   -7269    -8999   -10536   -11499   -11429   -10727   -10119    -9956 
  -10220   -10446    -9899    -8082    -5188    -2093      614     3098 
    5503     7789     9972    11729    12557    12239    10836     8880 
    7304     6519     6060     5391     4392     3019     1522      728 
     946     1470     1777     1683      999      178     -275     -484 
    -288      278      387     -257    -1193    -1904    -1969    -1308 
      20     1807     3141     3315     2675     1680      518     -477 
   -1058    -1135     -460     1230     3738     6460     8797    10299 
   11003    11483    12185    13255    14710    16087    16665    16286 
   14975    12514     9103     5464     2351      116    -1578    -3025 
   -4006    -4515    -4646    -4024    -2640    -1281     -450       64 
     757     1656     2236     2521     2895     3303     3842     4664 
    5576     6666     8014     8945     8895     8417     8334     8834 
    9852    10986    11221    10150     8407     6448     4573     3327 
    2899     3207     4055     4922     5282     4735     3499     2211 
     630    -1497    -3628    -5579    -7331    -8664    -9487    -9586 
   -9009    -8014    -6361    -3925    -1314      734     1956     2508 
    2690     2806     2974     3014     2847     2718     2627     2471 
