Origin Time       2016/04/16 01:25:00
Lat.              32.753
Long.             130.762
Depth. (km)       12
Mag.              7.3
Station Code      YMG018
Station Lat.      33.9091
Station Long.     132.3561
Station Height(m) 2
Record Time       2016/04/16 01:25:40
Sampling Freq(Hz) 100Hz
Duration Time(s)  143
Dir.              N-S
Scale Factor      7845(gal)/8223790
Max. Acc. (gal)   30.619
Last Correction   2016/04/16 01:25:40
Memo.             
[...]
   -4741    -4483    -4291    -4230    -4263    -4329    -4365    -4315 
   -4155    -3912    -3609    -3257    -2893    -2614    -2493    -2485 
   -2543    -2669    -2866    -3119    -3442    -3847    -4317    -4833 
   -5364    -5814    -6080    -6164    -6170    -6200    -6270    -6407 
   -6673    -7048    -7452    -7830    -8129    -8314    -8401    -8421 
   -8378    -8333    -8370    -8502    -8650    -8739    -8754    -8725 
   -8688    -8627    -8523    -8467    -8553    -8704    -8773    -8741 
   -8619    -8382    -8056    -7743    -7510    -7369    -7231    -6939 
   -6465    -6039    -5886    -5940    -5979    -5910    -5759    -5510 
   -5130    -4704    -4378    -4176    -4035    -3928    -3889    -3931 
   -3987    -3956    -3809    -3673    -3727    -4032    -4514    -5065 
   -5601    -6049    -6363    -6544    -6658    -6782    -6929    -7069 
   -7195    -7318    -7433    -7533    -7638    -7769    -7923    -8110 
   -8391    -8800    -9273    -9733   -10135   -10454   -10652   -10671 
  -10473   -10110    -9694    -9325    -9043    -8765    -8406    -8028 
   -7681    -7302    -6866    -6397    -5899    -5360    -4765    -4135 
   -3523    -3006    -2623    -2353    -2153    -1993    -1830    -1617 
   -1390    -1227    -1173    -1246    -1431    -1699    -2085    -2678 
   -3476    -4348    -5184    -5981    -6789    -7614    -8407    -9153 
   -9902   -10679   -11407   -12025   -12548   -12991   -13320   -13491 
  -13525   -13510   -13501   -13468   -13371   -13176   -12825   -12268 
  -11564   -10849   -10234    -9718    -9165    -8431    -7535    -6585 
   -5633    -4718    -3932    -3331    -2852    -2412    -1998    -1660 
   -1433    -1293    -1185    -1097    -1107    -1297    -1642    -2081 
   -2617    -3232    -3821    -4306    -4725    -5151    -5595    -6000 
   -6323    -6573    -6772    -6944    -7079    -7172    -7240    -7323 
   -7496    -7756    -8029    -8286    -8543    -8783    -8985    -9140 
   -9197    -9089    -8810    -8428    -8027    -7678    -7456    -7338 
   -7252    -7203    -7260    -7429    -7632    -7784    -7863    -7894 
   -7884    -7865    -7911    -8016    -8066    -7971    -7755    -7491 
   -7264    -7125    -6979    -6663    -6138    -5519    -4909    -4359 
   -3931    -3700    -3663    -3721    -3778    -3770    -3653    -3454 
   -3249    -3053    -2841    -2663    -2600    -2671    -2839    -3053 
   -3262    -3433    -3595    -3821    -4171    -4644    -5217    -5852 
   -6475    -7021    -7460    -7805    -8120    -8456    -8804    -9144 
   -9497    -9864   -10222   -10525   -10675   -10638   -10490   -10289 
  -10037    -9761    -9482    -9157    -8721    -8190    -7659    -7202 
   -6785    -6336    -5817    -5228    -4618    -4040    -3557    -3215 
   -2995    -2859    -2813    -2829    -2847    -2906    -3051    -3187 
   -3191    -3059    -2871    -2731    -2714    -2855    -3145    -3546 
   -3977    -4368    -4708    -5031    -5391    -5810    -6266    -6716 
   -7115    -7444    -7704    -7917    -8133    -8374    -8604    -8754 
   -8753    -8587    -8290    -7888    -7385    -6808    -6230    -5771 
   -5536    -5567    -5833    -6238    -6673    -7082    -7416    -7661 
   -7838    -7947    -7946    -7774    -7430    -7028    -6691    -6459 
   -6327    -6288    -6297    -6295    -6265    -6265    -6328    -6434 
   -6523    -6539    -6467    -6328    -6157    -6006    -5926    -5899 
   -5826    -5652    -5405    -5057    -4563    -3983    -3422    -2924 
   -2501    -2169    -1982    -2016    -2277    -2683    -3159    -3685 
   -4263    -4881    -5529    -6191    -6794    -7242    -7506    -7657 
   -7766    -7820    -7812    -7784    -7786    -7884    -8114    -8418 
   -8703    -8939    -9117    -9221    -9290    -9369    -9424    -9362 
   -9086    -8608    -8066    -7586    -7169    -6789    -6484    -6250 
   -5946    -5468    -4891    -4345    -3883    -3519    -3302    -3246 
   -3302    -3407    -3577    -3811    -4044    -4233    -4413    -4614 
   -4851    -5107    -5324    -5474    -5552    -5560    -5575    -5732 
   -6064    -6504    -6966    -7372    -7668    -7847    -7906    -7881 
   -7862    -7897    -7921    -7847    -7689    -7485    -7176    -6731 
   -6285    -6006    -5860    -5751    -5665    -5605    -5539    -5454 
   -5329    -5177    -5076    -5090    -5204    -5343    -5475    -5656 
   -5902    -6145    -6361    -6588    -6833    -7075    -7268    -7411 
   -7553    -7709    -7862    -8017    -8193    -8391    -8637    -8905 
   -9153    -9319    -9281    -8993    -8573    -8105    -7593    -7102 
   -6644    -6112    -5485    -4903    -4452    -4043    -3577    -3092 
   -2702    -2475    -2355    -2218    -2034    -1922    -1984    -2176 
   -2394    -2643    -2982    -3339    -3646    -4040    -4619    -5161 
   -5498    -5782    -6142    -6581    -7084    -7596    -8067    -8519 
   -8999    -9559   -10247   -11014   -11704   -12202   -12513   -12613 
  -12496   -12279   -11940   -11333   -10520    -9679    -8842    -8025 
   -7312    -6771    -6354    -5953    -5528    -5063    -4535    -4032 
   -3673    -3437    -3289    -3169    -2913    -2556    -2319    -2273 
   -2381    -2565    -2685    -2737    -2901    -3268    -3724    -4202 
   -4784    -5413    -5968    -6571    -7353    -8174    -8783    -9036 
   -8984    -8779    -8529    -8351    -8343    -8418    -8406    -8289 
   -8189    -8168    -8220    -8330    -8451    -8579    -8793    -9038 
   -9154    -9088    -8884    -8584    -8159    -7608    -7064    -6617 
   -6181    -5683    -5186    -4850    -4768    -4810    -4808    -4770 
   -4808    -4880    -4800    -4623    -4594    -4692    -4766    -4822 
   -4877    -4986    -5277    -5707    -6084    -6308    -6377    -6268 
   -6010    -5879    -6102    -6399    -6396    -6320    -6513    -6750 
   -6804    -6855    -6988    -7030    -6880    -6629    -6413    -6292 
   -6184    -6014    -5836    -5694    -5578    -5502    -5474    -5479 
   -5481    -5360    -5089    -4901    -4935    -5032    -5108    -5220 
   -5296    -5233    -5184    -5344    -5656    -5967    -6272    -6594 
   -6879    -7160    -7614    -8256    -8787    -8977    -8934    -8873 
   -8833    -8615    -8114    -7551    -7069    -6605    -6201    -5899 
   -5545    -5017    -4486    -4220    -4182    -4144    -4029    -3875 
   -3696    -3480    -3208    -2860    -2458    -2116    -1949    -1837 
   -1545    -1148     -958    -1092    -1435    -1911    -2531    -3264 
   -4044    -4777    -5435    -6147    -7006    -7920    -8872    -9971 
  -11034   -11738   -12177   -12568   -12695   -12363   -11870   -11479 
  -11071   -10547    -9957    -9342    -8775    -8255    -7735    -7385 
   -7290    -7184    -6919    -6555    -6141    -5772    -5441    -4961 
   -4360    -3944    -3835    -3748    -3487    -3280    -3335    -3528 
   -3713    -3917    -4215    -4519    -4658    -4719    -4947    -5366 
   -5864    -6380    -6845    -7194    -7354    -7331    -7168    -6889 
   -6635    -6525    -6457    -6353    -6211    -6030    -5884    -5827 
   -5818    -5825    -5902    -6073    -6120    -5894    -5655    -5560 
   -5382    -4970    -4479    -4151    -3951    -3622    -3134    -2654 
   -2235    -1854    -1516    -1381    -1626    -2119    -2602    -3064 
   -3638    -4364    -5144    -5863    -6559    -7387    -8345    -9185 
   -9687   -10011   -10492   -11165   -11838   -12461   -13089   -13670 
  -14113   -14388   -14501   -14586   -14693   -14597   -14219   -13851 
  -13610   -13289   -12822   -12402   -12135   -11912   -11543   -10928 
  -10157    -9471    -9013    -8668    -8230    -7651    -7106    -6785 
   -6608    -6351    -5958    -5481    -4930    -4355    -3828    -3377 
   -3080    -2955    -2830    -2644    -2548    -2647    -2860    -3048 
   -3242    -3576    -3956    -4202    -4306    -4378    -4540    -4878 
   -5352    -5813    -6119    -6239    -6261    -6309    -6420    -6459 
   -6326    -6146    -6084    -6115    -6208    -6475    -6852    -7061 
   -7092    -7190    -7419    -7624    -7688    -7628    -7454    -7164 
   -6879    -6723    -6662    -6594    -6423    -6154    -5964    -5994 
   -6177    -6289    -6130    -5738    -5277    -4814    -4440    -4256 
   -4228    -4199    -4055    -3892    -3878    -3946    -3842    -3574 
   -3411    -3414    -3407    -3388    -3426    -3376    -3075    -2571 
   -2026    -1584    -1344    -1291    -1333    -1422    -1593    -1865 
   -2258    -2829    -3435    -3785    -3902    -4036    -4294    -4664 
   -5057    -5354    -5540    -5729    -5980    -6172    -6242    -6309 
   -6380    -6338    -6172    -5935    -5674    -5395    -5074    -4752 
   -4523    -4348    -4185    -4256    -4750    -5373    -5730    -5831 
   -5918    -6133    -6511    -7015    -7519    -7925    -8236    -8467 
   -8681    -8934    -9153    -9294    -9387    -9378    -9219    -9027 
   -8966    -9085    -9369    -9761   -10180   -10589   -10970   -11199 
  -11141   -10801   -10251    -9513    -8646    -7803    -7059    -6330 
   -5468    -4383    -3159    -2008    -1074     -403        0      183 
      95     -313     -845    -1293    -1684    -2025    -2200    -2309 
   -2601    -3107    -3712    -4349    -5024    -5786    -6551    -7195 
   -7815    -8583    -9497   -10482   -11450   -12326   -13170   -14054 
  -14904   -15604   -16120   -16467   -16646   -16603   -16340   -16013 
  -15665   -15134   -14447   -13833   -13333   -12887   -12467   -11965 
  -11350   -10788   -10323    -9737    -8899    -8054    -7499    -7115 
   -6678    -6219    -5714    -5057    -4266    -3300    -2138    -1039 
    -221      361      691      629      221     -305     -905    -1775 
   -2959    -4278    -5676    -7163    -8482    -9343    -9774    -9973 
  -10049   -10076   -10164   -10345   -10496   -10585   -10717   -10783 
  -10585   -10296   -10201   -10287   -10438   -10584   -10710   -10901 
  -11098   -11153   -11026   -10697   -10127    -9283    -8198    -7082 
   -6084    -5134    -4189    -3312    -2489    -1605     -612      391 
    1217     1738     1984     2062     2058     2068     2133     2146 
    2020     1796     1485     1023      506      190       45     -186 
    -490     -596     -423     -105      230      506      584      315 
    -259     -913    -1429    -1767    -2072    -2508    -3087    -3701 
   -4295    -4897    -5494    -6016    -6447    -6910    -7482    -7993 
   -8306    -8502    -8618    -8631    -8591    -8549    -8575    -8791 
   -9283   -10050   -11071   -12259   -13360   -14146   -14636   -14965 
  -15152   -15180   -15122   -14970   -14600   -14047   -13417   -12718 
  -12010   -11276   -10301    -9015    -7647    -6421    -5301    -4192 
   -3142    -2249    -1554    -1121    -1057    -1421    -2119    -2921 
   -3599    -4003    -4109    -4072    -4079    -4174    -4391    -4761 
   -5186    -5616    -6186    -6976    -7913    -8968   -10129   -11303 
  -12395   -13420   -14404   -15287   -16005   -16546   -16869   -16981 
  -17001   -16935   -16567   -15784   -14720   -13501   -12132   -10671 
   -9347    -8379    -7720    -7165    -6670    -6261    -5786    -5017 
   -3932    -2678    -1328      159     1707     3063     4090     4892 
    5456     5678     5663     5498     5027     4155     2986     1753 
     595     -648    -2137    -3762    -5316    -6650    -7759    -8677 
   -9292    -9571    -9668    -9570    -9093    -8215    -7119    -6084 
   -5337    -4892    -4633    -4606    -4926    -5427    -5829    -6048 
   -6091    -5869    -5300    -4482    -3543    -2506    -1402     -270 
     918     2114     3167     4005     4642     5100     5437     5668 
    5738     5701     5610     5362     4823     3948     2762     1395 
     -37    -1579    -3241    -4868    -6295    -7562    -8823   -10088 
  -11247   -12252   -13131   -13917   -14592   -15153   -15747   -16522 
  -17428   -18279   -18904   -19315   -19689   -20047   -20185   -20035 
  -19745   -19325   -18636   -17740   -16869   -16085   -15246   -14183 
  -12775   -11061    -9269    -7547    -5838    -4178    -2710    -1337 
     171     1838     3484     4958     6245     7299     8075     8696 
    9289     9779    10038    10066     9933     9587     8900     7855 
    6493     4860     3051     1212     -529    -2126    -3632    -5034 
   -6242    -7283    -8286    -9369   -10519   -11643   -12699   -13709 
  -14729   -15836   -17015   -18181   -19205   -19904   -20224   -20337 
  -20364   -20326   -20281   -20260   -20224   -20097   -19855   -19512 
  -19044   -18473   -17828   -16946   -15653   -13971   -12060   -10131 
   -8406    -6899    -5452    -4031    -2695    -1359      112     1744 
    3511     5432     7542     9841    12268    14656    16756    18422 
   19634    20383    20649    20437    19818    18825    17324    15203 
   12595     9701     6597     3281     -252    -3954    -7636   -11038 
  -13983   -16447   -18536   -20403   -22122   -23692   -25162   -26584 
  -27965   -29347   -30755   -32175   -33629   -35105   -36458   -37486 
  -38114   -38334   -38136   -37671   -37182   -36517   -35131   -32749 
  -29690   -26334   -22729   -18971   -15338   -12017    -9150    -6759 
   -4563    -2393     -434     1183     2517     3653     4714     5819 
    7001     8111     9013     9832    10754    11682    12428    12973 
   13413    13822    14145    14161    13694    12723    11272     9258 
    6613     3407     -167    -3947    -7931   -12023   -15878   -19392 
  -22715   -25814   -28537   -30869   -32927   -34746   -36258   -37426 
  -38196   -38503   -38418   -38118   -37721   -37258   -36744   -36223 
  -35658   -34859   -33701   -32182   -30280   -27990   -25443   -22825 
  -20198   -17427   -14411   -11310    -8368    -5678    -3187     -808 
    1449     3461     5134     6569     7950     9273    10392    11272 
   12031    12703    13158    13293    13163    12847    12347    11635 
   10689     9494     8086     6465     4571     2430      122    -2332 
   -4869    -7360    -9822   -12339   -14856   -17243   -19387   -21250 
  -22843   -24112   -25000   -25524   -25686   -25515   -25191   -24888 
  -24625   -24448   -24453   -24630   -24845   -24945   -24810   -24425 
  -23872   -23147   -22130   -20803   -19286   -17652   -15924   -14111 
  -12249   -10496    -8939    -7439    -5940    -4598    -3488    -2501 
   -1503     -434      664     1710     2797     4118     5595     6913 
    7983     9028    10243    11626    13018    14255    15304    16101 
   16470    16303    15549    14200    12425    10359     7992     5366 
    2627      -70    -2614    -5023    -7327    -9468   -11439   -13306 
  -15047   -16544   -17787   -18909   -19982   -20941   -21737   -22358 
  -22752   -22934   -22981   -22896   -22642   -22261   -21783   -21109 
  -20081   -18682   -17181   -15836   -14519   -12996   -11338    -9680 
   -7997    -6239    -4352    -2319     -238     1852     4002     6186 
    8329    10332    12089    13545    14710    15584    16137    16388 
   16424    16256    15780    14971    13932    12713    11317     9771 
    8102     6205     3923     1264    -1606    -4579    -7627   -10669 
  -13456   -15816   -17905   -19908   -21801   -23610   -25412   -27039 
  -28251   -29008   -29369   -29378   -29003   -28183   -26981   -25447 
  -23588   -21520   -19434   -17523   -15886   -14384   -12808   -11161 
   -9486    -7716    -5840    -3839    -1567     1038     3789     6417 
    8777    10786    12352    13473    14238    14693    14868    14878 
   14760    14364    13640    12698    11573    10189     8446     6343 
    4029     1686     -518    -2436    -4044    -5460    -6881    -8457 
  -10184   -12056   -14089   -16190   -18274   -20405   -22655   -24904 
  -26784   -27912   -28240   -28054   -27565   -26763   -25739   -24764 
  -23976   -23257   -22372   -21204   -19813   -18166   -16308   -14463 
  -12577   -10454    -8197    -5948    -3776    -1779       32     1728 
    3400     5115     6791     8263     9441    10353    10978    11233 
   11156    10910    10563     9944     8912     7647     6420     5362 
    4527     3851     3177     2455     1684      814     -125    -1081 
   -2091    -3109    -3991    -4725    -5377    -5921    -6312    -6586 
   -6797    -7042    -7444    -8083    -9042   -10365   -11939   -13559 
  -15021   -16167   -16977   -17545   -17948   -18219   -18324   -18158 
  -17713   -17014   -15992   -14661   -13113   -11394    -9553    -7695 
   -5917    -4222    -2550     -981      280     1188     1814     2188 
    2417     2695     3130     3754     4577     5544     6484     7260 
    7911     8552     9229     9833    10058     9617     8496     6862 
    4834     2525      122    -2176    -4268    -6169    -7896    -9420 
  -10783   -12085   -13311   -14349   -15161   -15824   -16375   -16753 
  -16943   -16984   -16869   -16563   -16058   -15337   -14331   -13041 
  -11618   -10226    -9007    -8031    -7253    -6575    -5894    -5216 
   -4673    -4284    -4002    -3861    -3878    -4055    -4430    -4954 
   -5493    -5953    -6318    -6631    -6825    -6770    -6505    -6137 
   -5644    -4956    -4106    -3287    -2729    -2485    -2407    -2327 
   -2196    -2050    -1930    -1856    -1826    -1822    -1768    -1617 
   -1414    -1255    -1250    -1501    -2057    -2852    -3759    -4637 
   -5348    -5810    -6089    -6339    -6647    -7059    -7616    -8314 
   -9104    -9923   -10674   -11256   -11607   -11661   -11341   -10716 
   -9994    -9366    -8901    -8530    -8148    -7728    -7264    -6708 
   -5985    -5066    -4050    -3026    -1995    -1019     -184      532 
    1156     1640     1985     2284     2678     3246     3878     4414 
    4741     4729     4327     3669     2983     2492     2266     2196 
    2153     2137     2224     2369     2342     1984     1362      604 
    -225    -1043    -1738    -2357    -3055    -3936    -5026    -6284 
   -7628    -8922   -10021   -10867   -11468   -11785   -11772   -11416 
  -10732    -9809    -8810    -7892    -7136    -6546    -6107    -5796 
   -5571    -5413    -5350    -5398    -5503    -5560    -5522    -5356 
   -4982    -4291    -3225    -1880     -526      566     1321     1776 
    1985     2014     1993     2066     2250     2457     2594     2600 
    2392     1845      873     -508    -2187    -3971    -5636    -6966 
   -7792    -8098    -8073    -7983    -8013    -8225    -8615    -9157 
   -9846   -10613   -11196   -11325   -10987   -10362    -9637    -8938 
   -8301    -7735    -7230    -6718    -6096    -5273    -4266    -3188 
   -2118    -1144     -386      116      411      532      515      496 
     618      842     1098     1420     1767     2033     2196     2243 
    2068     1632     1055      413     -346    -1302    -2459    -3692 
   -4851    -5945    -7025    -8062    -9020    -9847   -10463   -10849 
  -11037   -11045   -10924   -10775   -10729   -10821   -10951   -10999 
  -10852   -10392    -9601    -8586    -7550    -6720    -6129    -5715 
   -5595    -5864    -6401    -7037    -7641    -8078    -8298    -8301 
   -8093    -7736    -7380    -7155    -7094    -7191    -7497    -8060 
   -8731    -9173    -9131    -8579    -7652    -6594    -5684    -5090 
   -4776    -4588    -4448    -4351    -4260    -4168    -4094    -3987 
   -3819    -3603    -3303    -2828    -2069     -989      288     1533 
    2551     3242     3559     3519     3242     2863     2390     1737 
