Origin Time       2016/04/16 01:25:00
Lat.              32.753
Long.             130.762
Depth. (km)       12
Mag.              7.3
Station Code      YMG007
Station Lat.      34.1657
Station Long.     131.2064
Station Height(m) 90
Record Time       2016/04/16 01:25:35
Sampling Freq(Hz) 100Hz
Duration Time(s)  100
Dir.              N-S
Scale Factor      7845(gal)/8223790
Max. Acc. (gal)   14.255
Last Correction   2016/04/16 01:25:35
Memo.             
[...]
    3782     4999     5838     5900     5394     4838     4402     3897 
    3222     2593     2419     3005     4153     5266     6037     6597 
    6939     6828     6142     4911     3241     1460       87     -531 
    -328      737     2497     4374     5771     6457     6408     5653 
    4410     3196     2520     2501     2975     3721     4375     4452 
    3820     2895     2135     1598     1119      684      493      695 
    1178     1669     1948     1992     1880     1652     1323      886 
     463      394      905     1822     2740     3314     3406     3240 
    3252     3596     4072     4486     4799     5044     5206     5227 
    5150     5164     5387     5740     6003     5900     5286     4386 
    3605     3176     3149     3462     3913     4223     4144     3643 
    3010     2493     2034     1572     1202      940      765      846 
    1347     2114     2841     3385     3666     3643     3496     3400 
    3314     3230     3202     3075     2654     2053     1503     1081 
     969     1439     2305     3045     3465     3767     4078     4248 
    4117     3697     3080     2385     1829     1568     1553     1755 
    2259     2933     3388     3397     3063     2688     2532     2614 
    2849     3250     3711     3738     3017     2058     1560     1447 
    1318     1236     1466     1988     2639     3342     4032     4648 
    5208     5572     5506     5097     4726     4585     4549     4517 
    4515     4592     4831     5140     5161     4777     4321     4081 
    4064     4268     4665     5001     5112     5116     4956     4345 
    3257     2031     1107      849     1375     2459     3724     4941 
    5964     6573     6654     6274     5570     4685     3724     2721 
    1779     1229     1422     2220     3227     4284     5250     5780 
    5686     5185     4657     4251     3838     3279     2616     2147 
    2133     2439     2822     3199     3387     3207     2805     2361 
    1992     1926     2212     2617     2992     3348     3744     4314 
    4984     5355     5185     4608     3867     3199     2802     2693 
    2720     2859     3192     3565     3719     3709     3730     3878 
    4152     4452     4657     4756     4835     5000     5243     5491 
    5760     6018     6091     5822     5227     4577     4282     4431 
    4649     4502     4000     3491     3211     3146     3161     3144 
    3140     3314     3751     4303     4708     4877     4922     4909 
    4873     4907     5042     5217     5356     5270     4672     3573 
    2447     1790     1823     2623     4082     5736     6912     7222 
    6736     5689     4383     3262     2712     2724     3013     3443 
    4174     5238     6234     6610     6177     5148     3892     2803 
    2208     2147     2500     3275     4367     5270     5589     5459 
    5188     4935     4718     4383     3866     3410     3168     3011 
    3040     3601     4657     5751     6588     7064     6968     6277 
    5425     4864     4668     4649     4637     4638     4680     4718 
    4768     4920     5232     5626     5911     5929     5668     5316 
    5104     4985     4693     4068     3232     2474     1988     1794 
    1856     2274     3152     4117     4507     4220     3724     3335 
    3148     3312     3724     3915     3609     3005     2482     2366 
    2799     3601     4378     4826     4846     4477     3870     3287 
    2902     2647     2431     2355     2579     3156     3901     4434 
    4475     4093     3596     3223     3046     3076     3225     3346 
    3492     3855     4387     4791     4923     4918     4981     5243 
    5686     6170     6542     6666     6451     5972     5486     5148 
    4889     4784     5055     5557     5846     5722     5271     4638 
    4006     3474     3078     2979     3308     3890     4440     4878 
    5231     5420     5371     5135     4756     4294     3929     3701 
    3369     2895     2666     2911     3362     3696     3937     4197 
    4415     4563     4672     4687     4629     4662     4824     5016 
    5270     5683     6038     5930     5373     4766     4338     4055 
    3897     3909     4178     4737     5401     5856     6072     6331 
    6710     6897     6667     6154     5584     5032     4525     4271 
    4517     5117     5602     5647     5228     4526     3812     3219 
    2735     2543     2953     3948     5221     6475     7392     7681 
    7318     6465     5270     3973     3025     2862     3480     4378 
    5012     5255     5242     4953     4322     3566     3045     2949 
    3258     3757     4145     4332     4399     4398     4426     4668 
    5162     5722     6129     6181     5678     4735     3839     3335 
    3292     3705     4460     5335     6127     6646     6752     6544 
    6261     5968     5632     5386     5332     5294     5121     4865 
    4500     3932     3296     2862     2841     3369     4357     5354 
    5922     5996     5778     5470     5231     5116     5074     5115 
    5265     5359     5189     4772     4295     3932     3736     3673 
    3716     3824     3923     3987     3998     3896     3647     3341 
    3250     3573     4118     4534     4723     4845     5077     5433 
    5792     6060     6238     6363     6399     6157     5575     4878 
    4332     4071     4178     4594     5124     5563     5674     5283 
    4464     3541     2929     2836     3146     3634     4148     4646 
    5159     5616     5802     5549     4972     4460     4341     4560 
    4801     4915     5003     5097     5036     4675     4102     3565 
    3264     3325     3753     4378     5000     5574     6146     6679 
    6952     6720     5973     4873     3643     2648     2201     2281 
    2743     3558     4629     5626     6235     6365     6026     5287 
    4407     3719     3330     3179     3348     3873     4464     4923 
    5445     6079     6489     6494     6292     6006     5505     4788 
    4088     3522     3152     3211     3753     4393     4773     4889 
    4824     4579     4238     3913     3555     3163     2955     3079 
    3397     3711     3904     3850     3508     3084     2836     2862 
    3176     3738     4351     4746     4828     4671     4352     4041 
    3997     4263     4594     4770     4783     4660     4492     4468 
    4680     5026     5360     5593     5603     5332     4958     4761 
    4797     4912     5009     5035     4791     4247     3771     3655 
    3736     3827     4045     4449     4847     5067     5047     4849 
    4668     4533     4286     3967     3817     3954     4307     4737 
    5023     4953     4573     4164     3824     3483     3288     3497 
    4067     4683     5063     5130     4972     4714     4402     4139 
    4113     4368     4745     5054     5164     5047     4882     4916 
    5157     5448     5768     6154     6413     6315     5917     5421 
    4947     4571     4363     4306     4375     4548     4649     4486 
    4135     3785     3524     3447     3662     4074     4469     4764 
    4907     4812     4490     4064     3647     3294     3013     2844 
    2944     3393     3958     4301     4367     4256     3959     3566 
    3391     3605     4041     4450     4676     4698     4642     4606 
    4521     4307     4067     3919     3844     3819     3885     3982 
    4068     4356     4961     5617     6037     6161     5975     5505 
    5007     4719     4514     4205     3894     3669     3520     3577 
    3944     4414     4704     4831     4922     4912     4761     4606 
    4525     4455     4353     4205     3969     3713     3681     3997 
    4459     4849     5177     5418     5359     4895     4168     3388 
    2737     2403     2516     3041     3735     4309     4680     4895 
    4887     4621     4301     4107     3960     3788     3682     3619 
    3496     3364     3204     2914     2633     2609     2920     3604 
    4587     5535     6200     6579     6608     6218     5575     4907 
    4374     4102     4124     4348     4612     4726     4602     4305 
    3969     3744     3719     3880     4183     4502     4665     4614 
    4468     4384     4403     4464     4444     4220     3902     3771 
    3890     4044     4125     4282     4629     5042     5412     5755 
    5980     5984     5775     5233     4200     3005     2358     2581 
    3415     4471     5418     5995     6099     5757     5112     4382 
    3658     3033     2806     3153     3839     4446     4731     4726 
    4579     4294     3816     3369     3312     3690     4243     4725 
    5003     5125     5283     5494     5443     4936     4215     3559 
    2991     2536     2362     2629     3302     4135     4804     5074 
    4954     4672     4374     4002     3542     3196     3176     3414 
    3705     3993     4233     4282     4054     3634     3186     2882 
    2828     2980     3245     3609     4088     4549     4784     4726 
    4433     4017     3632     3403     3360     3449     3634     3937 
    4271     4507     4600     4548     4321     3970     3677     3620 
    3825     4153     4371     4341     4197     4159     4245     4379 
    4545     4680     4680     4563     4449     4415     4430     4418 
    4342     4166     3801     3092     2062     1133      750      980 
    1692     2697     3727     4621     5418     6108     6543     6608 
    6277     5579     4618     3582     2700     2162     2056     2312 
    2806     3456     4137     4641     4851     4854     4766     4672 
    4595     4402     4017     3672     3657     3960     4380     4801 
    5201     5486     5549     5385     5115     4969     5100     5468 
    5892     6110     5983     5672     5350     4954     4484     4113 
    3929     3909     4063     4375     4752     5142     5481     5605 
    5489     5285     5017     4679     4471     4459     4399     4220 
    4082     3963     3712     3446     3366     3387     3412     3543 
    3658     3541     3373     3411     3542     3557     3481     3419 
    3369     3383     3588     3944     4270     4431     4423     4348 
    4294     4243     4120     3915     3751     3731     3753     3673 
    3559     3613     3873     4189     4594     5317     6336     7264 
    7713     7577     7006     6189     5267     4415     3797     3445 
    3279     3221     3308     3619     4055     4396     4533     4495 
    4368     4253     4210     4190     4088     3899     3645     3260 
    2767     2413     2496     3088     3950     4799     5525     6003 
    6054     5717     5202     4706     4403     4351     4357     4233 
    4009     3824     3774     3802     3805     3889     4287     5070 
    6053     6853     7132     6863     6201     5285     4274     3342 
    2562     1960     1626     1613     1837     2192     2700     3422 
    4233     4843     5144     5285     5381     5422     5410     5404 
    5414     5412     5497     5734     5946     6021     6120     6301 
    6346     6054     5460     4830     4511     4660     5109     5649 
    6211     6691     6894     6764     6465     6259     6315     6536 
    6723     6825     6881     6902     6863     6670     6276     5826 
    5486     5194     4797     4282     3738     3192     2656     2285 
    2267     2539     2876     3210     3588     3990     4387     4826 
    5385     6139     7015     7659     7782     7484     6990     6446 
    5900     5262     4490     3865     3611     3554     3508     3516 
    3553     3473     3213     2727     1941     1003      245     -176 
    -279      -75      318      688      928     1065     1181     1381 
    1804     2512     3338     4086     4808     5601     6354     6952 
    7441     7938     8543     9246     9877    10211    10115     9570 
    8683     7713     6895     6269     5818     5664     5921     6366 
    6496     6084     5354     4530     3677     2924     2492     2516 
    2914     3454     3893     4079     4044     3879     3566     3026 
    2274     1439      739      243     -278     -967    -1707    -2435 
   -3221    -4008    -4652    -5027    -5015    -4631    -4083    -3558 
   -3165    -3002    -3086    -3277    -3279    -2797    -1695       41 
    2346     4953     7438     9413    10621    10932    10492     9714 
    8922     8322     8237     8787     9602    10287    10825    11321 
   11669    11646    11109    10137     9038     8114     7402     6728 
    5991     5251     4629     4152     3719     3109     2096      707 
    -592    -1281    -1209     -469      797     2281     3488     3959 
    3619     2843     2007     1281      958     1372     2419     3651 
    4783     5864     6987     8077     9031     9755    10158    10281 
   10187     9911     9624     9594     9880    10196    10172     9657 
    8640     7041     4843     2371      238    -1088    -1501    -1071 
      90     1744     3435     4650     5055     4662     3716     2427 
    1019     -191     -935    -1003     -346      728     1765     2523 
    2983     3042     2519     1493      307     -561     -630      195 
    1572     3215     4985     6534     7283     6881     5522     3759 
    2263     1706     2434     4199     6516     8996    11196    12683 
   13265    12906    11830    10517     9200     7863     6639     5587 
    4575     3761     3597     4230     5139     5740     6230     7037 
    7931     8526     8846     8896     8434     7515     6602     6065 
    5921     5914     5614     4460     2107    -1063    -4345    -7288 
   -9516   -10682   -10669    -9452    -7203    -4509    -2052     -249 
     550      -35    -1892    -3963    -4923    -4369    -2889    -1170 
     506     2041     3032     3015     2192     1080     -167    -1263 
   -1560     -926      198     1649     3477     5432     7096     8235 
    8768     8652     8100     7643     7553     7680     8052     8748 
    9292     9165     8617     8441     9166    10457    11510    11924 
   11732    11218    10882    10867    10994    11426    12102    12301 
   11657    10601     9481     8286     7061     5776     4442     3485 
    3283     3928     5593     8132    10774    12538    12607    10800 
    7712     4172      950    -1175    -1584     -178     2508     5626 
    8364    10187    10689     9377     6224     2293    -1035    -3075 
   -3763    -3427    -2509    -1264      -17      842     1055      526 
    -461    -1525    -2494    -3215    -3420    -2778    -1096     1584 
    5036     8552    11146    12363    12359    11311     9300     6691 
    4132     2135      888      368      403      737     1362     2247 
    2704     1906     -102    -2330    -3885    -4761    -5065    -4407 
   -2752     -687     1263     2806     3688     3923     3880     4016 
    4590     5432     6212     7083     8248     9205     9477     9236 
    8467     6914     4869     3037     1902     1520     1680     2205 
    3037     4045     4869     5209     5066     4351     2825      491 
   -2393    -5316    -7639    -8905    -8742    -6810    -3156     1535 
    6180     9853    12025    12521    11616     9872     7827     6025 
    4889     4475     4612     5220     6328     7727     8776     8845 
    7761     5793     3295      619    -1535    -2579    -2620    -1996 
    -963       75      704      823      692      623      772     1269 
    2173     3447     4985     6528     7958     9366    10636    11592 
   12299    12698    12293    10667     8085     5235     2747     1146 
     820     1719     3372     5027     5935     5967     5389     4090 
    2064       54     -994     -526     1594     5162     9463    13417 
   16109    16846    15147    11414     6909     2620     -936    -3044 
   -3316    -2234     -562      864     1352      702     -787    -2478 
   -3717    -4232    -4166    -3573    -2411    -1084       97     1356 
    2687     3894     5225     6945     8749    10245    11367    11947 
   11781    11032     9981     8999     8617     8943     9579    10084 
    9941     8818     6940     4791     2875     1740     1888     3362 
    5347     6903     7715     7550     6089     3592      787    -1687 
   -3009    -2282      627     4947     9383    12766    14559    14586 
   12766     9445     5555     2134      -54     -735     -379      523 
    2076     4135     6115     7720     8787     9239     9220     8533 
    6880     4814     3283     2533     2230     2151     2249     2313 
    2178     1814     1119      201     -469     -545     -209      163 
     529     1047     1709     2322     2621     2394     1690      753 
    -151     -592      -93     1360     3173     4499     4901     4496 
    3484     1952       81    -1709    -2887    -3046    -2236     -831 
    1100     3474     5663     7102     7480     6474     4445     2347 
     676     -287     -102     1138     2770     4428     5995     6976 
    6933     6062     4876     3828     3175     3121     3712     4371 
    4473     4074     3524     3130     3163     3601     4149     4760 
    5672     6733     7288     6947     5923     4641     3349     1993 
     556     -476     -506      468     1794     2751     3132     3130 
    2906     2470     1775      893      206      101      464      916 
    1447     2361     3685     4997     5944     6481     6550     6096 
    5286     4315     3402     2929     3033     3399     3850     4514 
    5344     6025     6234     5891     5316     4996     5287     6382 
    8168    10120    11650    12451    12258    10920     9107     7944 
    7843     8406     9242    10206    11055    11470    11225     9995 
    7736     5178     3194     2076     1729     2165     3453     5312 
    7198     8683     9436     9177     7827     5707     3447     1657 
     749      824     1696     3169     5070     7034     8677     9826 
   10420    10427     9757     8240     6044     3832     2258     1588 
    1722     2390     3264     3958     4048     3253     1609     -552 
   -2627    -3991    -4457    -4131    -2983    -1000     1395     3603 
    5248     6162     6369     6122     5738     5348     4918     4563 
    4340     3919     2974     1705      600       -5     -102      259 
    1252     2909     4828     6606     7901     8380     7960     6806 
    5201     3505     2016      919      369      341      506      618 
     739      853      818      765      866      926      882     1074 
    1587     2176     2824     3708     4737     5503     5683     5208 
    4205     3102     2323     1875     1626     1613     1908     2504 
    3198     3526     3172     2411     1647      818      -65     -441 
      58     1150     2567     4243     5849     6997     7635     7905 
    7983     8043     8162     8387     8824     9367     9591     9235 
    8473     7755     7369     7163     6881     6652     6848     7488 
    7987     7870     7385     7059     7040     7163     7357     7750 
    8263     8548     8428     7906     6951     5617     4253     3458 
    3518     4280     5623     7342     8965    10068    10382     9823 
    8665     7429     6513     5980     5706     5547     5317     4903 
    4260     3380     2484     1887     1714     1960     2413     2748 
    2956     3194     3308     3183     3056     3045     3025     3087 
    3379     3650     3585     3176     2512     1714      963      365 
       5       54      588     1381     2016     2293     2241     1975 
