Origin Time       2016/04/16 01:25:00
Lat.              32.753
Long.             130.762
Depth. (km)       12
Mag.              7.3
Station Code      YMG011
Station Lat.      34.0643
Station Long.     131.0214
Station Height(m) 24
Record Time       2016/04/16 01:25:31
Sampling Freq(Hz) 100Hz
Duration Time(s)  187
Dir.              E-W
Scale Factor      7845(gal)/8223790
Max. Acc. (gal)   76.876
Last Correction   2016/04/16 01:25:31
Memo.             
[...]
    2010     -155     -608      418     1742     1915     -244    -4467 
   -8640   -10922   -11408   -11223   -11431   -12779   -15097   -16998 
  -17169   -15709   -13691   -12322   -12320   -12908   -12368   -10008 
   -6473    -2506     1694     5910     9585    12691    15673    18544 
   20745    21386    20074    17467    14496    11720     9435     7589 
    5672     3306      905     -909    -2010    -2474    -2276    -1259 
     544     2394     3412     3505     3194     2809     2141     1047 
     -27     -639     -855    -1057    -1715    -2960    -4352    -5405 
   -5956    -6049    -6141    -6806    -7647    -7572    -6326    -4515 
   -2470     -298     1422     2281     2768     3499     4422     5113 
    5239     4855     4483     4606     5127     5486     5154     4294 
    3861     4399     5186     5171     4248     2959     1638      710 
     654     1213     1625     1532     1012      191     -820    -1973 
   -3284    -4857    -6786    -8607    -9563    -9559    -9059    -8430 
   -7749    -7009    -6154    -4768    -2614     -319     1478     2953 
    4540     6374     8374    10249    11689    12600    12949    12881 
   12783    12657    12077    10845     9335     8108     7215     6282 
    5179     4148     3555     3627     4144     4745     5416     6196 
    6985     7780     8348     8144     7159     6031     5027     3626 
    1051    -3068    -8359   -13666   -17625   -19836   -21066   -22064 
  -22906   -23334   -23039   -21779   -19476   -16212   -12218    -7985 
   -4125    -1043     1366     3663     6079     8177     9486    10033 
   10428    11227    12187    12522    11761    10224     8856     8418 
    8888     9809    10717    11129    10748     9919     9530     9945 
   10427    10141     9082     7909     7229     7118     7253     7377 
    7515     7940     8826     9724     9783     8552     6300     3770 
    1541     -492    -2694    -4932    -6937    -8706   -10011   -10461 
  -10181    -9788    -9783   -10268   -11107   -12013   -12640   -12916 
  -13161   -13533   -13668   -13180   -12226   -11221   -10233    -9282 
   -8668    -8421    -8051    -7072    -5455    -3437    -1060     1818 
    5258     9008    12534    15444    17732    19429    20152    19464 
   17442    14746    12351    10963    10547    10547    10336     9776 
    9362     9447     9860    10428    10949    10978    10250     8665 
    5911     1980    -2236    -5416    -6790    -6529    -5321    -4028 
   -3357    -3416    -4000    -5159    -7032    -9273   -11360   -13200 
  -14774   -15778   -16086   -15920   -15215   -13586   -11071    -8228 
   -5663    -3673    -2018     -283     1682     3815     5860     7465 
    8649     9802    11225    12978    14762    15866    15681    14179 
   11739     8750     5436     2015    -1174    -3809    -5587    -6183 
   -5610    -4473    -3334    -2180     -895      318     1254     1792 
    1571      349    -1248    -2231    -2431    -2452    -2529    -2230 
   -1336     -249      714     1632     2520     3319     4228     5327 
    6084     6041     5667     5575     5674     5805     6254     7206 
    8298     9066     9475     9792    10092     9968     8958     7119 
    5009     3241     2029     1166      322     -685    -1620    -1894 
   -1259      -16     1506     2736     2841     1923      896      112 
    -654    -1544    -2512    -3554    -4680    -5602    -5925    -5805 
   -5840    -6199    -6469    -6290    -5483    -3987    -2111     -283 
    1287     2663     4054     5545     7067     8428     9212     9130 
    8503     7969     7789     7643     7007     5575     3458     1112 
    -955    -2515    -3646    -4378    -4615    -4426    -3942    -3258 
   -2698    -2432    -2162    -1563     -400     1314     2967     3855 
    3847     3137     1964      753      -64     -506     -943    -1393 
   -1435    -1013     -521       74     1256     2957     4476     5408 
    5800     5760     5656     6120     7167     7985     8149     8235 
    8785     9514     9911     9768     8939     7295     4887     1892 
   -1440    -4726    -7480    -9417   -10496   -10592    -9612    -7986 
   -6590    -6050    -6258    -6774    -7381    -7793    -7493    -6322 
   -4653    -2956    -1424     -151      791     1541     2083     2160 
    1925     1973     2754     4048     5008     5211     5112     5283 
    5992     7350     9193    10984    12074    12147    11348     9965 
    8391     7075     6060     5078     4140     3450     2956     2338 
    1466      750      579      710      835      845      472     -410 
   -1694    -3258    -4710    -5564    -5782    -5632    -5328    -4961 
   -4615    -4446    -4522    -4676    -4672    -4556    -4558    -4577 
   -4228    -3442    -2584    -1960    -1459     -700      526     2176 
    4222     6579     8761    10147    10559    10466    10484    10562 
   10073     8680     6815     5425     5140     5655     6170     6219 
    5827     5179     4192     2524      211    -2093    -3631    -4003 
   -3299    -2053    -1121    -1171    -2168    -3388    -4028    -3946 
   -3715    -3831    -4321    -4955    -5490    -5798    -5718    -5127 
   -4313    -3689    -3292    -2932    -2471    -1884    -1209     -409 
     591     1763     3090     4365     5084     5105     4862     4727 
    4843     5355     6417     7843     8892     8916     8105     7136 
    6465     6156     6099     6083     5813     5356     5255     5688 
    6127     6053     5412     4351     3038     1746      762      236 
      39     -237     -819    -1457    -1903    -2253    -2756    -3549 
   -4440    -4855    -4376    -3377    -2675    -2740    -3624    -5109 
   -6620    -7622    -8152    -8433    -8306    -7503    -6029    -4090 
   -1966      -55     1144     1316      639     -309    -1008    -1174 
    -789      -41     1004     2421     4144     5907     7425     8644 
    9670    10552    11298    11861    12195    12530    13171    13941 
   14189    13451    11813     9679     7466     5463     3811     2605 
    1726      785     -477    -2115    -3989    -5643    -6705    -7408 
   -8195    -9111    -9981   -10793   -11398   -11284   -10121    -8190 
   -6126    -4658    -4187    -4213    -3842    -2835    -1572     -627 
    -500    -1158    -2023    -2609    -2679    -2058     -797      761 
    2423     4286     6393     8543    10216    10655     9629     7847 
    6134     4996     4850     5585     6475     7103     7538     7630 
    7061     6058     5273     4870     4401     3532     2416     1325 
     315     -665    -1614    -2492    -3296    -4068    -4881    -5769 
   -6743    -7777    -8729    -9412    -9776    -9801    -9217    -7770 
   -5732    -3634    -1711       28     1479     2590     3519     4395 
    5063     5268     4970     4422     4043     4098     4576     5374 
    6270     6930     7211     7279     7375     7601     7886     7958 
    7353     5746     3369     1059     -125      203     1367     2442 
    2995     2936     2353     1617     1136     1012     1121     1323 
    1451     1308      876      295     -530    -1838    -3330    -4274 
   -4342    -3819    -3109    -2405    -1759    -1298    -1156    -1389 
   -2008    -2776    -3187    -3071    -2876    -2978    -3003    -2354 
   -1159       29      923     1401     1429     1073      342     -710 
   -1917    -3080    -3970    -4406    -4376    -3844    -2759    -1443 
    -400      243      661     1015     1541     2527     3878     5062 
    5715     6000     6296     6771     7427     8337     9265     9510 
    8780     7562     6372     5323     4431     3786     3387     3192 
    3326     3909     4603     4804     4218     2933     1177     -853 
   -3098    -5510    -7835    -9571   -10195    -9544    -8040    -6492 
   -5549    -5229    -5026    -4449    -3312    -1705       36     1667 
    3222     4639     5559     5760     5463     4989     4306     3238 
    2004     1140     1055     1875     3424     5273     7117     9009 
   11091    13180    14816    15727    15871    15317    14436    13711 
   13128    12170    10420     7870     4720     1242    -2163    -5185 
   -7747    -9714   -10762   -10665    -9580    -8159    -7269    -7450 
   -8704   -10613   -12565   -14100   -14987   -15014   -13999   -12116 
   -9840    -7163    -3682      263     3761     6407     8179     8957 
    8845     8307     7778     7452     7317     7276     7269     7102 
    6544     5692     4753     3600     1921     -301    -2600    -4399 
   -5297    -4945    -3406    -1560     -468     -569    -1706    -3459 
   -5260    -6562    -7160    -7186    -6924    -6648    -6507    -6513 
   -6380    -5626    -4066    -1902      603     3414     6642    10030 
   12930    14972    16289    17084    17410    17328    16961    16302 
   15202    13697    12006    10245     8483     6731     4889     3029 
    1258     -538    -2413    -4258    -6056    -7905    -9850   -11757 
  -13463   -15048   -16869   -19268   -22154   -25139   -27903   -30233 
  -32051   -33230   -33253   -31544   -28123   -23672   -19111   -15134 
  -11924    -9262    -6826    -4476    -2371     -558     1170     2867 
    4544     6270     7825     8869     9131     8413     6967     5456 
    4382     3913     4002     4592     5837     7933    10863    14222 
   17235    19429    21034    22473    23863    24999    25605    25469 
   24259    21721    18075    13969    10223     7443     5772     5208 
    5849     7612    10114    12753    14806    15896    16114    15546 
   14331    12906    11680    10692     9563     7905     5814     3645 
    1495     -880    -3838    -7624   -12505   -18619   -25374   -31654 
  -36423   -38846   -38584   -35756   -30404   -22746   -13848    -5616 
      10     2200     1185    -2565    -7992   -13238   -16984   -19141 
  -20059   -19958   -19192   -18301   -17594   -17319   -18049   -20160 
  -23168   -25987   -27697   -27896   -26144   -21597   -14118    -5000 
    4166    12447    19161    23822    26539    27764    27884    27175 
   25760    23741    21541    19967    19793    21284    23938    26979 
   29994    32772    35199    37440    39563    41435    43021    44046 
   43930    42114    37480    28714    16860     5373    -3453    -9211 
  -10768    -6725     1810    11801    20644    26959    30677    31905 
   30086    25369    18636    10860     3965      -28     -405     2571 
    7631    12559    15041    13590     8108     -724   -11898   -23737 
  -34402   -43155   -50449   -55877   -57294   -53353   -45434   -36844 
  -30862   -28367   -27796   -27675   -27379   -26233   -24159   -22368 
  -21780   -21479   -19037   -12590    -2781     8336    19408    29511 
   37376    42597    46456    49887    52142    52488    51359    49447 
   46831    42993    37218    29070    18782     7593    -2681   -10616 
  -15319   -16421   -14029    -8291      496    11371    22670    32670 
   40194    44717    46093    44288    39456    32355    24285    16376 
    9337     3464    -1740    -7149   -13211   -20000   -26924   -32684 
  -36378   -38263   -39645   -41800   -45296   -50295   -55998   -60926 
  -64058   -64604   -62375   -57890   -51340   -42993   -33758   -24834 
  -17267   -11574    -7835    -5845    -5560    -6759    -8375    -9261 
   -8513    -5674    -1493     2764     6095     7489     6528     4069 
    1289    -1533    -4464    -7203    -9286   -10025    -9137    -6909 
   -3277     1331     5729     9514    13081    16780    20579    24360 
   28738    34168    39590    43779    46548    47915    47968    47020 
   44844    41018    35735    29308    22241    15408     9012     2404 
   -5032   -13590   -23230   -33511   -43474   -51783   -57466   -59883 
  -58357   -53098   -45099   -34875   -23063   -11341    -1200     7331 
   14666    20633    25196    28715    31443    33137    32691    28846 
   21551    12399     3627    -3684    -9653   -14472   -18987   -24174 
  -29165   -32516   -33813   -32779   -29477   -24722   -19145   -13478 
   -9003    -6311    -5134    -5390    -6744    -8175    -8735    -7673 
   -4733     -599     3936     8193    11665    14133    15512    16563 
   18474    21554    25353    29326    33150    36599    39406    41256 
   41863    41026    38634    34959    30576    25906    21408    17832 
   15971    16015    17382    19431    21901    24452    26400    27616 
   28868    30623    32552    33732    32948    29632    24517    19152 
   14642    10891     7453     4560     2582     1277      -44    -2319 
   -6320   -12017   -18581   -25006   -30478   -34194   -35365   -33355 
  -27774   -18837    -7642     3821    13544    20818    25782    28479 
   29571    30541    32541    35804    39671    42730    43470    41125 
   35710    27731    18405     9693     3283     -436    -1551       44 
    3572     7334     9594     8992     5077    -1561    -9464   -16915 
  -22883   -26717   -27784   -26284   -23350   -19819   -15801   -11164 
   -5584     1327     9433    17992    25775    31333    33771    32875 
   28574    21029    11434     1854    -6477   -13705   -19966   -24873 
  -28577   -31856   -34886   -37451   -39815   -42183   -44300   -45671 
  -45492   -43094   -38507   -32047   -24205   -15754    -7493     -268 
    5116     8109     8556     6878     3936      707    -2012    -3755 
   -4459    -4341    -3433    -1418     1998     7075    14076    23000 
   33393    44238    54361    62833    68717    71146    69820    65250 
   58521    50505    41428    31387    20738     9940     -625   -11017 
  -21533   -32341   -43536   -54785   -65298   -73962   -79105   -79497 
  -75590   -68898   -61129   -53646   -46882   -40637   -34630   -29027 
  -24761   -22558   -22383   -24205   -27685   -31443   -33874   -33721 
  -30148   -23518   -14928    -5069     4897    13468    20858    28270 
   36132    44609    53388    60902    65473    66410    64180    60322 
   56759    54818    54504    54768    54664    53442    50398    45410 
   38315    28761    17678     7003    -1850    -8283   -12275   -14343 
  -15445   -16756   -18897   -21691   -24682   -27131   -28684   -29832 
  -30921   -32363   -34882   -38137   -41289   -44440   -47576   -50176 
  -51806   -51537   -48273   -41366   -31016   -19392    -9352    -1649 
    4576     9679    13547    16316    18133    19107    19581    20125 
   21490    24359    28840    34392    40401    46336    51113    53282 
   52307    48559    42742    36261    30549    25791    21020    15192 
    8401     1857    -3199    -5972    -6231    -4143     -236     3865 
    6629     8012     8233     7753     7443     7317     6840     5350 
    2207    -2070    -6258    -9528   -10665    -8509    -3562     2783 
    8980    13693    16872    18990    20170    20745    20776    19616 
   16872    12919     8573     4507      533    -3776    -8328   -12768 
  -16575   -19526   -22194   -24953   -27306   -28663   -28845   -27741 
  -25135   -21170   -16394   -11149    -5796    -1275     1316     1603 
     353    -1277    -2771    -3942    -4383    -3856    -2740    -1902 
   -1846    -2135    -2189    -2153    -2322    -2497    -2168    -1036 
     592     2438     4703     7472    10486    13394    15849    17432 
   17795    17382    17126    17204    17093    16133    13674     9755 
    5270      915    -3339    -7715   -12194   -16313   -19422   -21307 
  -21936   -21321   -19797   -17633   -15138   -12916   -11574   -11761 
  -13842   -17240   -20738   -23318   -24422   -23923   -21639   -17208 
  -11061    -4622      746     4603     7462     9856    11807    13043 
   13248    12409    10994     9648     8865     8857     9560    10656 
   11673    12469    13230    13888    13963    12864    10443     7006 
    2817    -1818    -6600   -11561   -17104   -23620   -30593   -36545 
  -40313   -41910   -41980   -41032   -39202   -36356   -32397   -27029 
  -19861   -11171    -1852     7101    15028    21883    27780    32777 
   37073    40290    41308    39471    35230    29945    25049    21015 
   17508    13930     9491     3802    -2627    -8661   -12914   -14447 
  -13238    -9923    -5508     -631     4826    10670    16151    20629 
   23340    23622    21417    17143    11819     6658     2201    -1637 
   -5007    -7819    -9922   -11410   -12326   -12475   -12144   -12287 
  -13501   -15430   -17200   -17967   -17172   -14449    -9837    -4283 
     908     5121     8453    11029    12758    13514    13157    11604 
    9229     6975     5775     6083     8068    11377    15075    18412 
   20930    22303    22285    20514    16965    12488     8252     4972 
    2844     1701     1228     1274     1483     1259      757      876 
    2184     4746     8181    11754    14737    16484    16860    16093 
   14148    11291     8028     4376      230    -4342    -9126   -13541 
  -17177   -19993   -21847   -22810   -23036   -22419   -21192   -19510 
  -17192   -14446   -11404    -8156    -5256    -2964    -1412     -932 
   -1287    -2053    -3165    -4359    -5138    -5040    -3838    -1865 
     248     2134     3503     4212     4600     4793     4558     3920 
    3113     2685     3180     4330     5312     5560     5057     4186 
    3136     1625     -391    -2667    -5138    -7666    -9906   -11411 
  -11854   -11352   -10187    -8517    -6748    -5487    -5123    -5764 
   -7038    -8156    -8687    -8546    -7632    -6312    -5188    -4558 
   -4418    -4256    -3440    -1783      635     3530     6174     7807 
    8182     7623     6677     5686     4905     4654     4927     5606 
    6663     7732     8503     9026     9221     9104     8800     8197 
    7291     6280     5333     4550     3659     2478     1495     1111 
    1169     1260      778     -676    -2967    -5772    -8712   -11260 
  -12995   -13721   -13404   -12347   -10862    -9043    -6982    -4653 
   -2172       -2     1576     2596     3256     3867     4602     5514 
    6548     7453     8148     8743     9082     8916     8177     6919 
    5412     4041     2913     1867      807     -112     -453       60 
    1161     2519     4067     5601     6654     7126     7537     8487 
   10123    11943    13293    13926    13887    13312    12301    10774 
    8599     5871     3028      486    -1680    -3464    -4669    -5120 
   -5001    -4870    -5292    -6465    -8167    -9913   -11155   -11638 
  -11580   -11191   -10309    -8734    -6673    -4657    -2934    -1287 
     280     1378     1927     2215     2610     3392     4409     5421 
    6416     7302     8179     9294    10604    11956    13170    14052 
   14566    14650    14331    13878    13294    12469    11600    10868 
   10129     9062     7472     5583     3828     2481     1606      897 
     -58    -1070    -1611    -1541    -1147     -805     -864    -1574 
   -2767    -3871    -4575    -5007    -5358    -5775    -6331    -6959 
   -7601    -8334    -9273   -10497   -11898   -12992   -13247   -12447 
  -10613    -7997    -5078    -2351       67     2304     4225     5709 
    7022     8546    10309    11902    12999    13598    13732    13448 
   12660    11117     8877     6353     4036     2362     1337      548 
    -294    -1084    -1420    -1044     -197      672     1192     1232 
    1042      804      322     -488    -1350    -1958    -2274    -2335 
   -2025    -1337     -529      225      859     1332     1702     1912 
    1750     1310      969      942     1270     1840     2415     2859 
