Origin Time       2016/04/16 01:25:00
Lat.              32.753
Long.             130.762
Depth. (km)       12
Mag.              7.3
Station Code      YMG019
Station Lat.      33.8455
Station Long.     132.1204
Station Height(m) 55
Record Time       2016/04/16 01:25:41
Sampling Freq(Hz) 100Hz
Duration Time(s)  107
Dir.              N-S
Scale Factor      7845(gal)/8223790
Max. Acc. (gal)   6.502
Last Correction   2016/04/16 01:25:42
Memo.             
[...]
    6531     6490     6528     6610     6635     6556     6439     6322 
    6169     5983     5810     5727     5776     5884     5983     6102 
    6227     6238     6095     5931     5880     5953     6089     6227 
    6331     6420     6496     6556     6642     6739     6782     6720 
    6508     6162     5782     5510     5435     5493     5560     5567 
    5502     5404     5304     5216     5167     5169     5181     5179 
    5173     5177     5217     5310     5464     5694     5984     6235 
    6399     6515     6577     6539     6439     6295     6060     5784 
    5599     5572     5659     5773     5887     5981     6022     6053 
    6156     6276     6322     6349     6436     6538     6600     6620 
    6604     6581     6597     6647     6669     6637     6600     6578 
    6543     6490     6457     6432     6413     6470     6632     6787 
    6829     6808     6805     6806     6775     6716     6662     6654 
    6691     6758     6845     6902     6878     6813     6763     6762 
    6825     6871     6822     6724     6629     6547     6542     6685 
    6947     7253     7564     7832     7983     8000     7944     7875 
    7796     7712     7630     7524     7384     7245     7140     7034 
    6895     6806     6876     7080     7268     7312     7200     7009 
    6867     6841     6839     6732     6513     6288     6142     6076 
    6043     6033     6058     6114     6146     6162     6191     6199 
    6196     6216     6251     6338     6507     6660     6720     6690 
    6586     6431     6290     6247     6334     6446     6478     6430 
    6351     6301     6322     6407     6519     6586     6569     6528 
    6493     6411     6268     6124     6014     5931     5915     6042 
    6280     6502     6660     6779     6889     6972     6951     6806 
    6656     6581     6569     6602     6652     6708     6782     6847 
    6836     6744     6631     6536     6507     6579     6721     6863 
    6951     6980     7030     7163     7325     7393     7292     7049 
    6802     6673     6650     6623     6586     6608     6667     6691 
    6681     6643     6523     6349     6239     6269     6439     6713 
    6997     7200     7264     7118     6806     6539     6436     6420 
    6396     6366     6319     6204     6033     5875     5798     5834 
    5926     5983     5980     5987     6043     6104     6129     6122 
    6091     6070     6087     6110     6118     6129     6180     6259 
    6327     6376     6399     6380     6304     6177     6052     5988 
    5979     5995     6033     6091     6186     6319     6417     6447 
    6453     6470     6462     6407     6361     6370     6436     6571 
    6706     6764     6763     6728     6625     6486     6380     6280 
    6138     6027     6031     6110     6189     6258     6307     6308 
    6261     6184     6115     6093     6066     5952     5782     5694 
    5779     5944     6038     6031     6003     5996     6022     6124 
    6318     6511     6617     6652     6654     6635     6654     6727 
    6764     6747     6756     6813     6874     6917     6952     6988 
    7036     7106     7168     7183     7125     6978     6777     6567 
    6363     6231     6200     6214     6257     6340     6400     6397 
    6343     6181     5908     5640     5404     5200     5124     5185 
    5265     5309     5344     5344     5287     5219     5185     5202 
    5254     5273     5250     5239     5260     5273     5258     5220 
    5177     5169     5229     5370     5559     5702     5778     5849 
    5926     5953     5898     5792     5692     5649     5671     5736 
    5813     5848     5809     5727     5682     5707     5756     5792 
    5859     5968     6106     6276     6443     6534     6577     6632 
    6658     6588     6423     6176     5876     5606     5429     5379 
    5476     5637     5724     5738     5780     5848     5890     5896 
    5888     5888     5927     5998     6084     6201     6372     6559 
    6662     6652     6610     6569     6471     6316     6193     6141 
    6110     6070     6039     6031     6015     5987     5961     5926 
    5896     5907     5922     5896     5869     5902     6006     6146 
    6255     6264     6127     5888     5687     5620     5674     5813 
    5991     6148     6246     6277     6289     6312     6268     6103 
    5931     5864     5898     5994     6085     6114     6114     6133 
    6170     6196     6181     6135     6065     6000     5989     6011 
    6031     6057     6062     6031     5991     5907     5779     5660 
    5514     5282     5015     4835     4854     5051     5305     5549 
    5746     5837     5815     5705     5513     5277     5103     5105 
    5229     5300     5302     5355     5485     5648     5811     5954 
    6081     6193     6295     6384     6436     6442     6416     6370 
    6326     6284     6210     6141     6115     6083     6039     6019 
    6002     5988     6043     6160     6254     6311     6343     6319 
    6223     6097     6025     6068     6216     6399     6546     6635 
    6683     6706     6710     6677     6597     6500     6416     6378 
    6380     6372     6347     6295     6170     6037     5992     5999 
    5980     5971     6031     6145     6247     6285     6239     6095 
    5875     5653     5490     5386     5321     5275     5254     5285 
    5381     5521     5686     5856     5994     6068     6079     6023 
    5902     5764     5645     5551     5497     5487     5460     5368 
    5278     5266     5302     5329     5379     5491     5630     5771 
    5902     5994     6050     6110     6153     6145     6053     5859 
    5629     5456     5331     5220     5157     5150     5177     5246 
    5367     5559     5821     6065     6211     6274     6307     6350 
    6448     6615     6814     6976     7032     6959     6799     6606 
    6427     6307     6232     6142     6025     5933     5894     5910 
    5968     6023     6033     6010     5981     5919     5787     5617 
    5474     5393     5377     5417     5476     5537     5633     5753 
    5840     5867     5881     5922     5958     5964     5961     5968 
    6002     6089     6197     6261     6290     6339     6419     6527 
    6655     6806     6963     7068     7064     6957     6831     6759 
    6735     6736     6751     6732     6647     6531     6421     6282 
    6077     5830     5617     5528     5605     5772     5904     5961 
    5968     5934     5853     5733     5613     5548     5537     5545 
    5579     5653     5738     5773     5709     5576     5464     5414 
    5420     5486     5628     5809     5950     6022     6061     6104 
    6134     6124     6087     6060     6048     6031     6041     6084 
    6119     6146     6170     6173     6193     6292     6436     6569 
    6682     6797     6881     6895     6859     6798     6721     6673 
    6655     6615     6573     6605     6698     6793     6848     6840 
    6770     6677     6615     6601     6594     6577     6575     6592 
    6590     6552     6485     6367     6181     5965     5795     5725 
    5763     5840     5875     5871     5864     5871     5895     5913 
    5875     5764     5643     5568     5556     5616     5760     5960 
    6143     6258     6308     6331     6350     6343     6285     6186 
    6080     6015     6060     6252     6494     6617     6613     6588 
    6571     6556     6558     6616     6760     6926     7021     7029 
    6960     6835     6739     6727     6727     6669     6551     6409 
    6276     6160     6058     5972     5926     5921     5910     5906 
    5960     6044     6083     6025     5892     5795     5791     5822 
    5822     5773     5706     5692     5734     5763     5768     5778 
    5803     5845     5849     5837     5922     6119     6349     6574 
    6804     7026     7183     7233     7194     7063     6859     6658 
    6550     6582     6718     6847     6910     6928     6940     6959 
    6928     6795     6602     6427     6327     6297     6315     6373 
    6393     6311     6222     6234     6319     6420     6490     6511 
    6496     6463     6477     6585     6723     6812     6839     6812 
    6720     6596     6494     6431     6405     6421     6492     6635 
    6820     6934     6925     6847     6760     6663     6539     6401 
    6278     6201     6183     6216     6299     6394     6442     6432 
    6407     6381     6347     6303     6241     6189     6170     6137 
    6085     6062     6030     5960     5861     5734     5616     5541 
    5513     5584     5791     6022     6168     6266     6381     6465 
    6462     6407     6346     6261     6176     6161     6169     6112 
    6011     5915     5826     5727     5648     5605     5549     5498 
    5521     5537     5497     5528     5634     5679     5730     5945 
    6270     6563     6767     6853     6878     6919     6930     6902 
    6875     6777     6574     6367     6264     6237     6258     6349 
    6400     6338     6276     6222     6151     6201     6388     6581 
    6808     7025     7048     6933     6779     6613     6586     6714 
    6848     6919     6964     7083     7240     7312     7334     7312 
    7146     6868     6627     6444     6245     6064     6010     6091 
    6196     6218     6166     6126     6164     6300     6446     6496 
    6525     6601     6597     6508     6474     6471     6534     6772 
    6934     6832     6813     6985     7020     6951     7028     7074 
    6928     6859     7005     7125     7134     7152     7153     7153 
    7256     7361     7369     7406     7489     7465     7360     7344 
    7422     7533     7670     7666     7433     7241     7222     7200 
    7141     7089     7025     6968     6936     6945     6998     6990 
    6930     6995     7150     7159     7036     6997     7082     7210 
    7318     7366     7371     7337     7283     7264     7258     7264 
    7256     7088     6812     6698     6711     6644     6577     6606 
    6647     6689     6821     7064     7315     7470     7485     7345 
    7159     6990     6806     6683     6582     6378     6230     6303 
    6470     6589     6644     6644     6543     6380     6358     6582 
    6813     6708     6378     6249     6296     6284     6266     6224 
    6168     6242     6293     6178     6014     5881     5836     5883 
    6091     6507     6808     6812     6683     6498     6397     6538 
    6837     7261     7674     7785     7740     7813     7851     7739 
    7626     7618     7697     7801     7898     7960     8020     8139 
    8243     8344     8594     8885     9020     9023     8997     9055 
    9169     9135     9073     9238     9412     9390     9413     9532 
    9481     9182     8811     8591     8437     8152     7928     7808 
    7553     7334     7281     7246     7277     7360     7317     7160 
    7041     7041     7060     6995     6957     7029     7130     7223 
    7258     7195     7253     7595     8019     8281     8352     8345 
    8305     8347     8599     8838     8835     8704     8583     8553 
    8668     8777     8706     8480     8168     7855     7736     7840 
    7936     7825     7480     7036     6702     6516     6323     6085 
    5817     5456     5225     5313     5414     5304     5062     4722 
    4411     4344     4395     4200     3792     3530     3496     3605 
    3842     4159     4490     4696     4822     5030     5178     5204 
    5223     5092     4845     4672     4431     4233     4303     4324 
    4074     3689     3321     3113     3086     3071     2851     2440 
    2141     1954     1645     1336     1154      892      598      437 
     256      128      259      532      853     1178     1460     1759 
    2064     2343     2627     2921     3246     3511     3582     3609 
    3809     4174     4557     4773     4830     4854     4773     4556 
    4309     4017     3631     3149     2623     2138     1777     1535 
    1296     1089     1028     1136     1410     1636     1668     1723 
    1888     2114     2469     2829     3083     3357     3666     3921 
    4094     4172     4243     4369     4511     4700     4896     4989 
    5053     5225     5506     5688     5711     5880     6238     6562 
    6922     7326     7527     7453     7344     7507     7908     8185 
    8260     8322     8355     8380     8565     8777     8818     8748 
    8587     8364     8276     8309     8217     7916     7495     7172 
    7142     7267     7368     7345     7053     6679     6347     5902 
    5574     5567     5634     5687     5813     5988     6230     6569 
    6891     6903     6513     6016     5603     5333     5377     5637 
    5719     5590     5547     5590     5503     5285     5011     4600 
    4033     3388     2799     2488     2459     2381     2081     1725 
    1424     1230     1271     1398     1329     1169     1144     1271 
    1501     1842     2249     2509     2609     2820     3134     3273 
    3258     3331     3485     3563     3686     4058     4573     5071 
    5530     5949     6369     6777     7018     7094     7191     7354 
    7506     7614     7676     7736     7873     8046     8171     8276 
    8291     8181     8181     8338     8434     8446     8378     8159 
    7903     7778     7761     7693     7453     7138     6863     6593 
    6369     6320     6408     6512     6616     6804     7089     7510 
    8186     8928     9412     9796    10292    10652    10800    11103 
   11669    12185    12571    12888    12951    12725    12491    12333 
   12040    11668    11462    11242    10852    10604    10528    10382 
   10299    10432    10547    10389     9989     9585     9255     8939 
    8721     8633     8590     8608     8673     8712     8780     8895 
    8860     8698     8707     8760     8556     8374     8480     8525 
    8324     8221     8311     8384     8454     8513     8431     8345 
    8394     8520     8669     8775     8907     9240     9636     9823 
    9894     9946     9825     9537     9227     8927     8631     8337 
    8085     7894     7777     7830     7913     7832     7796     7942 
    8087     8182     8267     8271     8139     7815     7298     6774 
    6315     5822     5381     5088     4826     4511     4176     3929 
    3798     3622     3420     3343     3342     3376     3437     3542 
    3774     4012     4116     4255     4498     4684     4808     4956 
    5148     5401     5675     5954     6303     6654     6944     7226 
    7504     7744     7936     8091     8215     8272     8262     8137 
    7846     7476     7132     6860     6654     6363     5983     5745 
    5689     5629     5433     5093     4789     4752     4947     5178 
    5397     5656     5902     6085     6265     6361     6284     6162 
    6112     6108     6237     6465     6552     6460     6246     5836 
    5270     4725     4217     3624     2960     2324     1710     1182 
     877      715      546      464      675     1189     1803     2392 
    2990     3574     4079     4548     5059     5609     6075     6369 
    6548     6633     6610     6435     6060     5574     5059     4621 
    4347     4094     3757     3373     2948     2584     2412     2353 
    2324     2286     2141     1910     1711     1576     1552     1636 
    1728     1819     1890     1819     1625     1398     1112      810 
     550      332      263      355      432      373      271      328 
     533      741      909     1086     1383     1773     2023     2096 
    2191     2415     2744     3176     3634     3970     4171     4301 
    4398     4442     4333     4125     3967     3828     3690     3544 
    3273     2934     2606     2224     1942     1964     2066     1995 
    1899     1954     2126     2394     2698     2907     3022     3133 
    3312     3645     4155     4729     5224     5644     6131     6732 
    7192     7387     7539     7732     7886     7979     7989     7954 
    7944     7927     7801     7510     7240     7165     6983     6420 
    5778     5277     4739     4194     3746     3304     2952     2802 
    2702     2620     2673     2781     2813     2817     2882     3044 
    3323     3628     3928     4437     5169     5871     6552     7288 
    7923     8436     8919     9301     9571     9796     9844     9664 
    9416     9169     8919     8692     8479     8170     7730     7325 
    6979     6550     6062     5634     5296     5007     4708     4426 
    4217     4055     3901     3759     3657     3642     3672     3680 
    3807     4064     4205     4215     4190     4043     3820     3688 
    3630     3524     3400     3321     3202     3088     3119     3192 
    3241     3403     3651     3821     3960     4144     4233     4190 
    4117     4036     3982     3960     3923     3863     3755     3566 
    3362     3177     2955     2652     2319     2073     1966     1925 
    1938     1984     1917     1688     1339      838      246     -274 
    -606     -680     -558     -370     -143      129      388      607 
     872     1171     1379     1499     1599     1617     1502     1271 
     972      723      622      650      727      847     1039     1371 
    1944     2693     3450     4233     5042     5692     6180     6685 
    7214     7608     7793     7780     7589     7229     6750     6238 
    5718     5164     4594     4090     3697     3316     2872     2396 
    1842     1217      691      305       20      -22      218      540 
     849     1154     1385     1540     1632     1653     1790     2137 
    2470     2668     2786     2841     2891     2961     2970     2890 
    2759     2687     2818     3145     3526     3821     3964     4058 
    4215     4392     4541     4665     4773     4908     5069     5224 
    5382     5509     5548     5519     5498     5512     5551     5641 
    5717     5620     5354     5051     4765     4479     4174     3906 
    3771     3781     3858     3905     3924     4013     4194     4386 
    4519     4564     4576     4633     4680     4664     4600     4429 
    4149     3931     3812     3747     3824     4009     4186     4410 
    4722     5104     5571     6027     6366     6624     6825     6939 
    7086     7408     7753     8016     8330     8600     8626     8581 
    8669     8810     8901     8947     9011     9061     8915     8592 
    8347     8214     7993     7684     7495     7456     7492     7612 
    7756     7903     8168     8513     8779     8899     8812     8549 
    8378     8431     8581     8793     9084     9321     9374     9213 
    8970     8851     8937     9194     9536     9821     9972    10053 
   10203    10485    10798    11006    11180    11508    11963    12317 
   12406    12245    11942    11507    10897    10262     9745     9293 
    8893     8553     8232     7963     7735     7545     7465     7364 
    7088     6739     6405     6139     6081     6210     6435     6806 
    7171     7340     7510     7839     8177     8467     8748     9026 
    9369     9818    10331    10814    11179    11492    11800    11973 
   11946    11765    11526    11392    11396    11445    11484    11418 
   11186    10914    10764    10795    11009    11290    11484    11591 
   11672    11654    11506    11400    11445    11556    11661    11676 
   11516    11237    10902    10489    10064     9693     9379     9184 
