Origin Time       2016/04/16 01:25:00
Lat.              32.753
Long.             130.762
Depth. (km)       12
Mag.              7.3
Station Code      YMG018
Station Lat.      33.9091
Station Long.     132.3561
Station Height(m) 2
Record Time       2016/04/16 01:25:40
Sampling Freq(Hz) 100Hz
Duration Time(s)  143
Dir.              E-W
Scale Factor      7845(gal)/8223790
Max. Acc. (gal)   19.887
Last Correction   2016/04/16 01:25:40
Memo.             
[...]
    3311     3728     3863     3794     3618     3381     3122     2862 
    2620     2466     2457     2554     2673     2791     2947     3186 
    3534     3982     4535     5198     5914     6536     6853     6815 
    6652     6578     6556     6419     6050     5476     4807     4171 
    3645     3199     2778     2409     2199     2162     2139     1999 
    1809     1699     1680     1682     1594     1281      697        4 
    -599    -1058    -1431    -1742    -1958    -2057    -2100    -2147 
   -2180    -2172    -2088    -1859    -1453     -927     -394       82 
     504      918     1382     1972     2733     3638     4577     5437 
    6124     6573     6737     6619     6311     5949     5607     5328 
    5152     5070     5019     4959     4878     4765     4638     4542 
    4479     4363     4131     3794     3361     2833     2296     1836 
    1421      957      441       -5     -294     -451     -530     -571 
    -656     -804     -954    -1093    -1194    -1173     -965     -585 
    -112      369      838     1300     1734     2161     2667     3315 
    3964     4398     4612     4800     5065     5341     5481     5366 
    5016     4552     4055     3561     3163     2992     3048     3173 
    3240     3213     3106     2986     2917     2872     2744     2465 
    2101     1783     1568     1448     1381     1298     1161      974 
     751      514      321      249      338      557      828     1115 
    1468     1973     2614     3257     3753     4036     4162     4289 
    4518     4750     4847     4792     4644     4436     4155     3755 
    3194     2496     1752     1059      486       81     -128     -170 
    -122      -52       41      153      222      199      116       59 
      62       99      164      283      468      656      707      561 
     332      178      144      176      214      276      425      669 
     916     1102     1329     1723     2226     2678     3021     3296 
    3527     3711     3861     4000     4107     4094     3890     3527 
    3080     2621     2196     1873     1742     1807     1934     1985 
    1918     1750     1537     1337     1202     1142     1131     1143 
    1171     1269     1478     1769     2102     2493     2896     3160 
    3180     3005     2766     2567     2432     2338     2267     2227 
    2212     2143     1938     1620     1262      866      405      -47 
    -355     -457     -372     -164       68      249      388      546 
     746      949     1104     1237     1422     1684     2020     2440 
    2910     3346     3669     3838     3886     3883     3867     3802 
    3640     3395     3119     2832     2570     2398     2297     2153 
    1912     1652     1497     1530     1781     2182     2608     2948 
    3153     3208     3119     2930     2752     2629     2454     2160 
    1872     1729     1759     1926     2180     2390     2423     2281 
    2081     1918     1850     1915     2070     2205     2261     2282 
    2319     2346     2376     2446     2502     2471     2374     2265 
    2187     2177     2238     2307     2282     2100     1784     1460 
    1264     1244     1362     1568     1823     2084     2330     2563 
    2809     3117     3526     3998     4434     4735     4866     4854 
    4746     4567     4315     4023     3723     3446     3245     3144 
    3103     3068     2967     2728     2358     1984     1722     1561 
    1486     1543     1701     1822     1861     1927     2146     2544 
    3007     3345     3430     3296     3092     2971     2988     3109 
    3261     3329     3210     2893     2475     2115     1900     1786 
    1688     1603     1599     1748     2053     2467     2915     3250 
    3353     3279     3202     3288     3607     4093     4576     4896 
    4989     4895     4699     4522     4467     4552     4737     4955 
    5152     5308     5410     5416     5270     4936     4431     3859 
    3349     2933     2505     1921     1148      324     -353     -758 
    -868     -728     -437     -112      152      361      550      758 
    1035     1382     1718     1984     2230     2527     2844     3071 
    3152     3163     3231     3397     3626     3928     4365     4899 
    5379     5702     5877     5942     5948     5988     6138     6315 
    6366     6246     5987     5613     5185     4723     4166     3518 
    2918     2467     2130     1813     1466     1154      978      920 
     896      893      926      967      986      981      989     1044 
    1116     1182     1255     1333     1433     1580     1741     1852 
    1961     2230     2691     3157     3459     3645     3844     4069 
    4178     4120     4052     4129     4313     4483     4568     4533 
    4390     4133     3703     3152     2643     2254     1962     1781 
    1722     1726     1732     1757     1806     1795     1667     1480 
    1317     1162      978      772      544      338      299      530 
     961     1391     1752     2209     2856     3549     4107     4479 
    4710     4922     5174     5377     5394     5194     4887     4581 
    4303     4035     3747     3412     3083     2872     2795     2821 
    2889     2860     2744     2702     2762     2833     2886     2911 
    2857     2682     2400     2041     1651     1298     1016      785 
     608      496      468      542      741     1120     1668     2223 
    2650     2952     3149     3289     3492     3755     3950     4113 
    4383     4664     4758     4669     4522     4398     4270     4043 
    3728     3396     3015     2546     2097     1709     1221      581 
     -44     -546     -942    -1237    -1425    -1524    -1545    -1462 
   -1198     -745     -220      224      449      471      549      854 
    1248     1610     1930     2181     2390     2570     2702     2924 
    3338     3820     4271     4746     5186     5432     5532     5717 
    5976     6057     5872     5517     5085     4691     4438     4297 
    4087     3697     3262     2913     2527     2015     1521     1154 
     807      391      -41     -394     -483     -241       36       32 
    -189     -276       81      765     1350     1606     1629     1594 
    1632     1740     1830     1945     2218     2593     2809     2710 
    2384     2049     1912     1981     2138     2408     2820     3203 
    3419     3546     3667     3716     3599     3311     2853     2309 
    2012     2165     2392     2285     2100     2181     2209     1791 
    1142      723      739     1000     1144     1060      923      895 
    1098     1494     1768     1741     1580     1571     1895     2432 
    2874     3215     3724     4327     4716     4900     4985     4850 
    4476     4045     3632     3126     2488     1966     1898     2195 
    2396     2278     2027     1807     1603     1420     1306     1201 
     942      665      791     1297     1657     1628     1418     1204 
     969      735      553      367      217      359      861     1482 
    1923     2077     2062     1968     1799     1710     1829     1988 
    1992     1900     1861     1876     1818     1609     1399     1379 
    1471     1557     1705     1918     2074     2209     2397     2394 
    1956     1362      980      707      309     -110     -342     -415 
    -552     -889    -1282    -1426    -1264    -1101    -1215    -1524 
   -1579     -972       64      916     1391     1644     1748     1857 
    2187     2633     2986     3299     3686     4097     4426     4625 
    4733     4881     5112     5282     5262     5026     4656     4426 
    4515     4645     4407     3823     3238     2770     2222     1552 
     967      641      510      329       23     -199     -164       31 
     131      110      162      309      499      870     1534     2378 
    3169     3813     4374     4783     4961     5073     5333     5787 
    6266     6531     6536     6405     6235     6104     6004     5775 
    5296     4725     4294     4021     3877     3915     3986     3816 
    3461     3217     3159     3114     2911     2560     2211     1953 
    1664     1174      549        0     -417     -762    -1031    -1223 
   -1314    -1133     -592       11      216      -39     -299     -236 
     -18       87       83       54        8       -1       64       81 
     -18      -59       95      328      423      249     -147     -523 
    -702     -787     -954    -1259    -1667    -2143    -2643    -2960 
   -2853    -2394    -1826    -1256     -699     -174      367     1011 
    1737     2416     2918     3245     3623     4256     5003     5606 
    6035     6222     6035     5699     5636     5814     5873     5806 
    5910     6148     6126     5701     5112     4564     4109     3731 
    3341     2920     2648     2613     2592     2327     1845     1336 
     903      545      180     -336    -1000    -1548    -1740    -1687 
   -1665    -1709    -1632    -1395    -1233    -1310    -1362    -1044 
    -427      230      870     1491     1975     2273     2504     2884 
    3573     4450     5194     5651     5946     6249     6558     6782 
    6870     6768     6529     6328     6120     5649     4968     4417 
    4071     3746     3459     3341     3281     3122     2903     2691 
    2463     2162     1792     1459     1209      990      816      737 
     683      581      513      461      240      -72     -178      -16 
     274      608     1007     1457     1876     2207     2474     2702 
    2829     2799     2735     2778     2857     2808     2606     2361 
    2236     2349     2597     2795     2934     3080     3148     2986 
    2625     2241     1992     1933     1977     1973     1869     1721 
    1629     1684     1837     1942     2016     2143     2335     2683 
    3238     3807     4274     4780     5339     5707     5719     5481 
    5273     5309     5458     5428     5204     4920     4622     4334 
    4031     3623     3102     2502     1833     1194      675      210 
    -236     -531     -611     -648     -877    -1331    -1902    -2536 
   -3111    -3396    -3429    -3439    -3406    -3213    -3010    -2947 
   -2898    -2660    -2160    -1366     -197     1325     2983     4585 
    6083     7479     8843    10169    11204    11799    12131    12345 
   12456    12581    12796    12926    12803    12438    11861    10996 
    9837     8564     7415     6484     5692     4951     4205     3416 
    2636     1985     1509     1138      832      637      481      287 
     105      -44     -199     -351     -526     -753     -984    -1243 
   -1522    -1652    -1444     -838       -8      800     1506     2047 
    2324     2338     2222     2153     2203     2289     2319     2257 
    2077     1813     1575     1412     1189      857      615      557 
     530      518      696      993     1080      834      456      214 
     268      572      966     1370     1786     2261     2868     3597 
    4348     5127     5977     6759     7302     7655     7974     8321 
    8630     8791     8688     8224     7433     6458     5416     4484 
    3808     3325     2905     2454     1938     1431     1019      615 
      71     -573    -1229    -1915    -2577    -3025    -3087    -2795 
   -2419    -2224    -2290    -2484    -2593    -2598    -2614    -2631 
   -2565    -2404    -2177    -1885    -1460     -820       93     1256 
    2558     3910     5278     6598     7803     8850     9764    10536 
   11026    11119    10870    10332     9513     8565     7697     6891 
    6038     5119     4163     3257     2457     1744     1140      646 
     191     -214     -461     -427     -139      221      577     1016 
    1528     1933     2143     2258     2381     2501     2601     2713 
    2783     2658     2303     1881     1613     1557     1630     1769 
    1922     1966     1767     1413     1185     1089      823      282 
    -383    -1069    -1737    -2359    -2920    -3391    -3808    -4136 
   -4050    -3283    -1964     -442      903     1918     2782     3680 
    4588     5421     6042     6338     6394     6349     6300     6338 
    6290     5896     5273     4681     4110     3491     2911     2442 
    2057     1807     1764     1837     1854     1767     1621     1424 
    1181      953      824      814      776      519      167       70 
     329      791     1340     1960     2731     3724     4833     5902 
    6943     8027     9117    10096    10902    11558    12063    12330 
   12324    12191    12056    11880    11591    11118    10412     9570 
    8733     7889     6917     5756     4413     2949     1563      315 
   -1077    -2820    -4743    -6600    -8255    -9589   -10550   -11230 
  -11676   -11762   -11349   -10496    -9416    -8280    -7240    -6354 
   -5421    -4228    -2822    -1320      302     2042     3782     5404 
    6893     8270     9463    10427    11280    12077    12636    12756 
   12355    11493    10362     9130     7823     6396     4841     3294 
    1993     1063      481      126     -203     -591    -1038    -1583 
   -2172    -2724    -3171    -3437    -3511    -3395    -3080    -2562 
   -1745     -606      583     1509     2098     2448     2700     2928 
    3111     3302     3574     3805     3759     3361     2782     2178 
    1463      535     -484    -1426    -2273    -3053    -3719    -4110 
   -4105    -3827    -3601    -3689    -4033    -4368    -4538    -4475 
   -4101    -3377    -2350    -1155       74     1347     2786     4461 
    6281     8064     9674    11132    12610    14216    15903    17571 
   19149    20598    21883    22843    23267    23093    22441    21497 
   20313    18775    16868    14771    12679    10580     8378     6169 
    4126     2276      685     -517    -1390    -2158    -2878    -3476 
   -4000    -4540    -5082    -5587    -5962    -6042    -5873    -5640 
   -5244    -4490    -3447    -2261    -1057       13      890     1694 
    2617     3715     4792     5671     6365     6914     7246     7210 
    6798     6226     5701     5296     5015     4869     4961     5252 
    5470     5517     5566     5751     6060     6394     6782     7290 
    7817     8309     8819     9390    10041    10698    11219    11537 
   11695    11772    11831    11854    11715    11384    11045    10820 
   10601    10273     9896     9513     9026     8397     7723     7037 
    6281     5431     4538     3771     3314     3172     3160     3152 
    3136     3075     2822     2281     1597     1019      611      310 
     157      225      430      712     1143     1737     2452     3222 
    3924     4467     4845     5063     5136     5130     5055     4839 
    4438     3828     2967     1962     1012      189     -490    -1011 
   -1360    -1397    -1024     -403      274      980     1714     2408 
    2894     3082     3169     3439     3970     4618     5242     5907 
    6678     7422     7951     8212     8309     8286     8027     7518 
    6984     6556     6079     5362     4450     3568     2963     2693 
    2582     2581     2890     3599     4525     5400     6023     6354 
    6451     6349     6052     5557     4901     4236     3607     2811 
    1760      564     -706    -2118    -3781    -5616    -7327    -8672 
   -9583   -10135   -10403   -10400   -10164    -9757    -9251    -8716 
   -8213    -7781    -7515    -7450    -7427    -7366    -7322    -7264 
   -7105    -6708    -5953    -4837    -3338    -1367     1094     3888 
    6727     9421    11892    14084    15988    17648    19093    20256 
   21095    21721    22245    22613    22696    22407    21775    20914 
   19853    18496    16820    15030    13359    11728     9956     8091 
    6199     4289     2423      589    -1227    -2971    -4615    -6218 
   -7847    -9468   -10917   -12074   -12945   -13509   -13749   -13753 
  -13579   -13259   -12853   -12437   -12067   -11719   -11315   -10783 
  -10176    -9606    -8995    -8208    -7339    -6564    -5844    -4994 
   -3899    -2473     -669     1339     3218     4785     6157     7569 
    9185    11056    13099    15080    16748    18084    19083    19631 
   19905    20185    20432    20515    20424    20286    20131    19807 
   19275    18554    17595    16278    14508    12425    10315     8380 
    6690     5201     3835     2481     1057     -360    -1713    -3057 
   -4344    -5510    -6698    -7987    -9267   -10407   -11313   -11935 
  -12248   -12252   -12064   -11843   -11611   -11379   -11227   -11134 
  -11088   -11198   -11415   -11492   -11295   -10813   -10010    -8988 
   -7870    -6596    -5217    -3890    -2651    -1520     -467      584 
    1649     2691     3653     4549     5471     6443     7340     8039 
    8500     8655     8494     8167     7830     7674     7776     8010 
    8345     8854     9483    10064    10524    10881    11134    11272 
   11222    10980    10710    10500    10272     9999     9756     9598 
    9490     9300     8816     7902     6616     5123     3561     1956 
     279    -1422    -3105    -4750    -6369    -7997    -9563   -10910 
  -11958   -12645   -12957   -12991   -12807   -12334   -11435   -10065 
   -8385    -6540    -4525    -2421     -351     1744     3912     6019 
    7870     9388    10579    11412    11893    12186    12505    12918 
   13346    13695    13891    13888    13667    13194    12459    11452 
   10160     8517     6547     4530     2805     1502      477     -488 
   -1448    -2419    -3456    -4580    -5767    -6821    -7561    -8063 
   -8387    -8394    -7927    -7003    -5864    -4706    -3508    -2301 
   -1204     -180      905     2142     3458     4627     5468     5975 
    6268     6517     6793     6984     7023     7003     6999     6894 
    6489     5752     4822     3835     2886     2041     1358      835 
     344     -270    -1046    -1838    -2467    -2882    -3119    -3168 
   -3065    -2833    -2425    -1925    -1463    -1026     -621     -346 
    -284     -504    -1032    -1738    -2342    -2610    -2517    -2219 
   -1935    -1742    -1535    -1270    -1011     -864     -903    -1058 
   -1197    -1340    -1561    -1814    -2039    -2269    -2543    -2868 
   -3217    -3535    -3828    -4129    -4386    -4537    -4612    -4725 
   -4878    -4961    -4961    -4955    -4969    -4977    -4909    -4658 
   -4107    -3190    -1989     -761      266     1032     1509     1721 
    1787     1784     1783     1937     2307     2783     3215     3484 
    3511     3295     2909     2435     1956     1603     1552     1813 
    2155     2430     2682     2941     3157     3283     3291     3138 
    2801     2297     1702     1104      514     -166    -1050    -2172 
   -3445    -4719    -5864    -6777    -7406    -7727    -7782    -7631 
   -7240    -6550    -5623    -4661    -3897    -3423    -3041    -2461 
   -1648     -756      233     1433     2762     3982     4945     5665 
    6154     6299     6080     5713     5503     5601     5854     6022 
    6010     5833     5539     5155     4698     4247     3923     3825 
    4006     4431     4993     5541     5918     5989     5711     5128 
    4275     3148     1830      550     -486    -1174    -1524    -1706 
   -1859    -1952    -1910    -1753    -1586    -1505    -1543    -1698 
   -1981    -2425    -3007    -3551    -3863    -3989    -4164    -4418 
   -4538    -4469    -4337    -4159    -3896    -3650    -3573    -3658 
   -3794    -3910    -4013    -4078    -3964    -3541    -2872    -2104 
