Origin Time       2016/04/16 01:25:00
Lat.              32.753
Long.             130.762
Depth. (km)       12
Mag.              7.3
Station Code      YMG016
Station Lat.      34.1699
Station Long.     132.1766
Station Height(m) 7
Record Time       2016/04/16 01:25:42
Sampling Freq(Hz) 100Hz
Duration Time(s)  131
Dir.              N-S
Scale Factor      7845(gal)/8223790
Max. Acc. (gal)   14.460
Last Correction   2016/04/16 01:25:42
Memo.             
[...]
  -20738   -20947   -21078   -21085   -20977   -20796   -20560   -20179 
  -19548   -18752   -18015   -17447   -17027   -16722   -16483   -16252 
  -16013   -15719   -15269   -14601   -13771   -12896   -12141   -11665 
  -11512   -11611   -11844   -12102   -12295   -12359   -12258   -12012 
  -11693   -11442   -11448   -11813   -12468   -13288   -14181   -15094 
  -16002   -16854   -17523   -17905   -18006   -17930   -17853   -17925 
  -18157   -18463   -18787   -19113   -19384   -19541   -19576   -19494 
  -19232   -18725   -18009   -17213   -16497   -15971   -15637   -15483 
  -15510   -15657   -15844   -16047   -16266   -16471   -16582   -16524 
  -16302   -16015   -15793   -15716   -15777   -15889   -15944   -15859 
  -15626   -15364   -15218   -15217   -15309   -15414   -15460   -15453 
  -15400   -15264   -15060   -14868   -14742   -14678   -14629   -14536 
  -14412   -14320   -14261   -14183   -14035   -13815   -13591   -13459 
  -13501   -13759   -14214   -14787   -15340   -15730   -15888   -15859 
  -15797   -15844   -16090   -16580   -17244   -17925   -18488   -18848 
  -18948   -18785   -18427   -18019   -17682   -17458   -17323   -17186 
  -16908   -16406   -15788   -15282   -15010   -14932   -14948   -14960 
  -14926   -14864   -14810   -14778   -14742   -14681   -14615   -14594 
  -14615   -14627   -14584   -14488   -14345   -14143   -13918   -13783 
  -13857   -14112   -14427   -14701   -14881   -15005   -15157   -15367 
  -15612   -15840   -16015   -16156   -16272   -16314   -16244   -16120 
  -16075   -16127   -16162   -16151   -16166   -16237   -16345   -16441 
  -16484   -16424   -16232   -15993   -15807   -15664   -15529   -15426 
  -15358   -15299   -15253   -15272   -15334   -15342   -15279   -15219 
  -15260   -15450   -15711   -15912   -16059   -16206   -16332   -16411 
  -16454   -16463   -16440   -16398   -16335   -16212   -16021   -15847 
  -15805   -15924   -16132   -16297   -16312   -16171   -15938   -15624 
  -15217   -14812   -14569   -14558   -14724   -14967   -15219   -15438 
  -15554   -15488   -15238   -14889   -14543   -14288   -14181   -14197 
  -14305   -14516   -14802   -15031   -15059   -14848   -14492   -14142 
  -13898   -13782   -13788   -13899   -14069   -14310   -14681   -15167 
  -15622   -15896   -15931   -15766   -15498   -15276   -15276   -15543 
  -15985   -16476   -16938   -17362   -17705   -17841   -17652   -17181 
  -16629   -16221   -16052   -16106   -16313   -16592   -16885   -17115 
  -17205   -17139   -16960   -16681   -16259   -15691   -15083   -14536 
  -14075   -13683   -13342   -13063   -12911   -12941   -13147   -13416 
  -13603   -13660   -13683   -13815   -14092   -14409   -14655   -14739 
  -14555   -14092   -13528   -13120   -13043   -13313   -13825   -14423 
  -14976   -15371   -15537   -15499   -15368   -15250   -15238   -15367 
  -15565   -15746   -15896   -16002   -16050   -16079   -16146   -16283 
  -16478   -16616   -16568   -16298   -15873   -15427   -15074   -14846 
  -14706   -14575   -14389   -14113   -13770   -13470   -13354   -13412 
  -13518   -13576   -13574   -13551   -13583   -13716   -13905   -14099 
  -14262   -14366   -14459   -14594   -14744   -14854   -14874   -14771 
  -14574   -14354   -14173   -14034   -13894   -13747   -13647   -13649 
  -13809   -14162   -14679   -15229   -15647   -15834   -15889   -16027 
  -16308   -16626   -16860   -16952   -16954   -17015   -17246   -17631 
  -18069   -18436   -18621   -18589   -18408   -18204   -18106   -18168 
  -18377   -18701   -19055   -19268   -19179   -18733   -18004   -17161 
  -16374   -15730   -15213   -14717   -14133   -13531   -13113   -12951 
  -12966   -13136   -13500   -14022   -14509   -14720   -14586   -14285 
  -14038   -14003   -14229   -14596   -14929   -15179   -15365   -15449 
  -15390   -15222   -15018   -14848   -14751   -14732   -14794   -14928 
  -15093   -15272   -15553   -16009   -16567   -17081   -17479   -17747 
  -17894   -17929   -17851   -17676   -17470   -17285   -17098   -16892 
  -16734   -16723   -16906   -17196   -17425   -17501   -17344   -16911 
  -16289   -15593   -14924   -14428   -14193   -14189   -14380   -14694 
  -15039   -15350   -15568   -15654   -15642   -15565   -15457   -15381 
  -15322   -15249   -15205   -15226   -15336   -15513   -15638   -15620 
  -15519   -15414   -15290   -15066   -14733   -14432   -14291   -14269 
  -14283   -14354   -14553   -14832   -15102   -15369   -15650   -15888 
  -16033   -16024   -15882   -15807   -15946   -16255   -16633   -16958 
  -17173   -17350   -17443   -17259   -16806   -16275   -15772   -15322 
  -14982   -14785   -14763   -14859   -14897   -14804   -14669   -14496 
  -14222   -13937   -13806   -13867   -14045   -14184   -14126   -13898 
  -13695   -13657   -13799   -14042   -14342   -14704   -15106   -15534 
  -15955   -16246   -16325   -16218   -15990   -15823   -15913   -16206 
  -16488   -16625   -16629   -16636   -16754   -16955   -17134   -17205 
  -17166   -17066   -16981   -16981   -17081   -17238   -17420   -17486 
  -17235   -16703   -16073   -15429   -14886   -14658   -14825   -15210 
  -15483   -15472   -15364   -15341   -15327   -15282   -15280   -15314 
  -15329   -15321   -15377   -15556   -15718   -15720   -15714   -15939 
  -16343   -16681   -16837   -16860   -16789   -16623   -16405   -16272 
  -16259   -16187   -15981   -15761   -15577   -15384   -15241   -15310 
  -15595   -15881   -16070   -16297   -16580   -16672   -16418   -15989 
  -15619   -15318   -15052   -14944   -15113   -15473   -15842   -16015 
  -15819   -15323   -14848   -14570   -14458   -14407   -14319   -14254 
  -14338   -14532   -14733   -14858   -14804   -14596   -14353   -14026 
  -13572   -13227   -13217   -13459   -13743   -13900   -13838   -13626 
  -13441   -13417   -13660   -14188   -14854   -15460   -15882   -16087 
  -16225   -16484   -16777   -16883   -16780   -16610   -16549   -16729 
  -17038   -17248   -17324   -17439   -17663   -17875   -17945   -17772 
  -17254   -16440   -15550   -14750   -14104   -13722   -13697   -13879 
  -13865   -13378   -12565   -11739   -11078   -10689   -10669   -10962 
  -11323   -11512   -11479   -11376   -11349   -11416   -11610   -11971 
  -12409   -12830   -13284   -13839   -14440   -14910   -15261   -15758 
  -16464   -17132   -17626   -18114   -18759   -19408   -19793   -19926 
  -19978   -19965   -19815   -19596   -19444   -19445   -19639   -19935 
  -20097   -19911   -19338   -18563   -17793   -17131   -16704   -16591 
  -16591   -16405   -16055   -15739   -15431   -15110   -14925   -14889 
  -14941   -15106   -15286   -15318   -15242   -15148   -14974   -14709 
  -14455   -14222   -13921   -13567   -13298   -13223   -13298   -13428 
  -13648   -14065   -14704   -15399   -15828   -15849   -15608   -15292 
  -15025   -14877   -14828   -14944   -15290   -15700   -16050   -16309 
  -16340   -16156   -16013   -16028   -16056   -15866   -15358   -14584 
  -13734   -13154   -13055   -13331   -13767   -14255   -14871   -15714 
  -16649   -17398   -17856   -18171   -18509   -18814   -18932   -18927 
  -19002   -19179   -19291   -19213   -18929   -18488   -18019   -17687 
  -17527   -17469   -17455   -17566   -17992   -18731   -19386   -19538 
  -19172   -18481   -17590   -16606   -15619   -14708   -14038   -13714 
  -13693   -13832   -13969   -13991   -13829   -13481   -13015   -12513 
  -12029   -11634   -11431   -11534   -11875   -12221   -12499   -12812 
  -13165   -13586   -14181   -14878   -15543   -16213   -16923   -17564 
  -18037   -18293   -18308   -18141   -17906   -17668   -17512   -17590 
  -17923   -18349   -18684   -18828   -18796   -18627   -18342   -18073 
  -17913   -17759   -17528   -17182   -16623   -15904   -15309   -14993 
  -14775   -14415   -13919   -13460   -13161   -13054   -13099   -13182 
  -13266   -13435   -13752   -14176   -14532   -14655   -14621   -14553 
  -14416   -14241   -14122   -14069   -14057   -14130   -14364   -14769 
  -15221   -15487   -15348   -14835   -14283   -13976   -13880   -13863 
  -13882   -13853   -13693   -13483   -13304   -13177   -13190   -13409 
  -13749   -14056   -14153   -13922   -13501   -13208   -13182   -13304 
  -13463   -13668   -13963   -14346   -14763   -15079   -15167   -15045 
  -14929   -15124   -15736   -16536   -17239   -17737   -18045   -18215 
  -18243   -18049   -17661   -17235   -16808   -16297   -15695   -15013 
  -14258   -13586   -13244   -13277   -13466   -13595   -13699   -13826 
  -13790   -13423   -12822   -12201   -11743   -11587   -11774   -12231 
  -12825   -13460   -14110   -14794   -15450   -15890   -16031   -16029 
  -16108   -16375   -16802   -17290   -17787   -18226   -18490   -18549 
  -18416   -18058   -17567   -17186   -17027   -17050   -17251   -17581 
  -17863   -17953   -17902   -17922   -18134   -18470   -18863   -19337 
  -19889   -20444   -20884   -21091   -21045   -20910   -20887   -20907 
  -20688   -20185   -19575   -18964   -18427   -18094   -18007   -18083 
  -18208   -18289   -18245   -18079   -17795   -17305   -16638   -15989 
  -15545   -15408   -15579   -15925   -16204   -16175   -15807   -15264 
  -14728   -14301   -14038   -13963   -13983   -13986   -14007   -14123 
  -14324   -14590   -14866   -15070   -15191   -15157   -14809   -14189 
  -13620   -13413   -13612   -14058   -14623   -15218   -15835   -16557 
  -17298   -17780   -17874   -17680   -17329   -16946   -16639   -16402 
  -16156   -15932   -15857   -15996   -16274   -16503   -16503   -16218 
  -15716   -15097   -14427   -13814   -13413   -13338   -13547   -13778 
  -13784   -13612   -13425   -13338   -13409   -13568   -13679   -13671 
  -13506   -13247   -13041   -12862   -12600   -12409   -12587   -13146 
  -13841   -14472   -14877   -14948   -14823   -14805   -15107   -15742 
  -16568   -17437   -18186   -18561   -18366   -17656   -16684   -15708 
  -14874   -14265   -13959   -13930   -14041   -14077   -13861   -13446 
  -13069   -12855   -12769   -12764   -12819   -12892   -12981   -13081 
  -13003   -12534   -11830   -11263   -11047   -11159   -11433   -11739 
  -12151   -12766   -13487   -14141   -14651   -15024   -15298   -15489 
  -15595   -15614   -15553   -15456   -15450   -15704   -16293   -17163 
  -18185   -19156   -19827   -20065   -19986   -19820   -19745   -19834 
  -20019   -20191   -20309   -20259   -19853   -19117   -18346   -17721 
  -17154   -16563   -16032   -15634   -15348   -15195   -15221   -15400 
  -15688   -16074   -16484   -16734   -16610   -16106   -15558   -15260 
  -15218   -15371   -15643   -15882   -15958   -15816   -15422   -14764 
  -13967   -13251   -12750   -12426   -12136   -11704   -11101   -10566 
  -10354   -10477   -10832   -11318   -11739   -11889   -11762   -11542 
  -11337   -11082   -10764   -10594   -10743   -11194   -11855   -12614 
  -13356   -14042   -14673   -15232   -15687   -15951   -15975   -15938 
  -16086   -16467   -16974   -17455   -17784   -17960   -18030   -18010 
  -17923   -17813   -17680   -17502   -17319   -17254   -17424   -17875 
  -18534   -19147   -19371   -19136   -18617   -17844   -16779   -15585 
  -14531   -13770   -13238   -12753   -12231   -11739   -11407   -11356 
  -11632   -12140   -12664   -13018   -13078   -12741   -12005   -11026 
  -10071    -9431    -9188    -9254    -9599   -10245   -11078   -11848 
  -12396   -12816   -13281   -13806   -14287   -14712   -15167   -15657 
  -16106   -16474   -16737   -16906   -17097   -17501   -18227   -19232 
  -20416   -21672   -22797   -23564   -23890   -23849   -23560   -23147 
  -22724   -22396   -22210   -22131   -22073   -21888   -21451   -20722 
  -19674   -18274   -16521   -14532   -12592   -10935    -9643    -8775 
   -8278    -7967    -7774    -7736    -7792    -7789    -7727    -7820 
   -8248    -9062   -10282   -11823   -13432   -14863   -16015   -16888 
  -17555   -18180   -18922   -19741   -20413   -20772   -20737   -20275 
  -19502   -18657   -17921   -17435   -17343   -17599   -17952   -18268 
  -18639   -19155   -19741   -20214   -20466   -20575   -20661   -20744 
  -20839   -20937   -20889   -20575   -19962   -19079   -18058   -17122 
  -16444   -15974   -15572   -15206   -14921   -14801   -14871   -15018 
  -15113   -15021   -14663   -14047   -13240   -12415   -11727   -11198 
  -10849   -10720   -10859   -11319   -12075   -12947   -13694   -14184 
  -14473   -14694   -14926   -15165   -15380   -15554   -15682   -15807 
  -16024   -16467   -17193   -18084   -18943   -19654   -20197   -20499 
  -20429   -19957   -19172   -18130   -16892   -15641   -14698   -14292 
  -14327   -14636   -15178   -15778   -16143   -16147   -15873   -15508 
  -15153   -14723   -14175   -13653   -13289   -13129   -13212   -13562 
  -14168   -14998   -16032   -17224   -18432   -19446   -20142   -20547 
  -20729   -20684   -20417   -20023   -19606   -19127   -18465   -17594 
  -16642   -15784   -15148   -14775   -14673   -14874   -15348   -15866 
  -16117   -16013   -15630   -15078   -14566   -14318   -14358   -14538 
  -14673   -14710   -14794   -15106   -15730   -16727   -18158   -19963 
  -21948   -23852   -25378   -26289   -26554   -26307   -25674   -24773 
  -23819   -23066   -22627   -22473   -22499   -22588   -22626   -22524 
  -22225   -21643   -20630   -19060   -16938   -14455   -11913    -9555 
   -7524    -5907    -4779    -4203    -4159    -4521    -5151    -5956 
   -6895    -7966    -9153   -10409   -11662   -12881   -14046   -15114 
  -16019   -16726   -17317   -17863   -18347   -18848   -19597   -20800 
  -22438   -24286   -26076   -27608   -28756   -29497   -29930   -30199 
  -30413   -30623   -30777   -30757   -30507   -30014   -29253   -28221 
  -26941   -25496   -24066   -22831   -21870   -21124   -20453   -19739 
  -18933   -18063   -17185   -16316   -15513   -14914   -14605   -14567 
  -14656   -14655   -14412   -13911   -13161   -12178   -11140   -10342 
   -9996   -10130   -10606   -11181   -11630   -11878   -11997   -12093 
  -12243   -12488   -12858   -13386   -14004   -14492   -14662   -14539 
  -14304   -14119   -14083   -14254   -14681   -15280   -15842   -16217 
  -16339   -16167   -15807   -15510   -15518   -15946   -16723   -17579 
  -18185   -18347   -18036   -17238   -15997   -14597   -13440   -12776 
  -12619   -12769   -12984   -13100   -13012   -12718   -12344   -12054 
  -11935   -12009   -12249   -12537   -12825   -13261   -14037   -15282 
  -16992   -18966   -20865   -22373   -23380   -23978   -24300   -24463 
  -24625   -24972   -25617   -26458   -27261   -27854   -28179   -28251 
  -28123   -27803   -27265   -26468   -25300   -23560   -21118   -18068 
  -14717   -11572    -9144    -7715    -7248    -7380    -7542    -7311 
   -6643    -5793    -5121    -4931    -5286    -6041    -7074    -8314 
   -9628   -10843   -11813   -12498   -13043   -13683   -14571   -15705 
  -16934   -17996   -18644   -18867   -18920   -19093   -19556   -20308 
  -21235   -22172   -22911   -23287   -23187   -22572   -21527   -20260 
  -18981   -17701   -16293   -14813   -13481   -12394   -11541   -10886 
  -10396   -10015    -9707    -9468    -9296    -9211    -9293    -9668 
  -10484   -11781   -13410   -15155   -16819   -18233   -19295   -19998 
  -20405   -20633   -20798   -20988   -21280   -21752   -22400   -23102 
  -23796   -24470   -25020   -25326   -25343   -25100   -24626   -23918 
  -23009   -22000   -20996   -20035   -19090   -18164   -17271   -16321 
  -15286   -14342   -13648   -13142   -12669   -12109   -11462   -10893 
  -10552   -10401   -10338   -10378   -10612   -11082   -11780   -12623 
  -13378   -13803   -13864   -13718   -13559   -13506   -13585   -13770 
  -14017   -14305   -14665   -15095   -15538   -15982   -16486   -17044 
  -17494   -17567   -17069   -16056   -14817   -13687   -12906   -12560 
  -12576   -12833   -13185   -13408   -13377   -13215   -13136   -13278 
  -13647   -14143   -14629   -15047   -15456   -15832   -16044   -16062 
  -15959   -15824   -15738   -15712   -15673   -15562   -15390   -15156 
  -14816   -14335   -13790   -13309   -12893   -12422   -11850   -11226 
  -10635   -10181    -9887    -9596    -9163    -8668    -8329    -8311 
   -8731    -9617   -10802   -12077   -13394   -14783   -16208   -17523 
  -18534   -19080   -19117   -18758   -18269   -17933   -17925   -18266 
  -18875   -19630   -20326   -20706   -20584   -19899   -18759   -17442 
  -16236   -15288   -14546   -13898   -13397   -13211   -13365   -13674 
  -13946   -14154   -14331   -14413   -14268   -13842   -13266   -12785 
  -12568   -12583   -12721   -12911   -13131   -13413   -13828   -14342 
  -14846   -15249   -15427   -15239   -14697   -14007   -13467   -13286 
  -13482   -13930   -14477   -14993   -15357   -15550   -15731   -16097 
  -16688   -17386   -17959   -18200   -18077   -17791   -17601   -17608 
  -17748   -17906   -17972   -17874   -17624   -17304   -16918   -16397 
  -15736   -15012   -14326   -13832   -13657   -13745   -13911   -13957 
  -13644   -12873   -11867   -11007   -10554   -10625   -11188   -12040 
  -12910   -13609   -14072   -14401   -14813   -15457   -16441   -17803 
  -19368   -20849   -22044   -22805   -22999   -22554   -21602   -20515 
  -19654   -19082   -18625   -18088   -17365   -16507   -15693   -15021 
  -14445   -13896   -13339   -12783   -12305   -11925   -11545   -11021 
  -10334    -9744    -9537    -9763   -10262   -10710   -10777   -10374 
   -9676    -8892    -8120    -7438    -6979    -6822    -6921    -7180 
   -7628    -8410    -9485   -10489   -10976   -10787   -10230    -9825 
   -9875   -10307   -10812   -11129   -11202   -11153   -11151   -11256 
  -11438   -11651   -11936   -12474   -13420   -14704   -16063   -17227 
  -17990   -18219   -17977   -17601   -17443   -17629   -18057   -18546 
  -19078   -19707   -20278   -20583   -20614   -20466   -20217   -19888 
  -19356   -18443   -17174   -15865   -14858   -14293   -14129   -14231 
  -14426   -14538   -14334   -13555   -12129   -10235    -8163    -6174 
   -4535    -3570    -3420    -3863    -4459    -4834    -4954    -5078 
   -5420    -5968    -6561    -7074    -7533    -8028    -8675    -9605 
  -10905   -12649   -14886   -17419   -19727   -21278   -21899   -21816 
  -21379   -20877   -20517   -20434   -20699   -21308   -22091   -22705 
  -22866   -22495   -21620   -20335   -18855   -17485   -16451   -15731 
  -15149   -14574   -14060   -13845   -14088   -14538   -14725   -14470 
  -13938   -13360   -12841   -12337   -11678   -10642    -9262    -7892 
   -6860    -6350    -6413    -6878    -7418    -7728    -7632    -7149 
   -6471    -5906    -5694    -5873    -6343    -6907    -7333    -7507 
   -7572    -7871    -8658    -9837   -11130   -12363   -13560   -14828 
  -16106   -17145   -17793   -18186   -18694   -19741   -21521   -23854 
  -26226   -28029   -28922   -28949   -28394   -27525   -26450   -25201 
  -23776   -22241   -20864   -19876   -19241   -18739   -18061   -17021 
  -15776   -14625   -13625   -12580   -11321    -9864    -8404    -7194 
   -6330    -5637    -4845    -3929    -3163    -2830    -3042    -3742 
   -4726    -5691    -6413    -6894    -7246    -7547    -7870    -8291 
   -8866    -9686   -10854   -12352   -14037   -15790   -17555   -19323 
  -21105   -22859   -24489   -25836   -26720   -27056   -26943   -26628 
  -26347   -26163   -26072   -26092   -26123   -25983   -25590   -24972 
  -24152   -23207   -22322   -21589   -20846   -19845   -18497   -17015 
  -15745   -14893   -14419   -14064   -13602   -13018   -12383   -11682 
