Origin Time       2016/04/16 01:25:00
Lat.              32.753
Long.             130.762
Depth. (km)       12
Mag.              7.3
Station Code      YMG017
Station Lat.      33.9649
Station Long.     132.1011
Station Height(m) 2
Record Time       2016/04/16 01:25:39
Sampling Freq(Hz) 100Hz
Duration Time(s)  130
Dir.              E-W
Scale Factor      7845(gal)/8223790
Max. Acc. (gal)   20.873
Last Correction   2016/04/16 01:25:39
Memo.             
[...]
   -6547    -6397    -6246    -6134    -6010    -5776    -5406    -4989 
   -4669    -4540    -4564    -4554    -4340    -3888    -3303    -2743 
   -2265    -1846    -1480    -1219    -1120    -1205    -1413    -1610 
   -1705    -1740    -1845    -2088    -2442    -2857    -3291    -3705 
   -4116    -4590    -5169    -5836    -6521    -7121    -7545    -7815 
   -8032    -8240    -8380    -8411    -8376    -8347    -8347    -8349 
   -8314    -8198    -7981    -7727    -7545    -7466    -7430    -7381 
   -7335    -7333    -7356    -7345    -7281    -7184    -7075    -6978 
   -6921    -6883    -6782    -6548    -6138    -5543    -4806    -4059 
   -3429    -2947    -2584    -2328    -2155    -2001    -1771    -1420 
   -1030     -724     -584     -658     -999    -1593    -2309    -2975 
   -3459    -3732    -3851    -3871    -3823    -3769    -3761    -3835 
   -3998    -4172    -4303    -4431    -4619    -4941    -5427    -5977 
   -6434    -6710    -6836    -6930    -7118    -7444    -7908    -8479 
   -9108    -9695   -10096   -10251   -10246   -10184   -10084    -9969 
   -9896    -9846    -9676    -9238    -8520    -7657    -6791    -6019 
   -5389    -4931    -4646    -4479    -4340    -4129    -3767    -3257 
   -2690    -2138    -1638    -1223     -876     -571     -301      -89 
       5      -45     -191     -349     -483     -619     -805    -1051 
   -1345    -1696    -2142    -2717    -3415    -4182    -4954    -5680 
   -6358    -7045    -7770    -8461    -8993    -9288    -9352    -9250 
   -9071    -8873    -8685    -8553    -8517    -8591    -8800    -9137 
   -9491    -9737    -9807    -9676    -9340    -8797    -8081    -7285 
   -6508    -5830    -5298    -4889    -4535    -4217    -3970    -3832 
   -3790    -3771    -3690    -3504    -3227    -2925    -2688    -2586 
   -2625    -2775    -3028    -3384    -3817    -4263    -4639    -4877 
   -4949    -4866    -4696    -4491    -4232    -3899    -3554    -3284 
   -3163    -3261    -3622    -4218    -4992    -5880    -6774    -7535 
   -8029    -8168    -8040    -7834    -7655    -7576    -7605    -7669 
   -7676    -7591    -7472    -7385    -7295    -7129    -6876    -6571 
   -6211    -5742    -5205    -4766    -4510    -4398    -4407    -4579 
   -4941    -5467    -6133    -6929    -7750    -8355    -8533    -8294 
   -7878    -7506    -7184    -6835    -6465    -6102    -5722    -5348 
   -5032    -4833    -4847    -5143    -5626    -6079    -6359    -6450 
   -6308    -5868    -5242    -4714    -4499    -4571    -4748    -4876 
   -4885    -4801    -4645    -4349    -3894    -3422    -3082    -2905 
   -2745    -2408    -1969    -1679    -1638    -1864    -2367    -3088 
   -3873    -4526    -4974    -5325    -5683    -6034    -6318    -6524 
   -6697    -6916    -7236    -7550    -7626    -7404    -7088    -6886 
   -6812    -6759    -6735    -6893    -7236    -7474    -7368    -6972 
   -6463    -5977    -5659    -5601    -5724    -5871    -5976    -6066 
   -6097    -5919    -5468    -4880    -4302    -3774    -3365    -3160 
   -3163    -3377    -3713    -4001    -4243    -4510    -4773    -5017 
   -5201    -5366    -5740    -6369    -6970    -7349    -7614    -7931 
   -8318    -8650    -8816    -8868    -8863    -8796    -8733    -8737 
   -8733    -8684    -8640    -8577    -8464    -8378    -8363    -8311 
   -8144    -7940    -7844    -7933    -8133    -8302    -8406    -8441 
   -8284    -7860    -7330    -6843    -6356    -5850    -5412    -5138 
   -5103    -5159    -5054    -4792    -4437    -3956    -3464    -3057 
   -2772    -2759    -2971    -3100    -3001    -2731    -2362    -1981 
   -1713    -1677    -1908    -2282    -2639    -2978    -3369    -3724 
   -3897    -3964    -4121    -4383    -4646    -4866    -5016    -5084 
   -5086    -5069    -5108    -5212    -5331    -5502    -5838    -6339 
   -6856    -7258    -7512    -7704    -7989    -8317    -8560    -8856 
   -9235    -9450    -9486    -9586    -9803    -9996   -10073   -10039 
   -9987    -9963    -9782    -9367    -8980    -8729    -8410    -7894 
   -7236    -6577    -6033    -5570    -5076    -4568    -4158    -3897 
   -3784    -3669    -3454    -3271    -3133    -2921    -2745    -2770 
   -2934    -3087    -3140    -3042    -2792    -2469    -2192    -2014 
   -1836    -1516    -1113     -824     -648     -432     -170      -75 
    -415    -1210    -2196    -3169    -4081    -4958    -5872    -6812 
   -7612    -8148    -8408    -8467    -8556    -8903    -9490   -10160 
  -10821   -11433   -11969   -12448   -12897   -13277   -13522   -13664 
  -13736   -13684   -13481   -13176   -12880   -12654   -12487   -12363 
  -12252   -12225   -12313   -12198   -11595   -10635    -9621    -8685 
   -7699    -6454    -5012    -3736    -3032    -3001    -3317    -3631 
   -3844    -3969    -4060    -4105    -3993    -3723    -3423    -3222 
   -3218    -3438    -3755    -4027    -4313    -4729    -5309    -6102 
   -6947    -7464    -7499    -7210    -6721    -6023    -5216    -4544 
   -4176    -4205    -4692    -5475    -6164    -6502    -6625    -6799 
   -7165    -7708    -8252    -8607    -8683    -8464    -8024    -7434 
   -6774    -6120    -5594    -5560    -6160    -6868    -7136    -6852 
   -6191    -5501    -5039    -4818    -4830    -5077    -5466    -5872 
   -6262    -6659    -7084    -7565    -8085    -8494    -8675    -8707 
   -8735    -8673    -8321    -7712    -7052    -6382    -5676    -5032 
   -4491    -3959    -3440    -2994    -2552    -2045    -1560    -1266 
   -1215    -1291    -1352    -1364    -1367    -1345    -1263    -1201 
   -1266    -1393    -1424    -1329    -1262    -1348    -1537    -1706 
   -1802    -1877    -2039    -2297    -2543    -2664    -2601    -2357 
   -2057    -1802    -1518    -1198    -1008    -1038    -1287    -1753 
   -2373    -3095    -3912    -4693    -5292    -5701    -6002    -6332 
   -6748    -7175    -7665    -8348    -9192   -10083   -10940   -11650 
  -12128   -12380   -12437   -12314   -12071   -11793   -11551   -11383 
  -11249   -11218   -11426   -11755   -11929   -11823   -11523   -11292 
  -11276   -11375   -11492   -11599   -11610   -11410   -10952   -10270 
   -9475    -8719    -8064    -7493    -7025    -6625    -6210    -5710 
   -5027    -4220    -3522    -3009    -2524    -1998    -1580    -1344 
   -1135     -764     -184      434      876     1093     1152     1128 
    1179     1437     1831     2203     2438     2508     2544     2724 
    2984     3095     2934     2565     2224     2162     2338     2461 
    2238     1528      477     -627    -1676    -2754    -3929    -5163 
   -6284    -7094    -7564    -7823    -7916    -7784    -7493    -7214 
   -7053    -7017    -7055    -7226    -7693    -8471    -9360   -10100 
  -10563   -10763   -10697   -10381    -9977    -9711    -9769   -10177 
  -10788   -11508   -12271   -12970   -13631   -14384   -15205   -15939 
  -16421   -16511   -16223   -15738   -15179   -14539   -13763   -12885 
  -12079   -11537   -11291   -11145   -10787   -10052    -8972    -7704 
   -6384    -4969    -3336    -1464      514     2362     3908     5112 
    6008     6723     7378     7946     8383     8735     9069     9413 
    9693     9791     9660     9289     8714     7992     7127     6093 
    4846     3302     1383     -880    -3279    -5501    -7395    -8978 
  -10282   -11391   -12370   -13227   -14090   -15117   -16289   -17517 
  -18688   -19649   -20355   -20839   -21127   -21262   -21267   -21142 
  -20910   -20596   -20251   -19869   -19334   -18645   -17910   -17067 
  -15989   -14698   -13336   -12020   -10754    -9513    -8324    -7165 
   -5973    -4760    -3585    -2511    -1587     -899     -537     -442 
    -472     -566     -754    -1051    -1325    -1355    -1030     -468 
      62      342      390      430      634      982     1386     1732 
    1917     1942     1836     1620     1370     1144      870      445 
    -129     -826    -1660    -2533    -3291    -3913    -4488    -5152 
   -6076    -7335    -8851   -10473   -12109   -13755   -15353   -16794 
  -18034   -19067   -19830   -20240   -20274   -20034   -19707   -19462 
  -19248   -18893   -18396   -17832   -17109   -16042   -14504   -12483 
  -10098    -7537    -4958    -2440       10     2388     4579     6423 
    7888     9089    10143    11026    11580    11732    11642    11521 
   11468    11468    11454    11356    11133    10736    10065     9007 
    7501     5564     3269      773    -1713    -3971    -5853    -7349 
   -8510    -9373   -10002   -10519   -11105   -11952   -13139   -14631 
  -16305   -17996   -19538   -20844   -21937   -22783   -23315   -23595 
  -23639   -23365   -22744   -21786   -20584   -19341   -18095   -16761 
  -15307   -13626   -11616    -9336    -6940    -4621    -2517     -677 
     911     2359     3721     4974     6122     7160     8052     8748 
    9231     9495     9543     9436     9274     9177     9255     9535 
    9969    10423    10679    10631    10277     9648     8783     7712 
    6489     5216     3950     2698     1501      422     -513    -1344 
   -2185    -3186    -4469    -6119    -8108   -10243   -12263   -13946 
  -15202   -16077   -16644   -16914   -16806   -16249   -15373   -14411 
  -13532   -12802   -12183   -11622   -11105   -10620   -10170    -9804 
   -9530    -9302    -9089    -8824    -8477    -8089    -7657    -7209 
   -6806    -6481    -6210    -5827    -5101    -4021    -2808    -1660 
    -588      634     2262     4329     6629     8824    10527    11543 
   12059    12348    12417    12154    11566    10720     9710     8711 
    7825     7003     6168     5308     4480     3742     3045     2296 
    1498      719      -21     -778    -1606    -2420    -3033    -3375 
   -3495    -3439    -3261    -3113    -3118    -3260    -3465    -3697 
   -3975    -4396    -5090    -6076    -7194    -8298    -9306   -10130 
  -10778   -11283   -11554   -11584   -11480   -11280   -11020   -10817 
  -10774   -10899   -11138   -11335   -11360   -11240   -11032   -10774 
  -10561   -10494   -10602   -10836   -11134   -11418   -11556   -11472 
  -11180   -10751   -10276    -9741    -9082    -8310    -7438    -6436 
   -5293    -4031    -2727    -1437     -174     1004     2014     2863 
    3642     4380     5044     5521     5647     5328     4631     3711 
    2713     1718      715     -372    -1593    -2886    -4145    -5300 
   -6308    -7127    -7719    -8064    -8237    -8380    -8529    -8618 
   -8607    -8483    -8251    -7987    -7809    -7804    -8004    -8379 
   -8891    -9574   -10461   -11449   -12393   -13265   -14083   -14782 
  -15277   -15561   -15685   -15680   -15456   -14866   -13865   -12548 
  -11055    -9454    -7781    -6170    -4812    -3748    -2882    -2087 
   -1320     -679     -278     -137     -205     -386     -621     -978 
   -1559    -2361    -3302    -4293    -5247    -6088    -6741    -7163 
   -7327    -7203    -6793    -6249    -5793    -5501    -5268    -4986 
   -4623    -4152    -3596    -3033    -2506    -2130    -2081    -2404 
   -3098    -4116    -5201    -6089    -6785    -7398    -7986    -8517 
   -8900    -9084    -9093    -8965    -8753    -8487    -8176    -7902 
   -7732    -7632    -7589    -7604    -7626    -7593    -7381    -6868 
   -6093    -5177    -4203    -3248    -2371    -1647    -1098     -630 
     -99      583     1394     2254     3098     3859     4519     5130 
    5680     6106     6372     6455     6373     6191     5922     5563 
    5151     4699     4225     3817     3537     3335     3048     2516 
    1761      900      -11     -936    -1813    -2639    -3438    -4194 
   -4891    -5589    -6380    -7256    -8046    -8571    -8834    -8988 
   -9155    -9391    -9688    -9936   -10062   -10154   -10336   -10642 
  -10984   -11191   -11103   -10710   -10174    -9729    -9432    -9136 
   -8676    -7954    -6978    -5921    -5034    -4426    -4021    -3750 
   -3573    -3430    -3241    -2890    -2273    -1426     -464      556 
    1605     2613     3538     4384     5169     5918     6597     7099 
    7410     7584     7631     7547     7362     7094     6760     6407 
    6072     5741     5328     4737     3954     3053     2114     1086 
    -144    -1677    -3516    -5575    -7780   -10111   -12480   -14724 
  -16707   -18393   -19843   -21109   -22160   -22940   -23488   -23909 
  -24263   -24503   -24529   -24235   -23585   -22677   -21625   -20491 
  -19321   -18139   -16964   -15819   -14685   -13505   -12291   -11124 
  -10050    -9073    -8202    -7456    -6797    -6180    -5595    -5005 
   -4307    -3392    -2207     -803      669     1998     3096     4085 
    5090     6154     7207     8177     9134    10080    10908    11538 
   11859    11668    10737     9027     6852     4654     2632      681 
   -1389    -3596    -5868    -8147   -10385   -12518   -14424   -16012 
  -17338   -18500   -19600   -20715   -21822   -22864   -23842   -24745 
  -25454   -25848   -25951   -25845   -25620   -25331   -25004   -24636 
  -24142   -23438   -22553   -21594   -20714   -20009   -19462   -18995 
  -18470   -17687   -16426   -14516   -11947    -8922    -5793    -2852 
    -116     2493     4955     7229     9316    11202    12826    14156 
   15144    15611    15499    15039    14339    13378    12279    11088 
    9755     8241     6462     4425     2266       56    -2181    -4347 
   -6284    -7882    -9137   -10187   -11222   -12337   -13590   -15056 
  -16726   -18573   -20609   -22689   -24555   -25988   -26881   -27326 
  -27506   -27475   -27203   -26732   -26145   -25450   -24618   -23662 
  -22619   -21492   -20217   -18690   -16863   -14858   -12827   -10774 
   -8667    -6543    -4393    -2214     -135     1649     3068     4205 
    5155     5931     6589     7203     7778     8248     8499     8403 
    7939     7165     6165     5047     3906     2791     1741      793 
     -56     -851    -1603    -2316    -3044    -3885    -4904    -6076 
   -7354    -8714   -10211   -11958   -13917   -15916   -17817   -19526 
  -21008   -22299   -23396   -24237   -24825   -25252   -25598   -25891 
  -26110   -26173   -25994   -25485   -24628   -23549   -22383   -21170 
  -19979   -18890   -17909   -16989   -16048   -14945   -13567   -11932 
  -10091    -8035    -5876    -3840    -2065     -484     1032     2556 
    4035     5352     6520     7646     8791     9915    10889    11547 
   11815    11734    11445    11056    10582    10010     9254     8167 
    6743     5167     3628     2195      819     -639    -2284    -4068 
   -5887    -7632    -9275   -10874   -12428   -13848   -15010   -15843 
  -16394   -16740   -16892   -16857   -16667   -16320   -15698   -14704 
  -13429   -12112   -10933    -9944    -9215    -8810    -8629    -8533 
   -8479    -8510    -8618    -8749    -8950    -9242    -9497    -9599 
   -9489    -9171    -8781    -8526    -8556    -8839    -9215    -9541 
   -9726    -9752    -9678    -9582    -9514    -9382    -9053    -8563 
   -8060    -7663    -7431    -7361    -7380    -7453    -7723    -8426 
   -9552   -10790   -11789   -12318   -12366   -12062   -11556   -11025 
  -10633   -10407   -10316   -10370   -10532   -10777   -11142   -11578 
  -11950   -12208   -12402   -12584   -12779   -12943   -13041   -13076 
  -13076   -13085   -13111   -13146   -13258   -13468   -13710   -13868 
  -13733   -13136   -12185   -11130   -10123    -9225    -8486    -7857 
   -7188    -6401    -5502    -4504    -3474    -2512    -1674     -978 
    -394      125      566      896     1189     1636     2343     3190 
    3947     4453     4654     4585     4326     3954     3572     3312 
    3262     3396     3530     3438     3001     2181     1058     -176 
   -1374    -2512    -3619    -4777    -6114    -7669    -9359   -11105 
  -12881   -14623   -16195   -17462   -18307   -18755   -18964   -19033 
  -18958   -18696   -18218   -17571   -16866   -16206   -15585   -14901 
  -14113   -13294   -12502   -11750   -11024   -10203    -9109    -7692 
   -6050    -4345    -2752    -1381     -178      990     2232     3581 
    4999     6448     7865     9162    10222    10897    11141    11059 
   10812    10494    10075     9483     8748     7928     7038     6021 
    4777     3312     1772      311    -1019    -2262    -3388    -4338 
   -5197    -6097    -7132    -8371    -9730   -11013   -12106   -13039 
  -13861   -14585   -15229   -15803   -16256   -16634   -17038   -17473 
  -17864   -18154   -18289   -18172   -17676   -16803   -15682   -14342 
  -12713   -10800    -8711    -6608    -4657    -2982    -1579     -406 
     522     1228     1806     2419     3232     4243     5309     6289 
    7082     7601     7816     7798     7651     7358     6868     6237 
    5617     5131     4776     4482     4236     4083     4044     4020 
    3828     3311     2405     1152     -321    -1826    -3217    -4491 
   -5765    -7171    -8737   -10384   -12051   -13656   -15068   -16159 
  -16814   -17055   -17119   -17268   -17620   -18099   -18505   -18632 
  -18382   -17803   -17049   -16279   -15508   -14609   -13533   -12384 
  -11287   -10343    -9596    -8982    -8368    -7655    -6862    -6091 
   -5393    -4654    -3655    -2295     -683      985     2496     3746 
    4787     5641     6228     6411     6118     5475     4681     3890 
    3206     2690     2447     2570     2976     3449     3751     3685 
    3200     2454     1655      873       51     -885    -1938    -3026 
   -4055    -4900    -5483    -5879    -6238    -6702    -7335    -8125 
   -9065   -10142   -11209   -12062   -12677   -13172   -13651   -14152 
  -14571   -14777   -14766   -14539   -14050   -13288   -12289   -11145 
  -10030    -9084    -8375    -7915    -7622    -7298    -6791    -6062 
   -5111    -3994    -2814    -1657     -532      629     1825     2949 
    3910     4634     5105     5429     5727     6037     6353     6679 
    7042     7495     8085     8760     9379     9840    10068     9977 
    9518     8711     7650     6440     5120     3716     2322     1024 
    -178    -1360    -2590    -3888    -5194    -6427    -7572    -8723 
   -9953   -11199   -12336   -13323   -14187   -14929   -15520   -15939 
  -16156   -16167   -16066   -15969   -15886   -15754   -15504   -15099 
  -14531   -13783   -12870   -11846   -10747    -9580    -8345    -7052 
   -5737    -4433    -3200    -2128    -1246     -502      163      797 
    1491     2351     3407     4556     5618     6508     7215     7669 
    7778     7573     7164     6605     5946     5256     4549     3802 
    3019     2220     1422      639     -159    -1039    -2072    -3339 
   -4861    -6529    -8195    -9736   -11051   -12106   -12926   -13562 
  -14085   -14528   -14832   -14945   -14889   -14683   -14357   -14000 
  -13695   -13482   -13316   -13078   -12672   -12035   -11136   -10003 
   -8743    -7528    -6525    -5822    -5436    -5293    -5240    -5104 
   -4760    -4178    -3447    -2748    -2243    -1953    -1786    -1653 
   -1485    -1227     -869     -483     -182      -47     -137     -556 
   -1312    -2238    -3138    -3859    -4266    -4299    -4021    -3615 
   -3302    -3240    -3495    -4066    -4872    -5798    -6814    -7956 
   -9161   -10246   -11097   -11696   -12079   -12314   -12498   -12712 
  -13019   -13420   -13839   -14200   -14439   -14538   -14526   -14400 
  -14139   -13745   -13221   -12604   -11927   -11082    -9917    -8483 
