Origin Time       2016/04/16 01:25:00
Lat.              32.753
Long.             130.762
Depth. (km)       12
Mag.              7.3
Station Code      YMG006
Station Lat.      34.1490
Station Long.     130.9298
Station Height(m) 5
Record Time       2016/04/16 01:25:34
Sampling Freq(Hz) 100Hz
Duration Time(s)  110
Dir.              E-W
Scale Factor      7845(gal)/8223790
Max. Acc. (gal)   25.112
Last Correction   2016/04/16 01:25:34
Memo.             
[...]
   -2466    -1560     -945     -908    -1566    -2569    -3090    -2683 
   -1878    -1420    -1491    -1926    -2535    -3153    -3605    -3761 
   -3709    -3815    -4399    -5319    -6118    -6563    -6463    -5557 
   -4101    -2778    -1807     -751      666     1988     2679     2694 
    1984      214    -2724    -6296    -9659   -12091   -13103   -12692 
  -11304    -9244    -6459    -2938      924     4491     7160     8530 
    8618     7577     5296     2091     -984    -3230    -5069    -7190 
   -9312   -10532   -10409    -9031    -6744    -4190    -2087     -893 
    -662    -1115    -1914    -2859    -3651    -3963    -3748    -2999 
   -1656      102     1836     2986     3350     3107     2174      349 
   -1988    -4020    -5216    -5556    -5184    -4228    -2828    -1171 
     530     2110     3087     2664      915    -1048    -2539    -3489 
   -3816    -3651    -3330    -3103    -3121    -3306    -3399    -3272 
   -3136    -3369    -4071    -4945    -5788    -6639    -7268    -7339 
   -6863    -5953    -4641    -3240    -2486    -2867    -4113    -5483 
   -6282    -6351    -5811    -4554    -2652     -784      243      266 
    -307    -1294    -2896    -5150    -7449    -8849    -8857    -7538 
   -5100    -2088      573     2519     4156     5611     6386     6289 
    5800     5215     4148     2380      579     -372     -560     -926 
   -2045    -3630    -5296    -6764    -7457    -6813    -4918    -2504 
    -309     1314     2130     2050     1399      650     -147    -1389 
   -3261    -5346    -6937    -7685    -7858    -7711    -7194    -6423 
   -5861    -5771    -5929    -6300    -7064    -7767    -7816    -7403 
   -7038    -6836    -6737    -6739    -6582    -6061    -5539    -5292 
   -4977    -4357    -3603    -2740    -1719     -607      553     1590 
    2070     1711      756     -328    -1409    -2376    -2759    -2376 
   -1637     -972     -342      531     1512     2176     2521     2743 
    2712     2361     2062     2006     1912     1624     1297     1063 
     757      -37    -1495    -3232    -4814    -6345    -8121    -9787 
  -10372    -9463    -7699    -5755    -3770    -2124    -1493    -1876 
   -2636    -3375    -4233    -5474    -6848    -7631    -7446    -6758 
   -6139    -5584    -4803    -3784    -3019    -2895    -3026    -2975 
   -2967    -3150    -3177    -3011    -3034    -3227    -3159    -2694 
   -2381    -2907    -4155    -5593    -7150    -8650    -9305    -8573 
   -6997    -5714    -5161    -4899    -4662    -4544    -4156    -2955 
   -1306      118     1460     3222     5252     6798     7496     7439 
    6421     4399     2116      230    -1471    -3366    -5151    -6336 
   -6820    -6477    -5017    -2535      124     1863     2421     2334 
    1906     1194      454     -103     -616    -1405    -2762    -4606 
   -6295    -7190    -7306    -7145    -6925    -6448    -5823    -5528 
   -5543    -5235    -4263    -2922    -1690    -1013    -1254    -2322 
   -3604    -4459    -4833    -5220    -5845    -6376    -6469    -6069 
   -5204    -4082    -3385    -3707    -4692    -5406    -5456    -5027 
   -4230    -3392    -3279    -4162    -5429    -6388    -6886    -7130 
   -7236    -7159    -6782    -5841    -4079    -1818       49     1117 
    1925     2948     3942     4453     4279     3258      939    -2852 
   -7117   -10397   -12050   -12174   -11052    -9042    -6585    -3940 
   -1132     1620     3861     5279     5954     6142     5877     5057 
    3716     2020      245    -1230    -2130    -2519    -2771    -3225 
   -3820    -4336    -4733    -4977    -5076    -5321    -5900    -6601 
   -7196    -7697    -8095    -8094    -7423    -6258    -5013    -4055 
   -3680    -4041    -4961    -6039    -7049    -7834    -8055    -7468 
   -6234    -4677    -2971    -1305      -47      638     1060     1340 
    1047       21    -1190    -2153    -2997    -3780    -4268    -4336 
   -4128    -3901    -3608    -2933    -1734      -47     1971     3886 
    5217     5857     6037     5827     5003     3561     1867       45 
   -2111    -4581    -6963    -8700    -9302    -8752    -7550    -6180 
   -4761    -3250    -1715     -233     1314     2878     3913     3846 
    2666      870    -1000    -2616    -3836    -4699    -5409    -6205 
   -7164    -8046    -8380    -7911    -6652    -4666    -2324     -386 
     679     1104     1306     1301      849     -140    -1599    -3412 
   -5279    -6686    -7215    -6853    -5778    -4024    -1836        9 
     945     1150      938      467      -51     -587    -1358    -2322 
   -3057    -3321    -3383    -3480    -3317    -2682    -1984    -1718 
   -1912    -2394    -3177    -4159    -4812    -4753    -4307    -4120 
   -4388    -4897    -5530    -6178    -6350    -5638    -4433    -3397 
   -2567    -1699     -884     -270      256      853     1356     1293 
     477     -619    -1537    -2457    -3646    -4808    -5370    -5188 
   -4502    -3375    -1876     -430      560     1016     1055      831 
     493       79     -546    -1472    -2513    -3310    -3640    -3634 
   -3446    -2955    -2088    -1038     -176      282      538      745 
     675      122     -951    -2527    -4387    -6025    -6901    -6862 
   -6124    -5039    -3942    -2990    -2176    -1617    -1630    -2309 
   -3256    -3956    -4168    -3871    -3217    -2420    -1544     -594 
     238      687      611       78     -778    -1960    -3352    -4509 
   -5030    -4986    -4716    -4230    -3225    -1786     -525       98 
      86     -451    -1532    -3045    -4594    -5701    -6141    -6052 
   -5688    -5039    -4021    -2924    -2227    -2135    -2539    -3334 
   -4303    -4914    -4738    -3851    -2669    -1540     -658     -319 
    -712    -1462    -2037    -2600    -3748    -5519    -7233    -8202 
   -8229    -7542    -6490    -5344    -4294    -3499    -2894    -2170 
   -1224     -368      -60     -372     -733     -592      -39      550 
     822      330    -1084    -2855    -4162    -4591    -4317    -3996 
   -4132    -4436    -4256    -3281    -1526      585     2027     1903 
     332    -1878    -3987    -5506    -6293    -6515    -6457    -6355 
   -6081    -5105    -3226    -1042      549      993      195    -1497 
   -3426    -5008    -6006    -6474    -6527    -6169    -5293    -3867 
   -2149     -714      -10      136       68     -303     -989    -1543 
   -1680    -1665    -1888    -2404    -2975    -3384    -3470    -3130 
   -2444    -1648    -1063    -1069    -1910    -3358    -4779    -5607 
   -5727    -5368    -4726    -3866    -2975    -2334    -2019    -1826 
   -1677    -1930    -2792    -3808    -4374    -4307    -3751    -3019 
   -2497    -2415    -2652    -2915    -3106    -3246    -3360    -3492 
   -3678    -3940    -4166    -4052    -3553    -3084    -2870    -2647 
   -2253    -1831    -1437     -945     -334      194      405      222 
    -193     -638    -1113    -1682    -2195    -2525    -2839    -3283 
   -3704    -3915    -4025    -4233    -4398    -4321    -4203    -4205 
   -4044    -3591    -3350    -3804    -4681    -5351    -5620    -5675 
   -5485    -4758    -3530    -2272    -1237     -298      522      890 
     552     -328    -1328    -2288    -3379    -4658    -5902    -6832 
   -7234    -6932    -5877    -4248    -2378     -733      252      544 
     422      -68    -1015    -1968    -2246    -1922    -1732    -2163 
   -3122    -4263    -5312    -5996    -6006    -5336    -4409    -3599 
   -2833    -1884     -804      122      615      471     -399    -1887 
   -3653    -5286    -6480    -7096    -7130    -6574    -5427    -3759 
   -1652      741     3007     4530     4922     4322     3230     2000 
     575    -1198    -3115    -4714    -5727    -6154    -5971    -5119 
   -3785    -2416    -1426    -1036    -1301    -2139    -3217    -4016 
   -4325    -4376    -4347    -4099    -3568    -3125    -3217    -3794 
   -4499    -5116    -5544    -5663    -5440    -4997    -4430    -3692 
   -2759    -1878    -1451    -1671    -2424    -3464    -4487    -5246 
   -5729    -5849    -5231    -3925    -2704    -2050    -1539     -689 
      89      -58    -1306    -3011    -4564    -5782    -6582    -6903 
   -6810    -6307    -5294    -3820    -2128     -583      477     1031 
    1254     1111      565      -83     -623    -1294    -2259    -3168 
   -3615    -3646    -3544    -3611    -4029    -4710    -5244    -5031 
   -3773    -1902     -218      828     1312     1320      804       -9 
    -911    -2138    -3815    -5519    -6589    -6673    -6100    -5410 
   -4723    -3896    -2832    -1491       45     1460     2255     2126 
    1233       40    -1202    -2708    -4585    -6498    -8046    -9020 
   -9282    -8694    -7325    -5634    -4245    -3496    -3279    -3213 
   -2951    -2442    -1952    -1695    -1672    -1831    -2097    -2239 
   -2169    -2181    -2488    -2963    -3547    -4256    -4842    -4981 
   -4627    -3924    -2956    -1641       23     1649     2632     2814 
    2563     1980      805     -810    -2438    -3960    -5287    -6069 
   -5952    -4904    -3325    -1749     -584      -41     -125     -735 
   -1588    -2311    -2901    -3634    -4495    -5161    -5439    -5341 
   -4923    -4268    -3404    -2266     -976      178     1051     1457 
    1065     -156    -1719    -2945    -3570    -3971    -4506    -4959 
   -4946    -4437    -3636    -2694    -1721     -857     -252      -10 
     -72     -180     -255     -687    -1861    -3655    -5672    -7512 
   -8769    -9142    -8630    -7607    -6598    -5841    -5097    -4036 
   -2709    -1443     -457       35     -270    -1229    -2255    -3109 
   -4017    -4977    -5525    -5355    -4777    -4352    -4228    -4122 
   -3785    -3106    -2004     -532      919     1836     2020     1645 
     899     -159    -1424    -2652    -3701    -4467    -4687    -4251 
   -3555    -3230    -3478    -3991    -4422    -4517    -3983    -2866 
   -1846    -1516    -1723    -2058    -2412    -2855    -3289    -3538 
   -3563    -3379    -2940    -2228    -1306     -338      415      723 
     398     -738    -2681    -4936    -6646    -7260    -6886    -5895 
   -4627    -3578    -3198    -3333    -3400    -3103    -2610    -2232 
   -2176    -2471    -2922    -3134    -2853    -2342    -2209    -2747 
   -3647    -4509    -5220    -5779    -6088    -6095    -5881    -5397 
   -4422    -3055    -1840    -1243    -1227    -1424    -1644    -1911 
   -2150    -2330    -2694    -3468    -4529    -5406    -5517    -4484 
   -2494     -390      841      893      224     -766    -1977    -3156 
   -3960    -4356    -4550    -4488    -3786    -2485    -1381    -1151 
   -1683    -2477    -3213    -3842    -4380    -4845    -5433    -6296 
   -7172    -7695    -7905    -8039    -7931    -7203    -6038    -5158 
   -4981    -5258    -5644    -6123    -6697    -7106    -6948    -6022 
   -4652    -3262    -1825     -342      710     1050      945      504 
    -699    -2855    -5273    -7111    -8268    -9001    -9173    -8368 
   -6600    -4449    -2478     -992     -207     -263    -1163    -2656 
   -4332    -5961    -7389    -8313    -8565    -8286    -7726    -7129 
   -6498    -5634    -4580    -3504    -2335    -1115     -311     -216 
    -432     -442     -147      341      805      772     -191    -1900 
   -3569    -4441    -4329    -3636    -2965    -2598    -2299    -1861 
   -1543    -1405    -1009     -295      141      -47     -518     -789 
    -695     -148      976     2523     3989     4943     5421     5694 
    5653     4868     3096      459    -2531    -5179    -6934    -7566 
   -7446    -7402    -7987    -9216   -10837   -12361   -13104   -12762 
  -11835   -11140   -10993   -11076   -11095   -11002   -10554    -9379 
   -7593    -5860    -4612    -3526    -2313    -1464    -1478    -2297 
   -3811    -5845    -7786    -8853    -8757    -8029    -7399    -6895 
   -6046    -4603    -2659     -368     2043     4202     5927     7381 
    8675     9617     9822     8934     6860     3939      895    -1451 
   -2505    -2157     -826     1075     3487     6265     9084    11630 
   13532    14250    13231    10512     6889     3257      212    -1973 
   -3194    -3225    -2118     -672      157     -153    -1526    -3129 
   -4085    -4156    -3519    -2797    -3024    -4703    -7149    -9127 
  -10181   -10849   -11542   -11966   -11624   -10404    -8310    -5063 
    -846     3232     6110     7482     7600     7137     7118     8217 
    9975    11142    10698     8411     4675      125    -4317    -7592 
   -9054    -8868    -7929    -7033    -6335    -5643    -4653    -3357 
   -2247    -1829    -2249    -3242    -4449    -5447    -5358    -3503 
    -477     2311     3969     4298     3323     1431     -508    -1826 
   -2915    -4774    -7340    -9274    -9574    -8344    -6030    -2782 
     978     4033     5420     5190     3514       55    -5150   -10775 
  -15021   -17255   -18171   -18500   -18114   -16753   -14982   -13479 
  -12221   -10922    -9406    -7493    -5046    -2501     -862     -572 
    -992    -1174     -569      643     1695     1729       35    -3555 
   -8168   -12403   -15358   -16733   -16398   -14359   -10746    -5923 
    -758     3727     6678     7037     3874    -2533   -10458   -17635 
  -22489   -24521   -23900   -21324   -18004   -15078   -12901   -10925 
   -8291    -4754     -942     2357     4518     4741     2524    -1676 
   -6949   -12378   -16880   -19545   -20339   -19665   -17313   -12725 
   -6008     1648     8814    14998    20045    23093    23566    22032 
   19150    14669     8190      510    -6524   -11439   -14168   -15206 
  -14353   -11168    -6035      -72     5495     9780    12224    12370 
    9855     5131     -168    -4480    -7476    -9906   -12501   -14804 
  -15723   -14883   -12634    -9468    -6120    -3669    -2772    -2906 
   -2655     -785     2826     7329    11769    15396    17564    18084 
   17323    15766    13626    10488     5911      495    -4456    -7889 
   -9394    -9059    -7157    -4205    -1081     1230     2207     2421 
    2882     3816     4961     6147     6974     7319     7875     9232 
   11209    13172    14337    14165    12722    10488     7819     4576 
     553    -3816    -7692   -10557   -12406   -13316   -13116   -11518 
   -8221    -3530     1120     4168     5004     3981     1942     -195 
   -1583    -1831    -1873    -3542    -7581   -13050   -18555   -22883 
  -24984   -24318   -21134   -16383   -11210    -5929        5     6423 
   11871    14921    15329    13795    11062     7827     5213     4326 
    5147     6663     8198     9331     9099     6993     3551     -405 
   -3715    -5154    -4523    -2759     -841     1009     2614     3439 
    3561     3763     4563     5719     6436     6077     4822     3289 
    1825      383    -1308    -3319    -5047    -5868    -5778    -4654 
   -1952     2120     6207     8980    10025     9528     7811     5634 
    4058     3206     2138      -32    -3744    -8698   -13713   -17748 
  -20657   -22303   -21853   -18820   -13674    -7435    -1313     3974 
    8089    10162     9258     5304    -1004    -8441   -15503   -20857 
  -23895   -24852   -24214   -22330   -19256   -14797    -9200    -3173 
    2408     6493     8533     8860     8070     6488     3998      301 
   -4779   -10975   -17219   -21999   -24124   -23141   -19473   -13934 
   -7480    -1444     3172     5929     6288     4309      963    -2749 
   -5899    -7882    -8676    -8279    -7033    -5621    -4126    -2091 
     549     2843     3354     1367    -2446    -6120    -7928    -7767 
   -6385    -4669    -3478    -2683    -1597      -85     1636     3273 
    4689     5736     5891     4819     2551     -511    -3296    -4885 
   -5555    -6085    -6393    -6035    -5458    -5688    -6970    -8322 
   -9359   -10712   -11857   -11237    -8662    -5653    -3272     -963 
    1887     4583     6022     5958     4676     2142    -1982    -7645 
  -13548   -17385   -17505   -14014    -7875      -89     7929    14395 
   18229    19955    20679    20270    18050    14451    10137     4962 
    -741    -5715    -9171   -11318   -12542   -12864   -12221   -10407 
   -6983    -2226     2587     6137     8159     9273     9697     9278 
    7944     5409     1821    -1773    -4413    -5918    -6596    -6528 
   -5296    -2682      702     3951     6829     9547    11646    12208 
   10930     8166     4579     1026    -1848    -3553    -3983    -4052 
   -4522    -4892    -4672    -4291    -4378    -5162    -6424    -7673 
   -8299    -7618    -5589    -3253    -1521     -203     1077     2031 
    2266     1927     1395      814      157     -573    -1424    -2532 
   -3987    -5541    -6770    -7603    -8390    -9436   -10413   -10551 
   -9447    -7420    -5067    -2825    -1170     -394     -201     -143 
      65      706     1819     3036     3744     3303     1709       10 
    -781     -795     -854    -1521    -2737    -3901    -4596    -5279 
   -6566    -8738   -11911   -15522   -18226   -18852   -17228   -13938 
   -9657    -4868       25     4360     7535     9231     8893     6318 
    2219    -2554    -7437   -11946   -15282   -16852   -17031   -16258 
  -14671   -12609   -10419    -8302    -6131    -3815    -1850     -774 
    -652    -1320    -2720    -4865    -7398    -9875   -12690   -15977 
  -18342   -18577   -17021   -14543   -11429    -7588    -3483      342 
    4170     8294    12363    15650    17282    16721    14054     9967 
    5356      540    -4448    -9204   -13375   -16949   -19934   -21811 
  -21725   -19576   -16074   -11888    -7458    -3090      824     3928 
    6457     8631     9803     9285     7109     3650     -437    -4320 
   -7411    -9456   -10458   -10671   -10370    -9532    -8037    -6193 
   -4549    -3468    -3115    -3488    -4345    -5232    -5881    -6389 
   -6605    -6230    -5540    -5074    -5069    -5308    -5301    -5235 
   -5973    -7614    -9428   -11065   -12649   -13810   -13672   -11799 
   -8479    -4396      -68     4383     8421    11088    12190    12201 
   11395     9666     6948     3912     1448     -602    -2971    -5734 
   -8537   -11242   -13743   -15673   -16707   -16625   -15407   -13478 
  -11133    -8248    -5263    -3218    -2440    -2550    -3145    -3771 
   -4284    -4920    -5637    -6141    -6293    -6046    -5371    -4299 
   -3007    -1911    -1269    -1035    -1381    -2297    -3156    -3443 
   -3331    -3246    -3202    -2878    -2026     -611      954     2025 
    2139     1043    -1198    -4118    -7009    -9273   -10617   -10755 
   -9270    -6069    -1856     2340     5684     7427     7311     5622 
    2552    -1664    -6550   -11319   -14783   -16355   -16659   -16163 
  -14482   -11541    -8135    -4939    -1740     1836     5359     7950 
    8877     7735     4866     1328    -1850    -4327    -6462    -8507 
  -10219   -11276   -11492   -10790    -9207    -6970    -4378    -1714 
     561     2092     3071     3724     3573     2196      263    -1269 
   -2323    -3326    -4338    -5082    -5541    -5983    -6447    -6586 
   -6079    -4900    -3180    -1059     1464     4228     6664     8186 
    8382     7092     4488     1142    -1958    -4081    -5263    -6137 
   -7468    -9360   -11434   -13304   -14269   -13748   -11828    -9278 
   -7217    -5914    -4769    -3599    -2641    -1883    -1158     -693 
