Origin Time       2016/04/16 01:25:00
Lat.              32.753
Long.             130.762
Depth. (km)       12
Mag.              7.3
Station Code      YMG006
Station Lat.      34.1490
Station Long.     130.9298
Station Height(m) 5
Record Time       2016/04/16 01:25:34
Sampling Freq(Hz) 100Hz
Duration Time(s)  110
Dir.              N-S
Scale Factor      7845(gal)/8223790
Max. Acc. (gal)   28.266
Last Correction   2016/04/16 01:25:34
Memo.             
[...]
   -7065   -10916   -13819   -15398   -15300   -13502   -10706    -7781 
   -5328    -3904    -3701    -4360    -5856    -8395   -11217   -12984 
  -13219   -12398   -10978    -9082    -7087    -5659    -4918    -4329 
   -3666    -3507    -4410    -6142    -8133   -10077   -11762   -12838 
  -12923   -11947   -10222    -8201    -6242    -4436    -2879    -1896 
   -1553    -1732    -2663    -4421    -6652    -9180   -11709   -13631 
  -14798   -15380   -15238   -14218   -12567   -10881    -9667    -8958 
   -8461    -8007    -7631    -7350    -7098    -6705    -5971    -4993 
   -4116    -3576    -3499    -3939    -4672    -5163    -4936    -4110 
   -3462    -3423    -3449    -3090    -2621    -2290    -2180    -2477 
   -3176    -4002    -4579    -4525    -3880    -3196    -2744    -2296 
   -1810    -1363     -873     -598    -1197    -2943    -5258    -7292 
   -8758    -9744   -10054    -9562    -8738    -8252    -8302    -8483 
   -8222    -7302    -5860    -4210    -2914    -2451    -2775    -3488 
   -4225    -4811    -5233    -5529    -5714    -5792    -5898    -6238 
   -6774    -7330    -8158    -9768   -12114   -14473   -16144   -16710 
  -15828   -13663   -11225    -9337    -7781    -6199    -4725    -3407 
   -2241    -1467    -1246    -1437    -1630    -1398     -950     -977 
   -1904    -3670    -5711    -7371    -8474    -9019    -8802    -7763 
   -6151    -4396    -2862    -1655     -976    -1147    -2047    -3122 
   -4039    -4923    -5765    -5960    -5219    -4158    -3335    -2724 
   -2326    -2478    -3623    -5849    -8571   -11002   -12858   -14175 
  -14910   -15124   -14864   -13914   -12168    -9985    -8035    -6875 
   -6426    -6230    -6266    -6899    -8202    -9814   -11342   -12576 
  -13297   -13142   -11992   -10206    -8279    -6588    -5316    -4388 
   -3632    -3057    -2813    -2974    -3514    -4213    -4556    -4353 
   -4233    -4792    -5805    -6655    -6970    -6667    -5697    -4185 
   -2833    -2417    -2844    -3476    -3977    -4317    -4581    -4891 
   -5335    -6075    -6998    -7485    -7042    -5710    -3877    -2200 
   -1308    -1271    -1846    -2984    -4467    -5678    -6239    -6299 
   -6168    -5911    -5441    -4889    -4406    -3967    -3815    -4289 
   -5266    -6293    -6919    -6891    -6415    -5927    -5734    -6313 
   -8031   -10235   -11892   -12764   -13134   -13215   -13099   -12729 
  -12141   -11546   -10879    -9909    -8854    -8230    -8193    -8520 
   -8826    -8734    -8232    -7491    -6385    -4710    -2636     -610 
     978     1988     2511     2562     1852      144    -2292    -4965 
   -7538    -9707   -11053   -11265   -10501    -9354    -8278    -7410 
   -6859    -6623    -6507    -6486    -6686    -7155    -7921    -8900 
   -9763   -10296   -10747   -11310   -11635   -11508   -11523   -12091 
  -12629   -12568   -12060   -11222    -9853    -8067    -6359    -5084 
   -4276    -3817    -3546    -3352    -3230    -3198    -3226    -3360 
   -3649    -4003    -4382    -4822    -5239    -5653    -6254    -6768 
   -6556    -5552    -4256    -2965    -1710     -584      171      229 
    -654    -2317    -4190    -5863    -7225    -8016    -7890    -7030 
   -6112    -5522    -5146    -4895    -4733    -4422    -3904    -3510 
   -3555    -4153    -5258    -6593    -7851    -8885    -9510    -9549 
   -9180    -8776    -8430    -8089    -7893    -7796    -7349    -6488 
   -5730    -5300    -4827    -3979    -2929    -2096    -1740    -1981 
   -2755    -3631    -4286    -4808    -5277    -5736    -6363    -7044 
   -7283    -6802    -5782    -4668    -3798    -3323    -3392    -3897 
   -4477    -4996    -5366    -5451    -5472    -5665    -5756    -5355 
   -4486    -3608    -3235    -3445    -3947    -4538    -5120    -5583 
   -5949    -6304    -6691    -7236    -8097    -9153    -9995   -10238 
   -9764    -8679    -7287    -6068    -5375    -5293    -5880    -7068 
   -8360    -9201    -9551    -9705    -9720    -9290    -8248    -6899 
   -5672    -4791    -4531    -5140    -6303    -7242    -7572    -7562 
   -7595    -7751    -7928    -8029    -7947    -7542    -6822    -6006 
   -5247    -4627    -4359    -4475    -4621    -4687    -5036    -5826 
   -6766    -7470    -7522    -6667    -5246    -3970    -3254    -3052 
   -3083    -2957    -2488    -2052    -2138    -2830    -4151    -6174 
   -8538   -10577   -11846   -12236   -11947   -11434   -10983   -10539 
   -9999    -9305    -8357    -7339    -6540    -5809    -5140    -5206 
   -6278    -7608    -8388    -8503    -8305    -8239    -8513    -8951 
   -9205    -9049    -8490    -7734    -7032    -6604    -6498    -6521 
   -6520    -6494    -6307    -5757    -5071    -4839    -5232    -5805 
   -6145    -6166    -5964    -5684    -5341    -4811    -4050    -3295 
   -2972    -3299    -4197    -5498    -6937    -8343    -9779   -11117 
  -11902   -11923   -11477   -10948   -10401    -9620    -8371    -6725 
   -5024    -3544    -2435    -1803    -1567    -1570    -1956    -2911 
   -4256    -5721    -7111    -8253    -9092    -9647    -9849    -9662 
   -9246    -8838    -8407    -7707    -6731    -5652    -4535    -3515 
   -2803    -2436    -2278    -2242    -2411    -2924    -3669    -4329 
   -4852    -5472    -6176    -6762    -7200    -7543    -7789    -7838 
   -7530    -7006    -6652    -6700    -7175    -7940    -8683    -9161 
   -9355    -9220    -8660    -7773    -6759    -5729    -4768    -4020 
   -3638    -3585    -3663    -3844    -4322    -5124    -6000    -6863 
   -7911    -9099    -9867    -9622    -8352    -6711    -5425    -4573 
   -3809    -3069    -2616    -2614    -3005    -3700    -4723    -6039 
   -7380    -8414    -9003    -9184    -9113    -9011    -9001    -8970 
   -8723    -8226    -7508    -6578    -5674    -5244    -5468    -6119 
   -6925    -7815    -8819    -9853   -10624   -10912   -10837   -10540 
   -9842    -8596    -7094    -5863    -5159    -4837    -4641    -4436 
   -4263    -4276    -4452    -4637    -4851    -5152    -5347    -5244 
   -4896    -4440    -3994    -3719    -3816    -4403    -5359    -6350 
   -7136    -7661    -7916    -8032    -8324    -8965    -9682    -9818 
   -9015    -7684    -6396    -5263    -4248    -3523    -3315    -3565 
   -3894    -4067    -4271    -4874    -6034    -7439    -8483    -8932 
   -9054    -8980    -8490    -7518    -6290    -5047    -4017    -3375 
   -3056    -3011    -3287    -3893    -4949    -6385    -7657    -8334 
   -8459    -8352    -8472    -8873    -9012    -8543    -7785    -7072 
   -6319    -5617    -5456    -5965    -6669    -7123    -7252    -7223 
   -7358    -7903    -8641    -9057    -8911    -8348    -7688    -7333 
   -7593    -8407    -9364    -9972    -9965    -9479    -8803    -8141 
   -7709    -7663    -7982    -8563    -9251    -9873   -10260   -10206 
   -9694    -8977    -8229    -7391    -6413    -5296    -4028    -2718 
   -1717    -1379    -1802    -2832    -4185    -5512    -6535    -7140 
   -7357    -7252    -6843    -6118    -5184    -4368    -4013    -4135 
   -4568    -5268    -6076    -6520    -6289    -5688    -5298    -5404 
   -5985    -6952    -8063    -8997    -9713   -10258   -10438   -10077 
   -9182    -7792    -6168    -4804    -3915    -3307    -2867    -2654 
   -2700    -3044    -3775    -4903    -6264    -7574    -8576    -9049 
   -8810    -7947    -6826    -5734    -4776    -4040    -3680    -3863 
   -4584    -5595    -6588    -7352    -7875    -8319    -8850    -9429 
   -9787    -9711    -9265    -8588    -7797    -7038    -6330    -5698 
   -5405    -5702    -6643    -8090    -9666   -11034   -12070   -12571 
  -12236   -11001    -9124    -7038    -5256    -4109    -3426    -2920 
   -2654    -2764    -3288    -4183    -4999    -5258    -5116    -4880 
   -4467    -3808    -3140    -2727    -2698    -3107    -3950    -5030 
   -5949    -6350    -6095    -5333    -4448    -3736    -3362    -3523 
   -4140    -4792    -5312    -5926    -6844    -8023    -9090    -9647 
   -9610    -8951    -7672    -6311    -5548    -5328    -5196    -5216 
   -5823    -6939    -7969    -8657    -9212    -9686    -9817    -9454 
   -8654    -7480    -6046    -4707    -3915    -3773    -3929    -4074 
   -4352    -4989    -5883    -6871    -7846    -8510    -8565    -8100 
   -7468    -7013    -6951    -7245    -7558    -7599    -7410    -7096 
   -6675    -6192    -5679    -5158    -4807    -4882    -5435    -6211 
   -6781    -6793    -6181    -5097    -3904    -3082    -2691    -2373 
   -2064    -2030    -2285    -2658    -3177    -3967    -4973    -5938 
   -6650    -7211    -7803    -8326    -8608    -8642    -8453    -8087 
   -7756    -7682    -7821    -7898    -7778    -7504    -7026    -6427 
   -6199    -6755    -7807    -8675    -8985    -8810    -8463    -8206 
   -8086    -8083    -8075    -7792    -7249    -6828    -6770    -7001 
   -7241    -7167    -6698    -6066    -5613    -5475    -5374    -4923 
   -4233    -3827    -3937    -4303    -4625    -4869    -5093    -5243 
   -5243    -5184    -5255    -5599    -6191    -6894    -7676    -8552 
   -9344    -9717    -9578    -9163    -8703    -8241    -7681    -6936 
   -6027    -4962    -3792    -2878    -2624    -3010    -3701    -4460 
   -5397    -6613    -7709    -8406    -8976    -9402    -9296    -8785 
   -8333    -7978    -7377    -6295    -4888    -3511    -2374    -1571 
   -1212    -1252    -1372    -1298    -1047     -831    -1048    -2173 
   -4263    -6867    -9425   -11538   -13032   -13867   -14002   -13360 
  -11796    -9381    -6682    -4233    -2045      -86     1275     1792 
    1699     1278      648      -70     -987    -2550    -5012    -8110 
  -11275   -13968   -15898   -17132   -17906   -18243   -18019   -17347 
  -16497   -15462   -13884   -11605    -8997    -6511    -4448    -3186 
   -2930    -3530    -4795    -6610    -8688   -10507   -11634   -12025 
  -11811   -11005    -9614    -7989    -6924    -7109    -8414   -10065 
  -11335   -11811   -11241    -9502    -6859    -4190    -2380    -1613 
   -1645    -2222    -3057    -3890    -4677    -5543    -6460    -7198 
   -7784    -8352    -8556    -7931    -6447    -4299    -1746      815 
    2817     3615     2941     1274     -649    -2482    -4125    -5544 
   -6982    -8789   -11107   -13775   -16318   -18162   -19026   -19172 
  -19157   -19124   -18635   -17377   -15546   -13582   -11834   -10401 
   -9211    -8408    -8634   -10519   -14087   -18744   -23504   -27448 
  -29911   -30036   -26985   -20822   -12438    -3199     5443    12660 
   17690    19535    18446    15923    12933     9662     6269     3117 
     414    -2411    -5849    -9058   -10897   -11450   -11526   -11190 
   -9711    -6925    -3813    -1491     -149      923     2511     4603 
    6323     6594     4816     1300    -2797    -6432    -9359   -11657 
  -13378   -14737   -15859   -16410   -15904   -14076   -10859    -6735 
   -2983     -715       16     -448    -2181    -5139    -8726   -12206 
  -14883   -16104   -15523   -13243    -9979    -6933    -4852    -3794 
   -4008    -5838    -8887   -12131   -14484   -15476   -15357   -14014 
  -10920    -6226     -653     4942     9475    12024    12272    10585 
    7749     4218       71    -4129    -7302    -8735    -8340    -6178 
   -2540     1729     5555     8078     8834     7797     5279     1841 
   -1688    -4652    -6978    -9069   -11399   -13863   -15849   -16942 
  -17047   -16501   -16028   -15762   -15066   -13567   -11369    -8716 
   -6016    -3585    -1535     -152       72    -1337    -4483    -8770 
  -13325   -17255   -19596   -19842   -18142   -14704    -9610    -3273 
    3160     8097    10449     9882     6637     1918    -2367    -4938 
   -5919    -6285    -6601    -6564    -5788    -4321    -2398     -407 
     986     1156      117    -1459    -3227    -5544    -8537   -11817 
  -15155   -18415   -21088   -22886   -24391   -26179   -27766   -27949 
  -25802   -21433   -16020   -11203    -8262    -7425    -7928    -8684 
   -8959    -8907    -9232   -10030   -10710   -11045   -11038   -10219 
   -8089    -4797    -1127     2045     4374     6068     7551     8976 
    9836     9269     6727     2388    -2830    -7915   -12505   -16803 
  -20810   -23970   -25872   -26689   -26682   -25790   -23679   -20177 
  -15688   -10712    -5587     -888     2986     5968     7518     6934 
    4110     -572    -6250   -11904   -16988   -21149   -23927   -24950 
  -23804   -20218   -14752    -8865    -4233    -1563     -292     -126 
   -1501    -4388    -8205   -12344   -16397   -20116   -22758   -23207 
  -21118   -16954   -11400    -5225      622     5167     7931     9115 
    9100     8048     5818     2357    -1707    -5328    -7789    -8797 
   -8329    -6389    -3150      722     4652     8293    11221    13321 
   14381    13875    11958     9038     5005      -87    -5620   -10727 
  -14856   -18065   -20518   -22391   -24023   -25366   -26118   -26374 
  -26349   -25933   -24783   -22735   -20074   -17011   -13460    -9459 
   -5178    -1000     2586     5594     8214    10304    11743    12316 
   11521     9051     4903     -238    -4764    -7501    -8540    -8324 
   -7118    -5352    -3762    -2879    -2471    -1904     -866      553 
    2420     4938     7719    10021    11485    11780    10569     8100 
    4923     1435    -1892    -4679    -7156    -9629   -11794   -13423 
  -15061   -17463   -20655   -23938   -26470   -27442   -26300   -23040 
  -18268   -13026    -8024    -3264     1200     4812     6798     6288 
    2702    -3682   -11889   -20517   -28081   -33572   -36217   -35191 
  -30352   -22657   -13659    -4761     3472    10872    16598    19579 
   19494    16634    11610     5470     -295    -4087    -4900    -3187 
    -689     1047     1290     -112    -2308    -3773    -3796    -2601 
    -855      116     -513    -2174    -4253    -6482    -8255    -9027 
   -8513    -7014    -5985    -6633    -8803   -12078   -15948   -19241 
  -20906   -21022   -20412   -19340   -17227   -13706    -9571    -6180 
   -3989    -2632    -1968    -1896    -1941    -1610     -688      618 
    1683     1964     1410      480     -409    -1709    -4120    -7441 
  -10967   -14137   -16476   -17608   -17463   -16463   -15113   -13594 
  -12108   -10828    -9383    -7387    -5155    -3046    -1038      486 
     664     -814    -3483    -6866   -10804   -15102   -19588   -24291 
  -28844   -32281   -33787   -32976   -29766   -24511   -18033   -11330 
   -5162      162     4764     8843    12191    14323    14721    13049 
    9780     5907     2006    -1715    -5065    -7731    -9275    -9447 
   -8302    -6210    -4071    -2509     -985     1107     3511     5697 
    7271     8031     7993     7233     5921     4453     3208     2168 
    1080     -135    -1505    -3235    -5416    -7813   -10192   -12386 
  -14095   -14972   -14742   -13450   -11659   -10088    -9470   -10449 
  -12887   -15858   -18562   -20676   -21922   -21836   -20295   -17779 
  -14698   -11009    -6635    -1949     2087     4360     4521     3051 
     380    -3461    -8093   -12301   -14962   -16258   -17127   -17856 
  -18242   -18198   -17420   -15579   -12707    -9078    -5481    -2937 
   -1645    -1070     -807     -796    -1081    -1732    -2732    -3807 
   -4654    -5205    -5485    -5975    -7736   -11288   -16020   -20838 
  -24597   -26615   -26944   -25760   -23230   -19772   -15861   -11901 
   -8083    -4295     -625     2452     4430     4765     3046     -388 
   -4606    -8623   -11611   -13248   -13822   -13824   -13560   -13138 
  -12703   -12262   -11784   -11634   -12055   -12811   -13654   -14374 
  -14526   -13780   -12356   -10540    -8136    -4994    -1568     1490 
    3659     4745     4857     3840     1687     -757    -2581    -3566 
   -3855    -3497    -2606    -1615    -1000     -982    -1686    -3071 
   -4830    -6679    -8476    -9855   -10281    -9775    -8851    -7634 
   -6072    -4653    -4027    -4463    -5722    -7094    -7913    -8016 
   -7384    -5896    -3647     -932     1779     4000     5584     6315 
    5622     3111    -1069    -6292   -11601   -15827   -18049   -17894 
  -15292   -10813    -5756    -1243     2149     4218     5192     5514 
    5447     5117     4523     3219      765    -2579    -6180    -9412 
  -11716   -12921   -13146   -12914   -13346   -14863   -16602   -17727 
  -17896   -16872   -14561   -11244    -7726    -4739    -2176      275 
    2349     3572     3592     2482      781    -1220    -3551    -6107 
   -8729   -11352   -14212   -17536   -20601   -22270   -22289   -20999 
  -18731   -15947   -13178   -10876    -9016    -6930    -4369    -1829 
     292     1869     2822     2918     1865       65    -1462    -2118 
   -2046    -1644    -1229    -1090    -1506    -2640    -4479    -6718 
   -8914   -11070   -13342   -15133   -15584   -14542   -12541   -10381 
   -8569    -7346    -7180    -8135    -9489   -10395   -10065    -8212 
   -5377    -2286      376     2043     2668     2531     1918     1023 
    -160    -1549    -2911    -4294    -6021    -8274   -10821   -12939 
  -13930   -13679   -12583   -11337   -10504   -10096    -9679    -8707 
   -7160    -5529    -4072    -2882    -2053    -1404     -767     -351 
    -665    -2083    -4248    -6534    -8719   -10612   -11643   -11439 
  -10397    -9252    -8274    -7086    -5185    -2555      378     3076 
    4889     5333     4487     2768      746    -1092    -2690    -4232 
   -5760    -7218    -8757   -10584   -12332   -13486   -14000   -13855 
  -12791   -10665    -7761    -4664    -1802      457     1522      920 
   -1468    -5293    -9540   -13324   -16536   -19129   -20602   -20641 
  -19535   -17652   -15124   -12078    -8819    -5810    -3501    -2110 
   -1632    -2064    -3273    -4606    -5287    -5169    -4537    -3615 
   -2524    -1389     -483      -97     -399    -1471    -3061    -4681 
   -6087    -7257    -8005    -7805    -6327    -3932    -1337      718 
    1680     1368     -133    -2166    -3726    -4637    -5422    -6186 
   -6531    -6192    -5173    -3488    -1151     1582     4284     6691 
    8721    10199    10852    10590     9634     8071     5594     2212 
   -1462    -4950    -8007   -10288   -11469   -11421   -10382    -9036 
   -7901    -6924    -5733    -4140    -2442     -999      -22      156 
    -739    -2613    -5055    -7669   -10285   -12567   -13876   -13926 
  -12960   -11488   -10121    -9178    -8637    -8598    -9236   -10512 
  -12070   -13374   -14199   -14643   -14615   -13934   -12798   -11772 
  -11291   -11199   -11111   -10947   -10773   -10597   -10444   -10457 
  -10689   -10839   -10611   -10088    -9340    -8241    -6822    -5223 
   -3534    -2037    -1101     -803     -977    -1293    -1408    -1360 
   -1540    -2381    -4156    -6785    -9842   -12798   -15272   -17078 
  -18138   -18275   -17221   -15093   -12328    -9285    -6507    -4629 
   -3812    -3937    -4966    -6786    -9066   -11292   -12919   -13588 
  -13213   -11935   -10061    -7835    -5393    -3161    -1636     -818 
    -448     -301     -341     -745    -1394    -1858    -1930    -1653 
   -1078     -280      375      363     -488    -2011    -3908    -5613 
   -6590    -6690    -6019    -4820    -3358    -1896     -824     -303 
      -9      356      734      834      363     -631    -1942    -3434 
   -4718    -5348    -5368    -5134    -4956    -4974    -5169    -5575 
