Origin Time       2016/04/16 01:25:00
Lat.              32.753
Long.             130.762
Depth. (km)       12
Mag.              7.3
Station Code      YMG012
Station Lat.      33.9941
Station Long.     131.2181
Station Height(m) 2
Record Time       2016/04/16 01:25:32
Sampling Freq(Hz) 100Hz
Duration Time(s)  181
Dir.              N-S
Scale Factor      7845(gal)/8223790
Max. Acc. (gal)   74.507
Last Correction   2016/04/16 01:25:32
Memo.             
[...]
  -10224   -11113   -11348   -10481    -8862    -7118    -5468    -3997 
   -2747    -1467       27     1684     3430     4974     5846     5944 
    5719     5798     6465     7449     8286     8692     8482     7717 
    7063     7254     8182     8981     8893     7723     5719     3559 
    2010     1156      492     -189     -872    -1777    -2820    -3503 
   -3808    -4194    -4770    -5093    -4793    -4079    -3414    -3096 
   -3333    -4178    -5513    -7021    -7969    -7680    -6270    -4453 
   -2921    -2069    -1872    -1768    -1098      322     2130     3765 
    4918     5555     5559     4834     3736     2957     2837     2997 
    2896     2688     2930     3719     4719     5606     6219     6601 
    6709     6296     5281     3898     2519     1459      785      252 
    -392    -1109    -1705    -2151    -2466    -2613    -2759    -3187 
   -4000    -4893    -5108    -4205    -2698    -1402     -728     -569 
    -540     -473     -514     -815    -1277    -1583    -1520    -1100 
    -514     -149     -270     -642     -749     -221      972     2747 
    5012     7176     8316     8176     7381     6646     6292     6419 
    6970     7626     8025     7981     7482     6725     5988     5308 
    4320     2837     1455      766      515      253     -114     -660 
   -1354    -1850    -1865    -1574    -1522    -2066    -3010    -3855 
   -4207    -4085    -3855    -3699    -3476    -3222    -3141    -3260 
   -3489    -3759    -3940    -3774    -3044    -1852     -610      257 
     448      -47     -629     -510      422     1684     2891     4028 
    5113     5913     6151     5826     5314     5124     5282     5259 
    4679     3794     3190     3261     4017     5171     6315     7017 
    6806     5358     2843       64    -1904    -2436    -1749     -614 
     317      835      938      696      396      289      451      954 
    1598     1903     1605      851      243      363     1084     1904 
    2602     3096     3219     2749     1634      265     -641     -583 
     229      939      766     -337    -1672    -2470    -2574    -2085 
    -953      446     1254     1039      275     -136      309     1441 
    2890     4491     6188     7728     8635     8536     7689     6907 
    6690     6874     7113     7195     7023     6655     6156     5440 
    4550     3757     3073     2128      676     -911    -2001    -2381 
   -2315    -2259    -2673    -3682    -4872    -5701    -5994    -5798 
   -5211    -4440    -3665    -2896    -2245    -1918    -1942    -2158 
   -2439    -2778    -3204    -3650    -3986    -4040    -3584    -2546 
   -1264     -270      210      297      178      110      446     1390 
    2783     4117     4847     4961     4938     5111     5454     5800 
    5913     5551     4735     3923     3746     4369     5265     5709 
    5267     4074     2824     1993     1482     1177     1090      982 
     561     -125     -851    -1409    -1549    -1194     -508      305 
    1019     1499     1848     2243     2859     3757     4720     5483 
    6076     6579     6871     6943     6939     6837     6610     6376 
    6131     5793     5347     4696     3834     3059     2714     2841 
    3186     3418     3194     2278      822     -602    -1472    -1676 
   -1239     -292      506      464     -275     -970    -1094     -696 
    -324     -472    -1065    -1698    -2130    -2386    -2494    -2412 
   -2236    -2265    -2808    -3851    -4968    -5741    -5949    -5597 
   -5012    -4496    -3971    -3277    -2455    -1610     -770      202 
    1443     2729     3696     4537     5899     7964    10147    11739 
   12533    12838    12935    12779    12247    11394    10461     9667 
    8978     8144     7047     5802     4477     3032     1559      251 
    -853    -1786    -2535    -3217    -4068    -5113    -5981    -6208 
   -5636    -4337    -2533     -653      864     1823     2231     2176 
    1987     2120     2548     2732     2444     1975     1561     1254 
    1101     1254     1878     2809     3592     3896     3585     2747 
    1768     1100      895     1003     1282     1711     2203     2577 
    2751     2811     2809     2663     2323     1872     1409      966 
     710      890     1491     2324     3213     3883     4183     4185 
    3896     3358     2717     2077     1570     1310     1227     1155 
    1038     1000     1219     1610     1790     1552     1107      767 
     565      211     -342     -565      -43      897     1767     2467 
    2979     3153     2940     2423     1748     1178     1015     1327 
    1919     2701     3665     4585     5223     5493     5431     5351 
    5614     6151     6632     6774     6436     5829     5313     4938 
    4568     4151     3677     3213     2893     2789     2805     2764 
    2633     2435     2154     1744     1090      139    -1032    -2296 
   -3469    -4289    -4557    -4356    -4068    -3971    -3986    -3981 
   -3908    -3603    -2898    -1930    -1071     -658     -778    -1185 
   -1501    -1564    -1463    -1175     -532      400     1266     1799 
    2081     2419     2922     3234     2937     2204     1665     1671 
    2079     2590     3076     3619     4294     5034     5684     6120 
    6336     6276     5786     4930     4090     3577     3323     3019 
    2486     1846     1402     1337     1499     1563     1509     1634 
    1896     1826     1246      449     -166     -317      -22      251 
      -9     -793    -1613    -1933    -1476     -418      679     1225 
    1036      490      -64     -733    -1552    -2146    -2107    -1358 
    -243      646      881      553      117      -39      279      974 
    1691     2203     2469     2421     2196     2165     2397     2581 
    2504     2263     2058     1892     1560      996      395      110 
     388      976     1192      595     -615    -1809    -2533    -2737 
   -2440    -1655     -441     1139     2758     3835     4120     3875 
    3524     3385     3645     4225     4868     5448     5952     6347 
    6729     7155     7535     7848     8090     8091     7704     6952 
    5876     4553     3281     2361     1830     1632     1644     1624 
    1451     1077      402     -533    -1524    -2477    -3439    -4337 
   -5020    -5383    -5397    -5235    -5108    -4908    -4463    -3855 
   -3375    -3319    -3721    -4325    -4854    -5131    -4950    -4156 
   -3006    -1960    -1057      -71     1113     2579     4251     5833 
    7140     8151     8918     9578    10193    10627    10841    11133 
   11550    11568    10867     9767     8760     8104     7668     7040 
    6022     4820     3712     2792     1949     1009       -4     -974 
   -1975    -3241    -4893    -6669    -8004    -8573    -8565    -8298 
   -7955    -7773    -7954    -8280    -8240    -7519    -6292    -5104 
   -4411    -4278    -4480    -4672    -4534    -3886    -2739    -1281 
     306     1953     3623     5243     6660     7730     8540     9391 
   10466    11587    12351    12387    11634    10588     9996    10064 
   10358    10444    10212     9679     8829     7747     6750     6126 
    5798     5368     4351     2478      -29    -2641    -4870    -6386 
   -7071    -7113    -6966    -7076    -7581    -8272    -8862    -9279 
   -9587    -9802    -9975   -10224   -10570   -10929   -11105   -10851 
  -10111    -8978    -7419    -5440    -3226     -884     1437     3387 
    4861     6214     7816     9626    11246    12382    13077    13548 
   13984    14473    15039    15542    15695    15323    14467    13197 
   11695    10327     9373     8785     8284     7539     6232     4192 
    1557    -1321    -4152    -6839    -9328   -11391   -12764   -13284 
  -12880   -11772   -10582    -9934   -10064   -10975   -12568   -14377 
  -15724   -16251   -15977   -15075   -13672   -11767    -9250    -6119 
   -2682      606     3327     5169     6183     6785     7361     7983 
    8598     9328    10346    11580    12650    13207    13385    13654 
   14220    14802    14937    14447    13419    11851     9745     7408 
    5348     3920     3076     2436     1583      472     -608    -1557 
   -2474    -3314    -4025    -4764    -5861    -7543    -9444   -10733 
  -10795    -9683    -8020    -6463    -5242    -4293    -3584    -3090 
   -2712    -2371    -2023    -1621    -1107     -375      654     1964 
    3434     4855     6056     7003     7735     8194     8307     8289 
    8563     9312    10303    11099    11341    10952    10185     9300 
    8352     7430     6760     6493     6517     6642     6815     7017 
    7125     7117     7086     6990     6732     6270     5593     4889 
    4502     4494     4826     5710     7167     8799    10224    11264 
   11937    12355    12522    12514    12510    12357    11658    10500 
    9477     9035     9351    10362    11537    12166    11866    10604 
    8564     6010     2960     -808    -5120    -9155   -12162   -13894 
  -14651   -15110   -15753   -16811   -18490   -20638   -22750   -24426 
  -25585   -26492   -27549   -28829   -29884   -30005   -28514   -24856 
  -19017   -12174    -6197    -2446    -1359    -2448    -4223    -4830 
   -3288       62     4083     7437     9265     9763     9909    10573 
   11962    13856    16005    18104    19723    20684    21227    21532 
   21494    21255    21212    21479    21793    21656    20559    18199 
   14665    10523     6467     2874     -164    -2614    -4484    -6062 
   -7896   -10299   -12954   -15003   -15736   -15429   -15236   -16348 
  -19109   -22650   -25582   -26905   -26198   -23430   -18968   -13791 
   -9351    -6548    -5186    -4617    -4021    -2434      754     5664 
   11952    18688    24721    29315    32439    34639    36497    38194 
   39561    40278    40050    38722    36347    33484    31179    30342 
   31012    32058    31541    27958    21513    13865     6771     1305 
   -2390    -5146    -8122   -12345   -18636   -27006   -36154   -43904 
  -48309   -48986   -47341   -45330   -44483   -45593   -48431   -51918 
  -54623   -55364   -53673   -49756   -44689   -39997   -36293   -33111 
  -29884   -26333   -22253   -17489   -12006    -5745     1240     8510 
   15552    22176    28456    34295    39245    42881    45285    47044 
   48631    50068    51352    52470    53110    53145    52722    51625 
   49474    46506    43414    40428    37023    32675    27375    21324 
   14563     7069    -1042    -9297   -16738   -22403   -26090   -28742 
  -31706   -35343   -39295   -43521   -47719   -51027   -52914   -53453 
  -53258   -52961   -52338   -50788   -47812   -43073   -37021   -30796 
  -25578   -21864   -19036   -16216   -12764    -8212    -2727     3118 
    9045    14940    20549    25531    29722    33471    37215    40760 
   43587    45338    45670    44686    43308    42442    42489    43426 
   44697    45427    44652    41747    37157    31978    27044    22636 
   18454    14179    10087     6516     3325       25    -3788    -8132 
  -12760   -17463   -22092   -26349   -29797   -32209   -33783   -34982 
  -36036   -36618   -36000   -33555   -29452   -24630   -20078   -16664 
  -15025   -14983   -15865   -16909   -17161   -15942   -12901    -8113 
   -2685     2188     6066     8811    10771    12633    14727    16991 
   18775    19245    18235    16243    14457    14218    15796    18581 
   21803    24405    25353    24389    22172    19838    17967    16258 
   14233    11247     6990     2556     -959    -3495    -4364    -2733 
     746     4715     7860     9074     8091     5370     1773    -1404 
   -3495    -4892    -5827    -6453    -7172    -8024    -8838    -9209 
   -8576    -6858    -4496    -2436    -1695    -2625    -5096    -8752 
  -12931   -16961   -20394   -22956   -24462   -24578   -22964   -20131 
  -17224   -14733   -12583   -10813    -9414    -8299    -7410    -6810 
   -6567    -6222    -5138    -3064      402     5607    11585    16486 
   19345    20520    21022    21797    23259    25397    27957    30568 
   33164    35699    37557    38119    37323    35406    32765    29635 
   26092    22441    19210    17014    15936    15236    14153    12286 
    9486     5972     1818    -3204    -8762   -13856   -17531   -19496 
  -20344   -20679   -20584   -20501   -21370   -23403   -25895   -28270 
  -30133   -31060   -30877   -29512   -27361   -25227   -23056   -19996 
  -15457    -9612    -3653      870     3317     4220     4738     5907 
    7977    10351    12158    12822    12344    11454    11414    13086 
   16124    19089    20488    19997    18350    16294    14222    12081 
    9370     6027     2636     -351    -2475    -3223    -2728    -1327 
     687     2163     1535    -1773    -7240   -13980   -20879   -26727 
  -30915   -33577   -35198   -36116   -36240   -35263   -32823   -28968 
  -24352   -19757   -16151   -14413   -14509   -15461   -15823   -14760 
  -12540    -9425    -5490    -1337     2361     5667     9085    12996 
   17440    22059    26141    28896    30329    31560    33423    35564 
   37196    37520    35904    32813    29936    28806    29710    31996 
   34847    37235    37710    35280    29920    22215    13475     5202 
   -2178    -9001   -15259   -20731   -25436   -29536   -33185   -36544 
  -39825   -43012   -45959   -48894   -52016   -55204   -58179   -60232 
  -60697   -59468   -56343   -50746   -42364   -31932   -21536   -13036 
   -6593    -1840     1447     4202     7755    12865    19448    26925 
   34658    42103    49164    56174    63045    69121    74002    77449 
   79138    79285    78327    75968    71857    66582    60716    54095 
   46588    38194    29239    20603    12561     4891    -2184    -8436 
  -13733   -18131   -22441   -27456   -33029   -38508   -43356   -47309 
  -50735   -54426   -58259   -61090   -62502   -62904   -62409   -60959 
  -58128   -53690   -48775   -44625   -41558   -39081   -36063   -31845 
  -26624   -20686   -14338    -7925    -1459     5131    11591    17610 
   23321    29069    34946    40922    46888    52532    57561    61774 
   65113    67589    69176    69912    69715    68202    65073    60594 
   55487    50319    45148    39785    33923    27306    20179    12938 
    6110      310    -4428    -8543   -12746   -17806   -23878   -30472 
  -36913   -42891   -48513   -53588   -57719   -61175   -64519   -67282 
  -68418   -67803   -65919   -63016   -58945   -53408   -46586   -39225 
  -32665   -27920   -23714   -18322   -12394    -6787    -1034     5115 
   11788    19294    27425    35476    42495    48047    52408    55661 
   57353    56805    54154    50124    45312    40755    37077    34322 
   32879    32792    33781    34994    34790    32208    27341    21247 
   15026     8637     2231    -3619    -8972   -13936   -18350   -22464 
  -26703   -30673   -33532   -35394   -37158   -39316   -41987   -45112 
  -48366   -51595   -54650   -57076   -57804   -55545   -50074   -42387 
  -34422   -27870   -22210   -15596    -7468     1166     9190    16464 
   23622    30977    38379    45468    51466    55560    57611    58158 
   57817    56943    55582    53522    50693    47359    43854    40139 
   36363    33469    31563    29376    26298    22432    17541    11894 
    6124      322    -5347   -10507   -15047   -19186   -23068   -26482 
  -29296   -31305   -32468   -33616   -35591   -38682   -42678   -46622 
  -49794   -52265   -53823   -54044   -52974   -50647   -47011   -42506 
  -37596   -32097   -25890   -19264   -12291    -5027     1776     7338 
   12083    16837    21344    24975    27788    30376    33272    36344 
   38676    39645    39523    38723    37696    37079    37022    37309 
   37966    39096    40204    40055    37746    33520    28453    23938 
   20758    18445    16378    14493    12511    10233     7763     4803 
    1123    -3137    -7935   -13039   -18323   -24008   -29829   -35178 
  -39780   -43406   -45794   -46894   -46761   -45385   -42601   -38737 
  -34892   -31537   -28134   -24364   -20416   -16344   -12127    -7897 
   -3481     1532     7222    13244    18971    24082    28736    32843 
   35970    37678    38071    37951    37837    37692    37536    37501 
   37750    38433    39417    40413    41373    42064    41613    39248 
   35216    30535    25976    21840    18235    15206    12735    10353 
    7601     4510      895    -3373    -7867   -12294   -16594   -20931 
  -25863   -31122   -35819   -39930   -43384   -45759   -47205   -47483 
  -46338   -44416   -41759   -38176   -34317   -30554   -26847   -23187 
  -19592   -16368   -13593   -10978    -8440    -5614    -1898     2527 
    6966    10863    13915    16393    18711    20783    22288    23193 
   23869    24552    25303    26172    26843    27067    26933    26542 
   26142    25775    25042    23868    22504    21224    20452    19866 
   18473    16375    14216    11878     9397     7098     4934     2627 
    -275    -3927    -7951   -12187   -16656   -21038   -24929   -28204 
  -30753   -32109   -32184   -31471   -30203   -28549   -26666   -24719 
  -23125   -21770   -20409   -19059   -17128   -13979    -9621    -4243 
    1549     6767    10993    14351    17038    19252    20864    21735 
   22300    22986    23720    24298    24502    24281    24050    24120 
   24379    24759    25235    25575    25245    23819    21583    19191 
   17365    16669    16579    15888    14386    12581    10574     8487 
    6585     4920     3824     3257     2335      423    -2556    -6386 
  -10636   -14604   -17734   -20374   -22454   -23340   -23449   -23288 
  -22648   -21304   -19371   -17392   -15639   -13944   -12270   -10588 
   -8866    -7402    -6455    -5649    -4471    -3002    -1514      160 
    2255     4546     6866     9351    11877    14165    16090    17680 
   18925    19534    19338    18639    17801    17046    16606    16694 
   17302    18180    18975    19219    18585    17266    15687    14172 
   12846    11460     9666     7307     4452     1377    -1564    -4094 
   -6092    -7685    -9104   -10318   -11346   -12438   -13413   -13826 
  -13548   -12683   -11476   -10207    -9077    -8203    -7510    -6932 
   -6367    -5359    -3634    -1560      367     1818     2614     2913 
    2945     2662     2069     1390      762      332      295      634 
    1131     1412     1318     1236     1459     1912     2473     3036 
    3626     4220     4768     5366     5904     6195     6292     6269 
    6183     6143     6290     6664     7241     8007     8635     8608 
    7804     6385     4529     2477      538     -945    -1760    -1985 
   -1669     -824      147      903     1526     2057     2470     2798 
    2953     2755     2095     1139      244     -457     -950    -1174 
   -1221    -1111     -656       93      689      688      -39    -1512 
   -3593    -5691    -7142    -7761    -7727    -7214    -6453    -5783 
   -5321    -4965    -4588    -3960    -2783    -1117      513     1663 
    2224     2269     1969     1409      614     -184     -797    -1300 
   -1710    -1840    -1551     -967     -344      237      810     1282 
    1718     2177     2376     2332     2614     3430     4391     5163 
    5643     5861     6211     7007     7985     8884     9730    10420 
   10597     9823     8139     6093     4002     1906      -54    -1759 
   -3261    -4698    -6115    -7453    -8590    -9329    -9629    -9844 
  -10393   -11331   -12432   -13433   -14104   -14324   -14089   -13380 
