Origin Time       2016/04/16 01:25:00
Lat.              32.753
Long.             130.762
Depth. (km)       12
Mag.              7.3
Station Code      YMG014
Station Lat.      34.0544
Station Long.     131.8077
Station Height(m) 15
Record Time       2016/04/16 01:25:37
Sampling Freq(Hz) 100Hz
Duration Time(s)  125
Dir.              N-S
Scale Factor      7845(gal)/8223790
Max. Acc. (gal)   16.274
Last Correction   2016/04/16 01:25:37
Memo.             
[...]
     828      414      -39     -526     -987    -1297    -1502    -1703 
   -1752    -1520    -1251    -1200    -1229    -1124     -929     -757 
    -552     -276       10      405     1024     1750     2442     3107 
    3738     4263     4708     5197     5678     5853     5649     5366 
    5209     5157     5189     5246     5139     4812     4445     4152 
    3846     3416     2862     2259     1675     1096      461     -249 
    -934    -1401    -1661    -1907    -2149    -2258    -2270    -2280 
   -2249    -2180    -2139    -2000    -1587     -943     -167      683 
    1387     1714     1790     1954     2292     2581     2601     2361 
    2057     1894     1900     1925     1881     1829     1830     1952 
    2211     2477     2668     2932     3314     3690     4036     4367 
    4558     4580     4600     4730     4846     4806     4630     4348 
    3943     3496     3107     2756     2424     2209     2170     2154 
    2042     1890     1669     1298      870      603      638      889 
    1117     1232     1282     1289     1300     1383     1460     1377 
    1219     1196     1331     1543     1737     1728     1435     1105 
    1044     1232     1439     1570     1710     1958     2288     2543 
    2655     2705     2740     2666     2434     2209     2170     2227 
    2157     1930     1695     1507     1308     1071      859      765 
     846     1011     1123     1216     1394     1605     1709     1645 
    1418     1070      766      662      677      670      629      565 
     511      564      750      969     1133     1171     1048      900 
     886      973     1107     1282     1382     1340     1318     1433 
    1537     1532     1567     1718     1871     1972     2038     1966 
    1655     1230      859      437     -135     -666    -1043    -1317 
   -1386    -1151     -843     -735     -787     -851     -870     -807 
    -731     -835    -1094    -1200     -984     -616     -297      -10 
     314      679     1013     1277     1464     1532     1383     1026 
     662      484      425      369      378      457      521      614 
     773      850      751      615      599      662      724      890 
    1246     1672     2057     2358     2490     2353     2004     1628 
    1333     1156     1129     1221     1278     1175      943      676 
     506      513      591      592      575      720      992     1213 
    1368     1540     1830     2267     2717     3057     3314     3586 
    3861     4032     4139     4215     4187     4068     3894     3611 
    3230     2809     2336     1800     1296      963      784      533 
     112     -319     -565     -602     -522     -380     -238     -157 
     -37      240      621      929      992      800      522      372 
     425      484      363      151      -10     -144     -326     -514 
    -637     -665     -542     -249       74      299      399      372 
     287      253      263      245      216      214      222      279 
     436      641      828      985     1036      915      733      688 
     772      849      913     1012     1147     1262     1219      996 
     765      623      530      492      504      437      220      -47 
    -307     -566     -675     -529     -342     -330     -441     -600 
    -826    -1119    -1382    -1440    -1208     -846     -615     -581 
    -577     -432     -137      163      315      302      310      556 
     992     1325     1412     1345     1174      880      550      237 
    -108     -415     -599     -762     -955    -1048    -1046    -1129 
   -1327    -1489    -1587    -1624    -1413     -870     -255      152 
     348      411      299       11     -314     -560     -664     -594 
    -405     -182       91      449      766      934     1003     1012 
     961      884      783      630      467      301       40     -340 
    -657     -734     -680     -689     -718     -599     -313       68 
     480      838     1127     1429     1794     2160     2471     2740 
    2926     2925     2755     2567     2404     2135     1737     1354 
    1063      877      835      876      854      770      722      645 
     388       56      -99      -83     -118     -259     -387     -537 
    -845    -1196    -1318    -1142     -803     -450     -205      -76 
     105      491      935     1161     1123     1008      911      757 
     544      383      298      160      -76     -278     -305     -199 
     -93      -35        8       99      259      398      398      287 
     224      257      232        1     -355     -621     -668     -546 
    -402     -348     -405     -449     -297      129      711     1182 
    1337     1224     1104     1131     1215     1258     1263     1237 
    1158     1026      858      608      253      -99     -379     -621 
    -796     -789     -606     -383     -149      151      348      232 
     -81     -291     -251      -47       94        8     -275     -540 
    -664     -762     -922    -1075    -1197    -1297    -1308    -1221 
   -1094     -888     -460      189      826     1251     1497     1682 
    1885     2137     2397     2559     2516     2273     1937     1580 
    1252     1026      841      502      -28     -526     -767     -760 
    -688     -715     -851     -931     -823     -611     -438     -342 
    -289     -198       -2      297      633      874      967     1019 
    1154     1356     1501     1540     1522     1505     1543     1597 
    1516     1252      976      816      733      699      737      791 
     808      814      838      882      876      670      201     -328 
    -610     -587     -418     -210        5      191      299      321 
     282      180       18     -137     -233     -280     -301     -234 
     -47      112      124      106      187      325      488      712 
     934     1016      977      913      830      769      793      788 
     629      373      137      -36     -140     -141       17      341 
     704      999     1262     1507     1682     1809     1842     1710 
    1526     1383     1228     1011      704      268     -244     -689 
   -1009    -1225    -1259    -1073     -864     -826     -873     -834 
    -683     -488     -287      -90      122      450      872     1152 
    1264     1486     1818     1944     1840     1777     1794     1757 
    1671     1545     1325     1063      837      557      160     -186 
    -268     -122       25       44      -25     -108     -147      -62 
     190      576     1053     1545     1900     2056     2073     1982 
    1790     1553     1351     1274     1391     1658     1858     1777 
    1482     1151      781      380      112      -41     -274     -504 
    -491     -271      -72       47      191      446      814     1212 
    1544     1796     2014     2205     2313     2292     2201     2195 
    2276     2238     2050     1992     2242     2623     2894     2979 
    2932     2860     2805     2673     2408     2092     1795     1495 
    1193      943      720      451      182      -32     -212     -303 
    -230      -99      -14      148      464      737      841      923 
    1003      940      801      787      916     1047     1062      963 
     849      810      832      841      787      693      635      575 
     368       63     -126     -212     -368     -572     -702     -761 
    -724     -461       -4      446      862     1321     1767     2135 
    2466     2736     2844     2778     2681     2729     2896     2991 
    2938     2809     2625     2386     2212     2182     2160     2057 
    1973     1987     2014     1869     1460      907      464      289 
     383      641      881      986     1003      999      927      765 
     619      556      537      579      746     1032     1298     1343 
    1167      970      831      711      665      746      861      992 
    1273     1629     1726     1379      730       78     -311     -351 
    -155       23        0     -144     -172      -49      -25     -217 
    -445     -558     -525     -328      -63      128      175      178 
     378      787     1116     1270     1506     1934     2300     2501 
    2762     3105     3418     3840     4364     4664     4615     4398 
    4171     4060     4124     4156     3964     3699     3586     3599 
    3505     3215     2898     2704     2664     2848     3206     3423 
    3292     2951     2555     2211     2092     2092     1904     1591 
    1379     1237     1055      785      317     -288     -600     -387 
      23      319      496      491      288      164      238      283 
     287      451      637      464     -147     -885    -1410    -1584 
   -1509    -1431    -1405    -1308    -1220    -1232    -1078     -471 
     284      687      874     1228     1746     2326     2782     2899 
    2911     3145     3480     3604     3468     3400     3546     3569 
    3384     3176     2844     2366     1966     1683     1426     1348 
    1490     1317      641      236      361      328      -99     -577 
    -959    -1185    -1062     -642     -351     -283      -11      653 
    1422     2107     2744     3271     3659     4094     4600     4936 
    5093     5258     5344     5186     4950     4980     5279     5427 
    5252     5192     5422     5435     5051     4673     4243     3519 
    2978     2997     3056     2814     2654     2636     2424     2104 
    1826     1417      963      743      513       20     -395     -495 
    -442     -369     -399     -553     -585     -387     -210     -244 
    -289       14      603     1026     1065      870      711      747 
     830      788      723      808      958      754       -8     -846 
   -1185    -1178    -1364    -1771    -1989    -1929    -1764    -1656 
   -1852    -2205    -2007    -1193     -658     -841    -1189    -1318 
   -1445    -1744    -2232    -2789    -3137    -3366    -3865    -4715 
   -5618    -6080    -5826    -5157    -4545    -4052    -3449    -2830 
   -2527    -2370    -1999    -1629    -1470    -1278    -1242    -1714 
   -2234    -2420    -2647    -2929    -2794    -2361    -2053    -1676 
   -1015     -434       -1      549     1039     1316     1431     1174 
     643      437      558      436       54     -263     -780    -1810 
   -2963    -3828    -4567    -5440    -6593    -7890    -8920    -9699 
  -10492   -10947   -10882   -10932   -11257   -11310   -11141   -11013 
  -10471    -9342    -8290    -7619    -6879    -5949    -5229    -4614 
   -3634    -2581    -1899    -1185     -225      373      370       81 
    -329     -553     -203      464      957     1345     1903     2521 
    2951     3140     3138     3184     3599     4064     4045     3875 
    4041     4374     4720     5119     5460     5783     6110     6127 
    5790     5562     5719     6154     6651     6901     6601     5827 
    5007     4413     3932     3469     3138     2934     2735     2635 
    2956     3798     4758     5552     6265     6535     5945     4899 
    3828     2762     2070     2045     2064     1711     1594     1772 
    1304      236     -364     -480     -683     -712     -464     -387 
    -361     -162     -133     -268      -40      441      627      600 
     652      766     1016     1372     1566     1586     1584     1582 
    1610     1831     2355     3073     3774     4233     4325     4200 
    3975     3495     2706     1804      987      425      423     1098 
    1908     2235     2218     2235     2098     1588     1031      641 
     275      -25     -255     -681    -1258    -1630    -1798    -2042 
   -2380    -2609    -2660    -2454    -1877    -1058     -198      607 
    1169     1259      936      500       49     -629    -1520    -2215 
   -2389    -2095    -1702    -1395     -987     -460        9      379 
     550      483      540     1096     1952     2658     3238     3902 
    4467     4776     5069     5530     6103     6629     6972     7179 
    7426     7738     8046     8328     8502     8505     8430     8283 
    7979     7723     7684     7491     6805     5823     4750     3325 
    1470     -284    -1632    -2743    -3573    -4054    -4342    -4421 
   -4305    -4302    -4430    -4334    -3993    -3786    -3886    -4074 
   -4152    -4180    -4116    -3711    -2964    -1908     -480      958 
    2115     3241     4395     5368     6176     6836     7048     6529 
    5532     4544     3715     3032     2427     1665      769       65 
    -351     -589     -695     -769     -931    -1067    -1000     -785 
    -610     -735    -1341    -2130    -2567    -2650    -2833    -3183 
   -3474    -3678    -3609    -2967    -2079    -1498    -1081     -553 
    -217     -298     -481     -383       75      743     1489     2249 
    2949     3647     4425     5146     5514     5373     4951     4434 
    3708     2945     2470     2195     1975     1854     1811     1900 
    2123     1956      965     -286    -1031    -1505    -2255    -3011 
   -3346    -3499    -3539    -3094    -2467    -2350    -2431    -2168 
   -2041    -2396    -2736    -2983    -3508    -4122    -4417    -4479 
   -4431    -3910    -2961    -2300    -1972    -1471     -886     -476 
     -72      542     1314     2096     2814     3198     3129     3113 
    3334     3335     3192     3326     3508     3410     3260     3264 
    3284     3258     3183     2902     2504     2404     2616     2756 
    2870     3250     3662     3658     3360     3145     2971     2558 
    1935     1281      410     -770    -1987    -3268    -4878    -6731 
   -8630   -10534   -12445   -14235   -15545   -16195   -16426   -16405 
  -15977   -14980   -13578   -11935    -9913    -7597    -5360    -3312 
   -1359      529     2409     4378     6284     7766     8847     9818 
   10563    10809    10554     9945     9169     8348     7541     6840 
    6315     6043     6084     6257     6214     5727     4934     4113 
    3180     1915      575     -564    -1680    -2825    -3832    -4757 
   -5552    -6062    -6535    -7250    -8091    -8851    -9362    -9547 
   -9505    -9397    -9219    -8885    -8603    -8599    -8665    -8563 
   -8218    -7623    -6893    -6029    -5004    -3991    -3032    -1949 
    -714      550     1726     2771     3672     4341     4765     5069 
    5296     5584     6245     7132     7801     8268     8660     8841 
    8777     8598     8306     7769     6959     5846     4348     2774 
    1521      526     -313     -999    -1609    -2102    -2439    -2798 
   -3289    -3816    -4225    -4438    -4384    -4028    -3524    -3032 
   -2523    -2004    -1543    -1055     -319      637     1474     2087 
    2631     3067     3284     3358     3459     3672     3989     4437 
    4930     5252     5366     5476     5702     5838     5610     5059 
    4431     3893     3520     3268     2936     2378     1696     1125 
     683      309      170      299      511      789     1088     1124 
     881      649      446      121     -195     -346     -471     -635 
    -652     -513     -463     -581     -811    -1182    -1541    -1567 
   -1220     -761     -399     -202     -141      -81       59      187 
     283      440      680     1104     1803     2586     3223     3728 
    4176     4535     4820     5148     5529     5976     6739     7924 
    9166    10141    10841    11165    11097    10858    10434     9629 
    8471     7140     5742     4194     2452      633    -1320    -3466 
   -5495    -7240    -8835   -10102   -10820   -11253   -11551   -11462 
  -10975   -10417    -9957    -9585    -9377    -9339    -9312    -9278 
   -9223    -8835    -7939    -6897    -6030    -5142    -4107    -3199 
   -2604    -2188    -1763    -1333     -796      -35      561      754 
     973     1314     1366     1185     1077      978      932     1271 
    1868     2204     2232     2204     2096     1790     1220      486 
     -32     -129      -40      -29     -105     -159     -157     -178 
    -338     -625     -837     -880     -832     -673     -288      302 
     973     1516     1686     1526     1267      869      279     -394 
   -1194    -2003    -2497    -2693    -2744    -2619    -2354    -2119 
   -1998    -1985    -2007    -1914    -1710    -1549    -1371    -1030 
    -587     -236      -20      238      622     1146     1961     3021 
    4051     4934     5729     6413     6875     7190     7450     7479 
    7246     6925     6370     5343     4129     3244     2598     1667 
     364     -989    -2185    -3175    -3969    -4583    -5076    -5552 
   -6030    -6340    -6316    -6115    -5927    -5602    -5144    -4831 
   -4626    -4409    -4368    -4554    -4692    -4654    -4546    -4369 
   -4151    -4033    -3856    -3393    -2959    -2836    -2731    -2473 
   -2277    -2172    -2119    -2226    -2438    -2569    -2659    -2830 
   -2971    -3001    -3076    -3304    -3774    -4537    -5246    -5458 
   -5290    -5130    -4989    -4652    -4158    -3788    -3646    -3535 
   -3360    -3137    -2678    -2069    -1810    -1846    -1599    -1046 
    -653     -475     -135      517     1267     1964     2669     3306 
    3742     4099     4513     4897     5054     4916     4606     4109 
    3392     2775     2606     2782     2963     3011     3051     3229 
    3466     3553     3535     3599     3730     3977     4345     4504 
    4395     4504     5008     5483     5746     6114     6621     6979 
    7192     7360     7423     7527     7863     8228     8404     8595 
    8914     8995     8665     8229     7776     7203     6696     6319 
    5849     5300     4858     4390     3663     2841     2181     1576 
     924      368      -45     -365     -519     -552     -650     -764 
    -722     -652     -700     -638     -140      723     1580     2304 
    3015     3740     4490     5300     6049     6563     6879     7153 
    7296     7089     6600     5991     5208     4186     3144     2380 
    1868     1494     1279     1004      427     -184     -602    -1009 
   -1377    -1468    -1486    -1702    -1979    -2222    -2578    -2982 
   -3284    -3623    -4082    -4391    -4441    -4490    -4706    -5080 
   -5540    -5863    -5927    -5875    -5768    -5522    -5298    -5379 
   -5713    -6088    -6508    -7087    -7738    -8114    -7969    -7464 
   -6837    -6034    -4930    -3676    -2621    -1850    -1080     -182 
     777     1811     2803     3535     4063     4611     5161     5346 
    4954     4298     3697     3183     2802     2567     2466     2610 
    2890     2998     2863     2594     2203     1620      943      550 
     591      781      918      901      639      340      351      639 
     950     1246     1548     1744     1846     2020     2374     2882 
    3373     3672     3780     3863     4082     4433     4927     5595 
    6394     7364     8413     9213     9633     9687     9328     8712 
    8284     8391     8876     9296     9441     9309     8955     8584 
    8352     8162     7843     7466     7163     6833     6517     6497 
    6650     6597     6465     6629     6961     6972     6578     6210 
    6164     6288     6204     5652     4772     4047     3686     3213 
    2191     1057      415      217      103     -211     -819    -1493 
   -1933    -2147    -2403    -2664    -2579    -2234    -2061    -2126 
   -2196    -2020    -1410     -430      634     1733     3140     4731 
    5857     6307     6604     7198     7931     8340     8240     7759 
