Origin Time       2016/04/16 01:25:00
Lat.              32.753
Long.             130.762
Depth. (km)       12
Mag.              7.3
Station Code      YMG002
Station Lat.      34.4073
Station Long.     131.3987
Station Height(m) 2
Record Time       2016/04/16 01:25:39
Sampling Freq(Hz) 100Hz
Duration Time(s)  149
Dir.              E-W
Scale Factor      7845(gal)/8223790
Max. Acc. (gal)   34.964
Last Correction   2016/04/16 01:25:40
Memo.             
[...]
    -870     -615     -685     -989    -1348    -1664    -1852    -1825 
   -1549    -1044     -392      236      715     1050     1366     1761 
    2192     2565     2868     3161     3419     3449     3142     2650 
    2284     2316     2717     3141     3322     3321     3281     3327 
    3627     4159     4581     4623     4355     3987     3623     3184 
    2501     1476      346     -355     -338      159      730     1183 
    1595     2104     2643     2921     2764     2258     1547      737 
     -81     -832    -1445    -1968    -2527    -2995    -3030    -2525 
   -1765    -1107     -687     -472     -479     -669     -803     -695 
    -402      -40      303      538      660      704      545        4 
    -847    -1644    -1965    -1703    -1148     -673     -451     -537 
    -932    -1460    -1875    -2158    -2359    -2343    -1992    -1360 
    -592      159      754     1133     1437     1923     2620     3271 
    3607     3572     3323     3030     2799     2698     2671     2590 
    2400     2146     1939     1937     2212     2682     3211     3773 
    4407     5026     5367     5159     4365     3264     2249     1537 
    1000      365     -390    -1017    -1274    -1154     -877     -652 
    -531     -475     -351      -89      175      309      413      658 
    1023     1344     1524     1528     1360     1071      684      176 
    -391     -880    -1200    -1370    -1417    -1351    -1259    -1221 
   -1213    -1152     -976     -650     -144      504     1185     1877 
    2667     3499     4102     4261     3965     3238     2070      669 
    -584    -1447    -1761    -1436     -710      -97       98       -1 
    -101      -37      199      542      849      976      918      751 
     436     -108     -689     -976     -868     -510      -49      378 
     566      365      -71     -432     -562     -500     -294       97 
     743     1548     2246     2562     2380     1810     1063      359 
    -144     -432     -521     -364       32      568     1161     1729 
    2137     2315     2317     2178     1856     1318      550     -360 
   -1197    -1794    -2079    -1938    -1323     -403      518     1196 
    1571     1765     1864     1794     1464      918      353      -21 
    -131       -5      279      611      916     1165     1298     1327 
    1378     1548     1814     2057     2097     1875     1499     1147 
     940      853      726      515      333      263      263      274 
     329      549      936     1304     1528     1658     1722     1647 
    1382      967      490      -25     -615    -1258    -1796    -2081 
   -2153    -2139    -2043    -1740    -1198     -549       11      351 
     425      249     -118     -523     -778     -783     -535     -120 
     310      672     1009     1254     1239     1059     1080     1543 
    2272     2768     2708     2228     1660     1216      928      683 
     357       -8     -249     -243       82      741     1560     2278 
    2794     3129     3244     3028     2432     1590      723      -37 
    -685    -1190    -1409    -1205     -576      348     1312     2042 
    2417     2401     1964     1230      421     -310     -864    -1198 
   -1356    -1409    -1358    -1112     -658     -152      207      284 
      -9     -619    -1314    -1875    -2214    -2296    -2022    -1262 
    -116     1016     1771     2100     2155     2107     2118     2196 
    2181     2018     1810     1575     1232      788      352       32 
    -149     -214     -171     -149     -317     -614     -758     -532 
      52      841     1611     2163     2463     2659     2882     3099 
    3210     3230     3256     3346     3439     3349     2906     2097 
    1115      240     -346     -645     -773     -838     -877     -950 
   -1151    -1483    -1798    -1888    -1618     -989     -112      876 
    1815     2494     2814     2853     2712     2454     2157     1859 
    1566     1279      943      471     -101     -662    -1197    -1703 
   -2085    -2245    -2250    -2301    -2512    -2822    -3113    -3253 
   -3148    -2898    -2701    -2506    -2057    -1282     -379      461 
    1135     1547     1709     1775     1869     1935     1795     1435 
    1144     1125     1246     1363     1431     1340     1042      639 
     184     -252     -429     -174      410     1121     1807     2378 
    2837     3269     3774     4396     4992     5267     5078     4526 
    3766     2938     2231     1722     1308     1011      993     1179 
    1227      911      252     -614    -1534    -2342    -2870    -3001 
   -2735    -2170    -1487     -870     -446     -301     -448     -734 
    -873     -665     -194      265      545      629      519      261 
       1     -152     -233     -346     -531     -715     -789     -634 
    -229      222      441      407      315      313      533     1080 
    1783     2289     2427     2312     2153     2149     2442     2967 
    3504     3835     3793     3326     2550     1644      815      295 
     202      483      970     1416     1602     1516     1327     1220 
    1294     1539     1803     1877     1684     1318      915      595 
     445      437      514      618      625      444      155     -105 
    -280     -349     -329     -284     -268     -272     -246     -176 
    -118     -125     -224     -444     -861    -1514    -2255    -2762 
   -2797    -2319    -1390     -159     1127     2189     2775     2810 
    2457     1999     1661     1512     1520     1723     2234     2979 
    3615     3875     3802     3573     3317     3136     3001     2785 
    2393     1767      963      197     -319     -440      -75      619 
    1323     1864     2204     2234     1892     1329      756      237 
    -230     -634     -985    -1302    -1554    -1714    -1769    -1710 
   -1503    -1177     -892     -830    -1026    -1433    -1956    -2458 
   -2821    -2943    -2744    -2322    -1865    -1435    -1024     -730 
    -718    -1067    -1606    -1942    -1803    -1227     -391      521 
    1397     2215     3014     3861     4737     5483     5968     6134 
    5933     5412     4752     4081     3491     3136     3071     3153 
    3213     3159     2945     2546     1971     1316      683       99 
    -357     -533     -291      403     1424     2512     3434     4014 
    4104     3669     2889     2095     1572     1331     1080      533 
    -301    -1220    -2087    -2909    -3694    -4340    -4669    -4612 
   -4305    -3932    -3530    -3002    -2346    -1717    -1282    -1024 
    -758     -294      469     1460     2355     2805     2647     1966 
    1107      378     -167     -517     -658     -738     -934    -1254 
   -1560    -1683    -1572    -1398    -1372    -1506    -1593    -1421 
    -932     -233      498     1175     1811     2363     2776     3163 
    3649     4139     4392     4248     3751     3119     2527     2015 
    1610     1351     1206     1146     1183     1270     1314     1321 
    1378     1521     1713     1875     1937     1960     2092     2351 
    2554     2505     2146     1545      827       47     -750    -1386 
   -1647    -1520    -1139     -657     -251      -74     -144     -383 
    -714    -1081    -1448    -1765    -2049    -2315    -2442    -2274 
   -1755     -931       63     1067     1915     2492     2814     2945 
    2853     2474     1891     1358     1101     1133     1271     1282 
    1136     1030     1135     1408     1652     1665     1433     1158 
    1057     1159     1312     1327     1154      831      427       78 
    -178     -487     -963    -1578    -2205    -2693    -2890    -2724 
   -2288    -1806    -1433    -1112     -691     -164      346      728 
     882      824      750      805      927     1003     1019     1030 
    1081     1146     1132     1013      858      724      615      558 
     549      484      380      398      566      774      939     1065 
    1202     1412     1710     2096     2583     3219     4008     4820 
    5433     5702     5552     4907     3855     2724     1831     1324 
    1143     1081      958      783      720      853     1023     1000 
     745      372      -56     -568    -1193    -1908    -2582    -3032 
   -3168    -3026    -2690    -2274    -1929    -1707    -1549    -1489 
   -1652    -2012    -2409    -2779    -3083    -3161    -2975    -2739 
   -2671    -2891    -3376    -3851    -4031    -3888    -3550    -3141 
   -2683    -2076    -1240     -266      707     1605     2357     2920 
    3307     3557     3699     3746     3690     3563     3438     3353 
    3250     3059     2806     2636     2685     2961     3360     3738 
    3944     3894     3688     3534     3538     3569     3375     2851 
    2143     1537     1260     1273     1264      980      486      -21 
    -461     -800    -1058    -1339    -1711    -2141    -2554    -2909 
   -3235    -3572    -3908    -4178    -4291    -4207    -3984    -3704 
   -3411    -3140    -2991    -3071    -3358    -3689    -3892    -3970 
   -4081    -4266    -4425    -4494    -4433    -4217    -3859    -3307 
   -2474    -1456     -476      348     1007     1422     1507     1302 
     907      399     -101     -415     -355      121      800     1383 
    1771     2115     2584     3125     3551     3757     3796     3873 
    4064     4205     4132     3854     3496     3190     3006     2976 
    3051     3133     3167     3078     2833     2528     2188     1729 
    1190      715      367      131      -98     -467     -850     -927 
    -572       56      662      965      877      521       98     -171 
    -221     -225     -342     -542     -801    -1142    -1563    -2023 
   -2442    -2732    -2874    -2932    -2906    -2650    -2173    -1636 
   -1015     -357        4      -43     -292     -615     -938    -1143 
   -1146     -908     -454       67      529      876      989      869 
     820      967      958      571       45     -429     -908    -1327 
   -1468    -1215     -579      291     1166     1975     2792     3530 
    3964     3962     3593     3037     2424     1848     1398     1092 
     828      473       29     -418     -911    -1483    -1958    -2029 
   -1509     -557      441     1185     1534     1478     1146      816 
     689      595      295     -117     -441     -645     -837    -1100 
   -1443    -1919    -2532    -3057    -3276    -3223    -3087    -3007 
   -3075    -3387    -3958    -4623    -5174    -5487    -5537    -5374 
   -5065    -4695    -4402    -4276    -4212    -4055    -3867    -3748 
   -3736    -4010    -4702    -5518    -6029    -6122    -6000    -5883 
   -5829    -5840    -5987    -6394    -7083    -7823    -8357    -8615 
   -8477    -7836    -6863    -5813    -4810    -3899    -3033    -2126 
   -1308     -854     -788     -810     -722     -588     -386      103 
    1009     2224     3522     4754     5981     7250     8385     9300 
   10183    11167    12209    13333    14508    15556    16447    17262 
   17909    18211    18172    17967    17756    17644    17782    18288 
   19082    19884    20397    20559    20506    20260    19695    18715 
   17290    15410    13243    11171     9437     7911     6358     4698 
    2898     1004     -835    -2520    -4013    -5296    -6470    -7713 
   -9104   -10648   -12322   -14010   -15513   -16530   -16686   -15826 
  -14153   -12140   -10345    -9108    -8494    -8447    -8758    -9092 
   -9248    -9190    -8837    -8131    -7240    -6334    -5456    -4650 
   -3899    -3129    -2347    -1445     -176     1401     2938     4243 
    5320     6133     6713     7160     7334     6879     5656     3879 
    1908       64    -1443    -2493    -3011    -3049    -2821    -2539 
   -2282    -2066    -1799    -1240     -263      996     2381     3789 
    5027     5864     6147     5809     5013     4205     3850     4295 
    5637     7485     9229    10567    11499    12190    12942    13895 
   14864    15649    16124    16140    15673    14926    14085    13162 
   12178    11311    10727    10463    10440    10459    10307     9834 
    9071     8236     7531     7044     6772     6660     6621     6400 
    5659     4310     2322     -383    -3514    -6451    -8654    -9859 
  -10176    -9919    -9312    -8661    -8480    -9084   -10470   -12595 
  -15272   -18022   -20364   -21959   -22419   -21533   -19630   -17516 
  -15957   -15223   -15194   -15604   -16104   -16526   -17031   -17761 
  -18597   -19337   -19957   -20592   -21150   -21208   -20498   -19091 
  -17078   -14608   -12071    -9759    -7548    -5154    -2444      518 
    3451     5931     7726     8865     9659    10786    12676    14895 
   16679    17605    17729    17520    17587    18384    20089    22419 
   24700    26156    26067    24015    20147    15048     9637     4963 
    1791      484     1017     2949     5598     8340    10870    13163 
   15052    16159    16232    15456    14237    12644    10494     7793 
    4766     1765     -909    -3121    -4846    -6254    -7682    -9494 
  -11801   -14320   -16750   -18739   -19716   -19522   -18553   -17228 
  -15892   -14978   -14967   -16133   -18295   -20946   -23519   -25532 
  -26619   -26576   -25447   -23368   -20422   -16794   -12822    -8977 
   -5864    -4063    -3931    -5244    -7157    -8950   -10341   -10957 
  -10372    -8681    -6405    -3946    -1451     1017     3489     6018 
    8483    10623    12155    13070    13783    14685    15811    16961 
   17992    19101    20659    22842    25521    28213    30331    31811 
   33130    34551    35830    36736    37245    37243    36572    35264 
   33361    30645    26958    22615    18186    14137    10778     8355 
    6983     6494     6442     6423     6353     6408     6655     6831 
    6597     5780     4294     2189     -367    -3349    -6762   -10438 
  -14176   -17680   -20451   -22087   -22620   -22493   -22230   -22107 
  -22154   -22265   -22279   -22115   -21770   -21316   -20854   -20331 
  -19573   -18474   -16954   -14972   -12595    -9977    -7334    -4818 
   -2293      533     3661     6705     9305    11381    13132    14868 
   16854    19157    21454    23210    24204    24511    24179    23377 
   22627    22388    22631    23112    23742    24518    25361    26095 
   26492    26330    25536    24291    22929    21775    21033    20715 
   20634    20463    19749    17956    14845    10795     6359     1809 
   -2679    -6856   -10369   -12818   -14075   -14397   -14146   -13606 
  -13088   -12921   -13194   -13720   -14455   -15727   -17852   -20714 
  -23693   -26036   -27305   -27434   -26403   -24177   -21033   -17525 
  -14179   -11404    -9406    -7931    -6268    -3875     -972     1767 
    3912     5437     6365     6571     6003     4793     3180     1548 
     361      -27      503     1718     3144     4342     5150     5833 
    6794     8106     9637    11302    12969    14347    15043    14804 
   13795    12507    11408    10609     9776     8671     7595     6982 
    6866     6895     6632     5694     3831     1162    -1759    -4271 
   -6015    -7115    -7820    -8113    -7809    -6764    -4968    -2646 
    -207     1989     3831     5310     6255     6470     6145     5698 
    5304     4730     3690     2336     1084       -5    -1209    -2697 
   -4492    -6569    -8796   -11032   -13132   -14840   -16004   -16748 
  -17192   -17246   -16748   -15611   -13869   -11747    -9624    -7884 
   -6675    -5833    -5081    -4266    -3470    -2929    -2805    -3096 
   -3685    -4552    -5833    -7425    -8861    -9715    -9877    -9513 
   -8877    -8058    -6918    -5306    -3291    -1100     1150     3485 
    5872     8177    10366    12590    14978    17319    19152    20286 
   20830    20834    20286    19172    17474    15394    13306    11497 
   10107     9097     8322     7809     7650     7612     7277     6421 
    4969     2926      526    -1818    -3796    -5287    -6205    -6458 
   -6084    -5232    -4098    -3034    -2442    -2451    -2941    -3726 
   -4661    -5660    -6501    -6845    -6624    -6161    -5940    -6366 
   -7442    -8748    -9847   -10585   -11038   -11280   -11178   -10451 
   -8911    -6577    -3750    -1044      905     1876     2006     1563 
     942      540      456      500      502      413      318      348 
     537      811     1140     1658     2459     3420     4453     5590 
    6841     8229     9769    11379    12877    13991    14543    14643 
   14582    14538    14388    13902    12962    11554     9867     8303 
    7084     6161     5464     4909     4364     3828     3487     3450 
    3546     3550     3504     3581     3797     3937     3711     2855 
    1227    -1003    -3400    -5524    -7049    -7820    -7924    -7626 
   -7198    -6748    -6285    -5938    -5880    -6174    -6664    -7029 
   -7106    -7040    -6994    -7003    -7022    -6936    -6642    -6118 
   -5382    -4367    -2789     -382     2678     5846     8583    10469 
   11261    11005     9836     7807     5086     2124     -529    -2485 
   -3649    -4099    -3854    -2957    -1648     -244      957     1746 
    2191     2644     3433     4492     5505     6269     6704     6735 
    6338     5555     4541     3692     3507     4107     5144     6212 
    7082     7641     7840     7597     6764     5247     3075      487 
   -2056    -4120    -5508    -6133    -5933    -5109    -4174    -3603 
   -3601    -4068    -4661    -5074    -5213    -5117    -4888    -4522 
   -3858    -2955    -2222    -2020    -2494    -3682    -5443    -7366 
   -8988   -10029   -10369   -10011    -9120    -7950    -6789    -5806 
   -4880    -3842    -2755    -1775    -1007     -382      407     1528 
    2718     3750     4768     5952     7321     8889    10536    11947 
   12912    13470    13801    14071    14197    13957    13352    12569 
   11700    10775     9782     8621     7334     6172     5393     5205 
    5574     5988     5852     5034     3873     2795     1985     1397 
     972      741      702      638      243     -662    -2088    -3905 
   -5900    -7796    -9302   -10147   -10160    -9510    -8739    -8374 
   -8623    -9358   -10272   -11103   -11611   -11612   -11206   -10677 
  -10245    -9872    -9246    -8139    -6698    -5192    -3801    -2792 
   -2436    -2690    -3208    -3554    -3296    -2234     -568     1247 
    2781     3788     4225     4174     3811     3339     2844     2263 
    1514      526     -657    -1692    -2070    -1525     -201     1416 
    2822     3898     4857     5756     6417     6795     6972     6925 
    6655     6308     5965     5660     5532     5634     5809     5923 
    6030     6153     6141     5800     5030     3839     2444     1182 
     241     -410     -949    -1582    -2336    -3044    -3608    -4081 
   -4464    -4641    -4471    -3902    -3142    -2602    -2569    -3026 
   -3719    -4347    -4862    -5533    -6478    -7422    -8114    -8618 
   -9061    -9394    -9459    -9217    -8756    -8125    -7381    -6620 
   -5827    -4984    -4186    -3483    -2825    -2238    -1894    -1958 
   -2373    -2863    -3144    -3029    -2465    -1535     -417      751 
    1877     2889     3808     4734     5640     6439     7152     7797 
    8406     9058     9713    10211    10469    10482    10257     9810 
    9204     8537     7955     7597     7438     7330     7244     7202 
    7084     6727     6069     5131     4002     2879     2006     1472 
