Origin Time       2016/04/16 01:25:00
Lat.              32.753
Long.             130.762
Depth. (km)       12
Mag.              7.3
Station Code      YMG010
Station Lat.      34.2304
Station Long.     131.9822
Station Height(m) 65
Record Time       2016/04/16 01:25:41
Sampling Freq(Hz) 100Hz
Duration Time(s)  105
Dir.              E-W
Scale Factor      7845(gal)/8223790
Max. Acc. (gal)   7.492
Last Correction   2016/04/16 01:25:42
Memo.             
[...]
   10106    10087     9575     8716     7865     7427     7507     7809 
    7981     7955     7869     7825     7834     7908     8172     8675 
    9153     9270     9012     8635     8330     8144     8122     8286 
    8520     8694     8814     8905     8912     8830     8768     8818 
    8914     8899     8756     8645     8638     8614     8494     8394 
    8424     8545     8653     8671     8565     8426     8472     8811 
    9317     9759     9944     9799     9379     8819     8281     7878 
    7707     7848     8213     8553     8753     8858     8942     9057 
    9198     9251     9109     8803     8451     8139     7912     7819 
    7882     8081     8337     8490     8441     8241     7990     7751 
    7550     7402     7361     7470     7703     7966     8158     8259 
    8337     8444     8581     8729     8842     8884     8883     8915 
    8991     9022     8920     8706     8447     8171     7939     7869 
    7974     8137     8293     8509     8772     8856     8594     8176 
    7942     7962     8017     7929     7776     7749     7905     8181 
    8507     8843     9112     9197     9027     8619     8113     7789 
    7870     8263     8672     8896     8896     8702     8408     8182 
    8156     8345     8602     8694     8515     8191     8009     8229 
    8823     9451     9784     9705     9298     8745     8147     7503 
    6987     6870     7134     7518     7820     7978     8054     8208 
    8494     8787     8969     9043     9071     9059     8972     8810 
    8591     8278     7842     7361     6988     6871     7040     7342 
    7566     7659     7723     7807     7874     8006     8294     8568 
    8523     8109     7561     7168     7142     7497     7960     8232 
    8276     8230     8221     8268     8263     8105     7871     7685 
    7539     7425     7416     7541     7767     8068     8382     8669 
    8899     8920     8665     8319     8047     7847     7685     7565 
    7506     7518     7550     7577     7647     7784     7954     8170 
    8446     8699     8806     8746     8591     8408     8226     8014 
    7728     7406     7137     7013     7140     7526     8007     8437 
    8743     8795     8510     7993     7435     7032     6860     6848 
    6930     7041     7069     7007     6961     7023     7263     7705 
    8233     8648     8827     8766     8565     8351     8272     8404 
    8545     8406     8013     7631     7441     7497     7763     8117 
    8375     8372     8086     7723     7551     7655     7973     8433 
    8903     9143     9019     8675     8333     8077     7909     7859 
    7920     7996     7966     7827     7738     7847     8141     8476 
    8703     8683     8316     7680     7086     6886     7126     7492 
    7682     7680     7665     7767     7919     8024     8159     8351 
    8421     8289     8101     7967     7830     7578     7172     6739 
    6486     6512     6848     7456     8058     8317     8199     7915 
    7705     7705     7824     7873     7840     7827     7847     7815 
    7707     7596     7542     7553     7630     7723     7743     7647 
    7526     7523     7647     7789     7898     7979     7998     7885 
    7649     7453     7485     7763     8060     8063     7716     7307 
    7119     7195     7457     7793     8009     7911     7507     7047 
    6802     6855     7082     7285     7300     7106     6876     6843 
    7032     7291     7488     7531     7364     7051     6777     6741 
    7002     7354     7508     7378     7127     7036     7298     7805 
    8241     8411     8337     8131     7917     7804     7846     8017 
    8251     8467     8588     8587     8519     8391     8113     7647 
    7101     6623     6272     6087     6170     6589     7230     7860 
    8301     8456     8330     8031     7681     7357     7129     7029 
    7034     7150     7369     7593     7761     7916     8035     8043 
    7955     7858     7815     7812     7749     7491     7064     6705 
    6624     6797     7030     7163     7236     7381     7595     7797 
    8000     8186     8210     7977     7635     7411     7422     7690 
    8164     8622     8757     8437     7819     7260     7023     7034 
    7063     7033     7001     7020     7130     7338     7569     7723 
    7839     8051     8394     8712     8776     8454     7794     6979 
    6307     6122     6508     7167     7747     8095     8215     8208 
    8177     8155     8143     8168     8235     8343     8483     8575 
    8557     8519     8565     8604     8446     8040     7555     7196 
    7010     6907     6831     6874     7148     7526     7740     7785 
    7857     8050     8298     8447     8398     8278     8328     8594 
    8850     8833     8503     8039     7608     7319     7236     7321 
    7456     7616     7846     8111     8375     8637     8854     8920 
    8750     8387     8020     7852     7900     7977     7927     7812 
    7804     7979     8247     8444     8538     8650     8811     8827 
    8579     8176     7730     7280     6952     6899     7127     7526 
    7955     8303     8515     8586     8499     8240     7874     7515 
    7169     6813     6573     6605     6843     7098     7311     7568 
    7888     8090     8050     7940     7955     8012     7981     7862 
    7701     7560     7489     7482     7506     7506     7464     7423 
    7411     7488     7786     8264     8604     8617     8430     8228 
    8060     7948     7901     7817     7585     7242     6909     6691 
    6682     6855     7092     7344     7585     7765     7919     8105 
    8233     8214     8132     8108     8177     8283     8283     8077 
    7730     7388     7190     7242     7542     7938     8284     8565 
    8776     8822     8698     8565     8479     8313     8019     7712 
    7489     7389     7404     7468     7560     7763     8093     8388 
    8464     8309     8104     8007     7939     7765     7555     7446 
    7472     7569     7626     7611     7663     7873     8135     8290 
    8279     8144     7924     7643     7423     7387     7472     7526 
    7510     7512     7624     7816     7979     8078     8156     8224 
    8232     8186     8163     8206     8248     8174     7916     7518 
    7086     6772     6706     6860     7080     7240     7281     7207 
    7072     6960     6998     7290     7777     8206     8352     8232 
    8028     7869     7831     7938     8013     7846     7466     7088 
    6902     6952     7148     7423     7771     8077     8139     7964 
    7766     7720     7799     7897     8010     8248     8608     8869 
    8816     8527     8264     8078     7761     7236     6725     6426 
    6350     6482     6829     7346     7952     8523     8870     8883 
    8634     8334     8208     8380     8730     8943     8826     8459 
    8009     7561     7183     7005     7089     7321     7543     7758 
    8054     8433     8792     9015     9053     8932     8657     8243 
    7839     7641     7672     7859     8141     8444     8731     9000 
    9128     8958     8552     8078     7616     7253     7134     7340 
    7809     8340     8683     8738     8645     8581     8577     8575 
    8571     8587     8567     8414     8108     7709     7414     7487 
    7947     8477     8795     8853     8729     8557     8407     8217 
    7986     7894     8029     8195     8141     7851     7577     7568 
    7801     8077     8294     8446     8471     8383     8360     8536 
    8784     8857     8664     8352     8062     7759     7457     7302 
    7334     7399     7395     7442     7696     8095     8424     8548 
    8473     8286     8121     8093     8213     8293     8078     7634 
    7350     7464     7825     8141     8240     8132     7898     7592 
    7323     7263     7487     7862     8082     7893     7402     7014 
    7074     7526     7977     8149     8124     8058     7967     7855 
    7807     7906     8086     8114     7925     7788     7954     8361 
    8758     8926     8807     8527     8228     7929     7654     7530 
    7578     7616     7503     7283     7164     7354     7685     7756 
    7493     7173     7041     7192     7547     7900     8177     8411 
    8490     8338     8135     8078     8154     8197     8052     7782 
    7659     7789     7927     7785     7506     7504     7803     7978 
    7874     7770     7830     7933     8027     8248     8716     9271 
    9502     9189     8627     8307     8326     8374     8233     7923 
    7481     7098     7042     7238     7410     7530     7668     7773 
    7815     7753     7580     7522     7719     7903     7877     7769 
    7624     7331     7014     6914     7052     7272     7360     7254 
    7176     7327     7630     7890     8066     8310     8684     9018 
    9143     9057     8823     8603     8545     8490     8124     7537 
    7169     7129     7098     7063     7473     8398     9192     9194 
    8404     7473     7129     7395     7636     7488     7173     6912 
    6713     6725     7146     7776     8132     8060     7835     7770 
    7896     7959     7773     7342     6582     5593     5038     5306 
    5826     5973     5793     5636     5836     6448     7113     7527 
    7816     8113     8202     7799     7009     6308     6053     6143 
    6331     6575     6829     6825     6498     6199     6226     6604 
    7264     7897     8035     7561     6790     6232     6349     7047 
    7631     7650     7257     6809     6624     6848     7362     8009 
    8603     8773     8382     7798     7462     7515     7803     7997 
    7944     7742     7435     7033     6820     7098     7673     8048 
    8032     7782     7535     7458     7538     7717     8070     8474 
    8546     8212     7735     7258     6853     6581     6434     6563 
    7096     7747     8121     8171     8110     8093     8121     8132 
    8095     7974     7696     7380     7302     7426     7464     7430 
    7572     7964     8413     8608     8461     8197     7979     7798 
    7685     7678     7692     7623     7522     7643     8083     8503 
    8529     8109     7537     7176     6967     6662     6411     6416 
    6602     6905     7213     7288     7132     6988     7010     7275 
    7781     8186     8133     7908     8090     8660     9116     9262 
    9304     9328     9147     8657     8067     7661     7501     7574 
    7871     8144     8114     7998     8202     8660     8989     8996 
    8727     8379     8193     8245     8444     8688     8775     8479 
    7889     7396     7339     7753     8290     8454     8177     7898 
    7955     8289     8611     8660     8505     8477     8672     8810 
    8660     8376     8220     8176     8095     7788     7175     6588 
    6319     6092     5734     5597     5940     6592     7173     7408 
    7392     7384     7457     7670     8066     8356     8301     8214 
    8367     8540     8529     8357     8175     8155     8221     8073 
    7645     7160     6790     6450     5980     5429     5027     4977 
    5306     5776     6076     6245     6478     6671     6677     6685 
    6855     7038     7132     7167     6998     6397     5563     4989 
    4718     4330     3715     3302     3584     4496     5370     5656 
    5528     5512     5753     5975     6026     5967     5725     5316 
    5112     5314     5652     5867     5983     6127     6274     6264 
    6123     6034     5896     5452     4814     4509     4950     5977 
    7009     7627     7824     7763     7635     7670     7875     7898 
    7576     7152     6787     6494     6299     6130     5965     5930 
    5952     5945     6158     6785     7631     8355     8780     9086 
    9567    10153    10606    10935    11152    11137    10918    10575 
   10146     9907    10050    10250    10179     9945     9748     9707 
    9898    10181    10354    10571    11121    11862    12415    12754 
   13073    13338    13362    13047    12463    11983    11909    11936 
   11688    11318    11070    10928    10790    10417     9697     9065 
    9016     9433     9950    10514    11181    11819    12282    12588 
   12777    12783    12537    12052    11395    10714    10204     9938 
    9853     9867     9895     9818     9598     9298     8978     8754 
    8760     8887     8893     8766     8669     8594     8357     7909 
    7437     7217     7296     7457     7528     7434     7064     6465 
    5945     5734     5680     5487     5127     4785     4596     4645 
    4953     5331     5595     5802     6061     6432     6840     7056 
    7071     7072     7071     6987     6818     6562     6264     5944 
    5583     5350     5417     5661     5967     6554     7662     9131 
   10597    12005    13466    14624    14882    14152    12907    11739 
   10831     9792     8407     7033     5949     5054     4338     4020 
    4278     5134     6389     7692     8873     9931    10686    10881 
   10507     9753     8812     7842     7086     6886     7495     8816 
   10355    11561    12324    12870    13127    12753    11917    11168 
   10546     9745     8739     7639     6644     6076     5927     5904 
    5902     5940     6030     6230     6585     7053     7646     8476 
    9574    10677    11311    11188    10309     8926     7578     6709 
    6230     5876     5692     5714     5593     5070     4483     4401 
    5042     6108     7067     7627     7950     8233     8492     8857 
    9510    10291    10696    10227     8753     6729     4852     3497 
    2632     1948     1154      390       31      222      984     2332 
    4136     6133     8031     9451     9996     9622     8695     7500 
    6081     4541     3130     2135     1710     1694     1984     2964 
    4812     6836     8248     9001     9428     9713     9799     9533 
    8943     8221     7395     6405     5466     5032     5398     6369 
    7392     8035     8182     7824     7009     6022     5282     5101 
    5599     6511     7221     7318     6874     6110     5225     4504 
    4106     3877     3669     3481     3303     3241     3535     4393 
    5927     7929     9836    11240    12163    12703    12835    12521 
   11749    10654     9607     8941     8718     8869     9220     9397 
    9146     8665     8270     7936     7469     6855     6292     5950 
    5765     5613     5463     5391     5751     6939     8762    10646 
   12216    13212    13431    12961    12175    11504    11156    10999 
   10797    10420     9883     9328     8893     8510     8093     7905 
    8382     9497    10660    11284    11306    11102    10941    10717 
   10345     9938     9487     8862     8009     6936     5753     4587 
    3530     2806     2604     2856     3500     4548     5860     7227 
    8391     9045     9296     9612    10037    10187     9956     9601 
    9404     9409     9396     9228     9246     9798    10629    11254 
   11480    11217    10401     9224     8039     7156     6736     6682 
    6743     6662     6308     5868     5638     5767     6335     7298 
    8313     8931     8819     7962     6804     5922     5563     5730 
    6323     7068     7770     8453     9143     9842    10530    10971 
   10878    10293     9494     8648     7893     7464     7426     7527 
    7479     7203     6852     6763     7230     8197     9347    10353 
   10936    10952    10417     9332     7797     6219     4876     3574 
    2172      892       64       44     1007     2666     4606     6669 
    8723    10420    11427    11749    11630    11267    10602     9451 
    7916     6439     5339     4672     4384     4297     4297     4579 
    5351     6536     7893     9090     9871    10381    10924    11431 
   11591    11342    10941    10588    10214     9617     8723     7759 
    7098     6891     7022     7349     7851     8565     9387    10000 
   10224    10269    10288    10114     9585     8734     7842     7485 
    8067     9391    11010    12629    13917    14484    14278    13654 
   13003    12513    12089    11410    10300     9008     7917     7217 
    6961     7233     8025     9139    10334    11385    12050    12259 
   12128    11701    11092    10582    10319    10204     9946     9154 
    7786     6388     5598     5752     6864     8482     9957    11016 
   11632    11888    12141    12544    12764    12694    12642    12633 
   12322    11551    10569     9761     9383     9470     9852    10228 
   10368    10304    10230    10309    10574    10939    11252    11391 
   11356    11213    10875    10237     9471     8992     9093     9767 
   10692    11475    12004    12263    12078    11460    10700     9907 
    9050     8360     8168     8355     8474     8444     8474     8480 
    8220     7723     7171     6735     6459     6148     5715     5478 
    5694     6272     7107     8089     8885     9290     9351     9073 
    8553     8124     7950     7946     8089     8411     8896     9595 
   10512    11449    12240    12756    12787    12313    11499    10405 
    9258     8520     8326     8347     8272     8064     7843     7701 
    7696     7939     8463     9080     9571     9757     9439     8619 
    7647     6903     6462     6212     6100     6065     6015     6057 
    6435     7226     8337     9599    10758    11520    11647    11148 
   10403     9882     9676     9524     9256     8878     8313     7461 
    6470     5753     5637     6054     6609     6964     7037     6840 
    6427     6189     6575     7415     8143     8503     8587     8529 
    8394     8120     7670     7276     7210     7365     7385     7153 
    6934     7026     7364     7531     7273     6743     6139     5508 
    4976     4693     4617     4648     4783     5053     5468     5981 
    6515     7136     7992     8953     9522     9329     8584     7767 
    7098     6652     6589     6894     7340     7747     8048     8329 
    8648     8824     8830     8868     8762     8111     6999     5915 
    5308     5377     5875     6326     6666     7087     7469     7684 
    7913     8182     8181     7788     7263     6960     7002     7156 
    7183     7253     7699     8533     9406     9957    10154    10220 
   10326    10459    10507    10449    10454    10532    10354     9841 
    9436     9475     9832    10191    10224     9802     9197     8793 
    8758     9086     9468     9405     8812     8086     7603     7519 
    7692     7859     8104     8688     9607    10643    11487    11866 
   11815    11503    10890     9944     8980     8463     8540     8972 
    9474     9872    10099    10237    10474    10870    11211    11249 
   11055    10976    11124    11252    11178    11005    11010    11334 
   11716    11696    11214    10632    10154     9722     9225     8517 
    7623     6929     6724     6855     7042     7141     7061     6831 
    6701     6945     7632     8649     9736    10557    10933    10912 
   10624    10226     9823     9428     8991     8483     7951     7426 
    6897     6540     6694     7426     8431     9360     9931    10014 
    9732     9289     8854     8655     8760     8872     8707     8343 
    7994     7765     7722     7923     8275     8579     8615     8244 
    7609     7109     7059     7545     8403     9267     9792     9913 
    9817     9711     9667     9761    10083    10423    10419     9984 
    9279     8441     7626     7126     7263     7967     8675     8918 
