Origin Time       2016/04/16 01:25:00
Lat.              32.753
Long.             130.762
Depth. (km)       12
Mag.              7.3
Station Code      YMG002
Station Lat.      34.4073
Station Long.     131.3987
Station Height(m) 2
Record Time       2016/04/16 01:25:39
Sampling Freq(Hz) 100Hz
Duration Time(s)  149
Dir.              N-S
Scale Factor      7845(gal)/8223790
Max. Acc. (gal)   21.674
Last Correction   2016/04/16 01:25:40
Memo.             
[...]
   -1182     -693      -43      472      691      622      279     -326 
   -1053    -1667    -1952    -1840    -1491    -1104     -734     -434 
    -346     -591    -1200    -2102    -3103    -3964    -4554    -4792 
   -4523    -3672    -2412    -1117     -135      370      396       36 
    -495     -901     -926     -451      441     1495     2428     3192 
    3931     4630     5088     5258     5304     5309     5212     4989 
    4703     4418     4175     4001     3886     3776     3627     3519 
    3578     3797     4102     4491     4980     5481     5894     6197 
    6389     6427     6282     5948     5448     4776     3847     2636 
    1313      201     -484     -761     -820     -808     -704     -463 
    -135      259      783     1359     1759     1757     1267      379 
    -727    -1849    -2755    -3229    -3141    -2504    -1476     -303 
     788     1652     2211     2438     2401     2278     2207     2118 
    1887     1483      940      341     -139     -391     -463     -372 
      -5      662     1381     1833     1894     1576      966      222 
    -450     -903    -1120    -1202    -1230    -1171     -924     -484 
     -14      272      294      137      -47     -164     -155       47 
     493     1194     2100     3033     3711     3879     3453     2556 
    1379      118     -946    -1524    -1487     -815      437     1995 
    3426     4445     4993     5093     4812     4333     3855     3454 
    3159     3057     3213     3569     3932     4136     4186     4140 
    3950     3555     2995     2361     1780     1422     1374     1514 
    1657     1690     1551     1224      770      315        2      -76 
      59      317      587      787      857      788      656      598 
     661      792     1000     1298     1533     1537     1339     1081 
     893      908     1213     1715     2211     2554     2713     2629 
    2163     1331      372     -473    -1102    -1431    -1377     -955 
    -318      386     1039     1494     1692     1768     1880     2052 
    2255     2525     2870     3204     3377     3218     2669     1887 
    1121      572      334      386      612      864     1050     1152 
    1167     1094      992      923      882      796      538       -1 
    -783    -1588    -2146    -2281    -1979    -1320     -382      719 
    1750     2407     2489     2056     1405      858      568      544 
     731     1080     1548     2030     2363     2474     2371     2084 
    1663     1204      889      861      997     1003      715      257 
    -156     -414     -514     -475     -259      240     1086     2173 
    3295     4261     4918     5163     5007     4606     4136     3662 
    3133     2513     1934     1575     1431     1386     1404     1497 
    1640     1784     1883     1892     1773     1505     1036      275 
    -704    -1572    -2007    -1935    -1471     -745      110      916 
    1474     1668     1499     1039      445      -95     -490     -737 
    -847     -804     -626     -427     -291     -225     -261     -409 
    -526     -436     -167       64      211      390      552      542 
     359      106     -116     -221     -152       94      476      872 
    1171     1379     1605     2001     2629     3325     3776     3792 
    3384     2628     1574      349     -793    -1598    -1966    -1934 
   -1541     -824      144     1263     2332     3096     3422     3407 
    3256     3114     2986     2785     2467     2143     1991     2052 
    2195     2265     2219     2115     1968     1736     1393      916 
     329     -238     -670     -969    -1171    -1266    -1251    -1225 
   -1316    -1509    -1649    -1628    -1489    -1324    -1151     -949 
    -697     -361      140      870     1769     2662     3338     3599 
    3339     2663     1833     1107      657      533      629      819 
    1098     1437     1672     1657     1412     1055      630       74 
    -653    -1397    -1850    -1830    -1431     -854     -233      392 
    1043     1701     2228     2436     2272     1838     1250      573 
     -90     -565     -661     -278      526     1521     2380     2810 
    2592     1686      333    -1125    -2494    -3670    -4434    -4592 
   -4172    -3284    -1979     -367     1287     2666     3577     4027 
    4109     3835     3186     2303     1476      907      688      892 
    1429     2046     2554     2898     3037     2945     2679     2363 
    2143     2135     2384     2839     3393     3942     4402     4745 
    4938     4900     4583     3982     3078     1935      764     -222 
    -886    -1138     -958     -506      -76       82      -82     -530 
   -1239    -2151    -3137    -4023    -4608    -4739    -4402    -3724 
   -2847    -1859     -900     -191       71     -163     -792    -1606 
   -2380    -2965    -3316    -3407    -3206    -2721    -2057    -1362 
    -719     -144      391      932     1431     1783     1938     1906 
    1703     1409     1219     1293     1539     1726     1769     1777 
    1899     2239     2810     3496     4125     4629     5062     5490 
    5968     6559     7269     7978     8502     8657     8295     7400 
    6158     4861     3798     3161     2940     2988     3137     3198 
    2961     2307     1281       40    -1244    -2425    -3388    -4047 
   -4307    -4133    -3646    -3092    -2621    -2215    -1825    -1456 
   -1181    -1069    -1123    -1250    -1332    -1375    -1471    -1584 
   -1561    -1316     -876     -301      383     1181     2038     2843 
    3447     3707     3518     2879     1911      828     -101     -669 
    -810     -546       47      870     1769     2540     3022     3200 
    3132     2871     2512     2177     1941     1783     1632     1512 
    1517     1695     1985     2243     2293     2043     1539      868 
     120     -612    -1308    -2011    -2693    -3206    -3423    -3339 
   -3044    -2664    -2311    -1992    -1637    -1252     -940     -724 
    -503     -176      292      893     1539     2076     2351     2253 
    1764     1057      456      162      101      140      240      348 
     332      120     -203     -427     -328      198     1046     1948 
    2623     2913     2822     2428     1842     1242      796      596 
     733     1247     1964     2571     2840     2712     2255     1655 
    1179      992     1058     1308     1715     2209     2624     2785 
    2624     2200     1599      913      301      -74     -157        5 
     319      622      753      649      365      -16     -454     -945 
   -1451    -1885    -2141    -2166    -2007    -1721    -1310     -789 
    -243      207      532      810     1120     1462     1742     1848 
    1721     1422     1098      869      783      789      777      702 
     623      625      735      945     1236     1629     2174     2844 
    3456     3807     3848     3642     3268     2792     2265     1796 
    1553     1588     1845     2281     2825     3357     3780     3989 
    3831     3200     2203     1133      203     -553    -1133    -1493 
   -1553    -1275     -762     -245       79      203      220      144 
     -87     -529    -1094    -1549    -1714    -1661    -1568    -1516 
   -1526    -1632    -1821    -2042    -2290    -2571    -2828    -2926 
   -2745    -2280    -1648     -961     -274      330      719      797 
     658      535      594      877     1414     2192     3133     4135 
    5101     5945     6620     7049     7117     6771     6056     5060 
    3958     3011     2417     2205     2361     2867     3595     4344 
    4981     5413     5521     5242     4668     3979     3291     2617 
    1962     1424     1162     1242     1571     1998     2394     2673 
    2768     2659     2374     1996     1632     1379     1339     1503 
    1665     1582     1138      332     -762    -2000    -3219    -4330 
   -5279    -5900    -5998    -5552    -4733    -3786    -2924    -2270 
   -1833    -1567    -1447    -1441    -1489    -1563    -1667    -1737 
   -1658    -1370     -876     -230      460     1109     1688     2157 
    2388     2313     2087     1962     2041     2222     2392     2575 
    2829     3125     3397     3607     3778     3975     4258     4645 
    5067     5387     5506     5456     5300     5007     4535     3954 
    3420     3046     2851     2809     2870     2959     3044     3111 
    3075     2863     2550     2290     2166     2070     1810     1269 
     434     -581    -1540    -2282    -2817    -3122    -3095    -2754 
   -2242    -1695    -1263    -1100    -1256    -1621    -1989    -2174 
   -2041    -1575     -851        5      830     1505     2016     2338 
    2401     2228     1942     1632     1289      870      357     -162 
    -495     -461      -36      615     1217     1647     2016     2411 
    2652     2490     1919     1230      751      603      687      803 
     864      989     1282     1691     2061     2274     2330     2322 
    2297     2212     2004     1686     1321      950      607      413 
     529      954     1485     1933     2276     2596     2953     3384 
    3924     4560     5212     5787     6203     6396     6346     6075 
    5566     4768     3736     2678     1788     1128      676      434 
     425      579      722      756      691      506       98     -587 
   -1402    -2084    -2520    -2798    -3011    -3145    -3150    -3036 
   -2867    -2705    -2584    -2551    -2685    -3017    -3466    -3917 
   -4324    -4692    -5046    -5400    -5784    -6243    -6727    -7118 
   -7302    -7188    -6771    -6143    -5433    -4770    -4200    -3669 
   -3111    -2469    -1658     -607      662     1961     3099     4083 
    4956     5676     6245     6732     7160     7501     7709     7821 
    7935     8025     7943     7674     7402     7269     7218     7078 
    6708     6146     5603     5258     5128     5163     5298     5459 
    5663     5983     6319     6424     6154     5479     4455     3264 
    2072      959       -5     -764    -1264    -1570    -1919    -2509 
   -3334    -4330    -5397    -6349    -7022    -7364    -7366    -7017 
   -6361    -5584    -4841    -4104    -3406    -2971    -2871    -2849 
   -2686    -2447    -2218    -1956    -1714    -1668    -1829    -2010 
   -2115    -2146    -2045    -1698    -1063     -205      774     1768 
    2651     3364     3935     4378     4702     4954     5186     5501 
    5987     6544     7020     7391     7663     7756     7607     7238 
    6662     5902     5085     4293     3489     2612     1711      985 
     639      767     1352     2278     3381     4477     5351     5771 
    5562     4712     3454     2119      924      -58     -723     -899 
    -502      338     1368     2374     3225     3800     4003     3858 
    3437     2806     2041     1185      263     -673    -1528    -2162 
   -2463    -2447    -2196    -1811    -1475    -1416    -1658    -1956 
   -2053    -1911    -1603    -1156     -548      198      959     1640 
    2201     2554     2544     2064     1139      -47    -1252    -2228 
   -2752    -2728    -2301    -1698    -1101     -704     -614     -826 
   -1334    -2043    -2677    -2971    -2882    -2569    -2236    -2016 
   -1954    -1998    -1995    -1837    -1567    -1328    -1185    -1080 
   -1024    -1209    -1800    -2749    -3893    -5055    -6084    -6883 
   -7404    -7607    -7392    -6651    -5468    -4158    -3059    -2332 
   -1859    -1344     -562      511     1755     3032     4220     5175 
    5780     6029     5968     5613     4992     4185     3213     2077 
     873     -217    -1008    -1347    -1169     -515      499     1671 
    2759     3657     4369     4851     4977     4653     3994     3350 
    2960     2802     2913     3400     4148     4837     5190     5121 
    4712     4104     3483     3069     2965     3137     3553     4168 
    4776     4999     4475     3055      818    -1953    -4787    -7167 
   -8708    -9167    -8403    -6361    -3114      962     5194     8916 
   11646    13104    13288    12355    10393     7480     3940      414 
   -2505    -4588    -5826    -6289    -6189    -5772    -5244    -4864 
   -4847    -5229    -5934    -6885    -7969    -9038    -9949   -10619 
  -11006   -10986   -10392    -9169    -7371    -5063    -2421      178 
    2370     4051     5300     6131     6505     6486     6157     5519 
    4525     3163     1505     -356    -2278    -4008    -5301    -5967 
   -5883    -5071    -3588    -1532      877     3352     5536     7115 
    8044     8557     8937     9315     9634     9845    10030    10309 
   10698    11107    11476    11826    12166    12517    12835    12939 
   12754    12344    11661    10552     8835     6392     3456      552 
   -1987    -4203    -6250    -8201   -10143   -12185   -14285   -16204 
  -17537   -17753   -16406   -13505    -9532    -5161     -992     2682 
    5767     8089     9481     9983     9894     9544     8927     7808 
    6150     4202     2282      677     -407     -962    -1254    -1603 
   -2061    -2608    -3406    -4425    -5275    -5648    -5549    -5154 
   -4610    -3824    -2326      311     3899     7751    11179    13794 
   15583    16779    17643    18327    18800    18864    18326    17177 
   15457    12988     9459     4801     -557    -5883   -10466   -13780 
  -15599   -16012   -15211   -13265   -10228    -6473    -2493     1443 
    5131     8202    10407    11951    13302    14621    15658    16183 
   16120    15356    13813    11577     8830     5746     2474     -858 
   -4233    -7685   -11129   -14378   -17265   -19622   -21222   -21833 
  -21324   -19626   -16731   -12814    -8253    -3481     1169     5458 
    9182    12091    13799    13959    12638    10366     7831     5578 
    3676     1895      294     -854    -1408    -1414    -1188    -1133 
   -1444    -2215    -3492    -5124    -6822    -8189    -8754    -8275 
   -6976    -5409    -4017    -2829    -1580      -59     1876     4332 
    7207    10258    13270    16066    18484    20260    20974    20267 
   18110    14692    10158     4742    -1036    -6502   -11078   -14443 
  -16552   -17537   -17521   -16511   -14555   -11993    -9393    -7245 
   -5848    -5281    -5432    -6006    -6531    -6513    -5653    -3975 
   -1777      691     3276     5649     7415     8284     8014     6623 
    4571     2425      533     -926    -1880    -2376    -2583    -2811 
   -3392    -4473    -6073    -8081   -10107   -11691   -12528   -12340 
  -10922    -8214    -4233      773     6186    11277    15606    19052 
   21556    22956    23116    22184    20567    18596    16441    14278 
   12231    10193     7938     5336     2440     -538    -3284    -5475 
   -6940    -7665    -7685    -7134    -6141    -4718    -2953    -1244 
     -32      473      202     -819    -2334    -3987    -5499    -6723 
   -7591    -7912    -7495    -6446    -5013    -3422    -1985    -1125 
   -1232    -2513    -4830    -7758   -10827   -13652   -16001   -17766 
  -18906   -19446   -19360   -18513   -16774   -14041   -10268    -5667 
    -827     3547     7078     9822    11970    13659    15026    16135 
   16863    17015    16606    15896    15070    14098    12793    11016 
    8876     6635     4483     2455      638     -599     -888     -114 
    1705     4315     7038     9115    10115    10079     9354     8316 
    7260     6459     6150     6419     7130     8043     8981     9752 
   10039     9640     8610     7084     5166     2921      363    -2467 
   -5418    -8191   -10523   -12324   -13506   -13861   -13193   -11527 
   -9162    -6585    -4271    -2448    -1075        0      977     1939 
    2817     3510     3904     3924     3596     2859     1539     -283 
   -2155    -3569    -4214    -4099    -3553    -3021    -2752    -2801 
   -3272    -4271    -5617    -6925    -7893    -8355    -8245    -7562 
   -6394    -4920    -3213    -1201     1043     3202     5063     6640 
    7871     8592     8738     8332     7479     6381     5314     4540 
    4079     3792     3715     3996     4617     5490     6548     7627 
    8418     8721     8617     8283     7863     7539     7350     7126 
    6755     6227     5467     4452     3329     2301     1521     1059 
     857      858     1102     1544     1923     1935     1395      297 
   -1271    -3142    -4996    -6534    -7548    -7843    -7427    -6582 
   -5467    -4099    -2565     -972      569     1890     2890     3584 
    3962     3916     3377     2535     1710      993      259     -566 
   -1429    -2119    -2350    -1981    -1125      -72      851     1424 
    1586     1410     1036      662      464      519      832     1344 
    1919     2446     2887     3164     3171     2990     2882     3015 
    3427     4094     4800     5085     4513     2991      787    -1514 
   -3203    -3935    -3796    -2992    -1871     -832     -205     -332 
   -1410    -3302    -5566    -7469    -8299    -7771    -5976    -3241 
    -171     2435     3963     4306     3771     2805     1821     1012 
     336     -263     -733    -1000    -1092    -1109    -1073     -886 
    -451      241     1158     2258     3528     4905     6153     6943 
    7137     6859     6431     6180     6183     6255     6207     5911 
    5282     4220     2590      495    -1547    -2840    -2936    -1948 
    -480      787     1358     1016     -105    -1687    -3416    -4985 
   -6057    -6349    -5767    -4533    -3125    -1975    -1189     -584 
      27      641     1146     1476     1667     1849     2092     2218 
    1878      795    -1055    -3372    -5670    -7518    -8704    -9246 
   -9209    -8594    -7434    -5791    -3632    -1020     1794     4580 
    7079     8951     9999    10187     9599     8584     7585     6750 
    6068     5688     5753     6169     6675     6994     6966     6632 
    6133     5537     4820     3996     3241     2778     2583     2442 
    2282     2191     2196     2246     2257     2204     2201     2436 
    2976     3728     4530     5304     6118     7061     8078     8938 
    9355     9112     8143     6527     4440     2123     -152    -2258 
   -4186    -5898    -7368    -8684    -9930   -11047   -11826   -12056 
  -11696   -10894    -9818    -8484    -6845    -5009    -3169    -1441 
      93     1327     2173     2551     2296     1264     -430    -2382 
   -4104    -5332    -6084    -6382    -6189    -5602    -4861    -4183 
   -3639    -3206    -2839    -2471    -2084    -1668    -1136     -340 
     889     2583     4487     6284     7917     9427    10732    11762 
   12653    13598    14569    15313    15579    15275    14430    13053 
   11129     8802     6361     4114     2312     1123      588      616 
    1019     1544     1975     2267     2516     2731     2835     2751 
    2388     1669      718     -152     -693     -895     -886     -800 
    -780     -974    -1462    -2180    -2926    -3532    -3958    -4248 
   -4441    -4614    -4966    -5618    -6446    -7180    -7673    -7989 
   -8239    -8467    -8676    -8770    -8496    -7605    -6124    -4294 
   -2312     -307     1563     3136     4271     4876     4974     4772 
    4510     4355     4425     4804     5517     6400     7173     7778 
    8374     9008     9510     9624     9198     8236     6802     5063 
    3402     2182     1509     1296     1378     1582     1829     2118 
    2394     2551     2606     2752     3129     3682     4274     4741 
