Origin Time       2016/04/16 01:25:00
Lat.              32.753
Long.             130.762
Depth. (km)       12
Mag.              7.3
Station Code      YMG001
Station Lat.      34.6173
Station Long.     131.6019
Station Height(m) 6
Record Time       2016/04/16 01:25:43
Sampling Freq(Hz) 100Hz
Duration Time(s)  144
Dir.              N-S
Scale Factor      7845(gal)/8223790
Max. Acc. (gal)   35.683
Last Correction   2016/04/16 01:25:43
Memo.             
[...]
   -1039    -1428    -1640    -1559    -1200     -735     -356      -78 
     259      872     1826     2941     3865     4333     4344     4079 
    3680     3175     2562     1881     1277      935      897     1000 
    1032      868      526      129     -225     -514     -741     -929 
   -1100    -1220    -1266    -1269    -1270    -1271    -1267    -1282 
   -1331    -1374    -1394    -1420    -1444    -1364    -1100     -649 
     -81      446      792      920      877      796      841     1139 
    1723     2473     3161     3639     3877     3897     3717     3364 
    2894     2393     1908     1421      916      415      -39     -367 
    -490     -390      -98      329      788     1081      996      490 
    -322    -1213    -1856    -1973    -1489     -577      413     1185 
    1629     1775     1769     1775     1892     2149     2504     2862 
    3106     3200     3184     3040     2700     2177     1603     1086 
     571      -76     -915    -1868    -2759    -3387    -3569    -3254 
   -2570    -1792    -1209     -935     -900     -942     -874     -608 
    -171      336      774     1094     1348     1614     1922     2242 
    2560     2922     3350     3769     4023     4029     3861     3666 
    3538     3478     3412     3235     2872     2292     1479      479 
    -568    -1475    -2062    -2239    -2115    -1941    -1876    -1922 
   -1995    -1979    -1807    -1530    -1236     -949     -661     -423 
    -292     -266     -317     -392     -392     -171      333     1024 
    1726     2311     2720     2963     3082     3084     2951     2706 
    2400     2038     1648     1298     1043      862      665      367 
     -27     -467     -900    -1275    -1547    -1655    -1540    -1205 
    -753     -353     -180     -289     -584     -850     -864     -549 
     -13      523      851      854      573      198      -76     -236 
    -380     -561     -712     -685     -387      118      634      984 
    1177     1344     1545     1768     1969     2098     2173     2257 
    2389     2602     2902     3208     3360     3264     3010     2764 
    2646     2659     2702     2677     2565     2396     2241     2232 
    2423     2621     2496     1826      656     -722    -1944    -2752 
   -3092    -3071    -2887    -2754    -2782    -2925    -3098    -3249 
   -3345    -3385    -3369    -3248    -2980    -2579    -2106    -1653 
   -1247     -861     -448       43      579     1042     1351     1518 
    1597     1721     2010     2416     2801     3040     3079     2986 
    2895     2898     3010     3163     3248     3154     2852     2430 
    1981     1587     1339     1290     1402     1572     1683     1656 
    1468     1155      826      666      764     1005     1197     1174 
     895      477       45     -396     -877    -1368    -1803    -2130 
   -2342    -2477    -2578    -2659    -2667    -2533    -2241    -1823 
   -1344     -857     -386        5      221      237      129       -2 
     -47      108      522     1156     1883     2540     2984     3153 
    3095     2907     2721     2682     2866     3208     3464     3350 
    2770     1845      847       52     -395     -517     -481     -496 
    -702    -1101    -1541    -1784    -1687    -1294     -765     -265 
      51       99     -110     -484     -881    -1200    -1379    -1375 
   -1155     -722     -180      289      553      594      515      479 
     596      849     1096     1161      953      577      276      272 
     602     1081     1413     1440     1240      945      622      314 
      41     -171     -255     -164       40      279      531      776 
     938      973      924      842      707      464       99     -342 
    -700     -761     -477       32      643     1206     1526     1493 
    1192      847      622      522      535      730     1154     1732 
    2301     2728     2971     3024     2853     2451     1935     1489 
    1200     1039      939      884      854      778      615      399 
     186      -47     -396     -897    -1463    -1935    -2157    -2025 
   -1517     -741       67      618      754      581      295        4 
    -232     -387     -469     -483     -436     -373     -372     -453 
    -537     -511     -276      199      854     1575     2289     2930 
    3399     3607     3549     3336     3188     3253     3481     3678 
    3694     3523     3213     2801     2350     1908     1464     1055 
     791      750      903     1117     1227     1112      711       60 
    -714    -1455    -2004    -2284    -2366    -2386    -2361    -2230 
   -2004    -1755    -1588    -1601    -1775    -1966    -1972    -1701 
   -1212     -630     -105      280      584      866     1123     1294 
    1354     1371     1440     1605     1852     2141     2413     2617 
    2718     2743     2797     3007     3406     3870     4212     4338 
    4263     4005     3580     3042     2505     2065     1725     1424 
    1139      912      774      697      608      400        0     -530 
   -1011    -1294    -1354    -1302    -1340    -1614    -2115    -2704 
   -3222    -3565    -3703    -3674    -3492    -3094    -2466    -1699 
    -923     -243      288      657      886     1015     1112     1267 
    1457     1583     1599     1530     1452     1433     1487     1588 
    1749     2034     2511     3172     3889     4484     4893     5184 
    5390     5414     5128     4535     3836     3316     3109     3048 
    2870     2492     1991     1455      936      445      -54     -540 
    -932    -1185    -1278    -1233    -1147    -1208    -1603    -2346 
   -3250    -4054    -4530    -4617    -4406    -4016    -3508    -2866 
   -2038    -1053      -56      788     1416     1888     2317     2781 
    3300     3788     4067     4066     3850     3562     3412     3554 
    3951     4428     4758     4758     4360     3651     2824     2089 
    1625     1506     1684     2011     2281     2307     2027     1518 
     859      108     -662    -1391    -2043    -2562    -2875    -2965 
   -2890    -2704    -2465    -2303    -2304    -2392    -2448    -2461 
   -2471    -2458    -2357    -2144    -1888    -1729    -1713    -1682 
   -1460    -1000     -411      157      645     1053     1414     1799 
    2288     2884     3507     3973     4066     3703     3021     2273 
    1658     1233      932      660      365       83     -136     -314 
    -503     -722     -946    -1074     -977     -623      -99      402 
     656      579      268     -117     -434     -573     -532     -392 
    -232      -99        5      139      338      588      868     1163 
    1448     1674     1813     1854     1809     1707     1502     1105 
     564       99       -5      298      758     1104     1237     1235 
    1275     1466     1734     1927     1914     1602      993      287 
    -203     -302      -85      203      344      275       90      -39 
       9      256      622     1004     1339     1610     1784     1811 
    1657     1367     1065      819      623      450      238      -43 
    -332     -521     -518     -266      217      831     1420     1844 
    2092     2285     2478     2609     2616     2457     2118     1688 
    1278      886      467        5     -457     -810     -943     -854 
    -592     -252       -2       -8     -265     -562     -643     -432 
    -110       14     -222     -758    -1336    -1655    -1584    -1185 
    -623      -79      367      773     1217     1723     2223     2583 
    2727     2654     2349     1858     1383     1144     1204     1425 
    1599     1572     1278      807      373      220      546     1374 
    2459     3406     3840     3611     2835     1706      390     -947 
   -2137    -3018    -3442    -3358    -2828    -1984    -1055     -256 
     368      868     1219     1308     1055      571      108     -128 
     -67      222      572      849     1000      981      804      649 
     777     1328     2199     3109     3773     4047     3994     3793 
    3553     3276     2945     2535     2027     1472      936      375 
    -265     -916    -1445    -1764    -1811    -1568    -1073     -410 
     232      588      518      159     -244     -519     -600     -530 
    -342        9      526     1100     1617     2042     2326     2389 
    2219     1818     1217      529      -78     -398     -364     -160 
       8      103      216      417      631      704      581      353 
     137      -47     -244     -410     -413     -248     -117     -144 
    -216     -153      121      573     1081     1471     1621     1615 
    1649     1804     2074     2353     2370     1935     1107       55 
   -1042    -2016    -2764    -3277    -3561    -3581    -3299    -2751 
   -2087    -1447     -908     -479      -56      427      907     1260 
    1394     1293     1055      885      990     1422     2081     2874 
    3721     4513     5080     5231     4889     4171     3277     2369 
    1560      927      565      544      804     1192     1532     1687 
    1601     1264      706       27     -623    -1138    -1451    -1520 
   -1359    -1080     -847     -808    -1017    -1506    -2284    -3246 
   -4178    -4866    -5177    -5071    -4612    -3944    -3194    -2473 
   -1892    -1471    -1097     -675     -233      121      352      515 
     697     1032     1648     2512     3470     4403     5242     5987 
    6704     7456     8193     8688     8819     8725     8608     8598 
    8677     8660     8324     7584     6488     5107     3524     1844 
     101    -1694    -3440    -4999    -6299    -7325    -8133    -8807 
   -9306    -9547    -9544    -9320    -8926    -8513    -8243    -8147 
   -8035    -7647    -6916    -5830    -4310    -2419     -434     1404 
    3055     4553     5879     7010     7942     8676     9290     9859 
   10319    10504    10247     9499     8364     7010     5626     4341 
    3169     2114     1237      648      395      493      951     1705 
    2654     3697     4693     5458     5834     5771     5354     4750 
    4106     3456     2805     2126     1293      248     -886    -1991 
   -3044    -4060    -5070    -6096    -7045    -7756    -8189    -8313 
   -8108    -7726    -7375    -7229    -7398    -7803    -8252    -8586 
   -8626    -8248    -7446    -6281    -4888    -3433    -1949     -417 
    1123     2636     4105     5522     7041     8725    10299    11460 
   12105    12266    12128    11952    11881    11838    11637    11241 
   10697     9910     8843     7611     6216     4538     2513      201 
   -2178    -4315    -5950    -6960    -7431    -7650    -7902    -8213 
   -8394    -8348    -8086    -7619    -7048    -6517    -6106    -5809 
   -5532    -5192    -4761    -4166    -3283    -2020     -295     1894 
    4345     6744     8815    10384    11526    12479    13339    14025 
   14458    14581    14321    13654    12577    11153     9549     7913 
    6328     4850     3555     2550     1753      934       29     -882 
   -1692    -2384    -3184    -4324    -5769    -7408    -9180   -10945 
  -12434   -13371   -13598   -13161   -12185   -10804    -9150    -7314 
   -5397    -3511    -1734     -193      961     1591     1714     1609 
    1630     1926     2378     2806     3145     3360     3442     3496 
    3672     4086     4660     5163     5528     5800     5994     6089 
    5942     5287     4010     2288      370    -1626    -3595    -5321 
   -6711    -7803    -8592    -9147    -9601   -10052   -10578   -11148 
  -11601   -11801   -11646   -11090   -10181    -8974    -7558    -6039 
   -4438    -2801    -1232      157     1188     1765     2114     2639 
    3630     5117     6943     8843    10631    12252    13649    14739 
   15399    15465    14937    13980    12769    11421     9863     8055 
    6208     4456     2766     1121     -508    -2151    -3813    -5498 
   -7069    -8332    -9296   -10087   -10736   -11265   -11708   -12069 
  -12405   -12776   -13109   -13274   -13207   -12919   -12436   -11750 
  -10885    -9949    -9042    -8174    -7319    -6401    -5301    -4017 
   -2656    -1377     -333      510     1408     2579     4055     5856 
    8004    10314    12468    14188    15248    15647    15676    15670 
   15777    15992    16386    17072    17964    18767    19259    19392 
   19174    18667    18068    17509    16958    16329    15538    14477 
   13112    11638    10336     9290     8513     8006     7454     6448 
    4920     2999      861    -1286    -3391    -5448    -7485    -9792 
  -12669   -16077   -19820   -23595   -26886   -29188   -30177   -29701 
  -28006   -25699   -23226   -20722   -18181   -15519   -12748    -9936 
   -6974    -3790     -532     2563     5277     7624     9849    12191 
   14806    17651    20520    23209    25550    27583    29446    30981 
   31891    31995    31187    29609    27648    25574    23507    21390 
   18908    15693    11568     6687     1578    -3025    -6500    -8675 
   -9884   -10658   -11458   -12660   -14395   -16438   -18608   -20949 
  -23429   -25849   -27830   -28919   -29036   -28432   -27301   -25880 
  -24417   -22835   -20879   -18351   -15215   -11817    -8772    -6412 
   -4677    -3437    -2524    -1582      -70     2542     6345    10751 
   14924    18287    20578    21936    22836    23774    25034    26505 
   27768    28439    28395    27706    26411    24614    22644    20891 
   19603    18828    18447    18216    17644    16124    13473     9953 
    5715      834    -4311    -9335   -14008   -18026   -21348   -24325 
  -27190   -29991   -32626   -34790   -36234   -36821   -36359   -34642 
  -31635   -27557   -22810   -17925   -13417    -9555    -6388    -3902 
   -2126    -1023     -263      658     2301     5057     8928    13586 
   18442    22854    26449    29149    31045    32272    32857    32749 
   31957    30520    28309    25242    21613    17795    14013    10350 
    6596     2601    -1331    -4899    -8160   -11377   -14839   -18571 
  -22363   -25903   -28775   -30823   -32184   -32995   -33474   -33862 
  -34163   -34071   -33089   -30959   -27946   -24610   -21390   -18353 
  -15169   -11321    -6488     -735     5557    11706    16964    20953 
   23819    26082    28291    30588    32728    34415    35392    35635 
   35286    34344    32794    30559    27391    23274    18486    13463 
    8729     4529      838    -2312    -4900    -7049    -9007   -10808 
  -12332   -13853   -15746   -17976   -20278   -22397   -24196   -25766 
  -27274   -28637   -29609   -30082   -29997   -29224   -27646   -25300 
  -22474   -19457   -16397   -13446   -10484    -7188    -3636     -121 
    3137     5869     8048    10099    12422    15024    17633    19971 
   22107    24418    27005    29636    32030    33767    34445    33961 
   32530    30677    28996    27527    26001    24225    21813    18519 
   14531    10011     5256      660    -3738    -7882   -11455   -14226 
  -16157   -17336   -18057   -18701   -19327   -19808   -20179   -20506 
  -20773   -20845   -20740   -20808   -21027   -20957   -20495   -19728 
  -18645   -17261   -15439   -13109   -10370    -7180    -3639        4 
    3728     7542    11458    15601    19830    23637    26651    28795 
   29959    30134    29641    28852    27828    26281    23986    21122 
   18220    15865    14318    13325    12312    10947     9171     6885 
    4236     1611     -811    -3137    -5717    -8841   -12421   -16081 
  -19265   -21514   -22823   -23445   -23454   -22897   -21959   -20744 
  -19334   -17829   -16382   -15237   -14354   -13581   -13014   -12730 
  -12634   -12564   -12349   -11897   -11074    -9675    -7803    -5879 
   -4109    -2299     -157     2519     5644     8847    11889    14686 
   17204    19548    21679    23383    24579    25073    24582    23313 
   21826    20622    19970    19660    19365    18816    17572    15490 
   12715     9386     5850     2407     -886    -3923    -6632    -9061 
  -11237   -13153   -14716   -15728   -16032   -15807   -15507   -15526 
  -16109   -17242   -18593   -19707   -20009   -19009   -16687   -13298 
   -9200    -4977    -1350     1135     2428     2934     3071     3168 
    3607     4550     5842     7236     8209     8111     6795     4572 
    2043        1    -1051    -1104     -417      525     1232     1574 
    1736     1982     2519     3257     3807     3812     3049     1383 
    -886    -2913    -3878    -3562    -2303     -660      955     2400 
    3630     4664     5489     5975     5895     5020     3451     1645 
      13    -1230    -2087    -2625    -2778    -2394    -1405      -54 
    1132     1733     1575      722     -440    -1387    -1838    -1960 
   -2065    -2266    -2470    -2477    -2224    -1872    -1456     -923 
    -398       74      608     1247     2037     2933     3677     4087 
    4241     4395     4723     5004     4789     3905     2535      951 
    -558    -1750    -2613    -3330    -4114    -4993    -5706    -5979 
   -5782    -5232    -4564    -4105    -4013    -4132    -4106    -3646 
   -2737    -1468      129     1912     3620     5016     5935     6369 
    6593     7005     7682     8431     9061     9445     9593     9545 
    9297     8839     8164     7260     6099     4756     3377     1900 
      89    -2253    -5007    -7662    -9778   -11199   -11928   -12085 
  -11796   -11153   -10230    -8896    -7013    -4726    -2266      112 
    2150     3827     5213     6234     6821     6940     6706     6527 
    6858     8006    10019    12546    14905    16471    17086    16862 
   15840    13960    11229     7998     4696     1509    -1431    -4131 
   -6750    -9366   -12000   -14598   -16908   -18546   -19165   -18642 
  -17247   -15584   -14238   -13419   -12918   -12393   -11497    -9948 
   -7744    -5242    -2887     -916      664     1982     3329     5013 
    7229     9933    12754    15232    17004    17865    17761    16765 
   15191    13487    11990    10875    10126     9671     9381     8920 
    8044     6750     5123     3422     1973      890      189     -224 
    -649    -1360    -2485    -3955    -5526    -7065    -8523    -9917 
  -11302   -12484   -13227   -13475   -13124   -12070   -10409    -8426 
   -6529    -4996    -3827    -2810    -1714     -427     1078     2702 
    4307     5859     7249     8517     9807    11020    12054    12879 
   13440    13721    13657    13271    12710    12097    11492    10802 
    9981     9252     8796     8529     8152     7300     5861     4031 
    2014       49    -1539    -2674    -3510    -4286    -5251    -6453 
   -7792    -9147   -10351   -11203   -11468   -11095   -10420    -9880 
   -9609    -9452    -9294    -9085    -8765    -8290    -7584    -6705 
   -5884    -5171    -4399    -3465    -2326     -922      760     2683 
    4764     6966     9267    11475    13385    14963    16177    16912 
   17086    16694    15746    14243    12286    10260     8695     7770 
    7306     7103     6897     6354     5260     3622     1651     -436 
   -2500    -4422    -6088    -7310    -8062    -8529    -8866    -9251 
   -9786   -10357   -10852   -11203   -11284   -11009   -10443    -9715 
   -8783    -7527    -6033    -4464    -2951    -1656     -564      417 
    1225     1930     2713     3601     4545     5502     6473     7537 
    8691     9666    10106     9888     9147     8124     7018     5989 
    5159     4502     3987     3703     3642     3636     3537     3223 
