Origin Time       2016/04/16 01:25:00
Lat.              32.753
Long.             130.762
Depth. (km)       12
Mag.              7.3
Station Code      YMG019
Station Lat.      33.8455
Station Long.     132.1204
Station Height(m) 55
Record Time       2016/04/16 01:25:41
Sampling Freq(Hz) 100Hz
Duration Time(s)  107
Dir.              E-W
Scale Factor      7845(gal)/8223790
Max. Acc. (gal)   4.655
Last Correction   2016/04/16 01:25:42
Memo.             
[...]
    6990     6970     7010     7088     7195     7322     7470     7646 
    7850     8060     8248     8404     8487     8476     8410     8352 
    8310     8279     8283     8333     8401     8434     8380     8235 
    8100     8066     8117     8179     8215     8235     8259     8306 
    8375     8451     8510     8503     8408     8274     8170     8137 
    8201     8348     8500     8563     8519     8451     8383     8286 
    8185     8129     8109     8078     8009     7933     7865     7769 
    7674     7677     7792     7952     8093     8189     8264     8332 
    8383     8446     8506     8492     8395     8290     8271     8340 
    8444     8584     8742     8829     8795     8679     8559     8479 
    8410     8316     8221     8152     8158     8280     8433     8527 
    8581     8621     8649     8673     8687     8711     8772     8812 
    8742     8606     8559     8629     8703     8718     8687     8626 
    8525     8375     8228     8155     8179     8267     8348     8395 
    8459     8527     8527     8467     8447     8510     8603     8623 
    8553     8474     8395     8305     8272     8326     8413     8451 
    8414     8361     8334     8314     8360     8513     8633     8596 
    8479     8356     8197     8017     7869     7746     7624     7510 
    7437     7439     7515     7616     7708     7808     7960     8114 
    8179     8159     8111     8055     7973     7886     7859     7873 
    7821     7699     7562     7423     7334     7345     7408     7492 
    7553     7506     7447     7519     7614     7581     7462     7378 
    7393     7510     7716     7979     8212     8314     8268     8177 
    8164     8203     8199     8141     8040     7874     7713     7655 
    7692     7759     7777     7740     7761     7878     7985     7985 
    7920     7924     8002     8002     7929     7962     8073     8073 
    7951     7859     7801     7650     7406     7225     7191     7246 
    7295     7264     7177     7144     7186     7242     7288     7258 
    7206     7272     7353     7318     7241     7177     7209     7435 
    7688     7782     7805     7763     7565     7356     7287     7288 
    7307     7375     7339     7063     6791     6736     6725     6721 
    6836     6945     6880     6723     6690     6814     6930     6961 
    6979     7064     7225     7410     7508     7434     7304     7285 
    7307     7194     7013     6967     7048     7160     7264     7283 
    7236     7173     7056     7023     7211     7369     7295     7206 
    7294     7420     7446     7456     7506     7520     7534     7622 
    7734     7838     7969     8085     8040     7881     7738     7584 
    7485     7551     7630     7685     7839     7919     7792     7677 
    7643     7546     7476     7545     7574     7499     7503     7634 
    7804     7931     7902     7747     7628     7535     7364     7125 
    6936     6845     6721     6547     6554     6817     7150     7360 
    7450     7572     7680     7565     7338     7335     7492     7485 
    7311     7221     7269     7257     7105     6918     6775     6663 
    6482     6312     6264     6073     5752     5683     5727     5652 
    5665     5825     5914     5917     6042     6327     6521     6494 
    6416     6453     6585     6678     6709     6817     7080     7342 
    7411     7477     7705     7777     7565     7314     7175     7366 
    7731     7751     7619     7628     7499     7248     7107     7067 
    7072     7052     7123     7357     7399     7175     7014     6976 
    6952     6959     7037     7107     7072     7014     6959     6831 
    6841     7069     7203     7245     7391     7558     7657     7581 
    7242     6886     6714     6648     6731     6979     7141     7094 
    6959     6818     6681     6517     6409     6489     6574     6555 
    6687     6979     7196     7234     7126     7033     6963     6785 
    6617     6579     6600     6650     6639     6462     6226     6046 
    5879     5699     5552     5404     5277     5306     5385     5308 
    5229     5346     5448     5379     5300     5339     5432     5395 
    5256     5178     5182     5302     5585     5911     6069     6023 
    6012     6177     6415     6581     6542     6401     6392     6447 
    6482     6666     6929     6945     6717     6496     6361     6350 
    6536     6799     6895     6821     6837     7037     7210     7306 
    7392     7183     6690     6596     6913     7064     7250     7654 
    7809     7712     7649     7657     7773     7885     7943     8043 
    8128     8248     8395     8365     8314     8357     8330     8301 
    8245     8035     7900     7917     7882     7854     7925     7959 
    7905     7804     7703     7659     7626     7593     7570     7480 
    7415     7526     7730     7823     7788     7773     7774     7740 
    7825     8094     8364     8471     8513     8673     8856     8854 
    8650     8424     8337     8289     8218     8252     8257     8086 
    8014     8144     8185     8032     7850     7870     8105     8190 
    8024     7955     8089     8172     8109     8048     7967     7789 
    7677     7569     7284     7105     7276     7614     7955     8128 
    7989     7730     7553     7398     7213     7022     6863     6799 
    6748     6578     6435     6543     6708     6596     6382     6413 
    6492     6338     6228     6351     6350     6085     5790     5524 
    5324     5273     5194     4981     4788     4702     4704     4743 
    4835     5125     5517     5752     5817     5809     5895     6195 
    6511     6647     6658     6705     6808     6905     7165     7646 
    8043     8220     8253     8232     8270     8363     8480     8627 
    8672     8579     8500     8451     8461     8622     8827     8891 
    8835     8820     8776     8546     8368     8413     8372     8154 
    7990     7892     7799     7803     7900     8017     8078     8021 
    7954     7921     7785     7701     7854     7905     7672     7454 
    7352     7214     7105     7152     7246     7311     7446     7699 
    8068     8457     8669     8768     8977     9267     9444     9470 
    9532     9701     9775     9705     9668     9749     9869     9778 
    9369     8989     8820     8671     8568     8608     8575     8347 
    8125     8017     7985     8094     8310     8467     8556     8611 
    8587     8525     8621     8912     9103     9057     9034     9086 
    9038     8943     8797     8345     7609     6993     6760     6768 
    6814     6903     6894     6633     6396     6358     6330     6328 
    6496     6571     6296     5972     5825     5583     5242     5081 
    5077     5049     4959     4962     5093     5150     5136     5248 
    5456     5597     5595     5576     5713     6033     6455     6766 
    6872     6999     7175     7207     7099     6826     6307     5848 
    5819     6003     6080     6154     6237     6146     5887     5607 
    5463     5481     5509     5459     5343     5167     5046     5055 
    5035     4928     4923     4992     4907     4719     4710     4978 
    5252     5306     5262     5194     5125     5204     5355     5475 
    5741     6165     6547     6866     7271     7817     8360     8741 
    8912     8938     8888     8804     8826     9058     9379     9717 
   10142    10611    10894    10860    10675    10573    10601    10594 
   10446    10362    10427    10436    10355    10276    10187    10046 
    9919     9994    10328    10747    11003    10984    10914    10990 
   11010    10906    10897    10945    10929    10956    11036    11125 
   11222    11161    10929    10717    10511    10274    10104     9953 
    9818     9915    10263    10546    10573    10466    10426    10528 
   10660    10665    10575    10507    10416    10251    10102    10014 
    9919     9852     9877     9903     9882     9910     9958     9965 
   10069    10300    10453    10508    10527    10336     9969     9725 
    9587     9350     9051     8838     8729     8681     8665     8619 
    8494     8379     8431     8622     8764     8887     9211     9666 
   10027    10282    10399    10358    10342    10284     9964     9547 
    9242     8995     8721     8482     8414     8449     8340     8071 
    7842     7789     7894     8032     8131     8237     8444     8810 
    9234     9560     9863    10262    10555    10523    10281    10053 
    9963    10062    10245    10272    10134    10022     9956     9791 
    9567     9479     9636     9942    10156    10200    10295    10477 
   10597    10768    11105    11371    11411    11438    11670    12046 
   12309    12318    12217    12159    12152    12177    12136    11921 
   11530    11087    10812    10736    10629    10417    10230    10049 
    9786     9536     9409     9246     8739     7893     7079     6596 
    6451     6474     6485     6463     6551     6847     7229     7564 
    7911     8279     8533     8652     8695     8742     8849     8896 
    8842     8829     8823     8731     8642     8615     8695     9011 
    9398     9533     9533     9694     9931    10041     9985     9778 
    9510     9306     9188     9155     9147     9024     8734     8311 
    7816     7422     7230     7028     6625     6227     6052     6034 
    6004     5884     5746     5665     5599     5522     5428     5277 
    5100     4962     4849     4726     4671     4842     5220     5562 
    5798     6052     6277     6417     6531     6652     6837     7071 
    7222     7244     7241     7329     7537     7858     8298     8761 
    9024     9032     9059     9220     9273     9158     9043     8946 
    8888     8964     9100     9240     9424     9548     9520     9481 
    9585     9726     9728     9682     9725     9761     9744     9721 
    9718     9738     9738     9720     9647     9433     9170     8889 
    8517     8172     7924     7767     7812     7977     8064     8125 
    8251     8451     8776     9137     9332     9327     9200     9057 
    9069     9273     9478     9539     9512     9462     9352     9186 
    9038     8992     9139     9436     9659     9667     9552     9452 
    9363     9225     9107     9038     8984     8997     9067     9094 
    9069     9043     9062     9117     9124     9050     8959     8888 
    8900     9045     9202     9312     9478     9725     9911     9918 
    9787     9634     9514     9540     9787    10111    10381    10633 
   10951    11354    11693    11804    11805    11838    11863    11962 
   12194    12309    12183    11977    11761    11493    11167    10809 
   10492    10243    10022     9830     9734     9837    10084    10226 
   10139     9833     9294     8667     8147     7753     7438     7082 
    6619     6200     5902     5701     5691     5848     5985     5994 
    5854     5682     5664     5852     6161     6471     6677     6732 
    6625     6435     6327     6295     6205     6130     6208     6427 
    6786     7272     7763     8202     8590     8883     9134     9458 
    9829    10192    10562    10848    10995    11124    11199    11095 
   10902    10698    10458    10195     9888     9549     9243     8924 
    8608     8395     8259     8131     7929     7550     7102     6841 
    6735     6490     6077     5713     5436     5192     5080     5146 
    5258     5367     5552     5746     5822     5861     5940     5898 
    5605     5213     5027     5070     5096     5082     5109     5085 
    5047     5058     4989     4920     5090     5402     5556     5479 
    5285     5100     4901     4525     4027     3700     3653     3707 
    3665     3514     3402     3487     3780     4088     4164     3971 
    3670     3476     3568     3942     4438     4922     5393     5856 
    6130     6049     5678     5262     5103     5263     5628     6168 
    6690     6845     6600     6195     5852     5705     5691     5644 
    5510     5297     5036     4864     4855     4942     5027     5030 
    4915     4691     4326     3990     3956     4097     4068     3775 
    3387     3134     3037     3007     3145     3461     3792     4077 
    4215     4133     4002     3954     3946     3947     3893     3762 
    3716     3847     4031     4241     4556     4874     5161     5501 
    5773     5876     5891     5833     5887     6320     6910     7302 
    7438     7312     7022     6763     6555     6392     6358     6370 
    6200     5778     5287     5032     5115     5347     5607     5954 
    6405     6847     7078     6947     6520     6042     5699     5499 
    5410     5405     5335     5069     4681     4321     4083     4106 
    4380     4556     4393     4159     4220     4550     4855     4994 
    5060     5104     5008     4712     4348     4159     4414     5098 
    5795     6076     5902     5578     5475     5711     6174     6669 
    6883     6632     6081     5510     5139     5053     5189     5421 
    5544     5478     5306     5050     4742     4417     3998     3572 
    3345     3357     3580     3987     4428     4780     5027     5128 
    5115     5152     5287     5447     5641     5827     5795     5479 
    5155     5109     5304     5491     5540     5456     5225     4893 
    4642     4587     4645     4685     4650     4550     4433     4393 
    4599     5104     5707     6193     6485     6561     6462     6315 
    6183     6048     5911     5792     5692     5672     5715     5579 
    5105     4507     4164     4199     4295     4077     3574     3086 
    2802     2698     2693     2756     2816     2875     3088     3454 
    3834     4178     4441     4596     4769     4978     5039     4923 
    4810     4801     4977     5321     5564     5493     5204     4804 
    4260     3646     3202     3080     3261     3632     3994     4183 
    4237     4248     4247     4321     4526     4737     4868     5100 
    5579     6087     6353     6421     6347     6006     5505     5197 
    5216     5427     5705     5996     6186     6103     5809     5568 
    5445     5301     5081     4888     4804     4835     5067     5498 
    5837     5886     5767     5686     5745     5948     6207     6358 
    6258     5891     5350     4918     4899     5185     5417     5476 
    5447     5356     5287     5443     5815     6112     6228     6355 
    6616     6932     7190     7373     7524     7616     7592     7410 
    7094     6822     6694     6563     6427     6439     6546     6660 
    6790     6952     7211     7607     8043     8289     8201     8039 
    8111     8284     8357     8349     8297     8276     8401     8642 
    8928     9229     9448     9463     9286     9008     8671     8334 
    8085     7931     7860     7863     7836     7769     7805     8006 
    8212     8162     7823     7433     7264     7489     7978     8356 
    8564     8803     9023     9143     9281     9398     9288     8934 
    8599     8533     8742     9038     9178     9050     8723     8272 
    7776     7425     7402     7645     7884     7901     7743     7689 
    7886     8185     8418     8538     8523     8444     8365     8243 
    8102     8114     8337     8553     8567     8487     8584     8893 
    9137     9190     9256     9472     9774    10012    10115    10219 
   10401    10484    10332    10003     9668     9526     9549     9467 
    9147     8735     8430     8302     8248     8155     8073     8124 
    8286     8433     8576     8793     8955     8955     9001     9254 
    9525     9590     9541     9606     9747     9788     9701     9566 
    9541     9768    10156    10494    10654    10631    10486    10301 
   10197    10250    10385    10482    10453    10214     9886     9720 
    9782     9954    10045     9936     9747     9670     9698     9718 
    9643     9427     9081     8716     8540     8648     8901     9117 
    9202     9147     9054     9128     9397     9624     9720     9783 
    9778     9707     9736     9913    10139    10278    10245    10087 
    9860     9556     9281     9207     9366     9707    10179    10629 
   10883    10956    10979    10944    10754    10423    10061     9765 
    9571     9479     9521     9664     9834    10021    10166    10150 
    9931     9575     9184     8835     8583     8463     8431     8401 
    8398     8446     8453     8371     8210     7978     7754     7670 
    7815     8139     8499     8850     9180     9405     9508     9568 
    9634     9639     9524     9342     9144     8978     8926     8969 
    8966     8823     8530     8110     7719     7601     7869     8401 
    8955     9352     9547     9579     9505     9362     9223     9215 
    9339     9452     9462     9400     9306     9144     8900     8696 
    8602     8557     8527     8471     8357     8236     8120     7981 
    7825     7670     7515     7298     7001     6809     6860     7056 
    7254     7350     7314     7264     7258     7221     7191     7280 
    7449     7573     7619     7652     7682     7624     7482     7398 
    7476     7692     7911     8002     7933     7786     7704     7735 
    7811     7870     7851     7696     7472     7368     7528     7909 
    8326     8598     8631     8540     8482     8437     8347     8248 
    8226     8322     8509     8700     8806     8745     8548     8306 
    8046     7786     7655     7746     7963     8159     8264     8305 
    8361     8454     8492     8451     8421     8503     8710     8926 
    9011     8926     8753     8617     8520     8407     8356     8441 
    8586     8730     8881     8981     8972     8841     8612     8317 
    7954     7593     7380     7348     7400     7400     7294     7163 
    7055     6951     6930     7048     7167     7160     7065     7014 
    7083     7155     7079     6937     6844     6750     6651     6679 
    6881     7140     7345     7466     7452     7245     6886     6547 
    6370     6309     6300     6354     6376     6270     6120     6019 
    5940     5884     5942     6174     6561     7002     7366     7570 
    7603     7522     7422     7326     7217     7107     7018     6997 
    7082     7191     7203     7122     7056     7023     6909     6777 
    6806     6941     6990     6941     6912     6984     7187     7472 
    7740     7906     7920     7852     7863     7971     8113     8266 
    8382     8414     8391     8332     8201     8001     7848     7827 
    7890     7986     8122     8251     8324     8370     8388     8352 
    8279     8217     8201     8226     8275     8341     8365     8343 
    8363     8446     8538     8669     8869     9019     9046     9074 
    9220     9447     9661     9801     9871     9961    10112    10230 
   10226    10100     9882     9655     9508     9427     9343     9243 
    9188     9221     9251     9177     9076     9081     9154     9137 
    9024     8955     9022     9209     9436     9583     9580     9512 
    9495     9477     9337     9096     8826     8607     8509     8499 
    8510     8519     8510     8492     8469     8440     8437     8467 
    8476     8430     8385     8408     8520     8658     8741     8726 
    8579     8336     8151     8176     8401     8671     8837     8839 
    8718     8564     8413     8253     8144     8149     8175     8105 
    7959     7820     7736     7744     7809     7803     7657     7454 
    7304     7215     7106     6963     6880     6918     7010     7051 
