Origin Time       2016/04/16 01:25:00
Lat.              32.753
Long.             130.762
Depth. (km)       12
Mag.              7.3
Station Code      YMG009
Station Lat.      34.2319
Station Long.     131.8169
Station Height(m) 375
Record Time       2016/04/16 01:25:40
Sampling Freq(Hz) 100Hz
Duration Time(s)  109
Dir.              N-S
Scale Factor      7845(gal)/8223790
Max. Acc. (gal)   7.641
Last Correction   2016/04/16 01:25:40
Memo.             
[...]
    8111     7820     7623     7410     7176     7129     7403     7813 
    8056     8032     7873     7659     7252     6679     6299     6331 
    6659     7094     7570     8062     8472     8707     8768     8708 
    8557     8319     8048     7823     7650     7485     7365     7344 
    7344     7325     7400     7623     7878     8104     8306     8408 
    8306     8021     7689     7392     7102     6858     6756     6808 
    7005     7354     7778     8118     8203     8043     7863     7784 
    7761     7793     7857     7857     7808     7839     7942     7973 
    7944     7936     7870     7680     7472     7348     7307     7381 
    7581     7803     7959     8027     7990     7925     7936     8006 
    8058     8117     8224     8286     8244     8133     7973     7767 
    7542     7384     7391     7499     7599     7657     7672     7692 
    7796     7989     8222     8385     8388     8272     8111     7935 
    7784     7709     7669     7604     7545     7504     7425     7295 
    7168     7091     7119     7269     7418     7431     7349     7248 
    7167     7213     7414     7650     7851     8071     8329     8533 
    8650     8770     8942     9058     8972     8702     8411     8179 
    7925     7643     7443     7345     7285     7296     7447     7690 
    7909     8017     8025     8012     8043     8127     8243     8383 
    8513     8604     8658     8612     8408     8172     8032     7993 
    8091     8372     8691     8810     8684     8556     8603     8684 
    8726     8880     9147     9297     9137     8792     8557     8482 
    8404     8317     8333     8472     8590     8538     8417     8363 
    8279     8133     8075     8077     7981     7819     7727     7753 
    7824     7842     7859     8039     8341     8625     8928     9282 
    9537     9632     9643     9596     9468     9196     8750     8317 
    8143     8233     8421     8618     8891     9288     9740    10127 
   10354    10353    10147     9880     9668     9467     9227     9034 
    8991     9109     9312     9475     9547     9544     9447     9312 
    9339     9543     9740     9906    10054    10027     9799     9578 
    9504     9450     9285     9074     8929     8911     9042     9278 
    9572     9913    10195    10265    10100     9780     9363     8961 
    8743     8776     9000     9270     9440     9504     9504     9401 
    9202     9022     8946     8995     9065     9005     8896     8924 
    9030     9094     9184     9293     9229     8892     8463     8225 
    8310     8622     9038     9509     9917    10118    10111     9996 
    9834     9637     9428     9296     9297     9352     9351     9305 
    9282     9252     9146     9055     9124     9290     9405     9431 
    9424     9450     9489     9478     9451     9454     9440     9409 
    9447     9560     9657     9684     9666     9602     9474     9333 
    9281     9343     9474     9594     9639     9590     9479     9322 
    9093     8768     8451     8324     8440     8721     9103     9491 
    9742     9807     9783     9713     9601     9491     9425     9427 
    9454     9335     9013     8677     8467     8372     8359     8418 
    8533     8606     8588     8565     8560     8497     8391     8340 
    8364     8457     8637     8842     8976     9040     9059     8988 
    8812     8588     8376     8195     8040     7943     7974     8175 
    8449     8654     8773     8846     8866     8800     8646     8490 
    8414     8398     8411     8440     8461     8444     8355     8225 
    8156     8172     8239     8333     8461     8587     8581     8414 
    8244     8170     8149     8210     8446     8827     9196     9445 
    9568     9580     9479     9246     8892     8522     8268     8193 
    8293     8510     8739     8928     9057     9066     8947     8764 
    8592     8537     8649     8854     9066     9216     9244     9166 
    8988     8704     8387     8100     7852     7697     7654     7665 
    7746     7997     8390     8753     8932     8905     8764     8610 
    8406     8086     7789     7705     7821     8055     8348     8595 
    8696     8653     8506     8322     8163     8031     7927     7875 
    7878     7944     8109     8352     8568     8672     8704     8725 
    8695     8532     8255     8000     7886     7903     7978     8116 
    8311     8456     8503     8510     8506     8484     8428     8374 
    8371     8301     8048     7742     7566     7547     7630     7817 
    8156     8617     9073     9421     9595     9587     9478     9339 
    9197     9073     8928     8735     8571     8483     8441     8451 
    8505     8543     8500     8340     8094     7857     7673     7565 
    7551     7630     7804     8017     8125     8031     7785     7560 
    7466     7462     7527     7734     8085     8417     8579     8635 
    8714     8699     8414     7948     7542     7288     7179     7233 
    7476     7823     8066     8116     8101     8073     7890     7547 
    7330     7408     7577     7662     7763     7931     8064     8144 
    8257     8451     8665     8772     8761     8710     8675     8685 
    8715     8683     8563     8359     8044     7685     7458     7411 
    7473     7624     7792     7835     7727     7580     7533     7638 
    7844     8105     8356     8494     8476     8361     8244     8187 
    8158     8141     8181     8203     8082     7865     7697     7630 
    7581     7482     7406     7438     7491     7481     7468     7508 
    7539     7499     7437     7450     7504     7492     7457     7542 
    7716     7835     7865     7842     7796     7777     7804     7847 
    7908     7994     8040     7987     7867     7816     7920     8097 
    8221     8307     8417     8490     8444     8341     8307     8333 
    8293     8175     8087     8064     8004     7823     7641     7611 
    7632     7522     7349     7245     7183     7160     7260     7491 
    7746     7917     8037     8194     8338     8370     8317     8248 
    8149     8000     7871     7799     7774     7835     7993     8205 
    8484     8785     8972     9016     8982     8896     8721     8477 
    8218     7977     7808     7765     7820     7912     8021     8135 
    8208     8226     8212     8190     8221     8299     8326     8322 
    8328     8267     8160     8102     8060     7987     7959     8000 
    8021     8009     8029     8104     8187     8229     8237     8245 
    8251     8262     8356     8599     8889     9069     9155     9185 
    9061     8787     8517     8319     8121     7879     7722     7782 
    7978     8108     8155     8276     8480     8614     8698     8861 
    9004     8929     8671     8440     8355     8363     8418     8576 
    8814     8966     8924     8752     8592     8522     8482     8390 
    8303     8278     8232     8118     8040     8116     8345     8634 
    8874     8991     8941     8748     8513     8333     8286     8406 
    8667     9008     9293     9342     9175     8946     8696     8461 
    8391     8548     8806     9066     9317     9452     9344     9066 
    8754     8428     8093     7825     7700     7680     7696     7769 
    7943     8166     8310     8299     8194     8068     7873     7597 
    7376     7330     7437     7569     7674     7820     7969     7982 
    7862     7794     7900     8050     8063     8014     8102     8271 
    8271     8098     7967     7917     7827     7685     7635     7739 
    7873     7924     7974     8098     8172     8078     7908     7817 
    7839     7951     8170     8421     8533     8426     8175     7921 
    7755     7677     7716     7878     7993     7920     7722     7495 
    7245     7015     6951     7103     7352     7581     7773     7931 
    8028     8002     7911     7851     7813     7751     7738     7834 
    7983     8148     8283     8264     8104     7928     7789     7730 
    7813     8000     8203     8437     8737     9040     9254     9286 
    9086     8750     8453     8226     8021     7917     8033     8329 
    8618     8708     8553     8291     8090     7998     7998     8066 
    8179     8340     8513     8594     8590     8611     8687     8787 
    8947     9166     9308     9274     9116     8899     8650     8434 
    8268     8133     8063     8118     8355     8730     9069     9244 
    9227     9035     8737     8395     8108     7960     7935     7993 
    8141     8375     8668     8943     9113     9189     9243     9267 
    9232     9180     9124     9047     8991     8980     8945     8841 
    8680     8487     8380     8457     8641     8777     8823     8816 
    8762     8630     8410     8179     8064     8082     8147     8235 
    8376     8533     8648     8703     8685     8595     8482     8418 
    8463     8619     8804     8937     8982     8907     8668     8313 
    8023     7938     8027     8240     8564     8916     9196     9386 
    9504     9525     9474     9391     9246     9035     8842     8749 
    8769     8781     8657     8457     8313     8237     8228     8351 
    8611     8885     9049     9119     9169     9136     8947     8726 
    8599     8494     8332     8191     8152     8113     7915     7593 
    7346     7254     7257     7353     7638     8078     8527     8884 
    9171     9378     9391     9185     8914     8718     8584     8463 
    8391     8421     8523     8691     8957     9292     9579     9715 
    9688     9567     9421     9277     9154     9167     9385     9624 
    9659     9497     9255     8999     8752     8553     8454     8479 
    8565     8625     8685     8785     8814     8688     8497     8364 
    8295     8193     8004     7852     7860     7917     7893     7923 
    8129     8359     8444     8441     8449     8477     8431     8239 
    8019     7923     7870     7792     7848     8122     8496     8766 
    8808     8700     8540     8310     8064     7967     8073     8263 
    8446     8633     8784     8820     8661     8359     8210     8286 
    8328     8355     8540     8726     8760     8662     8426     8127 
    7893     7730     7688     7803     7923     7919     7750     7481 
    7369     7523     7816     8233     8814     9424     9829     9899 
    9752     9567     9359     9067     8824     8822     8951     9019 
    9054     9163     9352     9514     9549     9517     9441     9196 
    8743     8302     8086     8013     7931     7834     7723     7647 
    7670     7749     7936     8383     8978     9506     9934    10263 
   10536    10717    10592    10281    10130    10054     9913     9846 
    9877     9917     9879     9717     9585     9578     9497     9219 
    8910     8777     8721     8515     8263     8189     8259     8307 
    8303     8413     8684     8829     8675     8408     8230     8108 
    7954     7816     7708     7551     7444     7488     7481     7344 
    7257     7218     7164     7276     7623     7954     8085     8164 
    8370     8568     8510     8266     8100     8000     7803     7596 
    7574     7700     7782     7878     8332     9016     9337     9236 
    9146     9127     8972     8735     8684     8884     9018     8865 
    8753     8949     9130     9038     8912     8838     8568     8082 
    7578     7283     7362     7655     7890     8047     8182     8206 
    8013     7830     7920     8091     8113     8090     8187     8283 
    8158     7916     7761     7695     7654     7672     7909     8237 
    8283     8113     7952     7785     7630     7561     7680     7948 
    8108     8181     8391     8638     8652     8556     8704     8942 
    8752     8160     7696     7561     7514     7425     7383     7431 
    7510     7469     7373     7472     7591     7566     7799     8345 
    8646     8525     8198     7751     7339     7149     7167     7418 
    7728     7793     7836     7987     7913     7700     7673     7946 
    8426     8598     8275     8116     8494     9116     9740    10444 
   11292    11823    11460    10523     9795     9417     9163     9115 
    9413     9855    10038     9825     9536     9397     9116     8563 
    8252     8553     8988     8893     8479     8456     8796     8969 
    9043     9463    10230    10872    11084    11180    11377    11280 
   10766    10351    10335    10435    10424    10444    10543    10604 
   10620    10597    10500    10284     9933     9591     9458     9499 
    9541     9477     9238     8820     8344     7847     7300     6777 
    6426     6264     6143     6157     6523     7076     7564     7979 
    8431     8939     9252     9317     9491     9767     9748     9462 
    9300     9239     8908     8424     8295     8513     8672     8769 
    9089     9589    10011    10311    10488    10426    10006     9286 
    8591     8095     7612     7037     6420     5811     5344     4953 
    4240     3177     2250     1691     1370     1210     1321     1800 
    2490     3071     3368     3435     3422     3260     2894     2641 
    2604     2435     2191     2319     2754     2970     2706     2173 
    1725     1399     1042      893     1282     1872     2235     2505 
    2848     3094     3200     3541     4337     5293     6237     7373 
    8725     9907    10458    10412    10233    10054     9782     9528 
    9509     9837    10335    10670    10770    10570     9938     9120 
    8509     8166     8029     8208     8749     9387     9725     9643 
    9401     9374     9791    10669    11869    13251    14566    15503 
   16071    16347    16190    15558    14612    13576    12534    11475 
   10497     9791     9586     9756     9856     9733     9406     8926 
    8526     8424     8676     9231    10025    10787    11146    11013 
   10343     9161     7780     6451     5352     4641     4287     4283 
    4665     5373     6222     6974     7539     7881     7966     7903 
    7897     8221     8942     9830    10770    11584    11943    11759 
   11142    10272     9322     8487     8002     7773     7530     7260 
    6930     6438     5887     5454     5271     5521     6349     7652 
    9132    10571    11973    13338    14473    15178    15272    14652 
   13691    12619    10963     9020     7707     6822     6060     5768 
    5980     6407     6669     6569     6351     6122     5746     5240 
    4916     5107     5571     5845     5999     6131     5904     5262 
    4614     4186     3951     3939     4289     5086     6043     6620 
    6687     6516     6259     6158     6536     7350     8391     9586 
   10854    11969    12762    13215    13247    12684    11361     9409 
    7524     6197     5267     4814     5069     5614     5953     6084 
    6129     6114     6081     6174     6470     6943     7652     8587 
    9517    10169    10358    10164     9818     9369     8896     8673 
    8730     8866     9197     9979    11075    12181    13122    13805 
   14137    13918    13138    12193    11446    10962    10670    10508 
   10501    10737    11156    11477    11570    11643    11742    11680 
   11545    11493    11429    11202    10728    10021     9188     8446 
    8128     8421     9137     9872    10438    10966    11385    11361 
   10781     9865     8938     8114     7321     6717     6540     6694 
    6949     7142     7272     7499     7677     7531     7258     7210 
    7369     7551     7851     8500     9271     9699     9845    10108 
   10547    10839    10731    10338     9865     9301     8658     8232 
    8239     8530     8978     9637    10466    11187    11479    11429 
   11329    11115    10832    10824    11095    11292    11207    10972 
   10786    10729    10845    11037    11121    10935    10381     9676 
    9193     9077     9325     9906    10813    11931    12898    13413 
   13437    12982    12032    10739     9483     8437     7550     6902 
    6488     6104     5702     5360     5088     4916     4945     5107 
    5227     5389     5767     6250     6598     6817     6999     6984 
    6644     6147     5703     5443     5498     6069     7229     8606 
    9725    10420    10597    10050     8783     7132     5420     3842 
    2702     2230     2465     3343     4661     6145     7585     8676 
    9111     8958     8348     7155     5560     4252     3717     3801 
    4048     4120     3947     3776     3815     3940     4233     5030 
    6177     7234     8163     9030     9698    10066    10138    10048 
    9960     9768     9351     8775     8043     7114     6072     5262 
    5023     5074     5065     5363     6251     7321     8280     9297 
   10497    11680    12436    12550    12159    11341    10058     8602 
    7531     7115     7117     7269     7771     8692     9440     9532 
    9111     8453     7756     7210     6853     6675     6637     6542 
    6237     5765     5213     4699     4222     3703     3343     3396 
    3697     3956     4129     4253     4287     4245     4274     4521 
    5088     5957     6956     7943     8935     9847    10409    10498 
   10218     9618     8752     7923     7491     7457     7569     7755 
    7989     7929     7399     6789     6377     5977     5509     5162 
    5004     4968     5023     5131     5409     6064     6866     7406 
    7652     7632     7285     6711     6022     5275     4546     3781 
    2913     2203     1989     2218     2771     3744     5131     6711 
    8156     9155     9585     9463     8814     7699     6463     5699 
    5562     5574     5491     5694     6419     7264     7823     8264 
    8891     9553     9953    10084    10112    10042     9687     8997 
    8260     7716     7241     6731     6469     6709     7225     7512 
    7393     7157     6959     6552     5886     5339     5202     5358 
    5540     5629     5694     5763     5661     5455     5530     5942 
    6376     6706     6926     6949     6845     6817     7042     7627 
    8474     9363    10071    10451    10608    10669    10517     9996 
    9174     8324     7650     7264     7294     7723     8456     9336 
   10042    10347    10322     9960     9278     8730     8615     8644 
    8683     8883     9261     9829    10550    11345    12297    13347 
   14211    14671    14601    13961    13034    12272    11788    11412 
   11134    10894    10493    10000     9528     9036     8618     8226 
    7634     6979     6525     6266     6154     6092     6004     5995 
    6065     6137     6276     6590     7086     7541     7723     7793 
    8024     8374     8684     9038     9676    10547    11246    11583 
   11703    11566    10914     9799     8661     7774     7065     6534 
    6340     6531     6980     7485     7859     8001     7843     7515 
    7330     7403     7753     8413     9173     9776    10200    10528 
   10809    10960    10804    10381     9919     9475     8997     8503 
    8014     7595     7298     7086     7063     7334     7678     7923 
    8235     8819     9675    10519    11062    11286    11192    10720 
   10091     9653     9374     9097     8972     9121     9458     9768 
    9872    10007    10447    10899    11101    11178    11138    10887 
   10477     9981     9525     9213     8900     8513     8201     7938 
    7576     7134     6871     7107     7747     8298     8526     8596 
    8584     8270     7645     7195     7236     7518     7746     7896 
    8010     8077     7947     7493     6810     6061     5341     4695 
