Origin Time       2016/04/16 01:25:00
Lat.              32.753
Long.             130.762
Depth. (km)       12
Mag.              7.3
Station Code      YMG008
Station Lat.      34.0121
Station Long.     131.4042
Station Height(m) 4
Record Time       2016/04/16 01:25:31
Sampling Freq(Hz) 100Hz
Duration Time(s)  112
Dir.              E-W
Scale Factor      7845(gal)/8223790
Max. Acc. (gal)   28.060
Last Correction   2016/04/16 01:25:32
Memo.             
[...]
    4801     3620     3161     3335     4040     5242     6535     7304 
    7496     7079     5623     3215      731     -841    -1244     -861 
     -16      876     1872     3834     6517     8270     8431     8010 
    7921     7902     7263     6102     5127     4452     3700     2714 
    1378      168      388     2230     4222     5437     6388     7312 
    7484     6752     5852     5070     4517     5138     7558    10544 
   12402    12675    10925     7041     3164     1634     2083     2697 
    2708     2548     2997     5027     8297    10388     9983     8307 
    6984     6531     6173     5108     3865     3218     2953     2559 
    2678     4720     8048    10382    11449    12185    12194    10631 
    7373     3466      427    -1232     -970     1995     6212     8942 
    9517     9085     8633     8638     8407     6386     3046      897 
     982     2228     3674     4876     5151     4368     3221     2042 
     994      810     1669     2305     2027     2149     3488     4915 
    5389     5205     5425     6629     8070     8575     7759     6381 
    5778     6454     7593     7964     6762     3991      780    -1298 
   -1578      -58     3086     6214     7269     7150     8208     9952 
   10139     8486     6682     6123     6798     7716     7908     7190 
    6110     4934     3346     1397     -156     -214     1798     4911 
    7561     9005     8941     7460     5331     3384     2172     1965 
    2640     3481     3784     4025     4966     6382     7765     8513 
    8090     7130     6605     6268     5389     3565     1182      279 
    2430     5940     8299     9251     9444     8877     7350     5268 
    3645     2895     2417     1622      511     -626    -1300     -760 
    1228     3755     5890     7580     8757     9134     8785     7684 
    6126     5057     4278     2943     1858     2157     3361     4630 
    5414     5205     4703     5193     6110     5661     3631     1764 
    1163     1071     1098     1823     3094     4502     5841     6080 
    4842     3736     3450     2774     1922     2452     4081     5215 
    5333     4712     3491     2492     3180     5347     6666     5809 
    4258     3828     4170     4445     5136     6262     6700     6434 
    6339     6037     5161     4892     5710     6249     5705     5084 
    5363     6018     5965     4938     3901     4066     4900     4753 
    3865     4093     5757     7338     7700     6736     4918     3219 
    2562     3015     3932     4720     5026     4595     3788     3537 
    3928     3824     2928     2620     3496     4618     5513     6205 
    6397     6042     5636     5705     6010     5560     3932     1819 
     545     1363     4013     6538     7645     7560     6397     4333 
    2631     2336     3053     3746     3747     3134     2517     2296 
    2367     2308     1952     2130     3676     5725     6609     6156 
    5753     5813     5054     3126     1323      388       17        5 
     564     1740     3145     4573     5958     6864     7188     7383 
    7443     6759     5120     3260     2012     1618     2296     4002 
    5516     5836     5379     4502     3338     2674     2953     3747 
    4500     5038     5487     5852     6178     6613     6889     6782 
    6512     5988     4833     3365     2528     2806     3865     4953 
    5463     5564     5991     6914     7834     8251     7815     6727 
    6093     6536     6728     5161     2542      419     -818    -1059 
     117     2436     5232     8109    10054    10031     9020     8677 
    8444     6733     3991     2016     1204      843      984     1759 
    2444     2849     3538     4441     5427     6762     7735     7518 
    7056     7551     8540     8811     7576     4843     1755      -62 
    -144      511     1071     1470     1979     3060     4500     5281 
    5302     5580     6427     7086     7029     6257     4901     3618 
    3156     3042     2312     1215      810     1526     2901     4414 
    6147     8239    10314    11470    10519     7321     3379      340 
   -1026     -866      124     1570     3464     5401     6709     7317 
    7537     7184     6115     5140     5201     6041     6669     6489 
    5400     3921     3065     3138     3532     3696     3407     3196 
    4423     7456    10667    12098    11200     8783     5985     3586 
    1876      826      137     -394     -319     1015     3580     6470 
    8553     9540     9809     9582     8811     7209     4731     2344 
    1424     2069     2799     2875     3138     3910     4634     5111 
    5522     6138     6982     7375     6635     5181     3973     3395 
    3551     4286     4692     4305     3973     4210     4334     4299 
    4823     5314     5066     5175     6156     6837     6874     6737 
    6118     4884     3792     3186     2702     2295     2304     2791 
    3468     4245     5285     6388     6940     6544     5422     4192 
    3287     2803     2749     3052     3578     4322     5393     6566 
    7160     6907     6463     6359     6027     5097     4448     4468 
    4513     4685     5623     6967     7797     7850     7245     5950 
    4367     3404     3407     3674     3420     2821     2667     3462 
    5130     7184     8806     9131     8152     6837     5968     5649 
    5684     5493     4430     2798     1378      614      864     2118 
    3750     5175     6440     8029     9779    10777    10600     9593 
    8167     6455     4514     2669     1171       99       70     1715 
    4413     6836     8322     8918     9009     9003     8618     7040 
    4185     1200     -761    -1528    -1007     1192     4565     7723 
    9662    10322    10199     9697     8742     7049     4989     3476 
    2529     1479      421      -68      421     2000     3748     4348 
    3993     4086     5120     6380     7387     8230     8863     8865 
    7951     6482     4931     3442     2423     2359     2972     3626 
    4205     5158     6821     8679     9633     9265     8271     7344 
    6346     4982     3727     3499     4376     5381     5842     6214 
    7132     8301     9103     9335     8800     7508     5985     4687 
    3856     3563     3527     3435     3358     3653     4491     5621 
    6529     6852     6594     5942     5282     5011     5015     5104 
    5481     6056     6450     6885     7713     8378     8198     7488 
    6724     5844     4956     4418     4237     4380     4914     5329 
    5081     4463     3645     2482     1903     3190     6100     9104 
   10744    10671     9761     8904     7950     6208     3811     1799 
     758      558     1155     2309     3289     3898     4549     5148 
    5416     5647     6002     5910     5030     4307     4723     5408 
    5067     4133     3470     3014     2887     3473     4271     4644 
    5034     6214     7665     8007     7215     6716     7022     6932 
    5314     2708      859     1192     3620     6577     8457     9177 
    9553     9593     8795     7145     4679     1642     -926    -2107 
   -1554      903     4614     7846     9325     9563     9896    10547 
   10674     9944     8648     7071     5745     5127     4796     4086 
    3169     2836     3684     5684     8078     9693     9744     8440 
    6561     4683     3049     1714      598      -47      715     3472 
    7084     9585    10390    10369    10137     9603     8460     6535 
    4291     2729     2336     2671     3114     3206     2627     1923 
    2001     2608     3268     4535     6339     7202     6501     5289 
    4329     3680     3609     3947     4055     3977     4199     4939 
    5927     6427     6061     5206     4059     2662     1810     2077 
    2778     3369     4125     5070     6147     7470     8606     8824 
    8247     7902     8311     8606     7624     5644     4078     3314 
    2795     2658     3005     3265     3399     3880     4725     5421 
    5621     5526     5302     5078     5352     5765     5184     3978 
    3499     3738     3923     4110     4665     5244     5328     5022 
    4905     5458     6403     6710     5815     4510     3899     3986 
    4087     3986     3878     3923     4403     5535     6799     7225 
    6585     5726     5282     5040     4847     4683     4041     2859 
    2163     2635     3825     5220     6582     7380     7342     7188 
    7275     6810     5460     3794     2214     1171     1263     2267 
    3534     4677     5323     5566     6223     7628     9011     9474 
    8868     7246     4870     3029     2647     2789     2475     2188 
    2516     3202     3883     4565     5347     6060     6363     6173 
    5476     4282     3241     3083     3459     3669     3937     4896 
    6393     7592     7858     6886     4750     2544     1668     1942 
    2026     1705     1918     3053     4885     6987     8546     8865 
    7855     5859     3645     2173     1780     2006     2374     2851 
    3352     3716     4256     5163     5740     5405     4553     3782 
    3361     3511     4384     5722     6875     7246     6735     5827 
    5024     4263     3485     3019     3067     3678     4683     5529 
    5958     6133     6185     6160     5994     5659     5235     4884 
    4918     5448     5879     5617     4947     4220     3355     2811 
    3114     3896     4845     5879     6361     5854     5140     5352 
    6247     6517     5796     4773     3863     3299     3528     4356 
    4850     4777     4822     4962     4441     3592     3430     3676 
    3365     2683     2832     4356     6327     7723     8529     8635 
    7495     5348     3240     1854     1017      517      799     1979 
    3357     4726     6278     7524     8070     7947     6779     4854 
    3549     3010     2300     1842     2393     3206     3731     4665 
    6100     7283     8189     9038     9250     8477     7284     5958 
    4163     2189      961      544      342      353      679     1223 
    2350     4121     5711     6380     6135     5620     5120     4228 
    3426     3788     4799     5246     5090     4598     3732     2890 
    2529     2565     2488     1964     1543     2096     3574     5381 
    7195     8568     8914     8328     7349     6083     4662     3761 
    3595     3709     4021     4699     5464     5868     5913     5886 
    5709     5248     4824     4515     4016     3604     4014     5421 
    7317     9022     9775     8968     6893     4683     3190     2465 
    2296     2386     2454     2839     3886     5050     5706     5873 
    5671     4887     3437     1772      475     -112      457     2478 
    5252     7708     9439    10062     9194     7573     6150     4704 
    2936     1528     1210     1810     2932     4653     6879     8931 
   10242    10747    10401     8999     6947     5262     4255     3511 
    3111     3331     3762     3842     3697     3776     4194     4780 
    5262     5319     4954     4580     4541     4783     5131     5346 
    4839     3570     2717     3028     3917     4858     5904     6925 
    7771     8550     8839     7784     5493     2995     1070      193 
     657     2176     3875     5194     6404     7564     7956     7261 
    5962     4587     3581     3406     3963     4603     4997     5242 
    5344     5300     5035     4060     2458     1541     1941     2849 
    4028     5742     7361     8507     9467     9628     8177     5864 
    4105     3325     3268     3910     4908     5459     5537     5555 
    5232     4594     4482     5027     5336     4737     3345     1629 
     189     -438     -225      734     2463     4330     5451     5868 
    6193     6571     6833     6995     6928     6299     5368     4579 
    3553     2137     1399     2151     3735     5134     6207     7184 
    7761     7462     6569     5802     5198     4180     2799     1691 
     741     -561    -1695    -1763     -658     1250     3384     5113 
    6323     7209     7547     7011     5849     4450     2941     1582 
     762      592      706      457     -400    -1549    -2582    -3248 
   -3591    -3940    -4483    -5084    -5664    -6301    -6866    -7200 
   -7508    -7766    -7389    -6053    -4325    -3199    -3015    -3275 
   -3435    -2917    -1377      299     1109     1158      611     -369 
    -666      797     3780     7141     9884    11481    11699    10644 
    8883     7214     5975     4557     2454      298    -1026    -1653 
   -2319    -2937    -2485     -372     2837     5985     8326     9776 
   10161     9254     7553     5860     4086     1829     -189    -1154 
   -1495    -1273      429     3459     6448     8707    10746    13058 
   15179    16129    15429    13197     9802     6126     3388     1971 
    1325     1397     3122     6862    11325    15016    17595    19323 
   20097    19217    16190    11808     7560     4109     1343     -319 
     160     2829     6312     9136    10386     9837     8113     5776 
    2501    -2037    -7072   -11005   -12734   -12248    -9753    -5522 
    -499     4284     8517    12206    14881    15908    15572    14449 
   12027     7769     3041      -47    -1105     -804      905     4185 
    8328    12013    14255    15399    16020    15479    13552    11834 
   11663    12340    12383    11454    10314     9792    10296    11681 
   13333    14218    13379    11204     9003     7122     5150     3624 
    3819     5772     8060     9606     9913     8387     5143     1155 
   -2412    -4036    -2380     2688     9952    17512    24093    29470 
   33254    34400    32422    27720    20636    11503     1433    -7553 
  -13275   -14696   -12085    -6053     2393    11965    21447    28794 
   31531    28792    22083    14451     8118     2398    -4430   -11777 
  -17431   -19962   -18932   -14797    -8703    -1354     6567    13562 
   18322    20424    20185    17948    13459     7276     1424    -1742 
    -822     2853     6521     9252    11402    13197    14899    16187 
   15920    13301     8715     3561      -95     -630     1775     6228 
   11531    14611    13374    10329     8735     7809     4549    -1618 
   -7663   -10328    -8939    -4980     -870     1679     2450     1802 
     224    -1982    -5070    -9377   -14400   -18295   -18970   -14953 
   -5803     5965    15480    20121    20719    18377    13915     8800 
    3245    -3885   -11735   -17061   -17643   -13703    -6066     4148 
   14202    21061    24155    24867    23298    18752    12452     5748 
   -1560    -9239   -16123   -20989   -22577   -19542   -11568    -1290 
    7091    12150    15097    15851    13620    10088     7302     4810 
    1942     -193     -568      487     2821     6648    10554    12920 
   14119    14496    13651    11358     6971     1367    -1819    -1366 
    -603     -874     1151     7284    14970    20632    22372    21474 
   20568    19576    16676    11214     3904    -3601    -9246   -11249 
   -9331    -5123      232     6478    11511    12857    11807    10953 
   10030     8526     8428    11473    16038    18779    18092    14040 
    7951     3051     1328     1119      486     -980    -3665    -6646 
   -7381    -5034    -1383     2172     6405    11273    14496    15611 
   16722    18624    19997    19462    17324    15228    13637    11576 
    8999     6669     4378     1593    -1178    -3234    -5030    -7211 
   -8835    -8426    -6237    -3422     -136     3874     8376    12816 
   16565    18970    19650    19127    17258    12451     5771     1151 
    -549    -2062    -4391    -5335    -3317     -209     1391     2079 
    3507     4861     5605     7411    10741    14211    16803    17643 
   16448    14895    14909    16137    16587    15225    12503     9143 
    5343      581    -4962    -9767   -12023   -10195    -4689     1833 
    7015     9738    10828    13165    18010    23099    25429    23824 
   19086    12480     4807    -2446    -7469   -10876   -14231   -15558 
  -12191    -6392    -1826     1213     3495     5516     8568    13217 
   18252    21639    21915    19371    15140    10227     5805     2061 
   -2123    -6831   -10897   -13429   -13416   -10172    -4556     1933 
    7974    12518    14941    14733    12239     9035     5957     3083 
    1039     -386    -2147    -3477    -2609      386     3503     5143 
    5169     4279     3578     3788     5027     7487    10804    13709 
   15145    14932    13365    10500     6782     3310      699     -306 
     801     2165     1595       95      591     3877     7458     9512 
   11646    14698    15707    12684     8164     5336     3823     1740 
    -344    -1637    -3549    -5429    -4409     -949     2203     4176 
    5746     8144    11549    13752    13277    12033    11874    12074 
   11581    10557     9248     6903     3511     1086      735     1421 
    2305     3349     4417     5725     8760    14613    21200    24727 
   24007    21065    17525    12803     6647     1097    -1593    -1382 
     453     2951     5035     5188     3029      648      433     1929 
    3169     3686     4280     5476     7145     8673     8526     5601 
    1945      553     1551     3211     3916     3462     3253     3997 
    5831     8964    11732    12568    12791    13540    13425    11465 
    8787     6126     2546    -1869    -4537    -3639     -810     1421 
    2720     3618     3703     3358     4191     6492     8453     8220 
    6359     4603     2779      438    -1310    -2022    -2022     -498 
    2366     3600     1938      468     1123     1503     -236    -2540 
   -3804    -4063    -3180     -787     2737     6848    10966    14304 
   17004    19723    21999    22702    20815    15912     9304     3534 
     422      -68      803     2317     4803     8742    13416    16513 
   16738    15542    14153    11947     9248     7411     6455     5991 
    5648     4253     1942      662     1328     2960     4129     4278 
    3798     2880     1642     1148     2289     4748     7854    10795 
   12650    13532    14269    14982    15552    15894    15334    13190 
    9541     5705     3250     2481     3204     4899     6177     6407 
    6408     7076     8367     9321     9517     9977    10933    10936 
    9580     7857     5919     3366      656    -1117     -588     2609 
    5984     6775     5632     4737     4707     5116     5817     6396 
    6146     5323     4247     2173     -681    -2447    -2332    -1749 
   -1664    -1136      314     1734     2502     2859     3443     4996 
    7700    10249    10380     7854     4309      444    -3042    -5562 
   -8028   -10466   -11408    -9882    -5917     -453     5337    10214 
   12911    13581    13024    10766     6613     2209    -1177    -3963 
   -6058    -6507    -5267    -2604     1194     4746     7253     9490 
   11680    12872    11754     7565     1632    -3622    -7426   -10824 
  -13991   -14418   -10053    -2678     4538     9898    13205    15341 
   16586    15758    12653     9071     5957     2821      317     -294 
     866     2748     4215     4914     5354     5445     5058     5076 
    5505     5182     4302     4068     4155     3145     1155      151 
    1393     3666     4401     2714      835      954     2702     5080 
    7300     8469     8762     8874     8699     8006     6932     5535 
    3977     2425      529    -1281    -1426      155     2111     4185 
    6509     8818    11253    13356    13914    12933    11207     8662 
