Origin Time       2016/04/16 01:25:00
Lat.              32.753
Long.             130.762
Depth. (km)       12
Mag.              7.3
Station Code      YMG013
Station Lat.      34.0310
Station Long.     131.5348
Station Height(m) 3
Record Time       2016/04/16 01:25:32
Sampling Freq(Hz) 100Hz
Duration Time(s)  139
Dir.              N-S
Scale Factor      7845(gal)/8223790
Max. Acc. (gal)   85.735
Last Correction   2016/04/16 01:25:32
Memo.             
[...]
   -1910    -2970    -5031    -7160    -8742    -9799   -10584   -11458 
  -12617   -13684   -14071   -13393   -11622    -9355    -7523    -6561 
   -6146    -5606    -4531    -3083    -1584     -217      598      259 
   -1291    -3377    -5351    -7159    -8900   -10326   -10933   -10388 
   -9107    -8144    -8035    -8444    -9116   -10258   -11907   -13606 
  -14570   -13923   -11340    -7630    -4205    -2118    -1617    -1818 
   -1348      156     1896     2921     2857     1969      635     -990 
   -3063    -5795    -8910   -11858   -14473   -16497   -17270   -16636 
  -15024   -12692    -9868    -7056    -4716    -3267    -3057    -3546 
   -3555    -2967    -2455    -1900    -1088     -743    -1417    -2590 
   -3522    -4222    -5221    -6750    -8615   -10393   -11549   -11989 
  -12428   -13512   -14790   -15205   -14196   -12042    -9441    -6949 
   -4776    -2880    -1182      -68     -105    -1019    -1826    -1984 
   -1790    -1856    -2528    -3755    -5364    -7198    -9115   -10841 
  -11900   -12167   -12002   -11369    -9807    -7369    -4826    -2965 
   -1926    -1344    -1324    -2311    -3753    -4743    -5476    -6389 
   -7408    -8383    -9019    -9236    -9634   -10454   -11055   -11051 
  -10777   -10474    -9968    -9225    -8376    -7333    -6201    -5404 
   -4912    -4387    -3757    -2955    -2123    -1989    -2867    -4215 
   -5574    -6764    -7672    -8517    -9651   -10847   -11247   -10392 
   -8847    -7337    -6138    -5513    -5518    -5852    -6686    -8329 
   -9852    -9929    -8789    -7592    -6663    -5729    -4953    -4932 
   -5922    -7393    -8754    -9890   -10498   -10066    -8777    -7276 
   -5863    -4550    -3280    -2011    -1026     -820    -1512    -2728 
   -3929    -4648    -4718    -4359    -4035    -4093    -4433    -4785 
   -5186    -5957    -7387    -9466   -11832   -13900   -15256   -15924 
  -15989   -15346   -14328   -13826   -14065   -14035   -12811   -10490 
   -7546    -4240    -1063     1328     3053     4542     5356     5001 
    3942     2744     1676     1181     1296     1142       43    -1524 
   -2674    -3194    -3549    -4260    -5567    -7352    -9157   -10393 
  -10906   -11221   -11956   -13046   -13636   -12996   -11481    -9965 
   -8688    -7530    -6696    -6355    -6311    -6189    -5606    -4383 
   -2764    -1290     -298      506     1509     2471     2983     2976 
    2555     1858     1090      149    -1297    -3036    -4452    -5459 
   -6361    -7253    -7997    -8324    -8009    -7340    -7011    -7438 
   -8384    -8858    -8016    -6416    -5174    -4463    -3885    -3461 
   -3639    -4649    -6070    -7315    -8276    -8995    -9302    -9136 
   -8502    -7321    -5803    -4660    -4452    -4880    -5235    -5084 
   -4197    -2891    -1969    -1559    -1260    -1228    -1579    -1911 
   -2010    -2023    -2323    -3316    -4938    -6613    -7840    -8661 
   -9528   -10588   -11307   -11076   -10098    -9227    -8807    -8352 
   -7356    -5733    -3839    -2349    -1707    -1692    -1765    -1698 
   -1590    -1433    -1146    -1053    -1576    -2396    -2949    -3369 
   -4158    -5628    -7785   -10227   -12383   -13791   -14288   -14069 
  -13279   -11940   -10304    -8854    -7943    -7260    -6115    -4680 
   -3762    -3402    -3059    -2740    -2763    -3118    -3747    -4530 
   -5177    -5715    -6166    -6025    -4962    -3249    -1344      172 
     767      263    -1475    -4426    -7522    -9300    -9938   -10866 
  -12291   -13298   -13451   -12802   -11682   -10498    -9163    -7410 
   -5319    -3376    -2174    -1722    -1557    -1543    -1605    -1336 
    -602      287      982      969      -83    -1602    -2832    -3842 
   -4834    -5570    -6073    -6656    -7277    -7913    -8878   -10237 
  -11653   -12785   -13382   -13277   -12522   -11321    -9806    -8051 
   -6278    -4737    -3440    -2444    -2215    -3079    -4580    -6011 
   -7146    -8081    -8783    -9099    -9027    -8612    -7727    -6492 
   -5406    -4757    -4379    -4003    -3446    -2666    -1810    -1085 
    -800    -1177    -1772    -2106    -2542    -3357    -4079    -4429 
   -4671    -4915    -4918    -4822    -5273    -6397    -7676    -8860 
  -10057   -11043   -11263   -10687    -9927    -9286    -8642    -7974 
   -7125    -5769    -4125    -2947    -2706    -3111    -3622    -4101 
   -4831    -6110    -7824    -9364    -9998    -9358    -7905    -6706 
   -6389    -6628    -6781    -6664    -6516    -6637    -7061    -7342 
   -6936    -5724    -4152    -3200    -3562    -4854    -6193    -6925 
   -6804    -6216    -5755    -5381    -4739    -4153    -4278    -4954 
   -5583    -6108    -6513    -6434    -5972    -5597    -5300    -4878 
   -4509    -4349    -4360    -4734    -5787    -7364    -8698    -9140 
   -8965    -8849    -8910    -8927    -8731    -8129    -7299    -6883 
   -7138    -7562    -7645    -7398    -7055    -6912    -7330    -8020 
   -7947    -6743    -5231    -4396    -4476    -4908    -5111    -4974 
   -4463    -3712    -3292    -3411    -3680    -3765    -3543    -3138 
   -2830    -2743    -3082    -4143    -5649    -6902    -7573    -7903 
   -8384    -9269   -10247   -10805   -10782   -10420   -10216   -10517 
  -11003   -10936    -9877    -8198    -6828    -6084    -5502    -4868 
   -4209    -3327    -2239    -1340     -957    -1115    -1618    -2308 
   -3014    -3322    -3156    -3032    -3442    -4633    -6569    -8706 
  -10261   -10882   -10732   -10014    -8986    -8158    -7758    -7533 
   -7284    -7292    -8141    -9958   -12016   -13211   -12792   -11025 
   -9040    -7570    -6590    -5975    -5402    -4525    -3797    -3852 
   -4282    -4340    -4159    -4434    -5472    -6983    -8365    -9031 
   -8708    -7690    -6678    -6216    -6515    -7684    -9383   -10752 
  -11485   -11974   -12258   -11942   -10804    -8804    -6184    -3888 
   -2856    -2887    -3183    -3454    -3776    -4172    -4550    -4700 
   -4629    -4514    -4217    -3813    -3982    -4714    -5059    -4974 
   -5321    -5940    -6093    -6035    -6281    -6651    -6916    -7168 
   -7434    -7668    -8046    -8849   -10106   -11362   -11893   -11379 
  -10272    -9184    -8446    -8267    -8688    -9445   -10164   -10660 
  -10824   -10471    -9776    -9255    -8868    -8176    -7290    -6564 
   -6097    -6054    -6420    -6655    -6475    -6272    -6320    -6462 
   -6493    -6189    -5314    -4055    -3144    -3041    -3317    -3399 
   -3272    -3232    -3632    -4604    -5601    -5803    -5228    -4653 
   -4383    -4170    -4225    -4823    -5344    -5321    -5235    -5402 
   -5694    -6334    -7512    -8675    -9000    -8476    -7844    -7346 
   -6693    -6043    -5763    -5938    -6890    -8819   -10851   -11807 
  -11623   -10959   -10044    -8927    -8194    -8291    -8660    -8383 
   -7319    -6075    -5127    -4576    -4421    -4445    -4364    -4274 
   -4365    -4484    -4303    -3674    -2879    -2565    -2997    -3681 
   -4187    -4661    -5397    -6494    -7824    -8996    -9741   -10395 
  -11273   -12094   -12687   -13103   -12911   -11880   -10463    -8986 
   -7649    -6785    -6376    -6131    -5769    -5046    -4008    -2880 
   -1923    -1451    -1617    -2424    -3861    -5721    -7431    -8305 
   -8257    -7834    -7342    -6681    -5953    -5431    -5098    -4850 
   -4734    -4656    -4453    -4418    -5036    -6139    -7017    -7323 
   -7153    -6608    -6064    -6186    -7020    -7680    -7312    -6038 
   -4712    -4088    -4449    -5459    -6354    -6585    -6016    -4978 
   -4248    -4176    -4301    -4195    -3898    -3666    -3740    -3950 
   -3940    -3905    -4197    -4691    -5193    -5737    -6440    -7366 
   -8385    -9270    -9953   -10543   -11041   -11188   -10708    -9424 
   -7366    -5221    -3975    -3790    -4028    -4289    -4756    -5738 
   -7236    -8928   -10517   -11827   -12739   -13073   -12511   -10891 
   -8549    -6058    -3880    -2355    -1590    -1444    -1912    -2956 
   -4187    -5186    -5593    -5316    -4830    -4541    -4498    -4700 
   -4780    -4205    -3258    -2781    -3223    -4603    -6711    -9097 
  -11379   -13347   -14650   -15036   -14586   -13378   -11626    -9856 
   -8368    -6941    -5227    -3291    -1632     -565      -63      -44 
    -363     -912    -1699    -2716    -4021    -5521    -6741    -7418 
   -7871    -8394    -8907    -9394    -9994   -10620   -10984   -10874 
  -10247    -9285    -8202    -7044    -5927    -5251    -5155    -4861 
   -3406    -1059     1090     2485     2976     2411      774    -1826 
   -4978    -7601    -8603    -8124    -7365    -7164    -7466    -7931 
   -8324    -8540    -8648    -8600    -8020    -6794    -5548    -4973 
   -5030    -5259    -5462    -5653    -5665    -5186    -4306    -3719 
   -3987    -4904    -5780    -6154    -6257    -6451    -6241    -4741 
   -2107      579     2597     3883     4712     5545     6455     6949 
    6798     6374     5849     4626     2163    -1205    -4968    -9093 
  -13263   -16405   -17684   -17366   -16205   -14559   -12505   -10342 
   -8532    -7253    -6339    -5597    -4874    -4023    -3051    -2025 
    -824      498     1674     2837     4348     6143     7738     8571 
    8503     7964     7296     6355     4989     3365     1618     -270 
   -2142    -3568    -4214    -4205    -3964    -3708    -3383    -3273 
   -4163    -6536   -10142   -14380   -18542   -22095   -25024   -27282 
  -28335   -27626   -25081   -21300   -17334   -14041   -11537    -9408 
   -7434    -5715    -4102    -2084      670     3828     6750     9182 
   10863    11080     9580     7065     4297     1594     -712    -2269 
   -3289    -4434    -6018    -7850    -9799   -11909   -14027   -15894 
  -17583   -19475   -21628   -23724   -25740   -27830   -29524   -29943 
  -28663   -25802   -21655   -16680   -11497    -6564    -1930     2551 
    6975    11487    15939    19579    21721    22200    21281    19561 
   17367    14531    11194     8089     5863     4575     3831     3222 
    2335      352    -3568    -9479   -16483   -23026   -27943   -31603 
  -35074   -38483   -41119   -42246   -41396   -38699   -34889   -30488 
  -25203   -18843   -12333    -6837    -2458     1334     4746     7796 
   10426    12436    14014    15546    16969    17734    17054    14521 
   10859     7703     5933     4355      760    -6092   -15500   -24976 
  -32238   -37185   -40619   -42537   -43056   -42688   -41281   -38578 
  -35264   -32413   -30438   -29126   -28123   -26715   -24283   -21101 
  -17562   -13680    -9714    -5935    -2386      579     2974     6035 
   10480    15021    18265    20102    20834    20980    21359    22196 
   22813    21890    17832    10444     1270    -8272   -16958   -23418 
  -27286   -29008   -28813   -26712   -23161   -19229   -15708   -12646 
  -10153    -8961    -9734   -11913   -13880   -14901   -15465   -15447 
  -14646   -13853   -12937   -10700    -7152    -3252      243     2338 
    2000    -1201    -6968   -13713   -19187   -21992   -21250   -15619 
   -4581     9391    22341    32251    39079    42411    41786    39086 
   36618    33854    29355    23029    15471     7107    -2211   -12928 
  -24798   -36644   -47067   -54634   -58341   -58572   -56536   -52869 
  -47101   -38844   -29602   -21201   -13134    -4079     5979    16552 
   26832    34839    38412    37528    33870    28220    22380    19974 
   20371    19377    16235    12345     7321      797    -5792   -10929 
  -14577   -17332   -19566   -21829   -24399   -27067   -30191   -34137 
  -37685   -38751   -35896   -28756   -19635   -13292   -12299   -14960 
  -18072   -19526   -18909   -16977   -14142    -9903    -4814     -271 
    3770     7410     9717     9983     7901     4330     1374      193 
     603     2646     5962     8490     8046     4556      648     -712 
     502     3156     6686     8989     7712     3149    -2677    -7950 
  -11107   -10821    -8078    -5856    -5112    -5352    -7165    -9594 
  -10370    -9171    -6199    -1769     2801     6173     6878     4140 
   -1084    -7215   -13409   -19080   -22411   -22576   -21660   -20902 
  -19808   -18843   -18450   -18512   -19332   -20240   -19215   -15142 
   -8772    -1336     5678     9602     8540     3894    -1074    -3912 
   -4205    -3230    -1576      903     2995     3748     3901     3870 
    3276     1829    -1100    -5995   -11805   -17058   -21797   -26767 
  -31912   -36490   -39611   -40612   -39668   -37442   -34219   -30261 
  -26249   -22887   -20646   -19286   -17690   -14845   -10230    -3861 
    3273     9769    14407    16488    16892    17003    16595    15588 
   15376    16407    17780    19282    21544    24628    27529    29097 
   28838    26854    23700    19870    14435     5684    -6290   -19580 
  -32763   -45732   -58236   -68652   -75689   -79695   -80898   -78675 
  -72449   -61789   -47255   -31309   -16852    -5238     3712    10237 
   13932    15136    15546    15850    15460    15651    17968    20336 
   20474    18361    12353     2200    -6579    -9562    -7927    -4382 
    -525     3240     7196    11911    17668    23286    26495    24902 
   17660     7091    -4067   -15581   -27513   -38211   -46538   -53176 
  -58031   -60173   -60853   -62002   -62559   -59818   -53258   -44356 
  -33446   -20642    -8035     3462    15276    27371    37508    43981 
   47264    48813    49191    48153    45743    42390    38232    33669 
   29745    26442    22373    16822     9760      989    -9124   -20128 
  -32575   -47005   -62316   -76173   -86822   -93592   -96219   -94536 
  -88500   -78622   -65345   -48122   -28517   -10897     3883    17895 
   30284    39870    46847    49901    48968    47223    47007    47822 
   48054    47182    45634    43073    38851    33072    26272    18960 
   11564     4247    -2782    -8459   -12332   -15506   -18805   -22356 
  -26009   -29365   -32521   -36115   -40926   -47086   -52964   -56227 
  -55545   -50542   -41844   -30890   -18943    -7485     1490     7045 
   10289    13149    16246    18520    19079    18779    19438    21807 
   25126    27819    28177    25346    19520    11564     3284    -3385 
   -8239   -12237   -15743   -19979   -26875   -35343   -42890   -49052 
  -53666   -56089   -56586   -55611   -52637   -46645   -37521   -27028 
  -17313    -8205     1850    12499    21628    27940    31302    32120 
   31889    31149    27276    19294    11105     5755     2619      700 
      54      681     1390      800    -1165    -4164    -8307   -13293 
  -17936   -21631   -25091   -28499   -30929   -32131   -32583   -31934 
  -29612   -26362   -22924   -18461   -12375    -6042    -1414      770 
    1009     -148    -2920    -7138   -11090   -13129   -13516   -13336 
  -12892   -11874    -9528    -4945      558     3987     5127     5953 
    7009     8588    11379    14535    16854    17450    14632     7742 
   -1810   -11884   -20339   -26349   -30925   -34352   -35891   -36112 
  -35388   -32578   -27105   -19764   -12224    -6106    -1919      438 
     750     -804    -2281    -1375     1520     4315     6083     6974 
    8052    10504    13653    15535    14397     9864     3709    -1706 
   -5026    -6361    -7553   -10110   -13613   -17119   -18697   -16800 
  -13595   -11181    -8854    -6575    -4866    -3272    -1590     -332 
    -398    -2482    -6022    -9514   -12091   -13879   -14673   -13412 
  -10015    -6535    -4352    -2187      156      603     -479    -1417 
   -3156    -6184    -8646    -8760    -6154    -2234     1360     4220 
    6301     7378     6872     4390      737    -2775    -5570    -8228 
  -11346   -14370   -16860   -18920   -20089   -20177   -19757   -18638 
  -16136   -12505    -8324    -3817      421     3538     5363     6408 
    7075     7187     6515     5355     3882     1721    -1194    -4101 
   -6219    -7608    -8725    -9764   -10832   -11992   -13255   -14917 
  -17277   -20266   -23294   -25281   -25826   -25602   -24849   -22943 
  -19608   -15097    -9732    -4359      234     4550     9223    13668 
   17021    18630    18104    15867    12559     9008     6268     3921 
     477    -4388    -9849   -14762   -18067   -19604   -20464   -22064 
  -24483   -26193   -25880   -23704   -20614   -17050   -12943    -9009 
   -6304    -4471    -2844    -1769    -1012      518     3037     5961 
    9040    12117    14485    15385    14836    13366    11342     9109 
    7183     5512     2913    -1545    -7044   -12185   -16649   -20745 
  -24559   -27947   -30200   -30091   -27448   -23703   -20059   -16510 
  -12814    -9065    -5323    -1750      999     2706     3954     4818 
    4878     4014     2277      -16    -2290    -3817    -4027    -3535 
   -3541    -3969    -3800    -2659     -880     1151     2874     3438 
    2569     1067     -197    -1003    -1339    -1692    -2789    -4309 
   -5634    -6886    -8052    -9089   -10590   -12699   -14627   -16035 
  -17173   -17932   -18522   -19739   -21431   -22522   -22516   -21523 
  -19704   -17454   -15282   -13093   -10372    -7457    -5154    -3582 
   -2610    -1964    -1131     -197      283      218     -129     -552 
    -702     -356       79       39     -707    -2286    -4140    -5024 
   -4880    -4835    -5421    -6478    -7588    -8299    -8658    -8703 
   -8201    -7500    -7327    -7750    -8311    -8457    -7688    -6293 
   -5428    -5651    -6239    -6547    -6893    -7641    -8824   -10341 
  -11762   -12613   -12513   -11362    -9783    -8543    -7804    -7526 
   -7709    -7747    -6878    -5196    -2986     -425     1575     2208 
    1969     1540      480    -1632    -3982    -5610    -6366    -6648 
   -7163    -8274    -9742   -11245   -12133   -11530    -9761    -8087 
   -7045    -6627    -6681    -6763    -6685    -6593    -6543    -6396 
   -5902    -4928    -3636    -2223     -695      961     2683     4442 
    6044     6948     6732     5366     3083      311    -2555    -5150 
   -7071    -8360    -9379   -10179   -10431    -9859    -8630    -7280 
   -6243    -5791    -6097    -6813    -7507    -8726   -10722   -12390 
  -13329   -14106   -14509   -14466   -14407   -13973   -12779   -11171 
   -9217    -6673    -3993    -2196    -1726    -2400    -4311    -7055 
   -9170    -9865    -9553    -8523    -6700    -4097    -1032     1551 
    2581     1946      368    -1593    -3789    -6030    -8194   -10486 
  -12683   -14064   -14661   -15191   -15946   -16653   -16809   -15828 
  -13657   -11416   -10417   -10361    -9863    -8714    -7896    -7746 
   -7740    -7267    -5714    -3149    -1009     -707    -1779    -2810 
   -3491    -4159    -4938    -6293    -8301    -9913   -10426   -10130 
   -9440    -8799    -8824    -9749   -11026   -11878   -12079   -11832 
  -11375   -10953   -10659   -10274    -9394    -7974    -6380    -4637 
   -2617     -797      164      306      303      652     1097     1125 
     807      588      460      135     -228     -319     -228     -178 
    -353     -929    -1859    -2890    -3998    -5359    -6975    -8460 
   -9094    -8484    -7119    -5894    -5429    -5748    -6164    -6021 
   -5433    -4930    -4901    -5537    -6982    -8977   -10670   -11796 
  -12749   -13215   -12730   -11458    -9443    -6644    -3534     -668 
    1755     3597     4691     5027     4679     3924     3061     1873 
     -94    -3021    -6292    -8922   -10755   -11927   -12266   -12112 
