Origin Time       2016/04/16 01:25:00
Lat.              32.753
Long.             130.762
Depth. (km)       12
Mag.              7.3
Station Code      YMN005
Station Lat.      35.6548
Station Long.     138.5677
Station Height(m) 263
Record Time       2016/04/16 01:29:09
Sampling Freq(Hz) 100Hz
Duration Time(s)  60
Dir.              E-W
Scale Factor      7845(gal)/8223790
Max. Acc. (gal)   2.199
Last Correction   2016/04/16 01:29:10
Memo.             
[...]
  -12414   -12398   -12383   -12361   -12339   -12321   -12306   -12291 
  -12274   -12256   -12240   -12220   -12205   -12194   -12181   -12171 
  -12166   -12152   -12136   -12125   -12117   -12108   -12098   -12089 
  -12083   -12081   -12075   -12069   -12066   -12067   -12062   -12055 
  -12059   -12064   -12064   -12069   -12077   -12073   -12071   -12086 
  -12097   -12102   -12116   -12128   -12133   -12143   -12155   -12168 
  -12185   -12197   -12205   -12221   -12239   -12252   -12264   -12282 
  -12299   -12322   -12339   -12345   -12361   -12384   -12402   -12418 
  -12434   -12449   -12475   -12498   -12513   -12533   -12559   -12580 
  -12600   -12621   -12650   -12680   -12698   -12721   -12748   -12771 
  -12799   -12827   -12852   -12876   -12903   -12928   -12957   -12982 
  -13008   -13035   -13063   -13092   -13116   -13143   -13169   -13192 
  -13217   -13238   -13255   -13281   -13304   -13327   -13351   -13373 
  -13393   -13413   -13428   -13444   -13460   -13475   -13494   -13512 
  -13525   -13535   -13540   -13552   -13564   -13567   -13572   -13587 
  -13598   -13603   -13608   -13608   -13608   -13617   -13618   -13610 
  -13625   -13633   -13606   -13605   -13629   -13614   -13597   -13616 
  -13609   -13587   -13598   -13601   -13576   -13567   -13574   -13572 
  -13562   -13549   -13543   -13532   -13521   -13531   -13525   -13493 
  -13489   -13500   -13474   -13456   -13464   -13451   -13432   -13440 
  -13436   -13412   -13401   -13401   -13390   -13373   -13363   -13360 
  -13347   -13328   -13328   -13329   -13306   -13290   -13290   -13274 
  -13263   -13270   -13259   -13235   -13224   -13224   -13217   -13201 
  -13193   -13185   -13163   -13151   -13149   -13135   -13124   -13124 
  -13112   -13089   -13077   -13076   -13057   -13035   -13035   -13026 
  -13001   -12985   -12980   -12970   -12960   -12947   -12934   -12915 
  -12903   -12903   -12895   -12879   -12868   -12858   -12847   -12842 
  -12839   -12835   -12826   -12814   -12806   -12795   -12791   -12798 
  -12789   -12776   -12773   -12777   -12776   -12764   -12758   -12760 
  -12756   -12750   -12748   -12739   -12734   -12738   -12734   -12726 
  -12726   -12722   -12708   -12700   -12706   -12706   -12694   -12685 
  -12688   -12687   -12680   -12671   -12664   -12660   -12656   -12652 
  -12645   -12637   -12637   -12641   -12636   -12627   -12626   -12621 
  -12614   -12617   -12614   -12602   -12595   -12599   -12594   -12591 
  -12600   -12599   -12588   -12588   -12596   -12595   -12583   -12579 
  -12581   -12581   -12583   -12584   -12580   -12579   -12579   -12579 
  -12575   -12573   -12581   -12584   -12579   -12579   -12583   -12584 
  -12586   -12592   -12594   -12594   -12595   -12599   -12598   -12599 
  -12609   -12617   -12622   -12626   -12634   -12649   -12654   -12657 
  -12667   -12673   -12683   -12700   -12710   -12718   -12737   -12750 
  -12760   -12776   -12795   -12810   -12819   -12834   -12853   -12874 
  -12896   -12916   -12935   -12953   -12972   -12991   -13012   -13034 
  -13054   -13073   -13099   -13113   -13128   -13153   -13172   -13194 
  -13216   -13231   -13251   -13273   -13286   -13304   -13328   -13340 
  -13354   -13371   -13385   -13397   -13410   -13425   -13441   -13446 
  -13450   -13463   -13471   -13475   -13478   -13482   -13489   -13500 
  -13504   -13502   -13504   -13506   -13508   -13508   -13512   -13512 
  -13505   -13500   -13500   -13501   -13501   -13493   -13485   -13483 
  -13481   -13477   -13473   -13470   -13468   -13462   -13451   -13444 
  -13433   -13416   -13412   -13413   -13409   -13398   -13390   -13378 
  -13362   -13344   -13331   -13320   -13306   -13292   -13281   -13267 
  -13250   -13230   -13212   -13197   -13176   -13144   -13116   -13093 
  -13070   -13050   -13032   -13011   -12982   -12954   -12930   -12903 
  -12877   -12855   -12827   -12796   -12771   -12749   -12723   -12696 
  -12669   -12644   -12619   -12595   -12569   -12545   -12522   -12502 
  -12471   -12442   -12422   -12403   -12384   -12368   -12352   -12333 
  -12313   -12289   -12266   -12251   -12240   -12226   -12210   -12197 
  -12190   -12175   -12160   -12148   -12132   -12125   -12122   -12112 
  -12106   -12105   -12100   -12100   -12101   -12096   -12089   -12082 
  -12081   -12082   -12085   -12100   -12110   -12110   -12116   -12120 
  -12120   -12125   -12132   -12145   -12163   -12177   -12188   -12201 
  -12212   -12224   -12237   -12259   -12282   -12301   -12320   -12337 
  -12351   -12372   -12396   -12417   -12438   -12460   -12480   -12505 
  -12532   -12557   -12581   -12606   -12629   -12650   -12671   -12695 
  -12721   -12750   -12779   -12806   -12827   -12853   -12879   -12903 
  -12928   -12954   -12981   -13008   -13030   -13053   -13078   -13106 
  -13139   -13171   -13188   -13204   -13231   -13259   -13286   -13312 
  -13336   -13360   -13385   -13412   -13440   -13466   -13489   -13505 
  -13527   -13560   -13590   -13613   -13640   -13663   -13680   -13701 
  -13728   -13756   -13779   -13798   -13825   -13848   -13868   -13887 
  -13905   -13925   -13948   -13968   -13988   -14006   -14021   -14037 
  -14052   -14068   -14085   -14099   -14110   -14122   -14134   -14143 
  -14156   -14168   -14172   -14176   -14185   -14189   -14191   -14192 
  -14191   -14189   -14192   -14191   -14191   -14187   -14179   -14175 
  -14169   -14160   -14153   -14139   -14127   -14121   -14110   -14098 
  -14084   -14065   -14047   -14035   -14021   -14004   -13987   -13968 
  -13944   -13921   -13905   -13888   -13867   -13845   -13826   -13803 
  -13773   -13747   -13729   -13707   -13682   -13657   -13630   -13603 
  -13576   -13544   -13513   -13487   -13458   -13432   -13409   -13377 
  -13344   -13314   -13285   -13257   -13224   -13192   -13163   -13131 
  -13099   -13070   -13039   -13012   -12980   -12943   -12919   -12893 
  -12853   -12818   -12791   -12758   -12729   -12706   -12679   -12646 
  -12614   -12587   -12556   -12522   -12491   -12467   -12442   -12415 
  -12393   -12368   -12334   -12305   -12279   -12249   -12221   -12198 
  -12177   -12151   -12127   -12105   -12081   -12055   -12031   -12006 
  -11982   -11962   -11942   -11913   -11886   -11863   -11838   -11821 
  -11800   -11774   -11759   -11739   -11705   -11685   -11674   -11653 
  -11624   -11601   -11583   -11569   -11556   -11538   -11518   -11500 
  -11487   -11476   -11461   -11443   -11431   -11419   -11402   -11395 
  -11395   -11394   -11391   -11383   -11371   -11365   -11358   -11356 
  -11368   -11375   -11373   -11375   -11377   -11377   -11377   -11384 
  -11399   -11411   -11414   -11422   -11441   -11452   -11457   -11468 
  -11477   -11483   -11497   -11510   -11520   -11537   -11551   -11568 
  -11585   -11599   -11612   -11634   -11653   -11659   -11668   -11689 
  -11718   -11739   -11758   -11772   -11790   -11819   -11838   -11854 
  -11888   -11916   -11931   -11959   -11986   -12009   -12042   -12074 
  -12100   -12129   -12159   -12190   -12221   -12253   -12287   -12321 
  -12355   -12391   -12424   -12451   -12487   -12525   -12557   -12592 
  -12630   -12668   -12702   -12733   -12766   -12803   -12839   -12870 
  -12900   -12935   -12976   -13007   -13030   -13058   -13092   -13127 
  -13157   -13188   -13221   -13244   -13269   -13302   -13333   -13356 
  -13380   -13409   -13437   -13460   -13487   -13518   -13540   -13562 
  -13590   -13613   -13631   -13659   -13689   -13718   -13740   -13763 
  -13790   -13815   -13834   -13857   -13884   -13911   -13937   -13957 
  -13973   -13998   -14023   -14042   -14061   -14079   -14095   -14110 
  -14129   -14149   -14162   -14172   -14183   -14191   -14199   -14214 
  -14227   -14234   -14233   -14227   -14226   -14233   -14238   -14231 
  -14224   -14224   -14216   -14202   -14193   -14185   -14169   -14156 
  -14145   -14131   -14116   -14098   -14075   -14057   -14042   -14026 
  -14006   -13980   -13954   -13932   -13909   -13884   -13860   -13832 
  -13809   -13790   -13763   -13728   -13694   -13662   -13633   -13608 
  -13581   -13554   -13527   -13486   -13446   -13413   -13387   -13359 
  -13324   -13289   -13257   -13225   -13190   -13150   -13115   -13081 
  -13046   -13009   -12972   -12933   -12896   -12861   -12829   -12793 
  -12753   -12711   -12676   -12641   -12607   -12580   -12542   -12499 
  -12463   -12429   -12396   -12361   -12324   -12287   -12249   -12216 
  -12186   -12154   -12117   -12082   -12052   -12025   -11990   -11952 
  -11925   -11896   -11857   -11827   -11807   -11780   -11747   -11724 
  -11706   -11672   -11637   -11622   -11607   -11581   -11561   -11551 
  -11538   -11515   -11495   -11483   -11473   -11460   -11446   -11435 
  -11431   -11426   -11418   -11407   -11396   -11389   -11395   -11400 
  -11400   -11396   -11395   -11400   -11404   -11398   -11399   -11419 
  -11437   -11448   -11460   -11465   -11468   -11480   -11493   -11504 
  -11516   -11526   -11542   -11564   -11581   -11595   -11607   -11615 
  -11630   -11654   -11676   -11696   -11719   -11734   -11749   -11769 
  -11790   -11801   -11816   -11848   -11874   -11890   -11916   -11935 
  -11946   -11967   -11992   -12013   -12037   -12059   -12078   -12101 
  -12127   -12150   -12170   -12197   -12217   -12231   -12258   -12287 
  -12314   -12343   -12361   -12383   -12413   -12436   -12453   -12479 
  -12509   -12534   -12556   -12579   -12604   -12631   -12656   -12679 
  -12707   -12735   -12758   -12783   -12802   -12822   -12847   -12872 
  -12898   -12924   -12938   -12958   -12984   -13003   -13020   -13036 
  -13059   -13088   -13105   -13120   -13142   -13163   -13181   -13194 
  -13212   -13232   -13246   -13259   -13273   -13288   -13309   -13325 
  -13342   -13360   -13375   -13387   -13401   -13419   -13441   -13459 
  -13468   -13486   -13500   -13506   -13527   -13549   -13567   -13586 
  -13605   -13628   -13644   -13656   -13678   -13699   -13718   -13737 
  -13752   -13771   -13794   -13814   -13836   -13855   -13872   -13894 
  -13911   -13932   -13948   -13960   -13977   -13991   -14000   -14018 
  -14029   -14037   -14046   -14056   -14064   -14076   -14080   -14080 
  -14083   -14080   -14080   -14077   -14075   -14075   -14068   -14056 
  -14047   -14037   -14026   -14014   -13999   -13984   -13969   -13948 
  -13927   -13909   -13894   -13876   -13855   -13829   -13806   -13788 
  -13767   -13740   -13716   -13690   -13664   -13643   -13618   -13588 
  -13562   -13537   -13513   -13481   -13448   -13425   -13401   -13369 
  -13335   -13304   -13278   -13250   -13213   -13182   -13157   -13124 
  -13081   -13042   -13009   -12976   -12937   -12895   -12858   -12826 
  -12785   -12742   -12699   -12653   -12611   -12575   -12530   -12480 
  -12436   -12394   -12352   -12306   -12256   -12208   -12162   -12117 
  -12067   -12017   -11977   -11934   -11890   -11847   -11801   -11759 
  -11716   -11662   -11622   -11596   -11554   -11512   -11480   -11443 
  -11406   -11373   -11340   -11311   -11287   -11265   -11237   -11202 
  -11181   -11168   -11148   -11133   -11122   -11105   -11087   -11078 
  -11072   -11062   -11055   -11053   -11053   -11049   -11048   -11056 
  -11070   -11075   -11078   -11092   -11105   -11113   -11129   -11153 
  -11173   -11199   -11223   -11244   -11279   -11313   -11337   -11373 
  -11412   -11449   -11492   -11529   -11566   -11612   -11654   -11699 
  -11753   -11801   -11847   -11897   -11951   -12001   -12048   -12102 
  -12151   -12194   -12247   -12307   -12363   -12417   -12465   -12514 
  -12565   -12617   -12665   -12715   -12766   -12811   -12852   -12897 
  -12947   -12993   -13036   -13082   -13126   -13157   -13189   -13225 
  -13266   -13311   -13347   -13378   -13416   -13444   -13467   -13502 
  -13536   -13559   -13583   -13610   -13635   -13659   -13679   -13705 
  -13728   -13744   -13763   -13779   -13791   -13815   -13837   -13853 
  -13865   -13869   -13878   -13892   -13903   -13917   -13929   -13934 
  -13941   -13944   -13944   -13948   -13960   -13971   -13971   -13969 
  -13975   -13983   -13990   -13992   -13992   -13992   -13992   -13998 
  -14006   -14018   -14029   -14029   -14026   -14029   -14037   -14045 
  -14054   -14069   -14083   -14085   -14083   -14085   -14098   -14123 
  -14146   -14156   -14158   -14162   -14173   -14191   -14207   -14222 
  -14234   -14243   -14251   -14258   -14265   -14277   -14293   -14311 
  -14320   -14321   -14323   -14321   -14321   -14326   -14341   -14358 
  -14364   -14354   -14342   -14334   -14335   -14343   -14343   -14337 
  -14328   -14318   -14307   -14304   -14303   -14288   -14274   -14261 
  -14253   -14247   -14238   -14231   -14226   -14211   -14191   -14172 
  -14158   -14152   -14143   -14133   -14122   -14103   -14085   -14077 
  -14067   -14049   -14029   -14011   -13995   -13977   -13964   -13952 
  -13926   -13892   -13860   -13829   -13809   -13790   -13763   -13734 
  -13695   -13654   -13618   -13581   -13544   -13512   -13470   -13423 
  -13377   -13325   -13273   -13220   -13165   -13117   -13068   -13000 
  -12937   -12888   -12837   -12777   -12712   -12642   -12581   -12530 
  -12469   -12402   -12332   -12264   -12204   -12148   -12093   -12035 
  -11970   -11900   -11834   -11777   -11726   -11670   -11618   -11564 
  -11497   -11435   -11387   -11337   -11288   -11247   -11210   -11167 
  -11124   -11088   -11047   -10995   -10952   -10913   -10875   -10844 
  -10820   -10797   -10771   -10741   -10714   -10689   -10669   -10646 
  -10623   -10604   -10594   -10585   -10569   -10555   -10547   -10539 
  -10539   -10547   -10547   -10552   -10554   -10544   -10547   -10558 
  -10567   -10579   -10592   -10609   -10640   -10671   -10696   -10714 
  -10729   -10754   -10787   -10820   -10851   -10881   -10921   -10975 
  -11022   -11064   -11105   -11140   -11176   -11219   -11265   -11317 
  -11375   -11431   -11473   -11515   -11572   -11626   -11672   -11722 
  -11778   -11838   -11881   -11925   -11983   -12040   -12089   -12145 
  -12197   -12247   -12299   -12347   -12398   -12448   -12496   -12548 
  -12596   -12644   -12696   -12745   -12796   -12853   -12903   -12951 
  -12993   -13030   -13073   -13123   -13176   -13230   -13278   -13329 
  -13371   -13406   -13450   -13493   -13540   -13590   -13631   -13675 
  -13720   -13753   -13794   -13839   -13882   -13925   -13968   -14004 
  -14035   -14065   -14099   -14138   -14173   -14207   -14242   -14274 
  -14304   -14331   -14362   -14389   -14413   -14436   -14451   -14470 
  -14500   -14524   -14543   -14555   -14572   -14598   -14611   -14619 
  -14631   -14635   -14642   -14650   -14651   -14656   -14663   -14663 
  -14665   -14669   -14666   -14656   -14642   -14631   -14628   -14625 
  -14615   -14598   -14585   -14565   -14543   -14531   -14515   -14492 
  -14466   -14438   -14411   -14385   -14364   -14345   -14319   -14288 
  -14257   -14220   -14184   -14153   -14123   -14092   -14062   -14027 
  -13992   -13961   -13927   -13887   -13851   -13819   -13790   -13756 
  -13714   -13674   -13640   -13606   -13576   -13555   -13529   -13489 
  -13451   -13412   -13382   -13356   -13331   -13308   -13285   -13258 
  -13228   -13200   -13176   -13154   -13132   -13112   -13095   -13076 
  -13051   -13028   -13007   -12985   -12969   -12954   -12931   -12903 
  -12884   -12868   -12847   -12831   -12818   -12803   -12779   -12745 
  -12712   -12683   -12661   -12652   -12633   -12604   -12577   -12545 
  -12510   -12479   -12459   -12441   -12411   -12373   -12336   -12303 
  -12283   -12262   -12229   -12198   -12172   -12148   -12121   -12089 
  -12059   -12037   -12017   -11996   -11970   -11947   -11927   -11900 
  -11873   -11862   -11859   -11851   -11830   -11800   -11784   -11774 
  -11767   -11766   -11754   -11738   -11734   -11722   -11703   -11696 
  -11696   -11689   -11682   -11677   -11674   -11678   -11681   -11681 
  -11680   -11669   -11663   -11673   -11672   -11663   -11659   -11659 
  -11677   -11704   -11718   -11716   -11706   -11704   -11724   -11746 
  -11749   -11753   -11777   -11799   -11813   -11836   -11865   -11884 
  -11900   -11914   -11928   -11952   -11978   -11996   -12016   -12050 
  -12086   -12120   -12154   -12185   -12202   -12217   -12237   -12259 
  -12289   -12326   -12356   -12383   -12413   -12442   -12475   -12499 
  -12518   -12537   -12555   -12583   -12619   -12644   -12657   -12671 
  -12692   -12721   -12750   -12775   -12787   -12788   -12798   -12815 
  -12837   -12860   -12872   -12884   -12906   -12920   -12927   -12934 
  -12942   -12958   -12973   -12982   -12996   -12989   -12978   -12997 
  -13028   -13049   -13058   -13055   -13054   -13059   -13072   -13088 
  -13095   -13099   -13115   -13135   -13149   -13143   -13129   -13131 
  -13146   -13167   -13192   -13200   -13198   -13204   -13216   -13231 
  -13238   -13240   -13248   -13257   -13269   -13286   -13298   -13302 
  -13302   -13304   -13314   -13325   -13339   -13347   -13350   -13347 
  -13342   -13354   -13373   -13375   -13369   -13356   -13354   -13365 
  -13371   -13367   -13358   -13350   -13351   -13351   -13343   -13332 
  -13324   -13320   -13320   -13312   -13293   -13270   -13255   -13247 
  -13242   -13238   -13232   -13209   -13186   -13167   -13154   -13139 
  -13117   -13101   -13086   -13068   -13055   -13032   -13000   -12981 
  -12964   -12947   -12930   -12901   -12872   -12845   -12826   -12806 
  -12779   -12771   -12760   -12734   -12706   -12673   -12644   -12629 
  -12614   -12607   -12595   -12569   -12545   -12529   -12515   -12498 
  -12480   -12469   -12461   -12449   -12444   -12442   -12437   -12428 
  -12425   -12436   -12445   -12439   -12437   -12441   -12442   -12447 
  -12452   -12464   -12488   -12505   -12518   -12533   -12537   -12548 
  -12567   -12586   -12614   -12638   -12650   -12671   -12687   -12704 
  -12722   -12735   -12758   -12787   -12806   -12819   -12834   -12845 
  -12857   -12876   -12897   -12918   -12930   -12935   -12942   -12954 
  -12970   -12984   -12995   -13000   -12995   -12991   -12996   -13000 
  -13012   -13019   -13018   -13018   -13014   -13004   -12997   -12995 
  -12997   -12997   -12991   -12984   -12974   -12964   -12958   -12953 
  -12943   -12934   -12923   -12911   -12900   -12893   -12887   -12868 
  -12850   -12838   -12826   -12812   -12795   -12776   -12756   -12739 
  -12726   -12713   -12699   -12676   -12645   -12614   -12600   -12587 
  -12567   -12546   -12521   -12495   -12474   -12452   -12424   -12396 
  -12376   -12359   -12336   -12312   -12285   -12258   -12239   -12221 
  -12204   -12185   -12163   -12141   -12121   -12102   -12089   -12081 
  -12066   -12054   -12046   -12037   -12031   -12031   -12028   -12020 
  -12019   -12023   -12025   -12035   -12043   -12044   -12043   -12050 
  -12062   -12082   -12104   -12112   -12120   -12132   -12143   -12162 
  -12179   -12195   -12221   -12243   -12254   -12270   -12283   -12301 
  -12320   -12340   -12367   -12386   -12399   -12415   -12425   -12444 
  -12468   -12478   -12494   -12514   -12530   -12553   -12571   -12584 
  -12607   -12626   -12644   -12665   -12687   -12708   -12722   -12739 
  -12769   -12793   -12819   -12846   -12868   -12893   -12910   -12930 
  -12968   -12997   -13026   -13059   -13080   -13099   -13119   -13143 
  -13178   -13209   -13240   -13273   -13294   -13320   -13347   -13363 
