Origin Time       2016/04/16 01:25:00
Lat.              32.753
Long.             130.762
Depth. (km)       12
Mag.              7.3
Station Code      YMN009
Station Lat.      35.4965
Station Long.     138.4627
Station Height(m) 233
Record Time       2016/04/16 01:29:02
Sampling Freq(Hz) 100Hz
Duration Time(s)  60
Dir.              N-S
Scale Factor      7845(gal)/8223790
Max. Acc. (gal)   1.830
Last Correction   2016/04/16 01:29:03
Memo.             
   -5537    -5530    -5524    -5517    -5512    -5509    -5506    -5498 
   -5494    -5493    -5490    -5489    -5487    -5487    -5489    -5493 
   -5494    -5495    -5501    -5506    -5510    -5514    -5519    -5524 
   -5528    -5532    -5533    -5536    -5539    -5536    -5536    -5536 
   -5530    -5529    -5528    -5524    -5519    -5514    -5508    -5503 
   -5499    -5490    -5483    -5478    -5472    -5466    -5462    -5458 
   -5452    -5448    -5445    -5441    -5440    -5439    -5436    -5435 
   -5433    -5428    -5425    -5425    -5422    -5417    -5416    -5414 
   -5410    -5404    -5398    -5395    -5389    -5379    -5375    -5367 
   -5355    -5347    -5341    -5335    -5325    -5316    -5308    -5302 
   -5298    -5293    -5286    -5279    -5273    -5271    -5267    -5265 
   -5263    -5259    -5255    -5254    -5252    -5248    -5246    -5243 
   -5242    -5238    -5235    -5232    -5228    -5224    -5220    -5217 
   -5213    -5206    -5201    -5197    -5194    -5190    -5188    -5185 
   -5182    -5181    -5181    -5181    -5179    -5181    -5184    -5182 
   -5179    -5182    -5184    -5184    -5186    -5189    -5186    -5186 
   -5190    -5188    -5186    -5185    -5182    -5178    -5173    -5169 
   -5163    -5157    -5152    -5150    -5140    -5131    -5127    -5121 
   -5116    -5112    -5107    -5100    -5093    -5090    -5092    -5088 
   -5082    -5084    -5084    -5082    -5086    -5092    -5093    -5097 
   -5103    -5108    -5116    -5123    -5130    -5138    -5148    -5159 
   -5169    -5177    -5188    -5197    -5208    -5217    -5225    -5235 
   -5244    -5251    -5256    -5266    -5275    -5279    -5286    -5289 
   -5290    -5296    -5300    -5300    -5302    -5306    -5312    -5310 
   -5310    -5312    -5312    -5313    -5314    -5313    -5312    -5314 
   -5316    -5314    -5312    -5312    -5313    -5310    -5309    -5310 
   -5309    -5306    -5305    -5302    -5301    -5300    -5296    -5290 
   -5290    -5290    -5281    -5275    -5273    -5262    -5254    -5251 
   -5246    -5235    -5231    -5223    -5216    -5213    -5208    -5202 
   -5201    -5198    -5196    -5194    -5196    -5198    -5201    -5206 
   -5215    -5220    -5229    -5239    -5251    -5266    -5281    -5294 
   -5308    -5324    -5343    -5359    -5375    -5393    -5410    -5425 
   -5439    -5452    -5463    -5475    -5490    -5498    -5506    -5517 
   -5521    -5522    -5529    -5533    -5533    -5536    -5536    -5533 
   -5532    -5529    -5526    -5525    -5522    -5518    -5514    -5510 
   -5509    -5503    -5498    -5494    -5491    -5486    -5481    -5478 
   -5471    -5466    -5463    -5459    -5455    -5451    -5445    -5439 
   -5435    -5428    -5421    -5416    -5412    -5406    -5401    -5397 
   -5391    -5385    -5379    -5374    -5370    -5367    -5363    -5359 
   -5355    -5348    -5344    -5339    -5335    -5332    -5327    -5323 
   -5319    -5310    -5305    -5302    -5297    -5289    -5287    -5285 
   -5277    -5273    -5270    -5263    -5258    -5255    -5251    -5250 
   -5246    -5239    -5235    -5233    -5232    -5229    -5228    -5228 
   -5225    -5225    -5228    -5228    -5229    -5231    -5235    -5240 
   -5243    -5247    -5251    -5255    -5263    -5268    -5273    -5281 
   -5287    -5293    -5298    -5302    -5305    -5310    -5317    -5321 
   -5321    -5324    -5327    -5325    -5323    -5325    -5325    -5324 
   -5324    -5323    -5323    -5323    -5323    -5327    -5327    -5327 
   -5332    -5336    -5339    -5350    -5356    -5359    -5368    -5382 
   -5393    -5402    -5414    -5425    -5437    -5451    -5463    -5476 
   -5490    -5502    -5514    -5525    -5539    -5555    -5570    -5580 
   -5594    -5607    -5620    -5632    -5648    -5661    -5675    -5691 
   -5705    -5721    -5734    -5746    -5760    -5775    -5788    -5803 
   -5817    -5827    -5841    -5853    -5864    -5873    -5881    -5892 
   -5899    -5906    -5913    -5918    -5921    -5923    -5925    -5925 
   -5925    -5926    -5923    -5921    -5918    -5911    -5907    -5906 
   -5899    -5894    -5890    -5884    -5879    -5873    -5868    -5864 
   -5864    -5859    -5854    -5853    -5852    -5849    -5848    -5848 
   -5845    -5844    -5844    -5844    -5845    -5844    -5841    -5841 
   -5841    -5840    -5837    -5836    -5831    -5829    -5829    -5827 
   -5825    -5825    -5826    -5821    -5817    -5815    -5813    -5809 
   -5809    -5807    -5805    -5800    -5793    -5786    -5782    -5776 
   -5769    -5760    -5752    -5742    -5733    -5722    -5709    -5694 
   -5683    -5671    -5656    -5641    -5628    -5616    -5603    -5589 
   -5572    -5560    -5548    -5535    -5519    -5508    -5497    -5486 
   -5474    -5462    -5448    -5439    -5427    -5412    -5401    -5390 
   -5377    -5367    -5355    -5346    -5333    -5319    -5308    -5298 
   -5287    -5273    -5263    -5251    -5239    -5229    -5217    -5205 
   -5197    -5185    -5173    -5162    -5151    -5142    -5131    -5120 
   -5112    -5105    -5093    -5084    -5078    -5073    -5063    -5057 
   -5054    -5049    -5044    -5042    -5038    -5032    -5032    -5032 
   -5027    -5026    -5031    -5031    -5026    -5024    -5027    -5027 
   -5027    -5027    -5027    -5030    -5030    -5030    -5032    -5036 
   -5038    -5038    -5038    -5039    -5042    -5044    -5047    -5049 
   -5049    -5050    -5054    -5057    -5059    -5062    -5063    -5065 
   -5067    -5073    -5076    -5077    -5081    -5086    -5086    -5088 
   -5093    -5098    -5100    -5101    -5104    -5108    -5111    -5112 
   -5113    -5115    -5113    -5115    -5117    -5117    -5116    -5119 
   -5121    -5121    -5121    -5121    -5123    -5123    -5121    -5123 
   -5124    -5124    -5127    -5130    -5131    -5131    -5136    -5139 
   -5142    -5147    -5154    -5159    -5162    -5169    -5177    -5186 
   -5198    -5209    -5217    -5227    -5239    -5252    -5263    -5273 
   -5287    -5297    -5308    -5323    -5336    -5347    -5358    -5370 
   -5383    -5394    -5408    -5420    -5431    -5443    -5456    -5472 
   -5486    -5497    -5512    -5528    -5541    -5555    -5570    -5587 
   -5602    -5616    -5634    -5651    -5667    -5686    -5705    -5722 
   -5740    -5757    -5780    -5798    -5817    -5836    -5853    -5872 
   -5892    -5910    -5929    -5949    -5967    -5984    -6003    -6022 
   -6038    -6054    -6070    -6085    -6100    -6115    -6129    -6142 
   -6156    -6168    -6180    -6189    -6197    -6204    -6212    -6222 
   -6228    -6237    -6242    -6245    -6250    -6255    -6257    -6259 
   -6261    -6265    -6269    -6270    -6272    -6273    -6274    -6276 
   -6277    -6278    -6280    -6280    -6281    -6282    -6282    -6281 
   -6282    -6282    -6284    -6284    -6281    -6274    -6272    -6269 
   -6261    -6255    -6249    -6241    -6231    -6219    -6210    -6199 
   -6184    -6166    -6148    -6130    -6112    -6092    -6073    -6052 
   -6027    -6006    -5980    -5953    -5926    -5896    -5868    -5842 
   -5813    -5779    -5746    -5715    -5682    -5647    -5614    -5580 
   -5548    -5516    -5481    -5445    -5414    -5381    -5346    -5313 
   -5283    -5250    -5219    -5188    -5155    -5127    -5098    -5069 
   -5040    -5012    -4982    -4958    -4935    -4909    -4885    -4866 
   -4843    -4823    -4806    -4788    -4770    -4756    -4742    -4726 
   -4712    -4700    -4692    -4681    -4673    -4669    -4664    -4656 
   -4654    -4657    -4656    -4654    -4656    -4660    -4661    -4666 
   -4675    -4681    -4688    -4698    -4706    -4715    -4725    -4733 
   -4739    -4750    -4760    -4768    -4777    -4787    -4796    -4807 
   -4814    -4819    -4830    -4839    -4846    -4855    -4864    -4870 
   -4880    -4892    -4900    -4908    -4918    -4931    -4939    -4949 
   -4959    -4972    -4981    -4989    -5005    -5017    -5027    -5039 
   -5051    -5065    -5078    -5090    -5104    -5116    -5127    -5139 
   -5152    -5166    -5175    -5185    -5197    -5209    -5220    -5228 
   -5235    -5248    -5259    -5268    -5281    -5294    -5306    -5316 
   -5331    -5348    -5362    -5377    -5394    -5413    -5435    -5455 
   -5472    -5494    -5519    -5544    -5563    -5584    -5611    -5634 
   -5656    -5680    -5706    -5729    -5751    -5772    -5792    -5814 
   -5836    -5856    -5873    -5891    -5908    -5927    -5945    -5960 
   -5973    -5987    -6000    -6014    -6026    -6038    -6052    -6062 
   -6073    -6085    -6099    -6108    -6119    -6129    -6138    -6148 
   -6158    -6166    -6177    -6184    -6188    -6197    -6207    -6211 
   -6214    -6219    -6219    -6222    -6224    -6224    -6222    -6219 
   -6214    -6210    -6205    -6199    -6193    -6188    -6178    -6169 
   -6158    -6148    -6139    -6127    -6115    -6106    -6096    -6088 
   -6079    -6068    -6061    -6053    -6042    -6034    -6029    -6019 
   -6011    -6008    -6004    -5998    -5995    -5991    -5988    -5987 
   -5981    -5976    -5975    -5973    -5971    -5968    -5968    -5965 
   -5962    -5964    -5961    -5958    -5958    -5958    -5954    -5954 
   -5950    -5946    -5946    -5946    -5942    -5935    -5931    -5927 
   -5923    -5918    -5910    -5904    -5899    -5890    -5880    -5873 
   -5864    -5852    -5841    -5830    -5815    -5800    -5786    -5771 
   -5757    -5740    -5721    -5705    -5684    -5661    -5640    -5620 
   -5599    -5574    -5548    -5526    -5503    -5475    -5448    -5425 
   -5397    -5373    -5346    -5316    -5290    -5263    -5233    -5209 
   -5186    -5158    -5131    -5104    -5080    -5058    -5038    -5015 
   -4996    -4978    -4958    -4938    -4922    -4909    -4896    -4884 
   -4876    -4866    -4855    -4849    -4843    -4837    -4833    -4830 
   -4827    -4827    -4823    -4820    -4822    -4822    -4820    -4820 
   -4822    -4820    -4820    -4822    -4822    -4819    -4822    -4823 
   -4820    -4818    -4814    -4814    -4814    -4814    -4812    -4811 
   -4811    -4810    -4804    -4801    -4801    -4800    -4800    -4799 
   -4793    -4791    -4789    -4789    -4788    -4787    -4787    -4784 
   -4781    -4784    -4785    -4783    -4783    -4783    -4783    -4784 
   -4784    -4787    -4788    -4789    -4789    -4792    -4796    -4801 
   -4803    -4801    -4807    -4814    -4819    -4827    -4834    -4841 
   -4854    -4865    -4876    -4891    -4909    -4930    -4949    -4972 
   -4999    -5024    -5051    -5081    -5112    -5146    -5182    -5221 
   -5260    -5304    -5348    -5393    -5439    -5485    -5532    -5579 
   -5629    -5678    -5727    -5778    -5827    -5879    -5929    -5976 
   -6025    -6075    -6120    -6166    -6214    -6258    -6303    -6350 
   -6394    -6436    -6482    -6525    -6566    -6610    -6654    -6694 
   -6733    -6774    -6814    -6855    -6894    -6929    -6968    -7003 
   -7036    -7069    -7101    -7129    -7160    -7191    -7215    -7236 
   -7260    -7279    -7296    -7314    -7330    -7344    -7353    -7360 
   -7366    -7371    -7372    -7369    -7368    -7365    -7360    -7350 
   -7335    -7319    -7302    -7284    -7264    -7246    -7222    -7195 
   -7169    -7140    -7109    -7079    -7045    -7010    -6975    -6936 
   -6895    -6858    -6815    -6774    -6733    -6689    -6642    -6596 
   -6552    -6505    -6455    -6408    -6358    -6307    -6258    -6210 
   -6160    -6110    -6058    -6010    -5964    -5918    -5867    -5817 
   -5772    -5727    -5683    -5640    -5595    -5555    -5517    -5476 
   -5440    -5402    -5366    -5333    -5301    -5268    -5238    -5208 
   -5181    -5154    -5127    -5103    -5080    -5054    -5032    -5011 
   -4989    -4970    -4950    -4928    -4908    -4891    -4874    -4858 
   -4838    -4820    -4803    -4785    -4769    -4750    -4735    -4722 
   -4704    -4688    -4675    -4661    -4644    -4631    -4619    -4608 
   -4599    -4590    -4583    -4577    -4573    -4572    -4572    -4576 
   -4580    -4584    -4594    -4606    -4619    -4634    -4652    -4669 
   -4689    -4710    -4734    -4758    -4788    -4814    -4839    -4869 
   -4899    -4927    -4956    -4985    -5016    -5046    -5076    -5104 
   -5134    -5161    -5185    -5211    -5239    -5262    -5285    -5306 
   -5327    -5347    -5366    -5379    -5391    -5406    -5421    -5431 
   -5439    -5448    -5455    -5459    -5463    -5466    -5466    -5466 
   -5463    -5458    -5455    -5452    -5445    -5439    -5432    -5424 
   -5413    -5404    -5391    -5381    -5371    -5360    -5348    -5339 
   -5332    -5325    -5317    -5308    -5300    -5294    -5289    -5286 
   -5286    -5286    -5285    -5286    -5289    -5290    -5292    -5297 
   -5305    -5310    -5317    -5325    -5331    -5339    -5350    -5360 
   -5368    -5377    -5389    -5395    -5404    -5417    -5428    -5437 
   -5448    -5462    -5472    -5485    -5498    -5513    -5528    -5540 
   -5556    -5574    -5589    -5606    -5626    -5644    -5660    -5679 
   -5699    -5717    -5737    -5757    -5776    -5792    -5815    -5837 
   -5856    -5877    -5898    -5914    -5933    -5954    -5973    -5992 
   -6012    -6034    -6054    -6076    -6096    -6115    -6134    -6153 
   -6172    -6192    -6211    -6230    -6247    -6264    -6280    -6296 
   -6312    -6323    -6336    -6346    -6356    -6367    -6377    -6385 
   -6392    -6396    -6401    -6405    -6404    -6405    -6408    -6409 
   -6408    -6408    -6404    -6400    -6396    -6394    -6394    -6389 
   -6386    -6384    -6385    -6381    -6377    -6377    -6377    -6376 
   -6373    -6370    -6369    -6365    -6359    -6356    -6351    -6345 
   -6338    -6328    -6320    -6309    -6295    -6281    -6272    -6255 
   -6237    -6219    -6200    -6178    -6158    -6137    -6115    -6092 
   -6065    -6037    -6011    -5984    -5956    -5929    -5900    -5871 
   -5842    -5814    -5784    -5756    -5730    -5703    -5672    -5647 
   -5622    -5593    -5563    -5541    -5518    -5493    -5472    -5451 
   -5428    -5408    -5389    -5370    -5350    -5332    -5314    -5294 
   -5273    -5255    -5235    -5220    -5202    -5181    -5159    -5139 
   -5119    -5097    -5074    -5053    -5030    -5007    -4985    -4961 
   -4935    -4911    -4888    -4862    -4835    -4811    -4789    -4769 
   -4747    -4722    -4698    -4679    -4658    -4634    -4614    -4594 
   -4572    -4553    -4538    -4519    -4500    -4484    -4468    -4452 
   -4434    -4417    -4405    -4392    -4376    -4360    -4349    -4338 
   -4327    -4317    -4309    -4301    -4293    -4288    -4283    -4278 
   -4274    -4271    -4271    -4271    -4271    -4276    -4282    -4288 
   -4295    -4305    -4315    -4329    -4342    -4357    -4378    -4396 
   -4417    -4442    -4464    -4488    -4518    -4550    -4581    -4612 
   -4646    -4680    -4715    -4750    -4788    -4826    -4864    -4903 
   -4941    -4980    -5022    -5065    -5107    -5147    -5189    -5229 
   -5268    -5309    -5351    -5391    -5428    -5464    -5503    -5541 
   -5574    -5607    -5638    -5667    -5692    -5719    -5744    -5768 
   -5792    -5813    -5826    -5841    -5856    -5867    -5876    -5886 
   -5895    -5900    -5902    -5906    -5910    -5913    -5913    -5911 
   -5911    -5908    -5904    -5902    -5900    -5894    -5887    -5883 
   -5876    -5868    -5860    -5852    -5841    -5829    -5815    -5803 
   -5790    -5775    -5756    -5738    -5722    -5703    -5680    -5656 
   -5636    -5611    -5584    -5559    -5533    -5503    -5472    -5441 
   -5412    -5381    -5351    -5320    -5289    -5254    -5220    -5192 
   -5161    -5127    -5097    -5065    -5034    -5007    -4976    -4943 
   -4916    -4889    -4862    -4837    -4810    -4781    -4756    -4733 
   -4710    -4687    -4665    -4642    -4619    -4599    -4579    -4563 
   -4544    -4525    -4509    -4496    -4482    -4468    -4456    -4445 
   -4434    -4428    -4421    -4413    -4406    -4401    -4398    -4393 
   -4388    -4388    -4390    -4388    -4388    -4391    -4393    -4396 
   -4402    -4407    -4414    -4421    -4428    -4438    -4448    -4456 
   -4464    -4477    -4491    -4504    -4517    -4530    -4544    -4557 
   -4572    -4587    -4603    -4621    -4637    -4654    -4672    -4688 
   -4706    -4727    -4746    -4765    -4785    -4808    -4831    -4849 
   -4869    -4892    -4915    -4936    -4958    -4981    -5001    -5020 
   -5042    -5063    -5084    -5104    -5123    -5142    -5162    -5179 
   -5194    -5209    -5227    -5243    -5258    -5271    -5285    -5296 
   -5306    -5317    -5328    -5336    -5341    -5348    -5355    -5356 
   -5360    -5366    -5366    -5366    -5364    -5363    -5359    -5355 
   -5351    -5344    -5339    -5335    -5324    -5309    -5298    -5289 
   -5277    -5263    -5248    -5232    -5217    -5201    -5181    -5164 
   -5148    -5127    -5107    -5086    -5065    -5047    -5026    -5001 
   -4980    -4958    -4936    -4915    -4892    -4870    -4847    -4824 
   -4801    -4781    -4760    -4737    -4714    -4692    -4671    -4650 
   -4631    -4610    -4590    -4571    -4550    -4531    -4515    -4499 
   -4484    -4467    -4452    -4440    -4429    -4419    -4409    -4399 
   -4392    -4387    -4382    -4378    -4375    -4375    -4376    -4380 
   -4386    -4388    -4395    -4405    -4411    -4423    -4438    -4452 
   -4464    -4483    -4500    -4521    -4544    -4568    -4592    -4615 
   -4638    -4665    -4692    -4719    -4746    -4773    -4803    -4830 
   -4860    -4889    -4916    -4946    -4977    -5005    -5034    -5067 
   -5097    -5121    -5151    -5184    -5208    -5232    -5260    -5287 
   -5309    -5332    -5356    -5375    -5393    -5412    -5429    -5445 
   -5460    -5475    -5486    -5495    -5503    -5508    -5514    -5518 
   -5521    -5521    -5518    -5517    -5514    -5508    -5499    -5493 
   -5486    -5474    -5463    -5451    -5436    -5425    -5413    -5398 
   -5382    -5366    -5348    -5331    -5314    -5297    -5278    -5259 
   -5242    -5223    -5202    -5184    -5166    -5144    -5121    -5100 
   -5081    -5060    -5039    -5017    -4996    -4973    -4953    -4934 
   -4915    -4896    -4877    -4857    -4839    -4820    -4800    -4781 
   -4766    -4752    -4738    -4722    -4704    -4691    -4680    -4665 
   -4653    -4645    -4634    -4623    -4615    -4606    -4600    -4596 
   -4590    -4583    -4581    -4580    -4576    -4575    -4577    -4580 
   -4583    -4587    -4594    -4599    -4606    -4618    -4629    -4638 
   -4653    -4669    -4685    -4704    -4725    -4743    -4765    -4787 
   -4808    -4834    -4860    -4888    -4916    -4945    -4973    -5003 
   -5031    -5060    -5093    -5128    -5162    -5193    -5228    -5265 
   -5298    -5331    -5367    -5404    -5439    -5475    -5510    -5547 
   -5583    -5617    -5652    -5689    -5724    -5756    -5788    -5819 
   -5849    -5880    -5908    -5935    -5962    -5987    -6011    -6034 
   -6056    -6075    -6092    -6110    -6124    -6134    -6146    -6157 
   -6166    -6176    -6184    -6188    -6189    -6193    -6199    -6199 
   -6200    -6200    -6199    -6197    -6197    -6197    -6196    -6192 
   -6191    -6188    -6183    -6178    -6178    -6176    -6169    -6168 
   -6165    -6157    -6157    -6157    -6148    -6143    -6141    -6133 
   -6129    -6124    -6118    -6112    -6108    -6102    -6093    -6087 
