Origin Time       2016/04/16 01:25:00
Lat.              32.753
Long.             130.762
Depth. (km)       12
Mag.              7.3
Station Code      YMN005
Station Lat.      35.6548
Station Long.     138.5677
Station Height(m) 263
Record Time       2016/04/16 01:29:09
Sampling Freq(Hz) 100Hz
Duration Time(s)  60
Dir.              N-S
Scale Factor      7845(gal)/8223790
Max. Acc. (gal)   2.062
Last Correction   2016/04/16 01:29:10
Memo.             
[...]
   23935    23932    23928    23926    23924    23923    23927    23930 
   23926    23927    23928    23930    23936    23944    23949    23953 
   23958    23963    23973    23980    23984    23996    24004    24012 
   24023    24035    24048    24058    24067    24081    24093    24105 
   24112    24124    24140    24150    24162    24182    24194    24202 
   24214    24229    24241    24250    24256    24268    24282    24295 
   24306    24318    24327    24328    24333    24343    24354    24370 
   24377    24382    24393    24399    24405    24416    24422    24424 
   24429    24436    24441    24447    24451    24456    24463    24467 
   24471    24483    24491    24491    24494    24499    24507    24520 
   24528    24533    24540    24549    24559    24565    24575    24591 
   24602    24611    24625    24637    24651    24663    24673    24686 
   24703    24721    24738    24749    24763    24780    24796    24808 
   24825    24845    24865    24879    24894    24911    24927    24943 
   24965    24979    24985    25006    25034    25049    25053    25061 
   25076    25091    25110    25128    25134    25135    25143    25158 
   25172    25180    25180    25180    25185    25197    25203    25201 
   25203    25197    25189    25193    25196    25192    25188    25181 
   25172    25161    25143    25134    25137    25128    25108    25088 
   25069    25054    25047    25033    25008    24984    24968    24956 
   24935    24911    24885    24857    24826    24807    24796    24772 
   24741    24715    24691    24671    24645    24617    24595    24572 
   24545    24522    24502    24479    24459    24441    24420    24394 
   24364    24343    24328    24320    24302    24273    24254    24248 
   24229    24205    24194    24186    24173    24155    24136    24128 
   24121    24112    24100    24079    24066    24063    24057    24055 
   24048    24031    24019    24013    24013    24019    24017    24007 
   24001    23994    23982    23978    23989    23997    23988    23977 
   23984    23996    23998    23994    23993    23998    23998    23997 
   24004    24023    24035    24036    24032    24039    24059    24074 
   24082    24089    24097    24113    24135    24151    24163    24178 
   24197    24223    24245    24259    24274    24297    24321    24347 
   24371    24389    24410    24443    24466    24484    24509    24536 
   24561    24590    24614    24634    24665    24696    24715    24738 
   24773    24807    24826    24836    24858    24894    24926    24949 
   24964    24984    25015    25039    25051    25064    25088    25123 
   25147    25153    25157    25173    25192    25208    25223    25231 
   25235    25240    25255    25270    25272    25269    25272    25280 
   25284    25284    25285    25286    25282    25274    25265    25259 
   25263    25258    25245    25243    25246    25239    25226    25209 
   25196    25191    25189    25182    25170    25159    25153    25150 
   25139    25123    25114    25110    25101    25092    25081    25069 
   25060    25050    25041    25033    25018    25002    24995    24988 
   24981    24965    24945    24935    24927    24914    24906    24898 
   24881    24861    24844    24833    24825    24807    24791    24784 
   24770    24750    24734    24719    24700    24688    24682    24665 
   24641    24624    24609    24591    24571    24551    24536    24524 
   24501    24474    24453    24437    24422    24403    24377    24356 
   24337    24317    24300    24283    24263    24241    24219    24198 
   24178    24154    24133    24112    24089    24074    24062    24047 
   24030    24003    23978    23963    23943    23918    23905    23901 
   23889    23866    23845    23828    23814    23797    23777    23760 
   23750    23734    23714    23704    23700    23688    23662    23642 
   23633    23626    23610    23596    23588    23575    23558    23545 
   23542    23542    23529    23512    23506    23499    23490    23488 
   23488    23483    23475    23469    23468    23471    23472    23473 
   23476    23479    23479    23481    23492    23504    23502    23507 
   23522    23530    23534    23545    23562    23583    23599    23607 
   23618    23639    23664    23684    23707    23733    23753    23770 
   23793    23819    23847    23877    23903    23930    23963    23993 
   24017    24043    24073    24108    24140    24173    24204    24231 
   24263    24293    24316    24343    24371    24405    24439    24466 
   24495    24524    24544    24565    24592    24618    24649    24675 
   24691    24711    24740    24765    24786    24804    24825    24848 
   24873    24895    24912    24930    24952    24972    24988    25010 
   25029    25046    25066    25084    25100    25115    25131    25147 
   25162    25182    25200    25212    25228    25242    25254    25266 
   25277    25288    25299    25308    25313    25324    25335    25343 
   25348    25355    25367    25377    25381    25378    25382    25394 
   25401    25402    25407    25415    25420    25420    25420    25425 
   25436    25443    25443    25444    25447    25451    25454    25456 
   25463    25470    25473    25473    25475    25481    25489    25493 
   25490    25489    25492    25497    25497    25493    25497    25508 
   25509    25501    25498    25500    25498    25493    25483    25475 
   25482    25492    25470    25432    25438    25459    25421    25388 
   25404    25382    25338    25353    25348    25278    25247    25276 
   25259    25195    25163    25161    25127    25087    25080    25047 
   24984    24973    24977    24921    24864    24853    24833    24788 
   24760    24740    24695    24657    24651    24625    24565    24537 
   24537    24499    24453    24447    24428    24385    24362    24349 
   24318    24291    24285    24267    24233    24214    24206    24177 
   24152    24159    24155    24120    24098    24098    24086    24065 
   24054    24044    24027    24023    24024    24009    23990    23992 
   23993    23976    23959    23958    23955    23944    23944    23942 
   23926    23923    23928    23912    23897    23903    23899    23885 
   23878    23878    23870    23859    23862    23868    23850    23839 
   23846    23839    23829    23836    23828    23807    23809    23820 
   23812    23797    23796    23803    23796    23786    23786    23778 
   23766    23774    23777    23762    23760    23763    23755    23749 
   23753    23750    23741    23737    23739    23739    23733    23730 
   23733    23734    23728    23726    23723    23720    23726    23727 
   23718    23719    23734    23742    23741    23743    23749    23755 
   23763    23770    23777    23784    23797    23811    23818    23828 
   23852    23869    23873    23892    23917    23934    23949    23965 
   23986    24013    24036    24059    24084    24101    24127    24158 
   24186    24217    24244    24262    24283    24313    24345    24375 
   24403    24428    24455    24486    24511    24538    24574    24605 
   24633    24664    24684    24710    24738    24760    24788    24818 
   24838    24862    24889    24906    24930    24958    24977    24988 
   25002    25026    25049    25060    25069    25081    25097    25110 
   25114    25115    25123    25135    25142    25143    25146    25151 
   25153    25150    25149    25155    25161    25154    25143    25142 
   25147    25145    25138    25135    25137    25139    25138    25134 
   25130    25128    25127    25127    25126    25128    25130    25130 
   25135    25139    25145    25150    25147    25145    25159    25173 
   25176    25176    25185    25201    25209    25209    25219    25231 
   25239    25249    25262    25274    25280    25285    25293    25303 
   25311    25324    25336    25346    25357    25365    25365    25363 
   25367    25380    25388    25390    25393    25401    25407    25402 
   25394    25393    25402    25404    25402    25398    25393    25396 
   25396    25386    25381    25386    25389    25378    25363    25358 
   25358    25351    25342    25338    25334    25330    25323    25311 
   25304    25299    25292    25289    25284    25274    25270    25263 
   25252    25245    25239    25236    25227    25216    25216    25215 
   25205    25193    25189    25189    25182    25170    25163    25162 
   25155    25146    25143    25135    25126    25116    25107    25099 
   25091    25085    25081    25070    25058    25047    25037    25024 
   25014    25008    25004    24993    24976    24962    24948    24937 
   24925    24906    24892    24885    24876    24862    24845    24831 
   24818    24800    24786    24776    24761    24744    24730    24717 
   24703    24691    24679    24667    24656    24646    24634    24624 
   24614    24606    24595    24584    24575    24565    24560    24560 
   24556    24552    24547    24544    24538    24533    24538    24548 
   24549    24548    24545    24545    24555    24564    24571    24579 
   24586    24591    24599    24605    24617    24632    24641    24651 
   24663    24675    24688    24698    24709    24719    24729    24744 
   24759    24769    24781    24790    24802    24818    24826    24835 
   24850    24864    24872    24885    24900    24907    24912    24925 
   24938    24952    24965    24972    24979    24988    25002    25016 
   25031    25037    25045    25056    25064    25074    25083    25085 
   25095    25111    25123    25130    25132    25141    25150    25151 
   25154    25165    25173    25176    25176    25177    25184    25185 
   25178    25178    25184    25189    25193    25191    25185    25180 
   25172    25165    25162    25159    25161    25162    25150    25134 
   25126    25127    25127    25119    25110    25108    25103    25092 
   25089    25089    25080    25073    25073    25070    25068    25066 
   25062    25057    25057    25061    25064    25065    25072    25073 
   25070    25076    25085    25088    25091    25103    25114    25120 
   25128    25142    25154    25165    25177    25189    25200    25215 
   25232    25250    25265    25274    25288    25309    25331    25346 
   25359    25377    25398    25415    25429    25447    25470    25492 
   25504    25517    25540    25559    25571    25583    25600    25618 
   25632    25639    25648    25663    25677    25685    25691    25699 
   25708    25711    25713    25717    25718    25721    25726    25726 
   25722    25720    25720    25718    25709    25699    25701    25701 
   25688    25674    25667    25664    25655    25640    25628    25621 
   25616    25598    25579    25563    25543    25525    25515    25497 
   25475    25451    25427    25409    25390    25361    25334    25309 
   25284    25254    25224    25197    25169    25137    25101    25070 
   25039    25003    24966    24933    24898    24862    24829    24795 
   24759    24719    24684    24659    24629    24590    24555    24524 
   24495    24463    24429    24403    24381    24345    24313    24288 
   24273    24258    24235    24206    24187    24169    24144    24124 
   24112    24093    24073    24061    24050    24030    24015    24001 
   23986    23977    23963    23947    23943    23936    23916    23903 
   23895    23884    23874    23870    23865    23855    23845    23834 
   23829    23826    23822    23819    23815    23815    23816    23816 
   23816    23818    23819    23822    23827    23835    23843    23852 
   23866    23875    23881    23892    23907    23927    23943    23955 
   23971    23988    24004    24027    24046    24061    24074    24096 
   24123    24143    24156    24174    24192    24206    24221    24243 
   24266    24283    24297    24310    24325    24344    24363    24374 
   24385    24405    24420    24426    24439    24456    24468    24482 
   24493    24502    24511    24526    24541    24552    24563    24575 
   24588    24599    24607    24624    24645    24656    24667    24682 
   24694    24706    24718    24732    24749    24768    24788    24803 
   24811    24825    24846    24869    24887    24907    24930    24953 
   24972    24992    25016    25037    25058    25088    25120    25146 
   25170    25197    25223    25250    25277    25312    25351    25382 
   25409    25442    25478    25510    25536    25571    25610    25643 
   25671    25704    25739    25774    25805    25836    25872    25906 
   25933    25964    26003    26036    26060    26087    26118    26145 
   26173    26200    26227    26258    26279    26292    26314    26341 
   26362    26381    26397    26416    26434    26445    26451    26461 
   26474    26485    26492    26499    26505    26503    26497    26492 
   26491    26493    26489    26481    26469    26451    26430    26414 
   26397    26372    26345    26322    26295    26258    26225    26190 
   26149    26107    26069    26023    25968    25914    25866    25814 
   25754    25695    25639    25582    25521    25461    25393    25326 
   25263    25197    25127    25056    24985    24918    24852    24784 
   24717    24648    24580    24509    24441    24375    24308    24243 
   24179    24115    24050    23992    23930    23865    23800    23743 
   23685    23627    23573    23519    23469    23417    23359    23306 
   23257    23206    23160    23120    23080    23039    22997    22956 
   22911    22874    22844    22812    22782    22752    22720    22696 
   22669    22638    22613    22593    22577    22563    22549    22538 
   22531    22516    22507    22500    22492    22491    22491    22491 
   22495    22495    22497    22501    22508    22513    22522    22536 
   22546    22550    22558    22573    22589    22599    22607    22623 
   22638    22650    22663    22674    22692    22707    22713    22723 
   22738    22754    22770    22774    22781    22797    22812    22824 
   22836    22845    22856    22871    22887    22900    22910    22927 
   22941    22954    22968    22982    22999    23022    23043    23056 
   23075    23101    23124    23143    23166    23195    23224    23247 
   23274    23303    23337    23369    23400    23430    23463    23494 
   23525    23556    23588    23634    23674    23707    23738    23770 
   23808    23846    23881    23917    23957    23993    24025    24061 
   24096    24127    24162    24198    24227    24255    24288    24320 
   24347    24370    24397    24430    24455    24476    24506    24533 
   24556    24582    24605    24626    24648    24669    24695    24718 
   24738    24759    24779    24802    24818    24835    24856    24873 
   24891    24908    24922    24937    24953    24970    24987    24999 
   25015    25033    25042    25051    25065    25076    25089    25103 
   25108    25114    25120    25127    25135    25138    25146    25157 
   25155    25155    25165    25168    25168    25169    25172    25173 
   25176    25177    25174    25170    25168    25169    25173    25169 
   25166    25170    25168    25159    25158    25163    25163    25158 
   25151    25143    25139    25135    25128    25126    25126    25120 
   25112    25100    25089    25087    25083    25074    25069    25060 
   25045    25034    25022    25008    24999    24991    24975    24957 
   24945    24929    24908    24892    24884    24873    24853    24834 
   24817    24792    24770    24757    24742    24722    24698    24673 
   24649    24626    24610    24590    24563    24537    24516    24490 
   24463    24441    24420    24397    24371    24347    24320    24295 
   24275    24252    24223    24193    24166    24139    24115    24089 
   24062    24035    24004    23971    23940    23918    23895    23863 
   23823    23786    23761    23733    23700    23674    23643    23607 
   23572    23538    23507    23479    23446    23413    23382    23352 
   23327    23299    23272    23249    23226    23202    23175    23148 
   23128    23107    23086    23070    23055    23043    23031    23016 
   23008    22995    22979    22977    22972    22966    22967    22966 
   22966    22968    22970    22972    22975    22979    22989    22998 
   23009    23026    23037    23053    23075    23086    23101    23125 
   23151    23172    23190    23211    23240    23268    23291    23318 
   23357    23393    23422    23452    23483    23519    23560    23593 
   23626    23665    23710    23755    23795    23826    23858    23890 
   23927    23967    24011    24058    24098    24129    24154    24182 
   24221    24259    24287    24314    24345    24381    24410    24435 
   24462    24493    24516    24528    24545    24568    24588    24609 
   24634    24656    24672    24680    24687    24696    24713    24734 
   24756    24770    24775    24780    24792    24806    24818    24830 
   24844    24853    24856    24862    24876    24883    24895    24915 
   24929    24930    24930    24935    24952    24972    24984    24983 
   24976    24985    25002    25006    25011    25031    25049    25046 
   25038    25046    25064    25072    25076    25088    25099    25101 
   25105    25111    25119    25124    25124    25131    25143    25150 
   25155    25158    25158    25162    25172    25174    25172    25169 
   25173    25181    25185    25185    25186    25185    25178    25169 
   25163    25166    25170    25165    25159    25155    25147    25138 
   25131    25126    25124    25120    25105    25089    25080    25073 
   25068    25066    25064    25060    25049    25031    25019    25011 
   25010    25004    24996    24988    24984    24976    24966    24961 
   24960    24958    24958    24954    24948    24937    24925    24915 
   24912    24918    24929    24935    24931    24922    24912    24908 
   24910    24907    24910    24916    24915    24906    24900    24902 
   24906    24908    24912    24919    24919    24912    24906    24906 
   24912    24921    24930    24934    24934    24938    24941    24942 
   24949    24958    24968    24975    24975    24983    25000    25007 
   25006    25008    25020    25034    25046    25054    25057    25062 
   25076    25085    25096    25111    25120    25120    25119    25120 
   25128    25132    25142    25158    25168    25172    25173    25173 
   25174    25172    25172    25182    25192    25192    25191    25191 
   25195    25196    25193    25195    25196    25201    25212    25209 
   25203    25204    25205    25211    25219    25219    25220    25231 
   25238    25235    25231    25235    25247    25258    25263    25272 
   25288    25293    25289    25297    25315    25327    25334    25344 
   25361    25374    25380    25388    25402    25416    25434    25451 
   25467    25477    25486    25502    25517    25528    25546    25564 
   25583    25600    25613    25629    25644    25656    25666    25678 
   25698    25716    25724    25733    25747    25756    25771    25786 
   25797    25810    25820    25828    25839    25847    25849    25851 
   25859    25874    25878    25871    25867    25863    25861    25859 
   25860    25861    25853    25840    25826    25816    25813    25813 
   25799    25774    25749    25731    25721    25710    25688    25664 
   25640    25614    25593    25573    25547    25523    25496    25465 
   25442    25425    25400    25361    25320    25285    25262    25242 
   25209    25178    25154    25131    25105    25070    25030    24992 
