Origin Time       2016/04/16 01:25:00
Lat.              32.753
Long.             130.762
Depth. (km)       12
Mag.              7.3
Station Code      YMN009
Station Lat.      35.4965
Station Long.     138.4627
Station Height(m) 233
Record Time       2016/04/16 01:29:02
Sampling Freq(Hz) 100Hz
Duration Time(s)  60
Dir.              E-W
Scale Factor      7845(gal)/8223790
Max. Acc. (gal)   1.733
Last Correction   2016/04/16 01:29:03
Memo.             
[...]
    2614     2617     2619     2621     2623     2623     2625     2625 
    2624     2624     2623     2620     2616     2614     2613     2608 
    2602     2598     2596     2594     2590     2582     2577     2575 
    2571     2565     2562     2556     2550     2546     2543     2540 
    2535     2531     2531     2525     2519     2513     2515     2512 
    2506     2504     2502     2500     2496     2494     2494     2490 
    2490     2492     2490     2490     2488     2488     2489     2489 
    2489     2488     2488     2489     2489     2489     2486     2484 
    2482     2482     2479     2475     2475     2473     2469     2467 
    2465     2461     2461     2459     2459     2459     2457     2457 
    2459     2461     2463     2467     2471     2477     2484     2490 
    2497     2504     2512     2520     2528     2536     2542     2546 
    2556     2563     2569     2574     2579     2583     2587     2589 
    2592     2593     2594     2594     2594     2596     2594     2590 
    2592     2592     2589     2590     2590     2592     2593     2594 
    2596     2597     2600     2606     2612     2617     2621     2625 
    2632     2636     2644     2651     2656     2662     2662     2664 
    2668     2671     2671     2669     2669     2668     2667     2663 
    2658     2652     2647     2639     2628     2621     2614     2606 
    2598     2589     2581     2573     2565     2556     2551     2550 
    2546     2544     2540     2536     2538     2538     2533     2538 
    2542     2544     2546     2551     2555     2560     2567     2573 
    2577     2582     2590     2596     2598     2604     2609     2612 
    2617     2621     2624     2627     2629     2635     2635     2633 
    2636     2636     2639     2641     2643     2643     2646     2648 
    2650     2650     2654     2660     2663     2666     2669     2674 
    2677     2682     2686     2687     2690     2694     2695     2698 
    2702     2702     2701     2702     2702     2701     2700     2700 
    2698     2695     2691     2687     2683     2682     2678     2669 
    2663     2659     2652     2644     2636     2629     2623     2616 
    2605     2600     2594     2584     2575     2569     2562     2554 
    2544     2536     2527     2519     2513     2504     2493     2485 
    2478     2471     2461     2457     2450     2436     2427     2423 
    2416     2405     2396     2389     2386     2380     2371     2366 
    2357     2351     2347     2344     2338     2334     2331     2327 
    2323     2322     2319     2313     2309     2311     2311     2307 
    2304     2304     2304     2304     2303     2301     2303     2304 
    2300     2297     2299     2299     2297     2296     2295     2293 
    2295     2295     2290     2289     2290     2292     2292     2292 
    2292     2293     2295     2293     2292     2290     2289     2292 
    2292     2290     2289     2288     2285     2284     2278     2276 
    2277     2276     2274     2272     2267     2266     2266     2263 
    2262     2261     2259     2261     2261     2259     2258     2261 
    2266     2267     2269     2273     2277     2281     2289     2295 
    2297     2304     2313     2322     2330     2336     2344     2354 
    2359     2366     2376     2385     2392     2400     2407     2409 
    2413     2420     2428     2435     2439     2446     2451     2452 
    2454     2459     2465     2469     2473     2475     2478     2481 
    2485     2489     2492     2494     2500     2504     2505     2512 
    2519     2521     2527     2533     2540     2546     2558     2565 
    2575     2586     2594     2605     2620     2632     2644     2655 
    2668     2683     2697     2710     2727     2740     2755     2767 
    2778     2791     2802     2811     2822     2833     2844     2853 
    2860     2867     2874     2879     2882     2882     2884     2887 
    2889     2887     2887     2887     2886     2882     2879     2878 
    2874     2871     2870     2868     2863     2860     2859     2856 
    2853     2852     2849     2849     2852     2849     2848     2851 
    2851     2849     2852     2855     2859     2856     2855     2859 
    2862     2862     2860     2860     2859     2853     2849     2843 
    2835     2828     2821     2813     2805     2791     2779     2768 
    2755     2740     2728     2714     2701     2686     2673     2660 
    2647     2633     2621     2610     2600     2589     2579     2569 
    2560     2555     2546     2538     2532     2528     2520     2516 
    2512     2505     2501     2498     2494     2490     2488     2484 
    2479     2477     2471     2467     2466     2461     2455     2450 
    2446     2442     2435     2431     2427     2423     2416     2411 
    2405     2401     2397     2390     2386     2380     2374     2371 
    2367     2362     2359     2357     2354     2350     2346     2344 
    2344     2343     2342     2342     2342     2344     2349     2347 
    2344     2347     2351     2353     2354     2355     2357     2359 
    2362     2365     2365     2365     2366     2369     2369     2367 
    2369     2369     2366     2366     2365     2361     2361     2361 
    2359     2357     2354     2350     2349     2347     2344     2343 
    2343     2343     2343     2338     2336     2342     2343     2342 
    2344     2347     2349     2354     2361     2365     2370     2380 
    2389     2397     2407     2417     2427     2438     2450     2461 
    2473     2488     2501     2513     2525     2536     2550     2562 
    2573     2584     2598     2609     2617     2625     2632     2639 
    2647     2651     2654     2658     2660     2659     2658     2659 
    2655     2652     2651     2648     2643     2636     2636     2633 
    2628     2623     2620     2616     2613     2608     2601     2598 
    2597     2592     2586     2582     2577     2571     2565     2559 
    2551     2543     2535     2525     2515     2504     2494     2484 
    2471     2459     2448     2440     2427     2412     2403     2393 
    2384     2373     2363     2358     2353     2344     2338     2336 
    2335     2330     2328     2328     2328     2330     2328     2330 
    2332     2334     2336     2340     2343     2346     2351     2358 
    2359     2363     2370     2373     2374     2378     2382     2386 
    2390     2396     2396     2397     2403     2411     2415     2417 
    2427     2432     2435     2442     2450     2457     2463     2471 
    2478     2484     2493     2500     2506     2516     2521     2528 
    2536     2540     2546     2554     2560     2565     2571     2577 
    2579     2582     2587     2589     2592     2597     2598     2600 
    2604     2606     2606     2608     2612     2614     2614     2617 
    2620     2624     2627     2628     2633     2641     2644     2647 
    2654     2660     2667     2673     2679     2687     2694     2701 
    2708     2718     2728     2736     2744     2754     2763     2770 
    2779     2787     2797     2806     2813     2818     2825     2830 
    2835     2843     2852     2855     2857     2867     2871     2871 
    2872     2878     2882     2882     2886     2889     2891     2895 
    2898     2901     2903     2906     2909     2911     2914     2921 
    2924     2925     2926     2926     2928     2926     2926     2925 
    2922     2917     2911     2906     2898     2889     2878     2863 
    2853     2840     2821     2803     2787     2768     2747     2727 
    2704     2679     2658     2636     2612     2584     2560     2538 
    2513     2486     2463     2440     2416     2392     2367     2346 
    2326     2304     2281     2262     2242     2222     2203     2187 
    2166     2150     2137     2120     2107     2092     2073     2057 
    2045     2034     2020     2004     1987     1973     1960     1945 
    1930     1918     1904     1892     1880     1865     1854     1846 
    1836     1826     1819     1811     1806     1803     1798     1792 
    1794     1795     1796     1800     1803     1807     1814     1822 
    1830     1841     1852     1864     1876     1892     1908     1923 
    1941     1956     1969     1982     2001     2016     2031     2046 
    2060     2073     2091     2106     2114     2124     2138     2146 
    2157     2168     2174     2181     2191     2199     2207     2212 
    2215     2223     2228     2235     2242     2246     2251     2259 
    2263     2267     2277     2284     2289     2297     2304     2308 
    2319     2328     2335     2344     2354     2363     2374     2385 
    2393     2401     2412     2424     2436     2447     2459     2473 
    2489     2501     2516     2531     2546     2565     2583     2601 
    2616     2635     2655     2675     2694     2714     2736     2754 
    2772     2794     2813     2832     2852     2871     2887     2905 
    2920     2932     2947     2961     2975     2984     2995     3006 
    3014     3022     3032     3041     3048     3055     3064     3071 
    3078     3087     3095     3102     3111     3121     3130     3142 
    3152     3161     3171     3180     3190     3196     3208     3221 
    3226     3235     3246     3252     3260     3269     3277     3283 
    3289     3296     3300     3304     3311     3316     3321     3325 
    3329     3335     3341     3343     3348     3353     3360     3366 
    3372     3376     3377     3384     3392     3396     3402     3407 
    3412     3415     3419     3423     3427     3429     3427     3429 
    3429     3424     3420     3416     3407     3399     3388     3373 
    3358     3345     3326     3304     3283     3260     3234     3204 
    3171     3144     3115     3080     3042     3006     2971     2933 
    2894     2855     2817     2782     2740     2702     2666     2629 
    2593     2556     2521     2492     2461     2427     2396     2369 
    2342     2315     2290     2266     2243     2220     2196     2174 
    2153     2128     2107     2091     2072     2052     2034     2016 
    1995     1980     1965     1946     1929     1915     1902     1890 
    1875     1863     1852     1841     1830     1821     1810     1799 
    1792     1786     1776     1768     1760     1755     1748     1740 
    1732     1725     1719     1715     1710     1703     1699     1696 
    1694     1692     1690     1687     1690     1692     1691     1694 
    1702     1707     1714     1725     1736     1744     1757     1775 
    1788     1804     1825     1841     1858     1881     1902     1925 
    1949     1975     2000     2025     2053     2083     2111     2139 
    2168     2196     2230     2262     2292     2322     2354     2386 
    2417     2448     2479     2511     2540     2571     2602     2631 
    2656     2683     2713     2740     2767     2791     2816     2840 
    2862     2882     2907     2929     2951     2972     2994     3017 
    3037     3055     3075     3092     3109     3127     3146     3164 
    3179     3194     3211     3226     3235     3248     3258     3269 
    3279     3288     3294     3300     3308     3310     3314     3321 
    3322     3322     3327     3329     3329     3330     3331     3333 
    3335     3338     3338     3339     3345     3348     3348     3352 
    3357     3358     3361     3366     3369     3376     3383     3385 
    3388     3395     3403     3407     3411     3414     3418     3423 
    3427     3429     3431     3433     3430     3429     3429     3422 
    3415     3410     3403     3395     3384     3369     3355     3343 
    3329     3310     3292     3272     3250     3230     3206     3180 
    3157     3130     3100     3071     3042     3013     2979     2947 
    2915     2882     2844     2808     2771     2733     2691     2650 
    2609     2570     2528     2484     2439     2394     2349     2301 
    2253     2204     2155     2107     2053     2004     1956     1907 
    1857     1807     1759     1713     1665     1617     1568     1524 
    1476     1433     1393     1350     1308     1269     1229     1193 
    1158     1121     1088     1058     1028      999      969      943 
     922      897      876      858      838      820      805      791 
     776      766      758      750      739      734      730      726 
     724      723      723      724      726      727      727      733 
     741      745      749      758      766      772      781      793 
     803      811      822      835      849      862      874      890 
     909      924      939      958      977      996     1016     1036 
    1059     1084     1109     1136     1163     1194     1223     1252 
    1287     1323     1358     1395     1436     1474     1512     1553 
    1598     1642     1683     1725     1769     1813     1854     1896 
    1938     1979     2018     2058     2100     2135     2170     2207 
    2242     2276     2308     2338     2369     2398     2428     2461 
    2490     2516     2544     2574     2604     2635     2663     2694 
    2724     2752     2782     2817     2853     2886     2920     2957 
    2997     3033     3073     3115     3156     3199     3244     3288 
    3335     3383     3431     3478     3526     3576     3626     3674 
    3721     3766     3813     3861     3904     3944     3986     4027 
    4062     4097     4126     4153     4182     4207     4230     4248 
    4266     4280     4293     4302     4310     4315     4315     4318 
    4321     4318     4311     4305     4297     4288     4278     4266 
    4252     4237     4220     4200     4180     4159     4137     4116 
    4091     4066     4036     4009     3982     3954     3919     3883 
    3851     3819     3782     3746     3705     3665     3627     3582 
    3535     3489     3445     3397     3345     3294     3244     3190 
    3133     3076     3021     2965     2906     2844     2783     2724 
    2663     2600     2536     2475     2416     2357     2295     2235 
    2177     2120     2064     2010     1956     1902     1850     1802 
    1755     1707     1664     1625     1583     1543     1509     1476 
    1441     1405     1378     1354     1327     1301     1281     1259 
    1242     1225     1210     1197     1185     1179     1173     1167 
    1163     1161     1159     1163     1167     1171     1178     1188 
    1196     1205     1219     1229     1243     1258     1273     1287 
    1304     1318     1336     1355     1372     1390     1409     1431 
    1451     1468     1491     1513     1533     1556     1580     1603 
    1626     1651     1675     1703     1732     1757     1784     1811 
    1837     1865     1895     1921     1946     1971     1996     2025 
    2052     2076     2098     2124     2149     2172     2192     2215 
    2238     2257     2278     2299     2316     2332     2347     2365 
    2380     2389     2404     2419     2428     2438     2447     2457 
    2465     2469     2475     2484     2489     2494     2497     2497 
    2500     2505     2506     2508     2509     2513     2516     2519 
    2520     2520     2520     2523     2523     2521     2520     2521 
    2521     2520     2520     2521     2519     2517     2517     2515 
    2515     2515     2513     2508     2508     2509     2508     2504 
    2504     2502     2498     2497     2497     2494     2492     2492 
    2489     2488     2486     2485     2482     2481     2479     2479 
    2478     2478     2478     2477     2475     2473     2470     2470 
    2470     2469     2465     2461     2459     2459     2457     2451 
    2446     2446     2442     2438     2434     2430     2428     2425 
    2419     2412     2411     2408     2407     2407     2404     2404 
    2405     2408     2411     2412     2415     2420     2427     2434 
    2442     2448     2457     2470     2479     2486     2498     2515 
    2528     2542     2558     2573     2587     2602     2619     2632 
    2647     2663     2678     2691     2708     2721     2733     2748 
    2763     2772     2783     2795     2806     2814     2820     2828 
    2836     2840     2843     2844     2849     2852     2852     2852 
    2851     2848     2847     2839     2830     2825     2820     2814 
    2806     2795     2785     2772     2759     2747     2733     2720 
    2705     2686     2669     2655     2636     2614     2594     2575 
    2554     2531     2508     2484     2458     2434     2411     2385 
    2357     2328     2303     2277     2249     2222     2196     2169 
    2141     2118     2095     2069     2047     2026     2003     1984 
    1966     1948     1930     1919     1906     1895     1885     1875 
    1865     1861     1857     1850     1845     1840     1840     1841 
    1842     1844     1844     1846     1852     1857     1861     1868 
    1877     1890     1900     1910     1922     1937     1952     1969 
    1987     2004     2026     2045     2065     2088     2111     2137 
    2161     2187     2218     2246     2274     2307     2338     2369 
    2404     2440     2474     2509     2546     2582     2619     2659 
    2698     2736     2774     2811     2849     2887     2925     2964 
    3005     3042     3076     3111     3146     3180     3215     3250 
    3283     3315     3349     3381     3410     3440     3469     3496 
    3523     3547     3572     3597     3619     3639     3659     3678 
    3694     3711     3724     3735     3744     3754     3765     3773 
    3775     3776     3780     3778     3775     3770     3763     3757 
    3754     3744     3730     3716     3704     3688     3672     3655 
    3639     3622     3604     3585     3566     3551     3535     3518 
    3501     3487     3472     3456     3442     3429     3414     3402 
    3392     3381     3369     3358     3345     3338     3331     3321 
    3307     3298     3288     3276     3264     3249     3235     3222 
    3207     3191     3173     3154     3134     3115     3092     3068 
    3044     3019     2995     2967     2941     2914     2887     2860 
    2833     2806     2778     2751     2724     2695     2664     2636 
    2616     2590     2565     2542     2519     2494     2473     2452 
    2432     2415     2394     2376     2359     2343     2327     2312 
    2297     2281     2269     2259     2246     2228     2215     2205 
    2193     2178     2168     2154     2143     2130     2119     2107 
    2097     2083     2072     2061     2047     2034     2023     2011 
    2000     1989     1977     1961     1949     1939     1926     1912 
    1900     1885     1872     1861     1844     1829     1817     1800 
    1786     1773     1759     1744     1729     1719     1706     1692 
    1680     1668     1655     1647     1637     1624     1614     1606 
    1594     1586     1582     1576     1568     1563     1557     1551 
    1545     1540     1535     1534     1528     1528     1528     1526 
    1526     1528     1528     1528     1534     1539     1543     1551 
    1556     1564     1576     1588     1599     1613     1630     1647 
    1664     1684     1706     1729     1755     1779     1807     1833 
    1861     1894     1926     1956     1987     2020     2057     2092 
    2128     2166     2201     2236     2276     2313     2349     2385 
    2423     2461     2498     2535     2571     2606     2643     2679 
